{"@context":"https://raw.githubusercontent.com/LinkedPasts/linked-places-format/main/linkedplaces-context-v1.1.jsonld","type":"FeatureCollection","license":"Digitisation of English Placenames MADS data is licensed to Jisc by the English Place Names Society and released under a Creative Commons Attribution-NonCommercial 4.0 International License.","note":"LPF v1.3, lossy; derived from the PLATO record; plato_commit=ca0afadabec1e23a145c0b03df77e8f151f79832","features":[{"@id":"http://placenames.org.uk/id/placename/83/005549","type":"Feature","properties":{"title":"Whitton","ccodes":["GB"],"fclasses":["A","P"]},"names":[{"toponym":"Whitton","lang":"en","citations":[{"label":"English Place-Name Society survey, volume 83: Durham"}]},{"toponym":"Wytton","citations":[{"label":"c.1100 Allan","year":1090}],"when":{"timespans":[{"start":{"earliest":"1090","latest":"1110"},"end":{"earliest":"1090","latest":"1110"}}]}},{"toponym":"Wittune, Witun","citations":[{"label":"1208×10 Fees","year":1208}],"when":{"timespans":[{"start":{"earliest":"1208","latest":"1210"},"end":{"earliest":"1208","latest":"1210"}}]}},{"toponym":"villa de Witentone","citations":[{"label":"1235 Ass","year":1235}],"when":{"timespans":[{"start":{"in":"1235"},"end":{"in":"1235"}}]}},{"toponym":"Wyttone","citations":[{"label":"1245×69 Finc","year":1245}],"when":{"timespans":[{"start":{"earliest":"1245","latest":"1269"},"end":{"earliest":"1245","latest":"1269"}}]}},{"toponym":"Witton","citations":[{"label":"1533 IPM","year":1533}],"when":{"timespans":[{"start":{"in":"1533"},"end":{"in":"1533"}}]}},{"toponym":"Qwitton'","citations":[{"label":"1304 Spec","year":1304}],"when":{"timespans":[{"start":{"in":"1304"},"end":{"in":"1304"}}]}},{"toponym":"Quytton","citations":[{"label":"1382 Hatf","year":1382}],"when":{"timespans":[{"start":{"in":"1382"},"end":{"in":"1382"}}]}},{"toponym":"Whitton'","citations":[{"label":"1356 Spec","year":1356},{"label":"1382 Hatf","year":1382},{"label":"1414 Spec","year":1414}],"when":{"timespans":[{"start":{"in":"1356"},"end":{"in":"1356"}},{"start":{"in":"1382"},"end":{"in":"1382"}},{"start":{"in":"1414"},"end":{"in":"1414"}}]}},{"toponym":"Whittone","citations":[{"label":"1361 GT","year":1361}],"when":{"timespans":[{"start":{"in":"1361"},"end":{"in":"1361"}}]}},{"toponym":"Whitton","citations":[{"label":"1418–1622, recurring IPM","year":1418},{"label":"1418–1622, recurring IPM"},{"label":"1418 IPM","year":1418},{"label":"1622 IPM","year":1622},{"label":"1611 Lond","year":1611}],"when":{"timespans":[{"start":{"in":"1418"},"end":{"in":"1622"}},{"start":{"in":"1418"},"end":{"in":"1418"}},{"start":{"in":"1622"},"end":{"in":"1622"}},{"start":{"in":"1611"},"end":{"in":"1611"}},{"start":{"in":"1689"},"end":{"in":"1689"}},{"start":{"earliest":"1750","latest":"1751"},"end":{"earliest":"1750","latest":"1751"}}]}}],"types":[{"identifier":"http://vocab.getty.edu/aat/300232418","label":"administrative division","sourceLabels":[{"label":"township","lang":"en"}]}],"geometry":{"type":"GeometryCollection","geometries":[{"type":"Point","coordinates":[-1.411855295,54.59163773],"citations":[{"label":"English Place-Name Society survey (DEEP coordinates)"}]},{"type":"Point","coordinates":[-1.404051221294461,54.5960950765691],"citations":[{"label":"Unlock (EDINA) gazetteer, gazetteer record unlock:11322241"}]},{"type":"Point","coordinates":[-1.40562,54.5962],"citations":[{"label":"Key to English Place-Names (KEPN), gazetteer record 7719"}]}]},"when":{"timespans":[{"start":{"in":"1090"},"end":{"in":"1751"}}]},"relations":[{"relationType":"gvp:broaderPartitive","relationTo":"http://placenames.org.uk/id/placename/83/005171","label":"within Grindon"}]}]}