{"@context":"https://raw.githubusercontent.com/LinkedPasts/linked-places-format/main/linkedplaces-context-v1.1.jsonld","type":"FeatureCollection","license":"Digitisation of English Placenames MADS data is licensed to Jisc by the English Place Names Society and released under a Creative Commons Attribution-NonCommercial 4.0 International License.","note":"LPF v1.3, lossy; derived from the PLATO record; plato_commit=fa0d247ccc0263f8f19c8d7cdcd163df96935d1e","features":[{"@id":"https://w3id.org/whg-epns/83/007368","type":"Feature","properties":{"title":"Neasham","ccodes":["GB"],"fclasses":["A","P"]},"names":[{"toponym":"Neasham","lang":"en","citations":[{"label":"English Place-Name Society survey, volume 83: Durham"}]},{"toponym":"Nesshai'","citations":[{"label":"1154×89 ZRI","year":1154}],"when":{"timespans":[{"start":{"earliest":"1154","latest":"1189"},"end":{"earliest":"1154","latest":"1189"}}]}},{"toponym":"Nessham","citations":[{"label":"1155×89 AA (1893)","year":1155}],"when":{"timespans":[{"start":{"earliest":"1155","latest":"1189"},"end":{"earliest":"1155","latest":"1189"}}]}},{"toponym":"Nesham","citations":[{"label":"1154×89 ZRI","year":1154},{"label":"1157 AA (1893)","year":1157},{"label":"early 14th Cler","year":1300},{"label":"1324 Cler","year":1324}],"when":{"timespans":[{"start":{"earliest":"1154","latest":"1189"},"end":{"earliest":"1154","latest":"1189"}},{"start":{"in":"1157"},"end":{"in":"1157"}},{"start":{"earliest":"1300","latest":"1325"},"end":{"earliest":"1300","latest":"1325"}},{"start":{"in":"1324"},"end":{"in":"1324"}}]}},{"toponym":"Neseham","citations":[{"label":"1535 CC","year":1535},{"label":"1578 BW","year":1578}],"when":{"timespans":[{"start":{"in":"1535"},"end":{"in":"1535"}},{"start":{"in":"1578"},"end":{"in":"1578"}}]}},{"toponym":"Neisham","citations":[{"label":"1583 BW","year":1583}],"when":{"timespans":[{"start":{"in":"1583"},"end":{"in":"1583"}},{"start":{"in":"1602"},"end":{"in":"1602"}}]}},{"toponym":"Neasham","citations":[{"label":"1538 ZRI","year":1538},{"label":"1692 Eldon","year":1692},{"label":"1770 Bowes","year":1770},{"label":"c.1840 Bowes","year":1830}],"when":{"timespans":[{"start":{"in":"1538"},"end":{"in":"1538"}},{"start":{"in":"1540"},"end":{"in":"1540"}},{"start":{"in":"1666"},"end":{"in":"1666"}},{"start":{"in":"1692"},"end":{"in":"1692"}},{"start":{"in":"1770"},"end":{"in":"1770"}},{"start":{"earliest":"1830","latest":"1850"},"end":{"earliest":"1830","latest":"1850"}}]}},{"toponym":"the Township of Neasham","citations":[{"label":"1839 TA","year":1839}],"when":{"timespans":[{"start":{"in":"1839"},"end":{"in":"1839"}}]}},{"toponym":"Neesum","citations":[{"label":"1660×72 Surtees","year":1660}],"when":{"timespans":[{"start":{"earliest":"1660","latest":"1672"},"end":{"earliest":"1660","latest":"1672"}}]}},{"toponym":"Neesom","citations":[{"label":"1780 CG","year":1780}],"when":{"timespans":[{"start":{"in":"1780"},"end":{"in":"1780"}}]}},{"toponym":"Neesham","citations":[{"label":"1757 NCB","year":1757},{"label":"1780 CG","year":1780}],"when":{"timespans":[{"start":{"in":"1757"},"end":{"in":"1757"}},{"start":{"in":"1780"},"end":{"in":"1780"}}]}}],"types":[{"identifier":"http://vocab.getty.edu/aat/300232418","label":"administrative division","sourceLabels":[{"label":"township","lang":"en"}]}],"geometry":{"type":"GeometryCollection","geometries":[{"type":"Point","coordinates":[-1.492,54.49401],"citations":[{"label":"GeoNames, gazetteer record geonames:7294807"}]},{"type":"Point","coordinates":[-1.506020274,54.48420245],"citations":[{"label":"English Place-Name Society survey (DEEP coordinates)"}]},{"type":"Point","coordinates":[-1.498246994387717,54.48866597270905],"citations":[{"label":"Unlock (EDINA) gazetteer, gazetteer record unlock:11227258"}]},{"type":"Point","coordinates":[-1.48437,54.4887],"citations":[{"label":"Key to English Place-Names (KEPN), gazetteer record 7601"}]}]},"when":{"timespans":[{"start":{"in":"1154"},"end":{"in":"1850"}}]},"links":[{"type":"closeMatch","identifier":"https://sws.geonames.org/7294807/"}],"relations":[{"relationType":"gvp:broaderPartitive","relationTo":"https://w3id.org/whg-epns/83/006977","label":"within Hurworth"}]}]}