{"@context":"https://raw.githubusercontent.com/LinkedPasts/linked-places-format/main/linkedplaces-context-v1.1.jsonld","type":"FeatureCollection","license":"Digitisation of English Placenames MADS data is licensed to Jisc by the English Place Names Society and released under a Creative Commons Attribution-NonCommercial 4.0 International License.","note":"LPF v1.3, lossy; derived from the PLATO record; plato_commit=ca0afadabec1e23a145c0b03df77e8f151f79832","features":[{"@id":"https://w3id.org/whg-epns/83/008475","type":"Feature","properties":{"title":"Thrislington","ccodes":["GB"],"fclasses":["A","P"]},"names":[{"toponym":"Thrislington","lang":"en","citations":[{"label":"English Place-Name Society survey, volume 83: Durham"}]},{"toponym":"turstantun","citations":[{"label":"12th Finc","year":1100}],"when":{"timespans":[{"start":{"earliest":"1100","latest":"1200"},"end":{"earliest":"1100","latest":"1200"}}]}},{"toponym":"turstantu'","citations":[{"label":"early 13th Ct","year":1200}],"when":{"timespans":[{"start":{"earliest":"1200","latest":"1225"},"end":{"earliest":"1200","latest":"1225"}}]}},{"toponym":"turstanton'","citations":[{"label":"1220×30 Spec","year":1220}],"when":{"timespans":[{"start":{"earliest":"1220","latest":"1230"},"end":{"earliest":"1220","latest":"1230"}}]}},{"toponym":"turstant'","citations":[{"label":"1254 Ct","year":1254}],"when":{"timespans":[{"start":{"in":"1254"},"end":{"in":"1254"}}]}},{"toponym":"Turstantona","citations":[{"label":"c.1260 Ct","year":1250}],"when":{"timespans":[{"start":{"earliest":"1250","latest":"1270"},"end":{"earliest":"1250","latest":"1270"}}]}},{"toponym":"Turstanton","citations":[{"label":"1294 GD","year":1294}],"when":{"timespans":[{"start":{"in":"1294"},"end":{"in":"1294"}}]}},{"toponym":"tursteint'","citations":[{"label":"c.1174×89 FPD","year":1174}],"when":{"timespans":[{"start":{"earliest":"1174","latest":"1189"},"end":{"earliest":"1174","latest":"1189"}}]}},{"toponym":"Tursteintun","citations":[{"label":"1208×10 Fees","year":1208}],"when":{"timespans":[{"start":{"earliest":"1208","latest":"1210"},"end":{"earliest":"1208","latest":"1210"}}]}},{"toponym":"Tursteineston'","citations":[{"label":"c.1190 Spec","year":1180}],"when":{"timespans":[{"start":{"earliest":"1180","latest":"1200"},"end":{"earliest":"1180","latest":"1200"}}]}},{"toponym":"Turstaneston'","citations":[{"label":"1197×1217 Spec","year":1197}],"when":{"timespans":[{"start":{"earliest":"1197","latest":"1217"},"end":{"earliest":"1197","latest":"1217"}}]}},{"toponym":"Thurstaneston","citations":[{"label":"1198×1204 GD","year":1198},{"label":"1300 FPD","year":1300}],"when":{"timespans":[{"start":{"earliest":"1198","latest":"1204"},"end":{"earliest":"1198","latest":"1204"}},{"start":{"in":"1300"},"end":{"in":"1300"}},{"start":{"in":"1309"},"end":{"in":"1309"}}]}},{"toponym":"Thurstaneston'","citations":[{"label":"c.1260 Elemos","year":1250}],"when":{"timespans":[{"start":{"earliest":"1250","latest":"1270"},"end":{"earliest":"1250","latest":"1270"}}]}},{"toponym":"Thurstantun'","citations":[{"label":"c. 1220×30 Spec","year":1220}],"when":{"timespans":[{"start":{"earliest":"1220","latest":"1230"},"end":{"earliest":"1220","latest":"1230"}}]}},{"toponym":"Thurstanton","citations":[{"label":"1309×10 Bek","year":1309},{"label":"1336×7 IPM","year":1336},{"label":"1338 GD","year":1338},{"label":"1344 IPM","year":1344},{"label":"c.1350 NCD","year":1340},{"label":"1457–1496, recurring Finc","year":1457},{"label":"1457–1496, recurring Finc"},{"label":"1457×8 Finc","year":1457},{"label":"1495×6 Finc","year":1495},{"label":"1468–1531, recurring IPM","year":1468},{"label":"1468–1531, recurring IPM"},{"label":"1468 IPM","year":1468},{"label":"1531 IPM","year":1531}],"when":{"timespans":[{"start":{"earliest":"1309","latest":"1310"},"end":{"earliest":"1309","latest":"1310"}},{"start":{"earliest":"1336","latest":"1337"},"end":{"earliest":"1336","latest":"1337"}},{"start":{"in":"1338"},"end":{"in":"1338"}},{"start":{"in":"1344"},"end":{"in":"1344"}},{"start":{"earliest":"1340","latest":"1360"},"end":{"earliest":"1340","latest":"1360"}},{"start":{"in":"1457"},"end":{"in":"1496"}},{"start":{"earliest":"1457","latest":"1458"},"end":{"earliest":"1457","latest":"1458"}},{"start":{"earliest":"1495","latest":"1496"},"end":{"earliest":"1495","latest":"1496"}},{"start":{"in":"1468"},"end":{"in":"1531"}},{"start":{"in":"1468"},"end":{"in":"1468"}},{"start":{"in":"1531"},"end":{"in":"1531"}}]}},{"toponym":"Thurstanto'","citations":[{"label":"1333 Ct","year":1333}],"when":{"timespans":[{"start":{"in":"1333"},"end":{"in":"1333"}}]}},{"toponym":"Thurstantone","citations":[{"label":"1338 GD","year":1338}],"when":{"timespans":[{"start":{"in":"1338"},"end":{"in":"1338"}}]}},{"toponym":"Thorstanton","citations":[{"label":"1400–1471, recurring IPM","year":1400},{"label":"1400–1471, recurring IPM"},{"label":"1400 IPM","year":1400},{"label":"1471 IPM","year":1471}],"when":{"timespans":[{"start":{"in":"1400"},"end":{"in":"1471"}},{"start":{"in":"1400"},"end":{"in":"1400"}},{"start":{"in":"1471"},"end":{"in":"1471"}}]}},{"toponym":"Thirstanton","citations":[{"label":"1506 IPM","year":1506}],"when":{"timespans":[{"start":{"in":"1506"},"end":{"in":"1506"}}]}},{"toponym":"Thrustanton","citations":[{"label":"1363×4 GD","year":1363},{"label":"1461×2 Finc","year":1461}],"when":{"timespans":[{"start":{"earliest":"1363","latest":"1364"},"end":{"earliest":"1363","latest":"1364"}},{"start":{"earliest":"1461","latest":"1462"},"end":{"earliest":"1461","latest":"1462"}},{"start":{"earliest":"1488","latest":"1489"},"end":{"earliest":"1488","latest":"1489"}},{"start":{"earliest":"1490","latest":"1491"},"end":{"earliest":"1490","latest":"1491"}}]}},{"toponym":"Thrustanton'","citations":[{"label":"1382 Hatf","year":1382}],"when":{"timespans":[{"start":{"in":"1382"},"end":{"in":"1382"}}]}},{"toponym":"Thrustyngton","citations":[{"label":"1468×9 Finc","year":1468}],"when":{"timespans":[{"start":{"earliest":"1468","latest":"1469"},"end":{"earliest":"1468","latest":"1469"}},{"start":{"earliest":"1475","latest":"1476"},"end":{"earliest":"1475","latest":"1476"}}]}},{"toponym":"Thurstyngton","citations":[{"label":"1469–1479, recurring Finc","year":1469},{"label":"1469–1479, recurring Finc"},{"label":"1469×70 Finc","year":1469},{"label":"1478×9 Finc","year":1478}],"when":{"timespans":[{"start":{"in":"1469"},"end":{"in":"1479"}},{"start":{"earliest":"1469","latest":"1470"},"end":{"earliest":"1469","latest":"1470"}},{"start":{"earliest":"1478","latest":"1479"},"end":{"earliest":"1478","latest":"1479"}}]}},{"toponym":"Thrystington","citations":[{"label":"1510×11 Finc","year":1510}],"when":{"timespans":[{"start":{"earliest":"1510","latest":"1511"},"end":{"earliest":"1510","latest":"1511"}}]}},{"toponym":"Thrystyngton","citations":[{"label":"1511×2 Finc","year":1511}],"when":{"timespans":[{"start":{"earliest":"1511","latest":"1512"},"end":{"earliest":"1511","latest":"1512"}},{"start":{"earliest":"1516","latest":"1517"},"end":{"earliest":"1516","latest":"1517"}}]}},{"toponym":"Tryssilyngton","citations":[{"label":"1511×2 Finc","year":1511}],"when":{"timespans":[{"start":{"earliest":"1511","latest":"1512"},"end":{"earliest":"1511","latest":"1512"}}]}},{"toponym":"Thrislyngton","citations":[{"label":"1525×6 Finc","year":1525}],"when":{"timespans":[{"start":{"earliest":"1525","latest":"1526"},"end":{"earliest":"1525","latest":"1526"}}]}},{"toponym":"Thryslyngton","citations":[{"label":"1528×9 Finc","year":1528}],"when":{"timespans":[{"start":{"earliest":"1528","latest":"1529"},"end":{"earliest":"1528","latest":"1529"}}]}},{"toponym":"Thrislington","citations":[{"label":"1567 IPM","year":1567},{"label":"1839 TA","year":1839}],"when":{"timespans":[{"start":{"in":"1567"},"end":{"in":"1567"}},{"start":{"in":"1839"},"end":{"in":"1839"}}]}},{"toponym":"Thurstanton alias Thrislington alias Thruslinton","citations":[{"label":"1632×3 IPM","year":1632}],"when":{"timespans":[{"start":{"earliest":"1632","latest":"1633"},"end":{"earliest":"1632","latest":"1633"}}]}},{"toponym":"Thruslington","citations":[{"label":"1637 Camden","year":1637}],"when":{"timespans":[{"start":{"in":"1637"},"end":{"in":"1637"}}]}}],"types":[{"identifier":"http://vocab.getty.edu/aat/300232418","label":"administrative division","sourceLabels":[{"label":"township","lang":"en"}]}],"geometry":{"type":"GeometryCollection","geometries":[{"type":"Point","coordinates":[-1.519133734,54.68199004],"citations":[{"label":"English Place-Name Society survey (DEEP coordinates)"}]},{"type":"Point","coordinates":[-1.511324009279282,54.68645424650493],"citations":[{"label":"Unlock (EDINA) gazetteer, gazetteer record unlock:11300500"}]},{"type":"Point","coordinates":[-1.5283,54.6956],"citations":[{"label":"Key to English Place-Names (KEPN), gazetteer record 7666"}]}]},"when":{"timespans":[{"start":{"in":"1100"},"end":{"in":"1839"}}]},"relations":[{"relationType":"gvp:broaderPartitive","relationTo":"https://w3id.org/whg-epns/83/007603","label":"within Bishop Middleham"}]}]}