{"@context":"https://raw.githubusercontent.com/LinkedPasts/linked-places-format/main/linkedplaces-context-v1.1.jsonld","type":"FeatureCollection","license":"Digitisation of English Placenames MADS data is licensed to Jisc by the English Place Names Society and released under a Creative Commons Attribution-NonCommercial 4.0 International License.","note":"LPF v1.3, lossy; derived from the PLATO record; plato_commit=ca0afadabec1e23a145c0b03df77e8f151f79832","features":[{"@id":"https://w3id.org/whg-epns/40/001270","type":"Feature","properties":{"title":"Hagmead Hundred","ccodes":["GB"],"fclasses":["A"]},"names":[{"toponym":"Hagmead Hundred","lang":"en","citations":[{"label":"English Place-Name Society survey, volume 40: Gloucestershire"}]},{"toponym":"Hagemedahdr'","citations":[{"label":"1169 P","year":1169}],"when":{"timespans":[{"start":{"in":"1169"},"end":{"in":"1169"}}]}},{"toponym":"Hagemede","citations":[{"label":"1285 FA","year":1285}],"when":{"timespans":[{"start":{"in":"1285"},"end":{"in":"1285"}}]}},{"toponym":"hund' de Agemede","citations":[{"label":"1220 Fees","year":1220},{"label":"1221 Ass","year":1221},{"label":"1274 RH","year":1274}],"when":{"timespans":[{"start":{"in":"1220"},"end":{"in":"1220"}},{"start":{"in":"1221"},"end":{"in":"1221"}},{"start":{"in":"1274"},"end":{"in":"1274"}}]}},{"toponym":"Aggemed(e)","citations":[{"label":"1221 Ass","year":1221},{"label":"1274 RH","year":1274}],"when":{"timespans":[{"start":{"in":"1221"},"end":{"in":"1221"}},{"start":{"in":"1248"},"end":{"in":"1248"}},{"start":{"in":"1274"},"end":{"in":"1274"}}]}},{"toponym":"Haggem'","citations":[{"label":"1227 Fees","year":1227}],"when":{"timespans":[{"start":{"in":"1227"},"end":{"in":"1227"}}]}},{"toponym":"Haggemed","citations":[{"label":"1276 RH","year":1276}],"when":{"timespans":[{"start":{"in":"1276"},"end":{"in":"1276"}}]}},{"toponym":"Haggemedwe","citations":[{"label":"1287 QW","year":1287}],"when":{"timespans":[{"start":{"in":"1287"},"end":{"in":"1287"}}]}}],"types":[{"identifier":"http://vocab.getty.edu/aat/300232418","label":"administrative division","sourceLabels":[{"label":"Domesday hundred","lang":"en"}]}],"geometry":null,"when":{"timespans":[{"start":{"in":"1169"},"end":{"in":"1287"}}]},"relations":[{"relationType":"gvp:broaderPartitive","relationTo":"https://w3id.org/whg-epns/40/001245","label":"within Grumbald's Ash Hundred"}]}]}