{"@context":"https://raw.githubusercontent.com/LinkedPasts/linked-places-format/main/linkedplaces-context-v1.1.jsonld","type":"FeatureCollection","license":"Digitisation of English Placenames MADS data is licensed to Jisc by the English Place Names Society and released under a Creative Commons Attribution-NonCommercial 4.0 International License.","note":"LPF v1.3, lossy; derived from the PLATO record; plato_commit=ca0afadabec1e23a145c0b03df77e8f151f79832","features":[{"@id":"https://w3id.org/whg-epns/40/002335","type":"Feature","properties":{"title":"Wickwar","ccodes":["GB"],"fclasses":["A","P"]},"names":[{"toponym":"Wickwar","lang":"en","citations":[{"label":"English Place-Name Society survey, volume 40: Gloucestershire"}]},{"toponym":"Wichen","citations":[{"label":"1086 DB","year":1086}],"when":{"timespans":[{"start":{"in":"1086"},"end":{"in":"1086"}}]}},{"toponym":"Whictenua","citations":[{"label":"1221 Eyre","year":1221}],"when":{"timespans":[{"start":{"in":"1221"},"end":{"in":"1221"}}]}},{"toponym":"Wy(c)ke, Wike","citations":[{"label":"1220 Fees","year":1220},{"label":"c. 1250 Berk","year":1240},{"label":"1281 Misc","year":1281}],"when":{"timespans":[{"start":{"in":"1220"},"end":{"in":"1220"}},{"start":{"earliest":"1240","latest":"1260"},"end":{"earliest":"1240","latest":"1260"}},{"start":{"in":"1281"},"end":{"in":"1281"}}]}},{"toponym":"Wikewarre, Wykewarre","citations":[{"label":"Hy 3 BM","year":1216},{"label":"1274 FF","year":1274},{"label":"1278 Episc","year":1278},{"label":"1303–1535, recurring FA","year":1303},{"label":"1303–1535, recurring VE"},{"label":"1303 FA","year":1303},{"label":"1535 VE","year":1535}],"when":{"timespans":[{"start":{"earliest":"1216","latest":"1272"},"end":{"earliest":"1216","latest":"1272"}},{"start":{"in":"1274"},"end":{"in":"1274"}},{"start":{"in":"1278"},"end":{"in":"1278"}},{"start":{"in":"1303"},"end":{"in":"1535"}},{"start":{"in":"1303"},"end":{"in":"1303"}},{"start":{"in":"1535"},"end":{"in":"1535"}}]}},{"toponym":"Wykewar(e)","citations":[{"label":"1248 Ass","year":1248},{"label":"1291 Tax","year":1291},{"label":"1378 Works","year":1378}],"when":{"timespans":[{"start":{"in":"1248"},"end":{"in":"1248"}},{"start":{"in":"1287"},"end":{"in":"1287"}},{"start":{"in":"1291"},"end":{"in":"1291"}},{"start":{"in":"1378"},"end":{"in":"1378"}}]}},{"toponym":"Wykewauer","citations":[{"label":"1269 Ipm","year":1269}],"when":{"timespans":[{"start":{"in":"1269"},"end":{"in":"1269"}}]}},{"toponym":"Warre Wyke","citations":[{"label":"1285 Ch","year":1285}],"when":{"timespans":[{"start":{"in":"1285"},"end":{"in":"1285"}}]}},{"toponym":"Wikkaware","citations":[{"label":"1316 FA","year":1316}],"when":{"timespans":[{"start":{"in":"1316"},"end":{"in":"1316"}}]}},{"toponym":"Wekewar(re)","citations":[{"label":"1544 FF","year":1544}],"when":{"timespans":[{"start":{"in":"1544"},"end":{"in":"1544"}},{"start":{"in":"1574"},"end":{"in":"1574"}}]}},{"toponym":"Weckware","citations":[{"label":"c. 1560 Surv","year":1550}],"when":{"timespans":[{"start":{"earliest":"1550","latest":"1570"},"end":{"earliest":"1550","latest":"1570"}}]}},{"toponym":"Weakeware","citations":[{"label":"1594 FF","year":1594}],"when":{"timespans":[{"start":{"in":"1594"},"end":{"in":"1594"}}]}},{"toponym":"Wickwar","citations":[{"label":"1552 PR","year":1552}],"when":{"timespans":[{"start":{"in":"1552"},"end":{"in":"1552"}}]}},{"toponym":"Wickewarre","citations":[{"label":"1605 GR","year":1605}],"when":{"timespans":[{"start":{"in":"1605"},"end":{"in":"1605"}}]}}],"types":[{"identifier":"http://vocab.getty.edu/aat/300232418","label":"administrative division","sourceLabels":[{"label":"township","lang":"en"}]}],"geometry":{"type":"GeometryCollection","geometries":[{"type":"Point","coordinates":[-2.39968,51.59404],"citations":[{"label":"GeoNames, gazetteer record geonames:2633966"}]},{"type":"Point","coordinates":[-2.404217496,51.58968242],"citations":[{"label":"English Place-Name Society survey (DEEP coordinates)"}]},{"type":"Point","coordinates":[-2.397038824075551,51.5942038368453],"citations":[{"label":"Unlock (EDINA) gazetteer, gazetteer record unlock:11322571"}]},{"type":"Point","coordinates":[-2.39837,51.5947],"citations":[{"label":"Key to English Place-Names (KEPN), gazetteer record 6464"}]}]},"when":{"timespans":[{"start":{"in":"1086"},"end":{"in":"1605"}}]},"links":[{"type":"closeMatch","identifier":"https://sws.geonames.org/2633966/"}],"relations":[{"relationType":"gvp:broaderPartitive","relationTo":"https://w3id.org/whg-epns/40/002334","label":"within Wickwar"}]}]}