{"@context":"https://raw.githubusercontent.com/LinkedPasts/linked-places-format/main/linkedplaces-context-v1.1.jsonld","type":"FeatureCollection","license":"Digitisation of English Placenames MADS data is licensed to Jisc by the English Place Names Society and released under a Creative Commons Attribution-NonCommercial 4.0 International License.","note":"LPF v1.3, lossy; derived from the PLATO record; plato_commit=ca0afadabec1e23a145c0b03df77e8f151f79832","features":[{"@id":"https://w3id.org/whg-epns/40/002930","type":"Feature","properties":{"title":"Little Sodbury","ccodes":["GB"],"fclasses":["A","P"]},"names":[{"toponym":"Little Sodbury","lang":"en","citations":[{"label":"English Place-Name Society survey, volume 40: Gloucestershire"}]},{"toponym":"Sopeberie","citations":[{"label":"1086 DB","year":1086}],"when":{"timespans":[{"start":{"in":"1086"},"end":{"in":"1086"}}]}},{"toponym":"Parua Schob'ia","citations":[{"label":"1167 P","year":1167}],"when":{"timespans":[{"start":{"in":"1167"},"end":{"in":"1167"}}]}},{"toponym":"Parva Sobyr","citations":[{"label":"1276 RH","year":1276}],"when":{"timespans":[{"start":{"in":"1276"},"end":{"in":"1276"}}]}},{"toponym":"petite Sodb'i","citations":[{"label":"Hy 3 Rudder","year":1216}],"when":{"timespans":[{"start":{"earliest":"1216","latest":"1272"},"end":{"earliest":"1216","latest":"1272"}}]}},{"toponym":"Parva Sobbir(r)', Parva Sobbiry, Parva Sobbyry, Parva Sobbur(y)","citations":[{"label":"1274 RH","year":1274},{"label":"1278 Cl","year":1278},{"label":"1286–1491, recurring Episc","year":1286},{"label":"1286–1491, recurring FF"},{"label":"1286 Episc","year":1286},{"label":"1491 FF","year":1491}],"when":{"timespans":[{"start":{"in":"1274"},"end":{"in":"1274"}},{"start":{"in":"1278"},"end":{"in":"1278"}},{"start":{"in":"1286"},"end":{"in":"1491"}},{"start":{"in":"1286"},"end":{"in":"1286"}},{"start":{"in":"1491"},"end":{"in":"1491"}}]}},{"toponym":"Parua Subbery","citations":[{"label":"1398 FF","year":1398}],"when":{"timespans":[{"start":{"in":"1398"},"end":{"in":"1398"}}]}},{"toponym":"Little Sudbury","citations":[{"label":"1659 ParlSurv","year":1659}],"when":{"timespans":[{"start":{"in":"1659"},"end":{"in":"1659"}}]}},{"toponym":"Littlesodbury(e), Litelsodbury(e)","citations":[{"label":"1511 Ch","year":1511},{"label":"1564 FF","year":1564}],"when":{"timespans":[{"start":{"in":"1511"},"end":{"in":"1511"}},{"start":{"in":"1564"},"end":{"in":"1564"}}]}},{"toponym":"paruam Sodbury(e)","citations":[{"label":"1517 InqEncl","year":1517}],"when":{"timespans":[{"start":{"in":"1517"},"end":{"in":"1517"}}]}}],"types":[{"identifier":"http://vocab.getty.edu/aat/300232418","label":"administrative division","sourceLabels":[{"label":"township","lang":"en"}]}],"geometry":{"type":"GeometryCollection","geometries":[{"type":"Point","coordinates":[-2.34463,51.54589],"citations":[{"label":"GeoNames, gazetteer record geonames:7300983"}]},{"type":"Point","coordinates":[-2.360553646,51.54486244],"citations":[{"label":"English Place-Name Society survey (DEEP coordinates)"}]},{"type":"Point","coordinates":[-2.353377652928399,51.54938119986394],"citations":[{"label":"Unlock (EDINA) gazetteer, gazetteer record unlock:11196994"}]},{"type":"Point","coordinates":[-2.35472,51.5499],"citations":[{"label":"Key to English Place-Names (KEPN), gazetteer record 6471"}]}]},"when":{"timespans":[{"start":{"in":"1086"},"end":{"in":"1659"}}]},"links":[{"type":"closeMatch","identifier":"https://sws.geonames.org/7300983/"}],"relations":[{"relationType":"gvp:broaderPartitive","relationTo":"https://w3id.org/whg-epns/40/002929","label":"within Little Sodbury"}]}]}