{"@context":"https://raw.githubusercontent.com/LinkedPasts/linked-places-format/main/linkedplaces-context-v1.1.jsonld","type":"FeatureCollection","license":"Digitisation of English Placenames MADS data is licensed to Jisc by the English Place Names Society and released under a Creative Commons Attribution-NonCommercial 4.0 International License.","note":"LPF v1.3, lossy; derived from the PLATO record; plato_commit=ca0afadabec1e23a145c0b03df77e8f151f79832","features":[{"@id":"https://w3id.org/whg-epns/40/003267","type":"Feature","properties":{"title":"Marshfield","ccodes":["GB"],"fclasses":["A","P"]},"names":[{"toponym":"Marshfield","lang":"en","citations":[{"label":"English Place-Name Society survey, volume 40: Gloucestershire"}]},{"toponym":"Meresfeld(e)","citations":[{"label":"1086 DB","year":1086},{"label":"12 Pat","year":1100},{"label":"1228 Theok","year":1228},{"label":"1234 Cl","year":1234},{"label":"1248 Ass","year":1248},{"label":"1492 Comp","year":1492}],"when":{"timespans":[{"start":{"in":"1086"},"end":{"in":"1086"}},{"start":{"earliest":"1100","latest":"1200"},"end":{"earliest":"1100","latest":"1200"}},{"start":{"in":"1228"},"end":{"in":"1228"}},{"start":{"in":"1234"},"end":{"in":"1234"}},{"start":{"in":"1248"},"end":{"in":"1248"}},{"start":{"in":"1492"},"end":{"in":"1492"}}]}},{"toponym":"Mereffelda","citations":[{"label":"Hy 1 Ch","year":1100}],"when":{"timespans":[{"start":{"earliest":"1100","latest":"1135"},"end":{"earliest":"1100","latest":"1135"}}]}},{"toponym":"Mersfeld","citations":[{"label":"1100-35 Tewk","year":1100},{"label":"1229–1535, recurring Theok","year":1229},{"label":"1229–1535, recurring VE"},{"label":"1229 Theok","year":1229},{"label":"1535 VE","year":1535}],"when":{"timespans":[{"start":{"earliest":"1100","latest":"1135"},"end":{"earliest":"1100","latest":"1135"}},{"start":{"earliest":"1100","latest":"1200"},"end":{"earliest":"1100","latest":"1200"}},{"start":{"in":"1229"},"end":{"in":"1535"}},{"start":{"in":"1229"},"end":{"in":"1229"}},{"start":{"in":"1535"},"end":{"in":"1535"}}]}},{"toponym":"Marsefeld","citations":[{"label":"1220 Fees","year":1220},{"label":"1347 Ipm","year":1347},{"label":"1412 Pat","year":1412}],"when":{"timespans":[{"start":{"in":"1220"},"end":{"in":"1220"}},{"start":{"in":"1347"},"end":{"in":"1347"}},{"start":{"in":"1412"},"end":{"in":"1412"}}]}},{"toponym":"Marssefeld","citations":[{"label":"1540 AOMB","year":1540}],"when":{"timespans":[{"start":{"in":"1540"},"end":{"in":"1540"}}]}},{"toponym":"Maresfeld","citations":[{"label":"1221 Ass","year":1221},{"label":"1262–1317, recurring Ipm","year":1262},{"label":"1262–1317, recurring Monast"},{"label":"1262 Ipm","year":1262},{"label":"1317 Monast","year":1317}],"when":{"timespans":[{"start":{"in":"1221"},"end":{"in":"1221"}},{"start":{"in":"1262"},"end":{"in":"1317"}},{"start":{"in":"1262"},"end":{"in":"1262"}},{"start":{"in":"1317"},"end":{"in":"1317"}}]}},{"toponym":"Marsfeld(e)","citations":[{"label":"1221 Ass","year":1221},{"label":"1242 Theok","year":1242},{"label":"1296–1675, recurring Ipm","year":1296},{"label":"1296–1675, recurring Ogilby"},{"label":"1296 Ipm","year":1296},{"label":"1675 Ogilby","year":1675}],"when":{"timespans":[{"start":{"in":"1221"},"end":{"in":"1221"}},{"start":{"in":"1242"},"end":{"in":"1242"}},{"start":{"in":"1296"},"end":{"in":"1675"}},{"start":{"in":"1296"},"end":{"in":"1296"}},{"start":{"in":"1675"},"end":{"in":"1675"}}]}},{"toponym":"West Marsfeld(e)","citations":[{"label":"1337 FF","year":1337}],"when":{"timespans":[{"start":{"in":"1337"},"end":{"in":"1337"}},{"start":{"in":"1342"},"end":{"in":"1342"}}]}},{"toponym":"Merefeld'","citations":[{"label":"1221 Ass","year":1221},{"label":"1225 FF","year":1225},{"label":"1233 Cl","year":1233}],"when":{"timespans":[{"start":{"in":"1221"},"end":{"in":"1221"}},{"start":{"in":"1225"},"end":{"in":"1225"}},{"start":{"in":"1233"},"end":{"in":"1233"}}]}},{"toponym":"Mersefeld","citations":[{"label":"1236 FF","year":1236},{"label":"c. 1300 RGl","year":1290}],"when":{"timespans":[{"start":{"in":"1236"},"end":{"in":"1236"}},{"start":{"earliest":"1290","latest":"1310"},"end":{"earliest":"1290","latest":"1310"}}]}},{"toponym":"Mers(s)h(e)feld(e)","citations":[{"label":"1397 Ipm","year":1397},{"label":"1431–1493, recurring Pat","year":1431},{"label":"1431–1493, recurring Pat"},{"label":"1431 Pat","year":1431},{"label":"1493 Pat","year":1493}],"when":{"timespans":[{"start":{"in":"1397"},"end":{"in":"1397"}},{"start":{"in":"1431"},"end":{"in":"1493"}},{"start":{"in":"1431"},"end":{"in":"1431"}},{"start":{"in":"1493"},"end":{"in":"1493"}}]}},{"toponym":"Mars(s)h(e)fe(i)ld(e), Mars(s)h(e)fyld","citations":[{"label":"1414 Pat","year":1414},{"label":"1533 MinAcct","year":1533},{"label":"1553–1619, recurring FF","year":1553},{"label":"1553–1619, recurring Dep"},{"label":"1553 FF","year":1553},{"label":"1619 Dep","year":1619}],"when":{"timespans":[{"start":{"in":"1414"},"end":{"in":"1414"}},{"start":{"in":"1533"},"end":{"in":"1533"}},{"start":{"in":"1553"},"end":{"in":"1619"}},{"start":{"in":"1553"},"end":{"in":"1553"}},{"start":{"in":"1619"},"end":{"in":"1619"}}]}},{"toponym":"Mashfield","citations":[{"label":"1712 PR","year":1712}],"when":{"timespans":[{"start":{"in":"1712"},"end":{"in":"1712"}}]}}],"types":[{"identifier":"http://vocab.getty.edu/aat/300232418","label":"administrative division","sourceLabels":[{"label":"township","lang":"en"}]}],"geometry":{"type":"GeometryCollection","geometries":[{"type":"Point","coordinates":[-2.32,51.46194],"citations":[{"label":"GeoNames, gazetteer record geonames:2642981"}]},{"type":"Point","coordinates":[-2.316664166,51.45506371],"citations":[{"label":"English Place-Name Society survey (DEEP coordinates)"}]},{"type":"Point","coordinates":[-2.323892870201509,51.4595409381349],"citations":[{"label":"Unlock (EDINA) gazetteer, gazetteer record unlock:11214211"}]},{"type":"Point","coordinates":[-2.31084,51.4601],"citations":[{"label":"Key to English Place-Names (KEPN), gazetteer record 6475"}]}]},"when":{"timespans":[{"start":{"in":"1086"},"end":{"in":"1712"}}]},"links":[{"type":"closeMatch","identifier":"https://sws.geonames.org/2642981/"}],"relations":[{"relationType":"gvp:broaderPartitive","relationTo":"https://w3id.org/whg-epns/40/003266","label":"within Marshfield"}]}]}