{"@context":"https://raw.githubusercontent.com/LinkedPasts/linked-places-format/main/linkedplaces-context-v1.1.jsonld","type":"FeatureCollection","license":"Digitisation of English Placenames MADS data is licensed to Jisc by the English Place Names Society and released under a Creative Commons Attribution-NonCommercial 4.0 International License.","note":"LPF v1.3, lossy; derived from the PLATO record; plato_commit=ca0afadabec1e23a145c0b03df77e8f151f79832","features":[{"@id":"https://w3id.org/whg-epns/40/004248","type":"Feature","properties":{"title":"Doynton","ccodes":["GB"],"fclasses":["A","P"]},"names":[{"toponym":"Doynton","lang":"en","citations":[{"label":"English Place-Name Society survey, volume 40: Gloucestershire"}]}],"types":[{"identifier":"http://vocab.getty.edu/aat/300232418","label":"administrative division","sourceLabels":[{"label":"parish","lang":"en"}]}],"geometry":{"type":"GeometryCollection","geometries":[{"type":"Point","coordinates":[-2.40268,51.46595],"citations":[{"label":"GeoNames, gazetteer record geonames:2651017"}]},{"type":"Point","coordinates":[-2.403104277,51.46379103],"citations":[{"label":"English Place-Name Society survey (DEEP coordinates)"}]},{"type":"Point","coordinates":[-2.410342814289298,51.4682628972862],"citations":[{"label":"Unlock (EDINA) gazetteer, gazetteer record unlock:11131531"}]},{"type":"Point","coordinates":[-2.39728,51.4688],"citations":[{"label":"Key to English Place-Names (KEPN), gazetteer record 6482"}]}]},"links":[{"type":"closeMatch","identifier":"https://sws.geonames.org/2651017/"}],"relations":[{"relationType":"gvp:broaderPartitive","relationTo":"https://w3id.org/whg-epns/40/004066","label":"within Langley & Swinehead Hundred"}]}]}