{"@context":"https://raw.githubusercontent.com/LinkedPasts/linked-places-format/main/linkedplaces-context-v1.1.jsonld","type":"FeatureCollection","license":"Digitisation of English Placenames MADS data is licensed to Jisc by the English Place Names Society and released under a Creative Commons Attribution-NonCommercial 4.0 International License.","note":"LPF v1.3, lossy; derived from the PLATO record; plato_commit=fa0d247ccc0263f8f19c8d7cdcd163df96935d1e","features":[{"@id":"https://w3id.org/whg-epns/40/007580","type":"Feature","properties":{"title":"Corse","ccodes":["GB"],"fclasses":["A","P"]},"names":[{"toponym":"Corse","lang":"en","citations":[{"label":"English Place-Name Society survey, volume 40: Gloucestershire"}]},{"toponym":"on corsmersc","citations":[{"label":"11 Finb","year":1000}],"when":{"timespans":[{"start":{"earliest":"1000","latest":"1100"},"end":{"earliest":"1000","latest":"1100"}}]}},{"toponym":"Cors","citations":[{"label":"12 Glouc","year":1100},{"label":"c. 1200 GlR","year":1190},{"label":"1212 Fees","year":1212},{"label":"1221 Ass","year":1221},{"label":"RH","year":1276},{"label":"Pat"},{"label":"1276 RH","year":1276},{"label":"1496 Pat","year":1496}],"when":{"timespans":[{"start":{"earliest":"1100","latest":"1200"},"end":{"earliest":"1100","latest":"1200"}},{"start":{"earliest":"1154","latest":"1179"},"end":{"earliest":"1154","latest":"1179"}},{"start":{"earliest":"1190","latest":"1210"},"end":{"earliest":"1190","latest":"1210"}},{"start":{"in":"1212"},"end":{"in":"1212"}},{"start":{"in":"1221"},"end":{"in":"1221"}},{"start":{"in":"1276"},"end":{"in":"1496"}},{"start":{"in":"1276"},"end":{"in":"1276"}},{"start":{"in":"1496"},"end":{"in":"1496"}}]}},{"toponym":"Corse","citations":[{"label":"12 Glouc","year":1100},{"label":"VE","year":1535},{"label":"PR"},{"label":"1535 VE","year":1535},{"label":"1674 PR","year":1674}],"when":{"timespans":[{"start":{"earliest":"1100","latest":"1200"},"end":{"earliest":"1100","latest":"1200"}},{"start":{"in":"1535"},"end":{"in":"1674"}},{"start":{"in":"1535"},"end":{"in":"1535"}},{"start":{"in":"1674"},"end":{"in":"1674"}}]}},{"toponym":"Corhs","citations":[{"label":"1314 Ipm","year":1314}],"when":{"timespans":[{"start":{"in":"1314"},"end":{"in":"1314"}}]}},{"toponym":"Cosse","citations":[{"label":"1437 IpmR","year":1437},{"label":"1577 M","year":1577}],"when":{"timespans":[{"start":{"in":"1437"},"end":{"in":"1437"}},{"start":{"in":"1577"},"end":{"in":"1577"}}]}},{"toponym":"Coose","citations":[{"label":"1610 M","year":1610}],"when":{"timespans":[{"start":{"in":"1610"},"end":{"in":"1610"}}]}}],"types":[{"identifier":"http://vocab.getty.edu/aat/300232418","label":"administrative division","sourceLabels":[{"label":"township","lang":"en"}]}],"geometry":{"type":"GeometryCollection","geometries":[{"type":"Point","coordinates":[-2.3,51.93333],"citations":[{"label":"GeoNames, gazetteer record geonames:2652323"}]},{"type":"Point","coordinates":[-2.320007594,51.9316435],"citations":[{"label":"English Place-Name Society survey (DEEP coordinates)"}]},{"type":"Point","coordinates":[-2.312766159482935,51.93615969290842],"citations":[{"label":"Unlock (EDINA) gazetteer, gazetteer record unlock:11116665"}]},{"type":"Point","coordinates":[-2.31412,51.9366],"citations":[{"label":"Key to English Place-Names (KEPN), gazetteer record 6505"}]}]},"when":{"timespans":[{"start":{"in":"1000"},"end":{"in":"1674"}}]},"links":[{"type":"closeMatch","identifier":"https://sws.geonames.org/2652323/"}],"relations":[{"relationType":"gvp:broaderPartitive","relationTo":"https://w3id.org/whg-epns/40/007579","label":"within Corse"}]}]}