{"@context":"https://raw.githubusercontent.com/LinkedPasts/linked-places-format/main/linkedplaces-context-v1.1.jsonld","type":"FeatureCollection","license":"Digitisation of English Placenames MADS data is licensed to Jisc by the English Place Names Society and released under a Creative Commons Attribution-NonCommercial 4.0 International License.","note":"LPF v1.3, lossy; derived from the PLATO record; plato_commit=ca0afadabec1e23a145c0b03df77e8f151f79832","features":[{"@id":"http://placenames.org.uk/id/placename/40/008252","type":"Feature","properties":{"title":"Maisemore","ccodes":["GB"],"fclasses":["A","P"]},"names":[{"toponym":"Maisemore","lang":"en","citations":[{"label":"English Place-Name Society survey, volume 40: Gloucestershire"}]}],"types":[{"identifier":"http://vocab.getty.edu/aat/300232418","label":"administrative division","sourceLabels":[{"label":"parish","lang":"en"}]}],"geometry":{"type":"GeometryCollection","geometries":[{"type":"Point","coordinates":[-2.27371,51.88958],"citations":[{"label":"GeoNames, gazetteer record geonames:2643169"}]},{"type":"Point","coordinates":[-2.27609496,51.88679515],"citations":[{"label":"English Place-Name Society survey (DEEP coordinates)"}]},{"type":"Point","coordinates":[-2.268856293469465,51.89130866239163],"citations":[{"label":"Unlock (EDINA) gazetteer, gazetteer record unlock:11211594"}]},{"type":"Point","coordinates":[-2.27022,51.8917],"citations":[{"label":"Key to English Place-Names (KEPN), gazetteer record 6513"}]}]},"links":[{"type":"closeMatch","identifier":"https://sws.geonames.org/2643169/"}],"relations":[{"relationType":"gvp:broaderPartitive","relationTo":"http://placenames.org.uk/id/placename/40/007970","label":"within Dudstone & King's Barton Hundred"}]}]}