{"@context":"https://raw.githubusercontent.com/LinkedPasts/linked-places-format/main/linkedplaces-context-v1.1.jsonld","type":"FeatureCollection","license":"Digitisation of English Placenames MADS data is licensed to Jisc by the English Place Names Society and released under a Creative Commons Attribution-NonCommercial 4.0 International License.","note":"LPF v1.3, lossy; derived from the PLATO record; plato_commit=ca0afadabec1e23a145c0b03df77e8f151f79832","features":[{"@id":"https://w3id.org/whg-epns/40/008890","type":"Feature","properties":{"title":"Kempley","ccodes":["GB"],"fclasses":["A","P"]},"names":[{"toponym":"Kempley","lang":"en","citations":[{"label":"English Place-Name Society survey, volume 40: Gloucestershire"}]}],"types":[{"identifier":"http://vocab.getty.edu/aat/300232418","label":"administrative division","sourceLabels":[{"label":"parish","lang":"en"}]}],"geometry":{"type":"GeometryCollection","geometries":[{"type":"Point","coordinates":[-2.47982,51.96426],"citations":[{"label":"GeoNames, gazetteer record geonames:2645834"}]},{"type":"Point","coordinates":[-2.480294364,51.95807439],"citations":[{"label":"English Place-Name Society survey (DEEP coordinates)"}]},{"type":"Point","coordinates":[-2.473064904566166,51.96260039674849],"citations":[{"label":"Unlock (EDINA) gazetteer, gazetteer record unlock:11184973"}]},{"type":"Point","coordinates":[-2.4744,51.963],"citations":[{"label":"Key to English Place-Names (KEPN), gazetteer record 6518"}]}]},"links":[{"type":"closeMatch","identifier":"https://sws.geonames.org/2645834/"}],"relations":[{"relationType":"gvp:broaderPartitive","relationTo":"https://w3id.org/whg-epns/40/008491","label":"within Botloe Hundred"}]}]}