{"@context":"https://raw.githubusercontent.com/LinkedPasts/linked-places-format/main/linkedplaces-context-v1.1.jsonld","type":"FeatureCollection","license":"Digitisation of English Placenames MADS data is licensed to Jisc by the English Place Names Society and released under a Creative Commons Attribution-NonCommercial 4.0 International License.","note":"LPF v1.3, lossy; derived from the PLATO record; plato_commit=fa0d247ccc0263f8f19c8d7cdcd163df96935d1e","features":[{"@id":"https://w3id.org/whg-epns/40/009698","type":"Feature","properties":{"title":"Staunton","ccodes":["GB"],"fclasses":["A","P"]},"names":[{"toponym":"Staunton","lang":"en","citations":[{"label":"English Place-Name Society survey, volume 40: Gloucestershire"}]},{"toponym":"Stantun","citations":[{"label":"972 BCS","year":972}],"when":{"timespans":[{"start":{"in":"0972"},"end":{"in":"0972"}}]}},{"toponym":"to Stantunes gemære","citations":[{"label":"978 KCD","year":978}],"when":{"timespans":[{"start":{"in":"0978"},"end":{"in":"0978"}}]}},{"toponym":"Stantun, Stanton","citations":[{"label":"1086 DB","year":1086},{"label":"1221 Eyre","year":1221}],"when":{"timespans":[{"start":{"in":"1086"},"end":{"in":"1086"}},{"start":{"in":"1221"},"end":{"in":"1221"}}]}},{"toponym":"Staunton","citations":[{"label":"1221 Eyre","year":1221},{"label":"1401 FF","year":1401}],"when":{"timespans":[{"start":{"in":"1221"},"end":{"in":"1221"}},{"start":{"in":"1401"},"end":{"in":"1401"}}]}},{"toponym":"Staunton iuxta Cors","citations":[{"label":"1357 FF","year":1357},{"label":"1363 Inq aqd","year":1363},{"label":"1378 Works","year":1378}],"when":{"timespans":[{"start":{"in":"1357"},"end":{"in":"1357"}},{"start":{"in":"1363"},"end":{"in":"1363"}},{"start":{"in":"1378"},"end":{"in":"1378"}}]}}],"types":[{"identifier":"http://vocab.getty.edu/aat/300232418","label":"administrative division","sourceLabels":[{"label":"township","lang":"en"}]}],"geometry":{"type":"GeometryCollection","geometries":[{"type":"Point","coordinates":[-2.31667,51.96667],"citations":[{"label":"GeoNames, gazetteer record geonames:2637000"}]},{"type":"Point","coordinates":[-2.32019962,51.95861855],"citations":[{"label":"English Place-Name Society survey (DEEP coordinates)"}]},{"type":"Point","coordinates":[-2.312953871146346,51.96313475020244],"citations":[{"label":"Unlock (EDINA) gazetteer, gazetteer record unlock:11291545"}]},{"type":"Point","coordinates":[-2.31431,51.9636],"citations":[{"label":"Key to English Place-Names (KEPN), gazetteer record 363"}]}]},"when":{"timespans":[{"start":{"in":"0972"},"end":{"in":"1401"}}]},"links":[{"type":"closeMatch","identifier":"https://sws.geonames.org/2637000/"}],"relations":[{"relationType":"gvp:broaderPartitive","relationTo":"https://w3id.org/whg-epns/40/009697","label":"within Staunton"}]}]}