{"@context":"https://raw.githubusercontent.com/LinkedPasts/linked-places-format/main/linkedplaces-context-v1.1.jsonld","type":"FeatureCollection","license":"Digitisation of English Placenames MADS data is licensed to Jisc by the English Place Names Society and released under a Creative Commons Attribution-NonCommercial 4.0 International License.","note":"LPF v1.3, lossy; derived from the PLATO record; plato_commit=ca0afadabec1e23a145c0b03df77e8f151f79832","features":[{"@id":"https://w3id.org/whg-epns/40/010096","type":"Feature","properties":{"title":"Westbury Hundred","ccodes":["GB"],"fclasses":["A"]},"names":[{"toponym":"Westbury Hundred","lang":"en","citations":[{"label":"English Place-Name Society survey, volume 40: Gloucestershire"}]},{"toponym":"Westberie(s) h(vn)d', Wesberie","citations":[{"label":"1086 DB","year":1086}],"when":{"timespans":[{"start":{"in":"1086"},"end":{"in":"1086"}}]}},{"toponym":"Westb'ihdr'","citations":[{"label":"1169 P","year":1169}],"when":{"timespans":[{"start":{"in":"1169"},"end":{"in":"1169"}}]}},{"toponym":"hund' de Westbir', Westbyr'","citations":[{"label":"1220 Fees","year":1220},{"label":"1221 Ass","year":1221}],"when":{"timespans":[{"start":{"in":"1220"},"end":{"in":"1220"}},{"start":{"in":"1221"},"end":{"in":"1221"}},{"start":{"in":"1248"},"end":{"in":"1248"}}]}},{"toponym":"Westbur'","citations":[{"label":"1265 Misc","year":1265},{"label":"1276 RH","year":1276}],"when":{"timespans":[{"start":{"in":"1265"},"end":{"in":"1265"}},{"start":{"in":"1276"},"end":{"in":"1276"}}]}},{"toponym":"Westbery","citations":[{"label":"c. 1275 For","year":1265}],"when":{"timespans":[{"start":{"earliest":"1265","latest":"1285"},"end":{"earliest":"1265","latest":"1285"}}]}},{"toponym":"Westbury","citations":[{"label":"1287 Ass","year":1287},{"label":"1303–1403, recurring FA","year":1303},{"label":"1303–1403, recurring Pat"},{"label":"1303 FA","year":1303},{"label":"1403 Pat","year":1403}],"when":{"timespans":[{"start":{"in":"1287"},"end":{"in":"1287"}},{"start":{"in":"1303"},"end":{"in":"1403"}},{"start":{"in":"1303"},"end":{"in":"1303"}},{"start":{"in":"1403"},"end":{"in":"1403"}}]}},{"toponym":"Wes(e)bury","citations":[{"label":"1486 DB","year":1486},{"label":"1535 VE","year":1535}],"when":{"timespans":[{"start":{"in":"1486"},"end":{"in":"1486"}},{"start":{"in":"1535"},"end":{"in":"1535"}}]}}],"types":[{"identifier":"http://vocab.getty.edu/aat/300232418","label":"administrative division","sourceLabels":[{"label":"hundred / wapentake","lang":"en"}]}],"geometry":null,"when":{"timespans":[{"start":{"in":"1086"},"end":{"in":"1535"}}]},"relations":[{"relationType":"gvp:broaderPartitive","relationTo":"https://w3id.org/whg-epns/40/000001","label":"within Gloucestershire"}]}]}