{"@context":"https://raw.githubusercontent.com/LinkedPasts/linked-places-format/main/linkedplaces-context-v1.1.jsonld","type":"FeatureCollection","license":"Digitisation of English Placenames MADS data is licensed to Jisc by the English Place Names Society and released under a Creative Commons Attribution-NonCommercial 4.0 International License.","note":"LPF v1.3, lossy; derived from the PLATO record; plato_commit=ca0afadabec1e23a145c0b03df77e8f151f79832","features":[{"@id":"http://placenames.org.uk/id/placename/40/010421","type":"Feature","properties":{"title":"Westbury on Severn","ccodes":["GB"],"fclasses":["A","P"]},"names":[{"toponym":"Westbury on Severn","lang":"en","citations":[{"label":"English Place-Name Society survey, volume 40: Gloucestershire"}]},{"toponym":"wið Wæst byrig","citations":[{"label":"1053 ASC","year":1053}],"when":{"timespans":[{"start":{"in":"1053"},"end":{"in":"1053"}}]}},{"toponym":"Wes(t)beri(e)","citations":[{"label":"1086 DB","year":1086},{"label":"c. 1125 WMP","year":1115},{"label":"1167 P","year":1167}],"when":{"timespans":[{"start":{"in":"1086"},"end":{"in":"1086"}},{"start":{"earliest":"1115","latest":"1135"},"end":{"earliest":"1115","latest":"1135"}},{"start":{"in":"1167"},"end":{"in":"1167"}}]}},{"toponym":"Wes(t)buri(a), Wes(t)bury(e), Wes(t)bir', Wes(t)byry","citations":[{"label":"1154-89 Glouc","year":1154},{"label":"1155 RBE","year":1155},{"label":"c. 1200 GlR","year":1190},{"label":"1220 Fees","year":1220},{"label":"1221–1595, recurring Ass","year":1221},{"label":"1221–1595, recurring Comm"},{"label":"1221 Ass","year":1221},{"label":"1595 Comm","year":1595}],"when":{"timespans":[{"start":{"earliest":"1154","latest":"1189"},"end":{"earliest":"1154","latest":"1189"}},{"start":{"in":"1155"},"end":{"in":"1155"}},{"start":{"earliest":"1190","latest":"1210"},"end":{"earliest":"1190","latest":"1210"}},{"start":{"in":"1220"},"end":{"in":"1220"}},{"start":{"in":"1221"},"end":{"in":"1595"}},{"start":{"in":"1221"},"end":{"in":"1221"}},{"start":{"in":"1595"},"end":{"in":"1595"}}]}},{"toponym":"Westbyry on Sevarne","citations":[{"label":"1297 Pat","year":1297}],"when":{"timespans":[{"start":{"in":"1297"},"end":{"in":"1297"}}]}},{"toponym":"Wezebury","citations":[{"label":"1358 Ipm","year":1358}],"when":{"timespans":[{"start":{"in":"1358"},"end":{"in":"1358"}}]}},{"toponym":"Wes(e)bury(e)","citations":[{"label":"1438–1592, recurring Pat","year":1438},{"label":"1438–1592, recurring Dep"},{"label":"1438 Pat","year":1438},{"label":"1592 Dep","year":1592}],"when":{"timespans":[{"start":{"in":"1438"},"end":{"in":"1592"}},{"start":{"in":"1438"},"end":{"in":"1438"}},{"start":{"in":"1458"},"end":{"in":"1458"}},{"start":{"in":"1592"},"end":{"in":"1592"}}]}},{"toponym":"Weysbury(e), Weisbury(e)","citations":[{"label":"1560 Will","year":1560},{"label":"1600 FF","year":1600}],"when":{"timespans":[{"start":{"in":"1560"},"end":{"in":"1560"}},{"start":{"in":"1600"},"end":{"in":"1600"}}]}}],"types":[{"identifier":"http://vocab.getty.edu/aat/300232418","label":"administrative division","sourceLabels":[{"label":"township","lang":"en"}]}],"geometry":{"type":"GeometryCollection","geometries":[{"type":"Point","coordinates":[-2.41193,51.82374],"citations":[{"label":"GeoNames, gazetteer record geonames:2634480"}]},{"type":"Point","coordinates":[-2.420817046,51.82342249],"citations":[{"label":"English Place-Name Society survey (DEEP coordinates)"}]},{"type":"Point","coordinates":[-2.40043,51.8284],"citations":[{"label":"Key to English Place-Names (KEPN), gazetteer record 6534"}]}]},"when":{"timespans":[{"start":{"in":"1053"},"end":{"in":"1600"}}]},"links":[{"type":"closeMatch","identifier":"https://sws.geonames.org/2634480/"}],"relations":[{"relationType":"gvp:broaderPartitive","relationTo":"http://placenames.org.uk/id/placename/40/010420","label":"within Westbury on Severn"}]}]}