{"@context":"https://raw.githubusercontent.com/LinkedPasts/linked-places-format/main/linkedplaces-context-v1.1.jsonld","type":"FeatureCollection","license":"Digitisation of English Placenames MADS data is licensed to Jisc by the English Place Names Society and released under a Creative Commons Attribution-NonCommercial 4.0 International License.","note":"LPF v1.3, lossy; derived from the PLATO record; plato_commit=fa0d247ccc0263f8f19c8d7cdcd163df96935d1e","features":[{"@id":"https://w3id.org/whg-epns/40/010809","type":"Feature","properties":{"title":"St Briavels Hundred","ccodes":["GB"],"fclasses":["A"]},"names":[{"toponym":"St Briavels Hundred","lang":"en","citations":[{"label":"English Place-Name Society survey, volume 40: Gloucestershire"}]},{"toponym":"Sc' Breuell hund'","citations":[{"label":"c. 1275 For","year":1265}],"when":{"timespans":[{"start":{"earliest":"1265","latest":"1285"},"end":{"earliest":"1265","latest":"1285"}}]}},{"toponym":"lib' de Sco' Breuello, hund' de Sco' Breuello","citations":[{"label":"1287 Ass","year":1287}],"when":{"timespans":[{"start":{"in":"1287"},"end":{"in":"1287"}},{"start":{"in":"1378"},"end":{"in":"1378"}}]}},{"toponym":"hundredum Seynbrevelli","citations":[{"label":"1347 Works","year":1347}],"when":{"timespans":[{"start":{"in":"1347"},"end":{"in":"1347"}}]}},{"toponym":"hd. of St Brevels","citations":[{"label":"1403 Pat","year":1403}],"when":{"timespans":[{"start":{"in":"1403"},"end":{"in":"1403"}}]}},{"toponym":"hund' of Seynt Brevelles, Sente Brevelles","citations":[{"label":"1542 LP","year":1542}],"when":{"timespans":[{"start":{"in":"1542"},"end":{"in":"1542"}}]}},{"toponym":"hundred of Saint Brevills","citations":[{"label":"1592 Dep","year":1592}],"when":{"timespans":[{"start":{"in":"1592"},"end":{"in":"1592"}}]}},{"toponym":"Scus' Briavellus","citations":[{"label":"1276 RH","year":1276}],"when":{"timespans":[{"start":{"in":"1276"},"end":{"in":"1276"}}]}},{"toponym":"Libertas sancti Briavelli","citations":[{"label":"1303 FA","year":1303}],"when":{"timespans":[{"start":{"in":"1303"},"end":{"in":"1303"}}]}},{"toponym":"hundredum de Sancto Briavello","citations":[{"label":"1316 FA","year":1316}],"when":{"timespans":[{"start":{"in":"1316"},"end":{"in":"1316"}}]}},{"toponym":"Lib' de Sancto Briavello","citations":[{"label":"1327 SR","year":1327}],"when":{"timespans":[{"start":{"in":"1327"},"end":{"in":"1327"}}]}}],"types":[{"identifier":"http://vocab.getty.edu/aat/300232418","label":"administrative division","sourceLabels":[{"label":"hundred / wapentake","lang":"en"}]}],"geometry":null,"when":{"timespans":[{"start":{"in":"1265"},"end":{"in":"1592"}}]},"relations":[{"relationType":"gvp:broaderPartitive","relationTo":"https://w3id.org/whg-epns/40/000001","label":"within Gloucestershire"}]}]}