{"@context":"https://raw.githubusercontent.com/LinkedPasts/linked-places-format/main/linkedplaces-context-v1.1.jsonld","type":"FeatureCollection","license":"Digitisation of English Placenames MADS data is licensed to Jisc by the English Place Names Society and released under a Creative Commons Attribution-NonCommercial 4.0 International License.","note":"LPF v1.3, lossy; derived from the PLATO record; plato_commit=fa0d247ccc0263f8f19c8d7cdcd163df96935d1e","features":[{"@id":"https://w3id.org/whg-epns/40/011594","type":"Feature","properties":{"title":"Little Dean","ccodes":["GB"],"fclasses":["A","P"]},"names":[{"toponym":"Little Dean","lang":"en","citations":[{"label":"English Place-Name Society survey, volume 40: Gloucestershire"}]},{"toponym":"Dene","citations":[{"label":"1086 DB","year":1086},{"label":"1250 Misc","year":1250}],"when":{"timespans":[{"start":{"in":"1086"},"end":{"in":"1086"}},{"start":{"in":"1250"},"end":{"in":"1250"}}]}},{"toponym":"Parva Dene, Parua Dene","citations":[{"label":"1220 Fees","year":1220},{"label":"1221 Ass","year":1221},{"label":"c. 1270 For","year":1260},{"label":"RH","year":1276},{"label":"IpmR"},{"label":"1276 RH","year":1276},{"label":"1437 IpmR","year":1437}],"when":{"timespans":[{"start":{"in":"1220"},"end":{"in":"1220"}},{"start":{"in":"1221"},"end":{"in":"1221"}},{"start":{"earliest":"1260","latest":"1280"},"end":{"earliest":"1260","latest":"1280"}},{"start":{"in":"1276"},"end":{"in":"1437"}},{"start":{"in":"1276"},"end":{"in":"1276"}},{"start":{"in":"1437"},"end":{"in":"1437"}}]}},{"toponym":"Lit(t)le Dene, Lyt(t)le Dene, Lyttel(l) Dene, Littel(l) Dene","citations":[{"label":"1328 Banco","year":1328},{"label":"1378 Ass","year":1378},{"label":"Pat","year":1407},{"label":"Dep"},{"label":"1407 Pat","year":1407},{"label":"1594 Dep","year":1594}],"when":{"timespans":[{"start":{"in":"1328"},"end":{"in":"1328"}},{"start":{"in":"1378"},"end":{"in":"1378"}},{"start":{"in":"1407"},"end":{"in":"1594"}},{"start":{"in":"1407"},"end":{"in":"1407"}},{"start":{"in":"1594"},"end":{"in":"1594"}}]}},{"toponym":"Parua Deane","citations":[{"label":"1436 MinAcct","year":1436},{"label":"1535 VE","year":1535}],"when":{"timespans":[{"start":{"in":"1436"},"end":{"in":"1436"}},{"start":{"in":"1535"},"end":{"in":"1535"}}]}},{"toponym":"Lit(t)le Dean(e)","citations":[{"label":"1509-47 Surv","year":1509},{"label":"1642 Comm","year":1642}],"when":{"timespans":[{"start":{"earliest":"1509","latest":"1547"},"end":{"earliest":"1509","latest":"1547"}},{"start":{"in":"1642"},"end":{"in":"1642"}}]}}],"types":[{"identifier":"http://vocab.getty.edu/aat/300232418","label":"administrative division","sourceLabels":[{"label":"township","lang":"en"}]}],"geometry":{"type":"GeometryCollection","geometries":[{"type":"Point","coordinates":[-2.47862,51.81795],"citations":[{"label":"GeoNames, gazetteer record geonames:2644340"}]},{"type":"Point","coordinates":[-2.47876341,51.8142088],"citations":[{"label":"English Place-Name Society survey (DEEP coordinates)"}]},{"type":"Point","coordinates":[-2.47289,51.8192],"citations":[{"label":"Key to English Place-Names (KEPN), gazetteer record 6539"}]}]},"when":{"timespans":[{"start":{"in":"1086"},"end":{"in":"1642"}}]},"links":[{"type":"closeMatch","identifier":"https://sws.geonames.org/2644340/"}],"relations":[{"relationType":"gvp:broaderPartitive","relationTo":"https://w3id.org/whg-epns/40/011593","label":"within Little Dean"}]}]}