{"@context":"https://raw.githubusercontent.com/LinkedPasts/linked-places-format/main/linkedplaces-context-v1.1.jsonld","type":"FeatureCollection","license":"Digitisation of English Placenames MADS data is licensed to Jisc by the English Place Names Society and released under a Creative Commons Attribution-NonCommercial 4.0 International License.","note":"LPF v1.3, lossy; derived from the PLATO record; plato_commit=ca0afadabec1e23a145c0b03df77e8f151f79832","features":[{"@id":"http://placenames.org.uk/id/placename/40/012135","type":"Feature","properties":{"title":"Newland","ccodes":["GB"],"fclasses":["A","P"]},"names":[{"toponym":"Newland","lang":"en","citations":[{"label":"English Place-Name Society survey, volume 40: Gloucestershire"}]},{"toponym":"Noua terra, Nova terra","citations":[{"label":"1221 Ass","year":1221},{"label":"1255–1327, recurring Ipm","year":1255},{"label":"1255–1327, recurring For"},{"label":"1255–1327, recurring SR"},{"label":"1255 Ipm","year":1255},{"label":"1255 For","year":1255},{"label":"1327 SR","year":1327}],"when":{"timespans":[{"start":{"in":"1221"},"end":{"in":"1221"}},{"start":{"in":"1255"},"end":{"in":"1327"}},{"start":{"in":"1255"},"end":{"in":"1255"}},{"start":{"in":"1255"},"end":{"in":"1255"}},{"start":{"in":"1327"},"end":{"in":"1327"}}]}},{"toponym":"Nova Landa","citations":[{"label":"1256 Cl","year":1256}],"when":{"timespans":[{"start":{"in":"1256"},"end":{"in":"1256"}}]}},{"toponym":"Neweland(e)","citations":[{"label":"1248 Ass","year":1248},{"label":"1254–1461, recurring FF","year":1254},{"label":"1254–1461, recurring Pat"},{"label":"1254 FF","year":1254},{"label":"1461 Pat","year":1461}],"when":{"timespans":[{"start":{"in":"1248"},"end":{"in":"1248"}},{"start":{"in":"1254"},"end":{"in":"1461"}},{"start":{"in":"1254"},"end":{"in":"1254"}},{"start":{"in":"1461"},"end":{"in":"1461"}}]}},{"toponym":"la Newelaunde","citations":[{"label":"1251 Misc","year":1251}],"when":{"timespans":[{"start":{"in":"1251"},"end":{"in":"1251"}}]}},{"toponym":"(la) Newelond(e)","citations":[{"label":"1251 Ch","year":1251},{"label":"1278–1490, recurring FF","year":1278},{"label":"1278–1490, recurring Pat"},{"label":"1278 FF","year":1278},{"label":"1490 Pat","year":1490}],"when":{"timespans":[{"start":{"in":"1251"},"end":{"in":"1251"}},{"start":{"in":"1278"},"end":{"in":"1490"}},{"start":{"in":"1278"},"end":{"in":"1278"}},{"start":{"in":"1490"},"end":{"in":"1490"}}]}},{"toponym":"(la) Neulond(e), Newlond(e)","citations":[{"label":"1248 Ass","year":1248},{"label":"1286–1536, recurring Heref","year":1286},{"label":"1286–1536, recurring GlR"},{"label":"1286 Heref","year":1286},{"label":"1536 GlR","year":1536}],"when":{"timespans":[{"start":{"in":"1248"},"end":{"in":"1248"}},{"start":{"in":"1286"},"end":{"in":"1536"}},{"start":{"in":"1286"},"end":{"in":"1286"}},{"start":{"in":"1536"},"end":{"in":"1536"}}]}},{"toponym":"Newlaunde","citations":[{"label":"1277 Ch","year":1277}],"when":{"timespans":[{"start":{"in":"1277"},"end":{"in":"1277"}}]}},{"toponym":"Newland(e)","citations":[{"label":"1282 Cl","year":1282},{"label":"1305–1667, recurring Pat","year":1305},{"label":"1305–1667, recurring GlR"},{"label":"1305 Pat","year":1305},{"label":"1667 GlR","year":1667}],"when":{"timespans":[{"start":{"in":"1282"},"end":{"in":"1282"}},{"start":{"in":"1305"},"end":{"in":"1667"}},{"start":{"in":"1305"},"end":{"in":"1305"}},{"start":{"in":"1667"},"end":{"in":"1667"}}]}},{"toponym":"(la) Niwelond(e), Nywelond(e)","citations":[{"label":"1287 Ass","year":1287}],"when":{"timespans":[{"start":{"in":"1287"},"end":{"in":"1287"}},{"start":{"in":"1320"},"end":{"in":"1320"}},{"start":{"in":"1363"},"end":{"in":"1363"}}]}},{"toponym":"la Neoue tere","citations":[{"label":"1320 Ass","year":1320}],"when":{"timespans":[{"start":{"in":"1320"},"end":{"in":"1320"}}]}}],"types":[{"identifier":"http://vocab.getty.edu/aat/300232418","label":"administrative division","sourceLabels":[{"label":"township","lang":"en"}]}],"geometry":{"type":"GeometryCollection","geometries":[{"type":"Point","coordinates":[-2.65,51.78333],"citations":[{"label":"GeoNames, gazetteer record geonames:2641627"}]},{"type":"Point","coordinates":[-2.652329457,51.77740538],"citations":[{"label":"English Place-Name Society survey (DEEP coordinates)"}]},{"type":"Point","coordinates":[-2.645146152906619,51.7819418813245],"citations":[{"label":"Unlock (EDINA) gazetteer, gazetteer record unlock:11230240"}]}]},"when":{"timespans":[{"start":{"in":"1221"},"end":{"in":"1667"}}]},"links":[{"type":"closeMatch","identifier":"https://sws.geonames.org/2641627/"}],"relations":[{"relationType":"gvp:broaderPartitive","relationTo":"http://placenames.org.uk/id/placename/40/012134","label":"within Newland"}]}]}