{"@context":"https://raw.githubusercontent.com/LinkedPasts/linked-places-format/main/linkedplaces-context-v1.1.jsonld","type":"FeatureCollection","license":"Digitisation of English Placenames MADS data is licensed to Jisc by the English Place Names Society and released under a Creative Commons Attribution-NonCommercial 4.0 International License.","note":"LPF v1.3, lossy; derived from the PLATO record; plato_commit=ca0afadabec1e23a145c0b03df77e8f151f79832","features":[{"@id":"https://w3id.org/whg-epns/40/013619","type":"Feature","properties":{"title":"Tidenham","ccodes":["GB"],"fclasses":["A","P"]},"names":[{"toponym":"Tidenham","lang":"en","citations":[{"label":"English Place-Name Society survey, volume 40: Gloucestershire"}]}],"types":[{"identifier":"http://vocab.getty.edu/aat/300232418","label":"administrative division","sourceLabels":[{"label":"parish","lang":"en"}]}],"geometry":{"type":"GeometryCollection","geometries":[{"type":"Point","coordinates":[-2.64098,51.65874],"citations":[{"label":"GeoNames, gazetteer record geonames:2635852"}]},{"type":"Point","coordinates":[-2.63606581,51.65160221],"citations":[{"label":"English Place-Name Society survey (DEEP coordinates)"}]},{"type":"Point","coordinates":[-2.643357179236203,51.65605942079311],"citations":[{"label":"Unlock (EDINA) gazetteer, gazetteer record unlock:11300887"}]},{"type":"Point","coordinates":[-2.64479,51.6655],"citations":[{"label":"Key to English Place-Names (KEPN), gazetteer record 6552"}]}]},"links":[{"type":"closeMatch","identifier":"https://sws.geonames.org/2635852/"}],"relations":[{"relationType":"gvp:broaderPartitive","relationTo":"https://w3id.org/whg-epns/40/013593","label":"within Westbury Hundred"}]}]}