{"@context":"https://raw.githubusercontent.com/LinkedPasts/linked-places-format/main/linkedplaces-context-v1.1.jsonld","type":"FeatureCollection","license":"Digitisation of English Placenames MADS data is licensed to Jisc by the English Place Names Society and released under a Creative Commons Attribution-NonCommercial 4.0 International License.","note":"LPF v1.3, lossy; derived from the PLATO record; plato_commit=ca0afadabec1e23a145c0b03df77e8f151f79832","features":[{"@id":"https://w3id.org/whg-epns/12/000542","type":"Feature","properties":{"title":"Harlow Half-Hundred","ccodes":["GB"],"fclasses":["A"]},"names":[{"toponym":"Harlow Half-Hundred","lang":"en","citations":[{"label":"English Place-Name Society survey, volume 12: Essex"}]},{"toponym":"Herlaua","citations":[{"label":"1086 DB","year":1086},{"label":"1178-90 P","year":1178}],"when":{"timespans":[{"start":{"in":"1086"},"end":{"in":"1086"}},{"start":{"earliest":"1178","latest":"1190"},"end":{"earliest":"1178","latest":"1190"}}]}},{"toponym":"Herlaue","citations":[{"label":"1219 Fees","year":1219}],"when":{"timespans":[{"start":{"in":"1219"},"end":{"in":"1219"}}]}},{"toponym":"Herlawe","citations":[{"label":"1274 RH","year":1274},{"label":"1303 FA","year":1303}],"when":{"timespans":[{"start":{"in":"1274"},"end":{"in":"1274"}},{"start":{"in":"1303"},"end":{"in":"1303"}}]}},{"toponym":"Herloue","citations":[{"label":"1238 SR","year":1238}],"when":{"timespans":[{"start":{"in":"1238"},"end":{"in":"1238"}}]}},{"toponym":"Herle","citations":[{"label":"1227 Fees","year":1227}],"when":{"timespans":[{"start":{"in":"1227"},"end":{"in":"1227"}}]}},{"toponym":"Herleg'","citations":[{"label":"1252 Cl","year":1252}],"when":{"timespans":[{"start":{"in":"1252"},"end":{"in":"1252"}}]}},{"toponym":"Harlowe","citations":[{"label":"1484 Pat","year":1484}],"when":{"timespans":[{"start":{"in":"1484"},"end":{"in":"1484"}}]}}],"types":[{"identifier":"http://vocab.getty.edu/aat/300232418","label":"administrative division","sourceLabels":[{"label":"hundred / wapentake","lang":"en"}]}],"geometry":null,"when":{"timespans":[{"start":{"in":"1086"},"end":{"in":"1484"}}]},"relations":[{"relationType":"gvp:broaderPartitive","relationTo":"https://w3id.org/whg-epns/12/000001","label":"within Essex"}]}]}