{"@context":"https://raw.githubusercontent.com/LinkedPasts/linked-places-format/main/linkedplaces-context-v1.1.jsonld","type":"FeatureCollection","license":"Digitisation of English Placenames MADS data is licensed to Jisc by the English Place Names Society and released under a Creative Commons Attribution-NonCommercial 4.0 International License.","note":"LPF v1.3, lossy; derived from the PLATO record; plato_commit=fa0d247ccc0263f8f19c8d7cdcd163df96935d1e","features":[{"@id":"https://w3id.org/whg-epns/12/000623","type":"Feature","properties":{"title":"Harlow","ccodes":["GB"],"fclasses":["A","P"]},"names":[{"toponym":"Harlow","lang":"en","citations":[{"label":"English Place-Name Society survey, volume 12: Essex"}]},{"toponym":"(at) Herlawe","citations":[{"label":"1045 ASWills","year":1045}],"when":{"timespans":[{"start":{"in":"1045"},"end":{"in":"1045"}}]}},{"toponym":"Herlaua, Herlauā","citations":[{"label":"1086 DB","year":1086}],"when":{"timespans":[{"start":{"in":"1086"},"end":{"in":"1086"}}]}},{"toponym":"Herlaue","citations":[{"label":"1199-1255 FF","year":1199}],"when":{"timespans":[{"start":{"earliest":"1199","latest":"1255"},"end":{"earliest":"1199","latest":"1255"}}]}},{"toponym":"Herlaue Abbatis","citations":[{"label":"1238 SR","year":1238}],"when":{"timespans":[{"start":{"in":"1238"},"end":{"in":"1238"}}]}},{"toponym":"Herlawe","citations":[{"label":"1238-62 FF","year":1238},{"label":"1248 Ass","year":1248},{"label":"1274 RH","year":1274},{"label":"1300 Pat","year":1300},{"label":"1303 FA","year":1303}],"when":{"timespans":[{"start":{"earliest":"1238","latest":"1262"},"end":{"earliest":"1238","latest":"1262"}},{"start":{"in":"1248"},"end":{"in":"1248"}},{"start":{"in":"1274"},"end":{"in":"1274"}},{"start":{"in":"1300"},"end":{"in":"1300"}},{"start":{"in":"1303"},"end":{"in":"1303"}}]}},{"toponym":"Herlaghe","citations":[{"label":"1303 FF","year":1303}],"when":{"timespans":[{"start":{"in":"1303"},"end":{"in":"1303"}}]}},{"toponym":"Herlouwe","citations":[{"label":"1324 Ipm","year":1324}],"when":{"timespans":[{"start":{"in":"1324"},"end":{"in":"1324"}}]}},{"toponym":"Herlowe","citations":[{"label":"1345 Pat","year":1345}],"when":{"timespans":[{"start":{"in":"1345"},"end":{"in":"1345"}}]}},{"toponym":"Chepyngherlawe","citations":[{"label":"1367 Londin","year":1367}],"when":{"timespans":[{"start":{"in":"1367"},"end":{"in":"1367"}}]}},{"toponym":"Herelawe","citations":[{"label":"1248 Ass","year":1248}],"when":{"timespans":[{"start":{"in":"1248"},"end":{"in":"1248"}}]}},{"toponym":"Harlawe","citations":[{"label":"1254 Ass","year":1254},{"label":"1373 Pat","year":1373}],"when":{"timespans":[{"start":{"in":"1254"},"end":{"in":"1254"}},{"start":{"in":"1373"},"end":{"in":"1373"}}]}},{"toponym":"Harlewe","citations":[{"label":"1254 Ass","year":1254}],"when":{"timespans":[{"start":{"in":"1254"},"end":{"in":"1254"}}]}},{"toponym":"Harlagh","citations":[{"label":"1317 Cl","year":1317}],"when":{"timespans":[{"start":{"in":"1317"},"end":{"in":"1317"}}]}},{"toponym":"Hertlawe","citations":[{"label":"1313 Pap","year":1313}],"when":{"timespans":[{"start":{"in":"1313"},"end":{"in":"1313"}}]}}],"types":[{"identifier":"http://vocab.getty.edu/aat/300232418","label":"administrative division","sourceLabels":[{"label":"township","lang":"en"}]}],"geometry":{"type":"GeometryCollection","geometries":[{"type":"Point","coordinates":[0.11158,51.77655],"citations":[{"label":"GeoNames, gazetteer record geonames:2647461"}]},{"type":"Point","coordinates":[0.108711892160346,51.7647967727275],"citations":[{"label":"Unlock (EDINA) gazetteer, gazetteer record unlock:11166280"}]},{"type":"Point","coordinates":[0.1075,51.7743],"citations":[{"label":"Key to English Place-Names (KEPN), gazetteer record 12206"}]}]},"when":{"timespans":[{"start":{"in":"1045"},"end":{"in":"1373"}}]},"links":[{"type":"closeMatch","identifier":"https://sws.geonames.org/2647461/"}],"relations":[{"relationType":"gvp:broaderPartitive","relationTo":"https://w3id.org/whg-epns/12/000622","label":"within Harlow"}]}]}