{"@context":"https://raw.githubusercontent.com/LinkedPasts/linked-places-format/main/linkedplaces-context-v1.1.jsonld","type":"FeatureCollection","license":"Digitisation of English Placenames MADS data is licensed to Jisc by the English Place Names Society and released under a Creative Commons Attribution-NonCommercial 4.0 International License.","note":"LPF v1.3, lossy; derived from the PLATO record; plato_commit=fa0d247ccc0263f8f19c8d7cdcd163df96935d1e","features":[{"@id":"https://w3id.org/whg-epns/12/001268","type":"Feature","properties":{"title":"Buckhurst Hill","ccodes":["GB"],"fclasses":["A","P"]},"names":[{"toponym":"Buckhurst Hill","lang":"en","citations":[{"label":"English Place-Name Society survey, volume 12: Essex"}]},{"toponym":"(la) Bocherst(e)","citations":[{"label":"1135 BM","year":1135},{"label":"1203 ChR","year":1203}],"when":{"timespans":[{"start":{"in":"1135"},"end":{"in":"1135"}},{"start":{"in":"1203"},"end":{"in":"1203"}}]}},{"toponym":"la Bokherste","citations":[{"label":"1291 For","year":1291}],"when":{"timespans":[{"start":{"in":"1291"},"end":{"in":"1291"}}]}},{"toponym":"Bokhirste","citations":[{"label":"13th Loughton","year":1200}],"when":{"timespans":[{"start":{"earliest":"1200","latest":"1300"},"end":{"earliest":"1200","latest":"1300"}}]}},{"toponym":"Bokehurste Hill","citations":[{"label":"c. 1528 EAS","year":1518}],"when":{"timespans":[{"start":{"earliest":"1518","latest":"1538"},"end":{"earliest":"1518","latest":"1538"}}]}},{"toponym":"(la) Bukhurst","citations":[{"label":"13th Loughton","year":1200}],"when":{"timespans":[{"start":{"earliest":"1200","latest":"1300"},"end":{"earliest":"1200","latest":"1300"}}]}},{"toponym":"(la) Bukhurst alias Goldhurst","citations":[{"label":"1485 Ipm","year":1485}],"when":{"timespans":[{"start":{"in":"1485"},"end":{"in":"1485"}}]}},{"toponym":"Buckhurst alias Gouldhurst","citations":[{"label":"1475 IpmR","year":1475}],"when":{"timespans":[{"start":{"in":"1475"},"end":{"in":"1475"}}]}},{"toponym":"Buckhurst Hill bridge","citations":[{"label":"1597 EAS","year":1597}],"when":{"timespans":[{"start":{"in":"1597"},"end":{"in":"1597"}}]}},{"toponym":"Bu(c)kkershyl(l)","citations":[{"label":"1496 Loughton","year":1496}],"when":{"timespans":[{"start":{"in":"1496"},"end":{"in":"1496"}},{"start":{"in":"1529"},"end":{"in":"1529"}}]}},{"toponym":"bokert hill","citations":[{"label":"1498 ER","year":1498}],"when":{"timespans":[{"start":{"in":"1498"},"end":{"in":"1498"}}]}},{"toponym":"Bookers Hill","citations":[{"label":"1563 EAS","year":1563}],"when":{"timespans":[{"start":{"in":"1563"},"end":{"in":"1563"}}]}},{"toponym":"Buckets Hill","citations":[{"label":"1739 Loughton","year":1739}],"when":{"timespans":[{"start":{"in":"1739"},"end":{"in":"1739"}}]}},{"toponym":"Buckott's Hill","citations":[{"label":"1770-7 Winstone","year":1770}],"when":{"timespans":[{"start":{"earliest":"1770","latest":"1777"},"end":{"earliest":"1770","latest":"1777"}}]}}],"types":[{"identifier":"http://vocab.getty.edu/aat/300232418","label":"administrative division","sourceLabels":[{"label":"township","lang":"en"}]}],"geometry":{"type":"GeometryCollection","geometries":[{"type":"Point","coordinates":[0.03262,51.62409],"citations":[{"label":"GeoNames, gazetteer record geonames:2654412"}]},{"type":"Point","coordinates":[0.04429024088994644,51.62203863363086],"citations":[{"label":"Unlock (EDINA) gazetteer, gazetteer record unlock:11091677"}]},{"type":"Point","coordinates":[0.0426734,51.6225],"citations":[{"label":"Key to English Place-Names (KEPN), gazetteer record 12216"}]}]},"when":{"timespans":[{"start":{"in":"1135"},"end":{"in":"1777"}}]},"links":[{"type":"closeMatch","identifier":"https://sws.geonames.org/2654412/"}],"relations":[{"relationType":"gvp:broaderPartitive","relationTo":"https://w3id.org/whg-epns/12/001267","label":"within Buckhurst Hill"}]}]}