{"@context":"https://raw.githubusercontent.com/LinkedPasts/linked-places-format/main/linkedplaces-context-v1.1.jsonld","type":"FeatureCollection","license":"Digitisation of English Placenames MADS data is licensed to Jisc by the English Place Names Society and released under a Creative Commons Attribution-NonCommercial 4.0 International License.","note":"LPF v1.3, lossy; derived from the PLATO record; plato_commit=ca0afadabec1e23a145c0b03df77e8f151f79832","features":[{"@id":"https://w3id.org/whg-epns/12/001443","type":"Feature","properties":{"title":"Greensted","ccodes":["GB"],"fclasses":["A","P"]},"names":[{"toponym":"Greensted","lang":"en","citations":[{"label":"English Place-Name Society survey, volume 12: Essex"}]},{"toponym":"Gernestedam","citations":[{"label":"1086 DB","year":1086}],"when":{"timespans":[{"start":{"in":"1086"},"end":{"in":"1086"}}]}},{"toponym":"Gernestede","citations":[{"label":"1248 Ass","year":1248}],"when":{"timespans":[{"start":{"in":"1248"},"end":{"in":"1248"}}]}},{"toponym":"Gren(e)sted(e)","citations":[{"label":"1236 FF","year":1236},{"label":"1328 Londin","year":1328}],"when":{"timespans":[{"start":{"in":"1236"},"end":{"in":"1236"}},{"start":{"in":"1328"},"end":{"in":"1328"}},{"start":{"in":"1331"},"end":{"in":"1331"}}]}},{"toponym":"Grenested by Aungre atte Castell","citations":[{"label":"1339 Pat","year":1339}],"when":{"timespans":[{"start":{"in":"1339"},"end":{"in":"1339"}}]}},{"toponym":"Grynstede","citations":[{"label":"1320 Orig","year":1320},{"label":"1321 Fine","year":1321}],"when":{"timespans":[{"start":{"in":"1320"},"end":{"in":"1320"}},{"start":{"in":"1321"},"end":{"in":"1321"}}]}}],"types":[{"identifier":"http://vocab.getty.edu/aat/300232418","label":"administrative division","sourceLabels":[{"label":"township","lang":"en"}]}],"geometry":{"type":"GeometryCollection","geometries":[{"type":"Point","coordinates":[0.21586,51.70286],"citations":[{"label":"GeoNames, gazetteer record geonames:2647941"}]},{"type":"Point","coordinates":[0.2074528281210821,51.70902109178419],"citations":[{"label":"Unlock (EDINA) gazetteer, gazetteer record unlock:11160736"}]},{"type":"Point","coordinates":[0.220275,51.7092],"citations":[{"label":"Key to English Place-Names (KEPN), gazetteer record 12219"}]}]},"when":{"timespans":[{"start":{"in":"1086"},"end":{"in":"1339"}}]},"links":[{"type":"closeMatch","identifier":"https://sws.geonames.org/2647941/"}],"relations":[{"relationType":"gvp:broaderPartitive","relationTo":"https://w3id.org/whg-epns/12/001442","label":"within Greensted"}]}]}