{"@context":"https://raw.githubusercontent.com/LinkedPasts/linked-places-format/main/linkedplaces-context-v1.1.jsonld","type":"FeatureCollection","license":"Digitisation of English Placenames MADS data is licensed to Jisc by the English Place Names Society and released under a Creative Commons Attribution-NonCommercial 4.0 International License.","note":"LPF v1.3, lossy; derived from the PLATO record; plato_commit=ca0afadabec1e23a145c0b03df77e8f151f79832","features":[{"@id":"https://w3id.org/whg-epns/12/002042","type":"Feature","properties":{"title":"Abbess Roding","ccodes":["GB"],"fclasses":["A","P"]},"names":[{"toponym":"Abbess Roding","lang":"en","citations":[{"label":"English Place-Name Society survey, volume 12: Essex"}]},{"toponym":"Roinges Abbatisse","citations":[{"label":"1237 Colch","year":1237}],"when":{"timespans":[{"start":{"in":"1237"},"end":{"in":"1237"}}]}},{"toponym":"Roinges le Abbesse","citations":[{"label":"1258 FF","year":1258}],"when":{"timespans":[{"start":{"in":"1258"},"end":{"in":"1258"}}]}},{"toponym":"Rodyng, Rothinge Abbatisse","citations":[{"label":"1291 FF","year":1291},{"label":"1306 Abbr","year":1306}],"when":{"timespans":[{"start":{"in":"1291"},"end":{"in":"1291"}},{"start":{"in":"1306"},"end":{"in":"1306"}}]}},{"toponym":"Rothing Berking","citations":[{"label":"1312 FF","year":1312}],"when":{"timespans":[{"start":{"in":"1312"},"end":{"in":"1312"}}]}},{"toponym":"Abbeys Rothyng","citations":[{"label":"1518 Deed","year":1518}],"when":{"timespans":[{"start":{"in":"1518"},"end":{"in":"1518"}}]}},{"toponym":"Rothynge Abbasse","citations":[{"label":"1546 Deed","year":1546}],"when":{"timespans":[{"start":{"in":"1546"},"end":{"in":"1546"}}]}},{"toponym":"Abbas Rooding","citations":[{"label":"1666 EssPR","year":1666}],"when":{"timespans":[{"start":{"in":"1666"},"end":{"in":"1666"}}]}},{"toponym":"Abbish Rooden","citations":[{"label":"1694 ER","year":1694}],"when":{"timespans":[{"start":{"in":"1694"},"end":{"in":"1694"}}]}},{"toponym":"Abbots Roding","citations":[{"label":"1733 EssPR","year":1733}],"when":{"timespans":[{"start":{"in":"1733"},"end":{"in":"1733"}}]}}],"types":[{"identifier":"http://vocab.getty.edu/aat/300232418","label":"administrative division","sourceLabels":[{"label":"township","lang":"en"}]}],"geometry":{"type":"GeometryCollection","geometries":[{"type":"Point","coordinates":[0.27723,51.7783],"citations":[{"label":"GeoNames, gazetteer record geonames:2657878"}]},{"type":"Point","coordinates":[0.2833901759692068,51.77951960973272],"citations":[{"label":"Unlock (EDINA) gazetteer, gazetteer record unlock:11055061"}]},{"type":"Point","coordinates":[0.281739,51.78],"citations":[{"label":"Key to English Place-Names (KEPN), gazetteer record 12230"}]}]},"when":{"timespans":[{"start":{"in":"1237"},"end":{"in":"1733"}}]},"links":[{"type":"closeMatch","identifier":"https://sws.geonames.org/2657878/"}],"relations":[{"relationType":"gvp:broaderPartitive","relationTo":"https://w3id.org/whg-epns/12/002041","label":"within Abbess Roding"}]}]}