{"@context":"https://raw.githubusercontent.com/LinkedPasts/linked-places-format/main/linkedplaces-context-v1.1.jsonld","type":"FeatureCollection","license":"Digitisation of English Placenames MADS data is licensed to Jisc by the English Place Names Society and released under a Creative Commons Attribution-NonCommercial 4.0 International License.","note":"LPF v1.3, lossy; derived from the PLATO record; plato_commit=ca0afadabec1e23a145c0b03df77e8f151f79832","features":[{"@id":"https://w3id.org/whg-epns/12/002367","type":"Feature","properties":{"title":"Theydon Bois","ccodes":["GB"],"fclasses":["A","P"]},"names":[{"toponym":"Theydon Bois","lang":"en","citations":[{"label":"English Place-Name Society survey, volume 12: Essex"}]}],"types":[{"identifier":"http://vocab.getty.edu/aat/300232418","label":"administrative division","sourceLabels":[{"label":"parish","lang":"en"}]}],"geometry":{"type":"GeometryCollection","geometries":[{"type":"Point","coordinates":[0.09781,51.67426],"citations":[{"label":"GeoNames, gazetteer record geonames:2636031"}]},{"type":"Point","coordinates":[0.1045342412845393,51.67493588612781],"citations":[{"label":"Unlock (EDINA) gazetteer, gazetteer record unlock:11299291"}]},{"type":"Point","coordinates":[0.102908,51.6754],"citations":[{"label":"Key to English Place-Names (KEPN), gazetteer record 12236"}]}]},"links":[{"type":"closeMatch","identifier":"https://sws.geonames.org/2636031/"}],"relations":[{"relationType":"gvp:broaderPartitive","relationTo":"https://w3id.org/whg-epns/12/001199","label":"within Ongar Hundred"}]}]}