{"@context":"https://raw.githubusercontent.com/LinkedPasts/linked-places-format/main/linkedplaces-context-v1.1.jsonld","type":"FeatureCollection","license":"Digitisation of English Placenames MADS data is licensed to Jisc by the English Place Names Society and released under a Creative Commons Attribution-NonCommercial 4.0 International License.","note":"LPF v1.3, lossy; derived from the PLATO record; plato_commit=ca0afadabec1e23a145c0b03df77e8f151f79832","features":[{"@id":"https://w3id.org/whg-epns/12/003720","type":"Feature","properties":{"title":"Aveley","ccodes":["GB"],"fclasses":["A","P"]},"names":[{"toponym":"Aveley","lang":"en","citations":[{"label":"English Place-Name Society survey, volume 12: Essex"}]},{"toponym":"Aluitheleam, Aluielea, Auileiam","citations":[{"label":"1086 DB","year":1086}],"when":{"timespans":[{"start":{"in":"1086"},"end":{"in":"1086"}}]}},{"toponym":"Alviueleia","citations":[{"label":"1157 France","year":1157}],"when":{"timespans":[{"start":{"in":"1157"},"end":{"in":"1157"}}]}},{"toponym":"Aelivaleio","citations":[{"label":"1174-82 France","year":1174}],"when":{"timespans":[{"start":{"earliest":"1174","latest":"1182"},"end":{"earliest":"1174","latest":"1182"}}]}},{"toponym":"Alvith(e)le(e), Alvythele","citations":[{"label":"1202–1377, recurring FF","year":1202},{"label":"1202–1377, recurring AD"},{"label":"1202-61 FF","year":1202},{"label":"1377 AD","year":1377}],"when":{"timespans":[{"start":{"in":"1202"},"end":{"in":"1377"}},{"start":{"earliest":"1202","latest":"1261"},"end":{"earliest":"1202","latest":"1261"}},{"start":{"in":"1377"},"end":{"in":"1377"}}]}},{"toponym":"Alvethele(g)","citations":[{"label":"1248 FF","year":1248},{"label":"1315 Ipm","year":1315},{"label":"1335 Londin","year":1335}],"when":{"timespans":[{"start":{"in":"1248"},"end":{"in":"1248"}},{"start":{"in":"1315"},"end":{"in":"1315"}},{"start":{"in":"1335"},"end":{"in":"1335"}}]}},{"toponym":"Auvil(l)ers","citations":[{"label":"1205 FF","year":1205},{"label":"1212 RBE","year":1212},{"label":"1212 Fees","year":1212},{"label":"1259 Pat","year":1259}],"when":{"timespans":[{"start":{"in":"1205"},"end":{"in":"1205"}},{"start":{"in":"1212"},"end":{"in":"1212"}},{"start":{"in":"1212"},"end":{"in":"1212"}},{"start":{"in":"1259"},"end":{"in":"1259"}}]}},{"toponym":"Auvel(l)ers","citations":[{"label":"1247-51 FF","year":1247},{"label":"1264 Misc","year":1264}],"when":{"timespans":[{"start":{"earliest":"1247","latest":"1251"},"end":{"earliest":"1247","latest":"1251"}},{"start":{"in":"1264"},"end":{"in":"1264"}}]}},{"toponym":"Auvil(l)iers","citations":[{"label":"1207-23 FF","year":1207}],"when":{"timespans":[{"start":{"earliest":"1207","latest":"1223"},"end":{"earliest":"1207","latest":"1223"}}]}},{"toponym":"Auvylers","citations":[{"label":"1243 FF","year":1243}],"when":{"timespans":[{"start":{"in":"1243"},"end":{"in":"1243"}}]}},{"toponym":"Auvelers","citations":[{"label":"1254 FF","year":1254}],"when":{"timespans":[{"start":{"in":"1254"},"end":{"in":"1254"}}]}},{"toponym":"Auuelers","citations":[{"label":"1285 Pat","year":1285}],"when":{"timespans":[{"start":{"in":"1285"},"end":{"in":"1285"}}]}},{"toponym":"Alvidelega","citations":[{"label":"t. Hy 3 RBE","year":1216}],"when":{"timespans":[{"start":{"earliest":"1216","latest":"1272"},"end":{"earliest":"1216","latest":"1272"}}]}},{"toponym":"Alvideleye","citations":[{"label":"1258 FF","year":1258}],"when":{"timespans":[{"start":{"in":"1258"},"end":{"in":"1258"}}]}},{"toponym":"Alvedeleye","citations":[{"label":"1247 Ch","year":1247}],"when":{"timespans":[{"start":{"in":"1247"},"end":{"in":"1247"}}]}},{"toponym":"Auvidele","citations":[{"label":"1275 RH","year":1275}],"when":{"timespans":[{"start":{"in":"1275"},"end":{"in":"1275"}}]}},{"toponym":"Alvytlee","citations":[{"label":"1368 Pat","year":1368}],"when":{"timespans":[{"start":{"in":"1368"},"end":{"in":"1368"}}]}},{"toponym":"Alvilega","citations":[{"label":"t. Hy 3 RBE","year":1216}],"when":{"timespans":[{"start":{"earliest":"1216","latest":"1272"},"end":{"earliest":"1216","latest":"1272"}}]}},{"toponym":"Alvyleye","citations":[{"label":"t. Ed 1 FA","year":1272}],"when":{"timespans":[{"start":{"earliest":"1272","latest":"1307"},"end":{"earliest":"1272","latest":"1307"}}]}},{"toponym":"Avil(l)ers","citations":[{"label":"1227 FF","year":1227},{"label":"1234 Bracton","year":1234},{"label":"1262 Pat","year":1262},{"label":"1286 Ch","year":1286}],"when":{"timespans":[{"start":{"in":"1227"},"end":{"in":"1227"}},{"start":{"in":"1234"},"end":{"in":"1234"}},{"start":{"in":"1262"},"end":{"in":"1262"}},{"start":{"in":"1286"},"end":{"in":"1286"}}]}},{"toponym":"Avellers","citations":[{"label":"1268 FF","year":1268}],"when":{"timespans":[{"start":{"in":"1268"},"end":{"in":"1268"}}]}},{"toponym":"Alithel'","citations":[{"label":"1254 FF","year":1254}],"when":{"timespans":[{"start":{"in":"1254"},"end":{"in":"1254"}}]}},{"toponym":"Alvevele","citations":[{"label":"1292 Abbr","year":1292}],"when":{"timespans":[{"start":{"in":"1292"},"end":{"in":"1292"}}]}},{"toponym":"Alviueley","citations":[{"label":"1310 Ipm","year":1310}],"when":{"timespans":[{"start":{"in":"1310"},"end":{"in":"1310"}}]}},{"toponym":"Alveuiyele","citations":[{"label":"1327 Ipm","year":1327}],"when":{"timespans":[{"start":{"in":"1327"},"end":{"in":"1327"}}]}},{"toponym":"Alvihele","citations":[{"label":"13th StJohn","year":1200}],"when":{"timespans":[{"start":{"earliest":"1200","latest":"1300"},"end":{"earliest":"1200","latest":"1300"}}]}},{"toponym":"Alvieleia","citations":[{"label":"1332 Ch","year":1332}],"when":{"timespans":[{"start":{"in":"1332"},"end":{"in":"1332"}}]}},{"toponym":"Alvuthele","citations":[{"label":"1303 FA","year":1303}],"when":{"timespans":[{"start":{"in":"1303"},"end":{"in":"1303"}},{"start":{"in":"1428"},"end":{"in":"1428"}}]}},{"toponym":"Alfedele","citations":[{"label":"1366 FF","year":1366}],"when":{"timespans":[{"start":{"in":"1366"},"end":{"in":"1366"}}]}},{"toponym":"Alfithele","citations":[{"label":"1381 Pat","year":1381},{"label":"1384 Cl","year":1384}],"when":{"timespans":[{"start":{"in":"1381"},"end":{"in":"1381"}},{"start":{"in":"1384"},"end":{"in":"1384"}}]}},{"toponym":"Avithele(gh)","citations":[{"label":"1316 Ipm","year":1316},{"label":"1339 Pat","year":1339}],"when":{"timespans":[{"start":{"in":"1316"},"end":{"in":"1316"}},{"start":{"in":"1339"},"end":{"in":"1339"}}]}},{"toponym":"Awelay, Hawelay, Aulay","citations":[{"label":"1480 Cely","year":1480}],"when":{"timespans":[{"start":{"in":"1480"},"end":{"in":"1480"}}]}},{"toponym":"Awley","citations":[{"label":"1524 DKR","year":1524}],"when":{"timespans":[{"start":{"in":"1524"},"end":{"in":"1524"}}]}},{"toponym":"Albithley, Alveley, Aveley","citations":[{"label":"1535 VE","year":1535}],"when":{"timespans":[{"start":{"in":"1535"},"end":{"in":"1535"}}]}},{"toponym":"Aulflye","citations":[{"label":"1547 FF","year":1547}],"when":{"timespans":[{"start":{"in":"1547"},"end":{"in":"1547"}}]}},{"toponym":"Avely","citations":[{"label":"t. Eliz ChancP","year":1558}],"when":{"timespans":[{"start":{"earliest":"1558","latest":"1603"},"end":{"earliest":"1558","latest":"1603"}}]}},{"toponym":"Albethley alias Autheley","citations":[{"label":"1603 EA","year":1603}],"when":{"timespans":[{"start":{"in":"1603"},"end":{"in":"1603"}}]}}],"types":[{"identifier":"http://vocab.getty.edu/aat/300232418","label":"administrative division","sourceLabels":[{"label":"township","lang":"en"}]}],"geometry":{"type":"GeometryCollection","geometries":[{"type":"Point","coordinates":[0.25174,51.49987],"citations":[{"label":"GeoNames, gazetteer record geonames:2656759"}]},{"type":"Point","coordinates":[0.255038933065845,51.50125649724476],"citations":[{"label":"Unlock (EDINA) gazetteer, gazetteer record unlock:11065969"}]},{"type":"Point","coordinates":[0.253403,51.5018],"citations":[{"label":"Key to English Place-Names (KEPN), gazetteer record 12255"}]}]},"when":{"timespans":[{"start":{"in":"1086"},"end":{"in":"1603"}}]},"links":[{"type":"closeMatch","identifier":"https://sws.geonames.org/2656759/"}],"relations":[{"relationType":"gvp:broaderPartitive","relationTo":"https://w3id.org/whg-epns/12/003719","label":"within Aveley"}]}]}