{"@context":"https://raw.githubusercontent.com/LinkedPasts/linked-places-format/main/linkedplaces-context-v1.1.jsonld","type":"FeatureCollection","license":"Digitisation of English Placenames MADS data is licensed to Jisc by the English Place Names Society and released under a Creative Commons Attribution-NonCommercial 4.0 International License.","note":"LPF v1.3, lossy; derived from the PLATO record; plato_commit=fa0d247ccc0263f8f19c8d7cdcd163df96935d1e","features":[{"@id":"https://w3id.org/whg-epns/12/003899","type":"Feature","properties":{"title":"North Ockendon and South Ockendon","ccodes":["GB"],"fclasses":["A","P"]},"names":[{"toponym":"North Ockendon and South Ockendon","lang":"en","citations":[{"label":"English Place-Name Society survey, volume 12: Essex"}]},{"toponym":"Wokendune","citations":[{"label":"1066-87 WDB","year":1066},{"label":"1067 BM","year":1067},{"label":"1335 Ch","year":1335}],"when":{"timespans":[{"start":{"earliest":"1066","latest":"1087"},"end":{"earliest":"1066","latest":"1087"}},{"start":{"in":"1067"},"end":{"in":"1067"}},{"start":{"in":"1335"},"end":{"in":"1335"}}]}},{"toponym":"Wokendon(a)","citations":[{"label":"WDB","year":1085},{"label":"Cl"},{"label":"1085-1188 WDB","year":1085},{"label":"1392 Cl","year":1392}],"when":{"timespans":[{"start":{"in":"1085"},"end":{"in":"1392"}},{"start":{"earliest":"1085","latest":"1188"},"end":{"earliest":"1085","latest":"1188"}},{"start":{"in":"1392"},"end":{"in":"1392"}}]}},{"toponym":"Wokendon(a) la Rokele","citations":[{"label":"1248 Ass","year":1248}],"when":{"timespans":[{"start":{"in":"1248"},"end":{"in":"1248"}}]}},{"toponym":"Wokendon(a) Magdalene","citations":[{"label":"1479 Will","year":1479}],"when":{"timespans":[{"start":{"in":"1479"},"end":{"in":"1479"}}]}},{"toponym":"Wokenden","citations":[{"label":"1303 FA","year":1303}],"when":{"timespans":[{"start":{"in":"1303"},"end":{"in":"1303"}}]}},{"toponym":"Wochendona","citations":[{"label":"1085-6 Crispin","year":1085}],"when":{"timespans":[{"start":{"earliest":"1085","latest":"1086"},"end":{"earliest":"1085","latest":"1086"}}]}},{"toponym":"Wochenduna, Wochendunā","citations":[{"label":"1086 DB","year":1086}],"when":{"timespans":[{"start":{"in":"1086"},"end":{"in":"1086"}}]}},{"toponym":"Wokindun","citations":[{"label":"1066-75 WDB","year":1066}],"when":{"timespans":[{"start":{"earliest":"1066","latest":"1075"},"end":{"earliest":"1066","latest":"1075"}}]}},{"toponym":"Wokindon(e)","citations":[{"label":"1157-98 WDB","year":1157}],"when":{"timespans":[{"start":{"earliest":"1157","latest":"1198"},"end":{"earliest":"1157","latest":"1198"}}]}},{"toponym":"Wokyndon(e)","citations":[{"label":"1202 FF","year":1202},{"label":"1212 Abbr","year":1212}],"when":{"timespans":[{"start":{"in":"1202"},"end":{"in":"1202"}},{"start":{"in":"1212"},"end":{"in":"1212"}}]}},{"toponym":"Wokyndon(e) Cammays","citations":[{"label":"1233-7 HPD","year":1233}],"when":{"timespans":[{"start":{"earliest":"1233","latest":"1237"},"end":{"earliest":"1233","latest":"1237"}}]}},{"toponym":"Wokyndon(e) Kammeys","citations":[{"label":"1254 Ass","year":1254}],"when":{"timespans":[{"start":{"in":"1254"},"end":{"in":"1254"}}]}},{"toponym":"Wokyndon(e) Set Funteines","citations":[{"label":"1274 RH","year":1274},{"label":"1276 Ipm","year":1276}],"when":{"timespans":[{"start":{"in":"1274"},"end":{"in":"1274"}},{"start":{"in":"1276"},"end":{"in":"1276"}}]}},{"toponym":"Wokyndon(e) ad Turrim","citations":[{"label":"1294-7 Pat","year":1294},{"label":"1365 FF","year":1365}],"when":{"timespans":[{"start":{"earliest":"1294","latest":"1297"},"end":{"earliest":"1294","latest":"1297"}},{"start":{"in":"1365"},"end":{"in":"1365"}}]}},{"toponym":"North Wokyndon(e)","citations":[{"label":"1397 IpmR","year":1397}],"when":{"timespans":[{"start":{"in":"1397"},"end":{"in":"1397"}}]}},{"toponym":"Wokynden vii fontiu', South Wokynden","citations":[{"label":"1291 Tax","year":1291}],"when":{"timespans":[{"start":{"in":"1291"},"end":{"in":"1291"}}]}},{"toponym":"Wokyngdon","citations":[{"label":"1291 Tax","year":1291},{"label":"1301 Pat","year":1301},{"label":"1327-37 Londin","year":1327},{"label":"1403 Pat","year":1403}],"when":{"timespans":[{"start":{"in":"1291"},"end":{"in":"1291"}},{"start":{"in":"1301"},"end":{"in":"1301"}},{"start":{"earliest":"1327","latest":"1337"},"end":{"earliest":"1327","latest":"1337"}},{"start":{"in":"1403"},"end":{"in":"1403"}}]}},{"toponym":"Wochadunā","citations":[{"label":"1086 DB","year":1086}],"when":{"timespans":[{"start":{"in":"1086"},"end":{"in":"1086"}}]}},{"toponym":"Wukedone","citations":[{"label":"1206 FF","year":1206}],"when":{"timespans":[{"start":{"in":"1206"},"end":{"in":"1206"}}]}},{"toponym":"Wokedone","citations":[{"label":"1286 FF","year":1286}],"when":{"timespans":[{"start":{"in":"1286"},"end":{"in":"1286"}}]}},{"toponym":"Woketon","citations":[{"label":"1427 Pat","year":1427}],"when":{"timespans":[{"start":{"in":"1427"},"end":{"in":"1427"}}]}},{"toponym":"Ok(k)endune, Ok(k)endun(a), Ockendun(a)","citations":[{"label":"1100-35 WDB","year":1100},{"label":"12th Crispin","year":1100},{"label":"1261 Pap","year":1261}],"when":{"timespans":[{"start":{"earliest":"1100","latest":"1135"},"end":{"earliest":"1100","latest":"1135"}},{"start":{"earliest":"1100","latest":"1200"},"end":{"earliest":"1100","latest":"1200"}},{"start":{"in":"1261"},"end":{"in":"1261"}}]}},{"toponym":"Southokyngdon","citations":[{"label":"1505 Pat","year":1505}],"when":{"timespans":[{"start":{"in":"1505"},"end":{"in":"1505"}}]}},{"toponym":"Wokinton de Reymes, Wokinton de Septem Fontibus","citations":[{"label":"1254 Ass","year":1254}],"when":{"timespans":[{"start":{"in":"1254"},"end":{"in":"1254"}}]}},{"toponym":"Wakenden","citations":[{"label":"1272 Ass","year":1272}],"when":{"timespans":[{"start":{"in":"1272"},"end":{"in":"1272"}}]}},{"toponym":"Wakyngdon","citations":[{"label":"1448 MinAcct","year":1448}],"when":{"timespans":[{"start":{"in":"1448"},"end":{"in":"1448"}}]}},{"toponym":"Wekenden Rokel'","citations":[{"label":"1285 Ass","year":1285}],"when":{"timespans":[{"start":{"in":"1285"},"end":{"in":"1285"}}]}},{"toponym":"Wekingdon","citations":[{"label":"1291 Tax","year":1291},{"label":"1499 Ipm","year":1499}],"when":{"timespans":[{"start":{"in":"1291"},"end":{"in":"1291"}},{"start":{"in":"1499"},"end":{"in":"1499"}}]}},{"toponym":"Southwokyngton, Southwokington","citations":[{"label":"1407 Pat","year":1407},{"label":"1544 LP","year":1544}],"when":{"timespans":[{"start":{"in":"1407"},"end":{"in":"1407"}},{"start":{"in":"1544"},"end":{"in":"1544"}}]}},{"toponym":"Okyngton","citations":[{"label":"1448-54 MinAcct","year":1448}],"when":{"timespans":[{"start":{"earliest":"1448","latest":"1454"},"end":{"earliest":"1448","latest":"1454"}}]}},{"toponym":"Northekondon","citations":[{"label":"1522 LP","year":1522}],"when":{"timespans":[{"start":{"in":"1522"},"end":{"in":"1522"}}]}},{"toponym":"North Uckindon","citations":[{"label":"1703 Shawcross","year":1703}],"when":{"timespans":[{"start":{"in":"1703"},"end":{"in":"1703"}}]}}],"types":[{"identifier":"http://vocab.getty.edu/aat/300232418","label":"administrative division","sourceLabels":[{"label":"township","lang":"en"}]}],"geometry":{"type":"GeometryCollection","geometries":[{"type":"Point","coordinates":[0.30015,51.54196],"citations":[{"label":"GeoNames, gazetteer record geonames:2641291"}]},{"type":"Point","coordinates":[0.3004932794635273,51.54534392778213],"citations":[{"label":"Unlock (EDINA) gazetteer, gazetteer record unlock:11232918"}]},{"type":"Point","coordinates":[0.283991,51.5372],"citations":[{"label":"Key to English Place-Names (KEPN), gazetteer record 12260"}]}]},"when":{"timespans":[{"start":{"in":"1066"},"end":{"in":"1703"}}]},"links":[{"type":"closeMatch","identifier":"https://sws.geonames.org/2641291/"}],"relations":[{"relationType":"gvp:broaderPartitive","relationTo":"https://w3id.org/whg-epns/12/003898","label":"within North and South Ockendon"}]}]}