{"@context":"https://raw.githubusercontent.com/LinkedPasts/linked-places-format/main/linkedplaces-context-v1.1.jsonld","type":"FeatureCollection","license":"Digitisation of English Placenames MADS data is licensed to Jisc by the English Place Names Society and released under a Creative Commons Attribution-NonCommercial 4.0 International License.","note":"LPF v1.3, lossy; derived from the PLATO record; plato_commit=ca0afadabec1e23a145c0b03df77e8f151f79832","features":[{"@id":"http://placenames.org.uk/id/placename/12/004149","type":"Feature","properties":{"title":"Great Warley and Little Warley","ccodes":["GB"],"fclasses":["A","P"]},"names":[{"toponym":"Great Warley and Little Warley","lang":"en","citations":[{"label":"English Place-Name Society survey, volume 12: Essex"}]},{"toponym":"Werle","citations":[{"label":"c. 1045 ASWills","year":1035}],"when":{"timespans":[{"start":{"earliest":"1035","latest":"1055"},"end":{"earliest":"1035","latest":"1055"}}]}},{"toponym":"Wareleiā","citations":[{"label":"1086 DB","year":1086}],"when":{"timespans":[{"start":{"in":"1086"},"end":{"in":"1086"}}]}},{"toponym":"Little Wareley","citations":[{"label":"1548 Pat","year":1548}],"when":{"timespans":[{"start":{"in":"1548"},"end":{"in":"1548"}}]}},{"toponym":"Wareley Magna, Wareley Parva, Wareley Wallet","citations":[{"label":"1594 N","year":1594}],"when":{"timespans":[{"start":{"in":"1594"},"end":{"in":"1594"}}]}},{"toponym":"Warleia, Warleiā","citations":[{"label":"1086 DB","year":1086}],"when":{"timespans":[{"start":{"in":"1086"},"end":{"in":"1086"}}]}},{"toponym":"Warle(e), Warle(e) Setmoles","citations":[{"label":"1212 Fees","year":1212},{"label":"1219 FF","year":1219},{"label":"1252-8 AD","year":1252}],"when":{"timespans":[{"start":{"in":"1212"},"end":{"in":"1212"}},{"start":{"in":"1219"},"end":{"in":"1219"}},{"start":{"in":"1243"},"end":{"in":"1243"}},{"start":{"earliest":"1252","latest":"1258"},"end":{"earliest":"1252","latest":"1258"}}]}},{"toponym":"Warle(e) Abbatisse, Warle(e) de Septem Molis","citations":[{"label":"1254 Ass","year":1254}],"when":{"timespans":[{"start":{"in":"1254"},"end":{"in":"1254"}}]}},{"toponym":"Estwarle(e), Warle(e) Moeles","citations":[{"label":"1276 For","year":1276},{"label":"1285 Ass","year":1285}],"when":{"timespans":[{"start":{"in":"1276"},"end":{"in":"1276"}},{"start":{"in":"1285"},"end":{"in":"1285"}}]}},{"toponym":"Abbeswarle(e)","citations":[{"label":"1292 Abbr","year":1292}],"when":{"timespans":[{"start":{"in":"1292"},"end":{"in":"1292"}}]}},{"toponym":"Warle(e) Septem Molarum","citations":[{"label":"1301 FF","year":1301}],"when":{"timespans":[{"start":{"in":"1301"},"end":{"in":"1301"}}]}},{"toponym":"Warlee Semeles","citations":[{"label":"1303 FA","year":1303},{"label":"1318 FF","year":1318},{"label":"1330 Londin","year":1330}],"when":{"timespans":[{"start":{"in":"1303"},"end":{"in":"1303"}},{"start":{"in":"1346"},"end":{"in":"1346"}},{"start":{"in":"1318"},"end":{"in":"1318"}},{"start":{"in":"1330"},"end":{"in":"1330"}},{"start":{"in":"1335"},"end":{"in":"1335"}}]}},{"toponym":"Warle Abesses","citations":[{"label":"1343 Ipm","year":1343}],"when":{"timespans":[{"start":{"in":"1343"},"end":{"in":"1343"}}]}},{"toponym":"Warle(e) Abbesse","citations":[{"label":"1346 FA","year":1346}],"when":{"timespans":[{"start":{"in":"1346"},"end":{"in":"1346"}}]}},{"toponym":"Warle(y)gh Setmel","citations":[{"label":"1257 Ch","year":1257}],"when":{"timespans":[{"start":{"in":"1257"},"end":{"in":"1257"}}]}},{"toponym":"Warle(y)gh set miles rectius Semeles","citations":[{"label":"t. Hy 3 FA","year":1216}],"when":{"timespans":[{"start":{"earliest":"1216","latest":"1272"},"end":{"earliest":"1216","latest":"1272"}}]}},{"toponym":"West Warle(y)gh","citations":[{"label":"1356 FF","year":1356}],"when":{"timespans":[{"start":{"in":"1356"},"end":{"in":"1356"}}]}},{"toponym":"Warley Great alias Walett","citations":[{"label":"1536 FF","year":1536}],"when":{"timespans":[{"start":{"in":"1536"},"end":{"in":"1536"}}]}},{"toponym":"Warle(y)gh Myche","citations":[{"label":"1552 EAS (NS)","year":1552}],"when":{"timespans":[{"start":{"in":"1552"},"end":{"in":"1552"}}]}},{"toponym":"Warl' et Setmolis","citations":[{"label":"1242 P","year":1242}],"when":{"timespans":[{"start":{"in":"1242"},"end":{"in":"1242"}}]}},{"toponym":"vill de Setmoles","citations":[{"label":"1285 Ass","year":1285}],"when":{"timespans":[{"start":{"in":"1285"},"end":{"in":"1285"}}]}},{"toponym":"Estwarle(e)semel(e)s","citations":[{"label":"1382 Cl","year":1382}],"when":{"timespans":[{"start":{"in":"1382"},"end":{"in":"1382"}},{"start":{"in":"1413"},"end":{"in":"1413"}}]}},{"toponym":"Worley","citations":[{"label":"1547 Pat","year":1547}],"when":{"timespans":[{"start":{"in":"1547"},"end":{"in":"1547"}}]}},{"toponym":"Great Warley alias Warley Waylett alias Abasse Warley","citations":[{"label":"1604 EA","year":1604}],"when":{"timespans":[{"start":{"in":"1604"},"end":{"in":"1604"}}]}}],"types":[{"identifier":"http://vocab.getty.edu/aat/300232418","label":"administrative division","sourceLabels":[{"label":"township","lang":"en"}]}],"geometry":{"type":"GeometryCollection","geometries":[{"type":"Point","coordinates":[0.2883380201241806,51.59055188051821],"citations":[{"label":"Unlock (EDINA) gazetteer, gazetteer record unlock:11159345"}]},{"type":"Point","coordinates":[0.286695,51.5911],"citations":[{"label":"Key to English Place-Names (KEPN), gazetteer record 12267"}]}]},"when":{"timespans":[{"start":{"in":"1035"},"end":{"in":"1604"}}]},"relations":[{"relationType":"gvp:broaderPartitive","relationTo":"http://placenames.org.uk/id/placename/12/004148","label":"within Great and Little Warley"}]}]}