{"@context":"https://raw.githubusercontent.com/LinkedPasts/linked-places-format/main/linkedplaces-context-v1.1.jsonld","type":"FeatureCollection","license":"Digitisation of English Placenames MADS data is licensed to Jisc by the English Place Names Society and released under a Creative Commons Attribution-NonCommercial 4.0 International License.","note":"LPF v1.3, lossy; derived from the PLATO record; plato_commit=ca0afadabec1e23a145c0b03df77e8f151f79832","features":[{"@id":"https://w3id.org/whg-epns/12/004380","type":"Feature","properties":{"title":"Basildon","ccodes":["GB"],"fclasses":["A","P"]},"names":[{"toponym":"Basildon","lang":"en","citations":[{"label":"English Place-Name Society survey, volume 12: Essex"}]},{"toponym":"Belesdunam","citations":[{"label":"1086 DB","year":1086}],"when":{"timespans":[{"start":{"in":"1086"},"end":{"in":"1086"}}]}},{"toponym":"Belestenn","citations":[{"label":"1315 Cl","year":1315}],"when":{"timespans":[{"start":{"in":"1315"},"end":{"in":"1315"}}]}},{"toponym":"Berlesduna","citations":[{"label":"1086 DB","year":1086}],"when":{"timespans":[{"start":{"in":"1086"},"end":{"in":"1086"}}]}},{"toponym":"Berlesdon, Berlesden","citations":[{"label":"1181 P","year":1181},{"label":"1185 RotDom","year":1185}],"when":{"timespans":[{"start":{"in":"1181"},"end":{"in":"1181"}},{"start":{"in":"1185"},"end":{"in":"1185"}}]}},{"toponym":"Berdlesdon'","citations":[{"label":"1176 P","year":1176},{"label":"c. 1500 ECP","year":1490}],"when":{"timespans":[{"start":{"in":"1176"},"end":{"in":"1176"}},{"start":{"earliest":"1490","latest":"1510"},"end":{"earliest":"1490","latest":"1510"}}]}},{"toponym":"Bretlesdon'","citations":[{"label":"1200 P","year":1200}],"when":{"timespans":[{"start":{"in":"1200"},"end":{"in":"1200"}}]}},{"toponym":"Bertlesdon","citations":[{"label":"1202 P","year":1202}],"when":{"timespans":[{"start":{"in":"1202"},"end":{"in":"1202"}}]}},{"toponym":"Bertlesden","citations":[{"label":"1203 FF","year":1203}],"when":{"timespans":[{"start":{"in":"1203"},"end":{"in":"1203"}}]}},{"toponym":"Bardlesdun'","citations":[{"label":"1200 Cur","year":1200}],"when":{"timespans":[{"start":{"in":"1200"},"end":{"in":"1200"}}]}},{"toponym":"Bartlesdon(e), Bartlesden","citations":[{"label":"1238 SR","year":1238},{"label":"1249 FF","year":1249},{"label":"1255 Ass","year":1255},{"label":"1274 RH","year":1274},{"label":"1344 Cl","year":1344},{"label":"1395 IpmR","year":1395}],"when":{"timespans":[{"start":{"in":"1238"},"end":{"in":"1238"}},{"start":{"in":"1249"},"end":{"in":"1249"}},{"start":{"in":"1255"},"end":{"in":"1255"}},{"start":{"in":"1274"},"end":{"in":"1274"}},{"start":{"in":"1344"},"end":{"in":"1344"}},{"start":{"in":"1395"},"end":{"in":"1395"}}]}},{"toponym":"Bartelisdon","citations":[{"label":"1247 FF","year":1247}],"when":{"timespans":[{"start":{"in":"1247"},"end":{"in":"1247"}}]}},{"toponym":"Bardtlisden","citations":[{"label":"1274 RH","year":1274}],"when":{"timespans":[{"start":{"in":"1274"},"end":{"in":"1274"}}]}},{"toponym":"Bart(h)elisden(e)","citations":[{"label":"1360 Ipm","year":1360}],"when":{"timespans":[{"start":{"in":"1360"},"end":{"in":"1360"}}]}},{"toponym":"Bart(h)elesden(e) iuxta Billerica","citations":[{"label":"t. Hy 6 Harl","year":1422}],"when":{"timespans":[{"start":{"earliest":"1422","latest":"1471"},"end":{"earliest":"1422","latest":"1471"}}]}},{"toponym":"Bartillesden, Bartillesdon","citations":[{"label":"1472 Pat","year":1472},{"label":"1494 EAS (NS)","year":1494}],"when":{"timespans":[{"start":{"in":"1472"},"end":{"in":"1472"}},{"start":{"in":"1494"},"end":{"in":"1494"}}]}},{"toponym":"Batlesden","citations":[{"label":"1240 FF","year":1240},{"label":"1360 Ipm","year":1360}],"when":{"timespans":[{"start":{"in":"1240"},"end":{"in":"1240"}},{"start":{"in":"1360"},"end":{"in":"1360"}}]}},{"toponym":"Barlesden'","citations":[{"label":"1254 Ass","year":1254}],"when":{"timespans":[{"start":{"in":"1254"},"end":{"in":"1254"}}]}},{"toponym":"Barclesdene","citations":[{"label":"1270 FF","year":1270},{"label":"1285 QW","year":1285}],"when":{"timespans":[{"start":{"in":"1270"},"end":{"in":"1270"}},{"start":{"in":"1285"},"end":{"in":"1285"}}]}},{"toponym":"Barstenden","citations":[{"label":"1285 Ass","year":1285}],"when":{"timespans":[{"start":{"in":"1285"},"end":{"in":"1285"}}]}},{"toponym":"Barthysdon","citations":[{"label":"1494 EAS (NS)","year":1494}],"when":{"timespans":[{"start":{"in":"1494"},"end":{"in":"1494"}}]}},{"toponym":"Bastelden","citations":[{"label":"1510 LP","year":1510}],"when":{"timespans":[{"start":{"in":"1510"},"end":{"in":"1510"}}]}},{"toponym":"Barstildon, Barstyldon","citations":[{"label":"1522-52 FF","year":1522}],"when":{"timespans":[{"start":{"earliest":"1522","latest":"1552"},"end":{"earliest":"1522","latest":"1552"}}]}},{"toponym":"Brydlesden","citations":[{"label":"1521 M","year":1521}],"when":{"timespans":[{"start":{"in":"1521"},"end":{"in":"1521"}}]}},{"toponym":"Basseldon","citations":[{"label":"1594 N","year":1594}],"when":{"timespans":[{"start":{"in":"1594"},"end":{"in":"1594"}}]}},{"toponym":"Basildon","citations":[{"label":"1602 Stent","year":1602}],"when":{"timespans":[{"start":{"in":"1602"},"end":{"in":"1602"}}]}}],"types":[{"identifier":"http://vocab.getty.edu/aat/300232418","label":"administrative division","sourceLabels":[{"label":"township","lang":"en"}]}],"geometry":{"type":"GeometryCollection","geometries":[{"type":"Point","coordinates":[0.45782,51.56844],"citations":[{"label":"GeoNames, gazetteer record geonames:2656194"}]},{"type":"Point","coordinates":[0.5041926787678713,51.57714859403522],"citations":[{"label":"Unlock (EDINA) gazetteer, gazetteer record unlock:11071400"}]},{"type":"Point","coordinates":[0.473203,51.5693],"citations":[{"label":"Key to English Place-Names (KEPN), gazetteer record 12271"}]}]},"when":{"timespans":[{"start":{"in":"1086"},"end":{"in":"1602"}}]},"links":[{"type":"closeMatch","identifier":"https://sws.geonames.org/2656194/"}],"relations":[{"relationType":"gvp:broaderPartitive","relationTo":"https://w3id.org/whg-epns/12/004379","label":"within Basildon"}]}]}