{"@context":"https://raw.githubusercontent.com/LinkedPasts/linked-places-format/main/linkedplaces-context-v1.1.jsonld","type":"FeatureCollection","license":"Digitisation of English Placenames MADS data is licensed to Jisc by the English Place Names Society and released under a Creative Commons Attribution-NonCommercial 4.0 International License.","note":"LPF v1.3, lossy; derived from the PLATO record; plato_commit=ca0afadabec1e23a145c0b03df77e8f151f79832","features":[{"@id":"https://w3id.org/whg-epns/12/004332","type":"Feature","properties":{"title":"Wennington","ccodes":["GB"],"fclasses":["A","P"]},"names":[{"toponym":"Wennington","lang":"en","citations":[{"label":"English Place-Name Society survey, volume 12: Essex"}]},{"toponym":"Winintune","citations":[{"label":"969 Crawf","year":969},{"label":"c. 1060 KCD","year":1050}],"when":{"timespans":[{"start":{"in":"0969"},"end":{"in":"0969"}},{"start":{"earliest":"1050","latest":"1070"},"end":{"earliest":"1050","latest":"1070"}}]}},{"toponym":"Win(e)ton(a), Win(e)ton(e)","citations":[{"label":"1108-27 Crispin","year":1108},{"label":"1117-21 WDB","year":1117},{"label":"1201 Cur","year":1201}],"when":{"timespans":[{"start":{"earliest":"1108","latest":"1127"},"end":{"earliest":"1108","latest":"1127"}},{"start":{"earliest":"1100","latest":"1200"},"end":{"earliest":"1100","latest":"1200"}},{"start":{"earliest":"1117","latest":"1121"},"end":{"earliest":"1117","latest":"1121"}},{"start":{"in":"1157"},"end":{"in":"1157"}},{"start":{"in":"1201"},"end":{"in":"1201"}}]}},{"toponym":"Wynentune","citations":[{"label":"1214-22 WDB","year":1214}],"when":{"timespans":[{"start":{"earliest":"1214","latest":"1222"},"end":{"earliest":"1214","latest":"1222"}}]}},{"toponym":"Winitune, Winigtune","citations":[{"label":"1042-66 WDB","year":1042}],"when":{"timespans":[{"start":{"earliest":"1042","latest":"1066"},"end":{"earliest":"1042","latest":"1066"}}]}},{"toponym":"Wemtunā","citations":[{"label":"1086 DB","year":1086}],"when":{"timespans":[{"start":{"in":"1086"},"end":{"in":"1086"}}]}},{"toponym":"Weninton","citations":[{"label":"1190 P","year":1190},{"label":"1198-1234 FF","year":1198}],"when":{"timespans":[{"start":{"in":"1190"},"end":{"in":"1190"}},{"start":{"earliest":"1198","latest":"1234"},"end":{"earliest":"1198","latest":"1234"}}]}},{"toponym":"Weninton Westmisster","citations":[{"label":"1253 FF","year":1253}],"when":{"timespans":[{"start":{"in":"1253"},"end":{"in":"1253"}}]}},{"toponym":"Wenenton","citations":[{"label":"1247 FF","year":1247}],"when":{"timespans":[{"start":{"in":"1247"},"end":{"in":"1247"}}]}},{"toponym":"Welinton' (de Marisco)","citations":[{"label":"1198 Cur","year":1198}],"when":{"timespans":[{"start":{"in":"1198"},"end":{"in":"1198"}}]}},{"toponym":"Weneton'","citations":[{"label":"1199 Cur","year":1199}],"when":{"timespans":[{"start":{"in":"1199"},"end":{"in":"1199"}}]}},{"toponym":"Weniton(e)","citations":[{"label":"1206 Cur","year":1206},{"label":"1213-39 FF","year":1213}],"when":{"timespans":[{"start":{"in":"1206"},"end":{"in":"1206"}},{"start":{"earliest":"1213","latest":"1239"},"end":{"earliest":"1213","latest":"1239"}}]}},{"toponym":"Weniton(e) le Enveyse","citations":[{"label":"1237 FF","year":1237},{"label":"1251 Cl","year":1251},{"label":"1253 StJohn","year":1253}],"when":{"timespans":[{"start":{"in":"1237"},"end":{"in":"1237"}},{"start":{"in":"1251"},"end":{"in":"1251"}},{"start":{"in":"1253"},"end":{"in":"1253"}}]}},{"toponym":"Waniton'","citations":[{"label":"1207 Cur","year":1207}],"when":{"timespans":[{"start":{"in":"1207"},"end":{"in":"1207"}}]}},{"toponym":"Wonynton'","citations":[{"label":"1272 Ass","year":1272}],"when":{"timespans":[{"start":{"in":"1272"},"end":{"in":"1272"}}]}},{"toponym":"Wen(n)igton","citations":[{"label":"1235 Ass","year":1235},{"label":"1247 FF","year":1247}],"when":{"timespans":[{"start":{"in":"1235"},"end":{"in":"1235"}},{"start":{"in":"1247"},"end":{"in":"1247"}}]}},{"toponym":"Weningeton', Weington'","citations":[{"label":"1248 Ass","year":1248}],"when":{"timespans":[{"start":{"in":"1248"},"end":{"in":"1248"}}]}},{"toponym":"Wenyngton","citations":[{"label":"1324 Londin","year":1324},{"label":"1408 AD","year":1408}],"when":{"timespans":[{"start":{"in":"1324"},"end":{"in":"1324"}},{"start":{"in":"1328"},"end":{"in":"1328"}},{"start":{"in":"1408"},"end":{"in":"1408"}}]}},{"toponym":"Wenygton","citations":[{"label":"1366 FF","year":1366}],"when":{"timespans":[{"start":{"in":"1366"},"end":{"in":"1366"}}]}},{"toponym":"Veninton, Veneton","citations":[{"label":"1274 RH","year":1274}],"when":{"timespans":[{"start":{"in":"1274"},"end":{"in":"1274"}}]}},{"toponym":"Venyngton","citations":[{"label":"1479 Will","year":1479}],"when":{"timespans":[{"start":{"in":"1479"},"end":{"in":"1479"}}]}},{"toponym":"Weynton","citations":[{"label":"1344 FF","year":1344}],"when":{"timespans":[{"start":{"in":"1344"},"end":{"in":"1344"}}]}},{"toponym":"Wynnyngton","citations":[{"label":"1553 Pat","year":1553}],"when":{"timespans":[{"start":{"in":"1553"},"end":{"in":"1553"}}]}},{"toponym":"Wannyngton, Wannington alias Wallyngton, Wannington","citations":[{"label":"1569-70 FF","year":1569}],"when":{"timespans":[{"start":{"earliest":"1569","latest":"1570"},"end":{"earliest":"1569","latest":"1570"}}]}}],"types":[{"identifier":"http://vocab.getty.edu/aat/300232418","label":"administrative division","sourceLabels":[{"label":"township","lang":"en"}]}],"geometry":{"type":"GeometryCollection","geometries":[{"type":"Point","coordinates":[0.2118463324883404,51.50207930617785],"citations":[{"label":"Unlock (EDINA) gazetteer, gazetteer record unlock:11316016"}]},{"type":"Point","coordinates":[0.210215,51.5026],"citations":[{"label":"Key to English Place-Names (KEPN), gazetteer record 12270"}]}]},"when":{"timespans":[{"start":{"in":"0969"},"end":{"in":"1570"}}]},"relations":[{"relationType":"gvp:broaderPartitive","relationTo":"https://w3id.org/whg-epns/12/004331","label":"within Wennington"}]}]}