{"@context":"https://raw.githubusercontent.com/LinkedPasts/linked-places-format/main/linkedplaces-context-v1.1.jsonld","type":"FeatureCollection","license":"Digitisation of English Placenames MADS data is licensed to Jisc by the English Place Names Society and released under a Creative Commons Attribution-NonCommercial 4.0 International License.","note":"LPF v1.3, lossy; derived from the PLATO record; plato_commit=ca0afadabec1e23a145c0b03df77e8f151f79832","features":[{"@id":"https://w3id.org/whg-epns/12/004616","type":"Feature","properties":{"title":"Great Burstead","ccodes":["GB"],"fclasses":["A","P"]},"names":[{"toponym":"Great Burstead","lang":"en","citations":[{"label":"English Place-Name Society survey, volume 12: Essex"}]}],"types":[{"identifier":"http://vocab.getty.edu/aat/300232418","label":"administrative division","sourceLabels":[{"label":"parish","lang":"en"}]}],"geometry":{"type":"GeometryCollection","geometries":[{"type":"Point","coordinates":[0.44477,51.60304],"citations":[{"label":"GeoNames, gazetteer record geonames:2648143"}]},{"type":"Point","coordinates":[0.4335374089204942,51.60561831376292],"citations":[{"label":"Unlock (EDINA) gazetteer, gazetteer record unlock:11158554"}]},{"type":"Point","coordinates":[0.431877,51.6061],"citations":[{"label":"Key to English Place-Names (KEPN), gazetteer record 12276"}]}]},"links":[{"type":"closeMatch","identifier":"https://sws.geonames.org/2648143/"}],"relations":[{"relationType":"gvp:broaderPartitive","relationTo":"https://w3id.org/whg-epns/12/004368","label":"within Barstable Hundred"}]}]}