{"@context":"https://raw.githubusercontent.com/LinkedPasts/linked-places-format/main/linkedplaces-context-v1.1.jsonld","type":"FeatureCollection","license":"Digitisation of English Placenames MADS data is licensed to Jisc by the English Place Names Society and released under a Creative Commons Attribution-NonCommercial 4.0 International License.","note":"LPF v1.3, lossy; derived from the PLATO record; plato_commit=fa0d247ccc0263f8f19c8d7cdcd163df96935d1e","features":[{"@id":"https://w3id.org/whg-epns/12/004840","type":"Feature","properties":{"title":"Doddinghurst","ccodes":["GB"],"fclasses":["A","P"]},"names":[{"toponym":"Doddinghurst","lang":"en","citations":[{"label":"English Place-Name Society survey, volume 12: Essex"}]},{"toponym":"Doddenhenc","citations":[{"label":"1086 DB","year":1086}],"when":{"timespans":[{"start":{"in":"1086"},"end":{"in":"1086"}}]}},{"toponym":"Dutingehest","citations":[{"label":"1181 P","year":1181}],"when":{"timespans":[{"start":{"in":"1181"},"end":{"in":"1181"}}]}},{"toponym":"Dutighirst","citations":[{"label":"1267 Ass","year":1267}],"when":{"timespans":[{"start":{"in":"1267"},"end":{"in":"1267"}}]}},{"toponym":"Tudinghurst","citations":[{"label":"1290 Ass","year":1290}],"when":{"timespans":[{"start":{"in":"1290"},"end":{"in":"1290"}}]}},{"toponym":"Duddingeherst","citations":[{"label":"1218 FF","year":1218},{"label":"1238 SR","year":1238}],"when":{"timespans":[{"start":{"in":"1218"},"end":{"in":"1218"}},{"start":{"in":"1238"},"end":{"in":"1238"}}]}},{"toponym":"Duddingehurst","citations":[{"label":"1276 For","year":1276}],"when":{"timespans":[{"start":{"in":"1276"},"end":{"in":"1276"}}]}},{"toponym":"Duddingherst","citations":[{"label":"1253-61 FF","year":1253},{"label":"t. Hy 3 RBE","year":1216}],"when":{"timespans":[{"start":{"earliest":"1253","latest":"1261"},"end":{"earliest":"1253","latest":"1261"}},{"start":{"earliest":"1216","latest":"1272"},"end":{"earliest":"1216","latest":"1272"}}]}},{"toponym":"Duddynghurst","citations":[{"label":"1261 FF","year":1261}],"when":{"timespans":[{"start":{"in":"1261"},"end":{"in":"1261"}}]}},{"toponym":"Duddinghurst","citations":[{"label":"1255 Ass","year":1255},{"label":"t. Ed 1 QW","year":1272},{"label":"1300 Ipm","year":1300}],"when":{"timespans":[{"start":{"in":"1255"},"end":{"in":"1255"}},{"start":{"earliest":"1272","latest":"1307"},"end":{"earliest":"1272","latest":"1307"}},{"start":{"in":"1300"},"end":{"in":"1300"}}]}},{"toponym":"Duddinghurse","citations":[{"label":"1311 Pap","year":1311}],"when":{"timespans":[{"start":{"in":"1311"},"end":{"in":"1311"}}]}},{"toponym":"Duddynherst","citations":[{"label":"1329 Londin","year":1329}],"when":{"timespans":[{"start":{"in":"1329"},"end":{"in":"1329"}}]}},{"toponym":"Dundingeherst(e)","citations":[{"label":"1247 FF","year":1247},{"label":"1274 RH","year":1274}],"when":{"timespans":[{"start":{"in":"1247"},"end":{"in":"1247"}},{"start":{"in":"1274"},"end":{"in":"1274"}}]}},{"toponym":"Dod(d)inghirst","citations":[{"label":"1260 Pat","year":1260},{"label":"1284 FF","year":1284}],"when":{"timespans":[{"start":{"in":"1260"},"end":{"in":"1260"}},{"start":{"in":"1284"},"end":{"in":"1284"}}]}},{"toponym":"Dod(d)ingherst, Dod(d)inghurst","citations":[{"label":"1291 For","year":1291}],"when":{"timespans":[{"start":{"in":"1291"},"end":{"in":"1291"}}]}},{"toponym":"Dod(d)ynghurst","citations":[{"label":"1337 Londin","year":1337},{"label":"1360 Cl","year":1360}],"when":{"timespans":[{"start":{"in":"1337"},"end":{"in":"1337"}},{"start":{"in":"1360"},"end":{"in":"1360"}}]}},{"toponym":"Doddingehurst","citations":[{"label":"1276 For","year":1276}],"when":{"timespans":[{"start":{"in":"1276"},"end":{"in":"1276"}}]}},{"toponym":"Ded(d)yngherst","citations":[{"label":"1399 IpmR","year":1399},{"label":"1428 FA","year":1428}],"when":{"timespans":[{"start":{"in":"1399"},"end":{"in":"1399"}},{"start":{"in":"1428"},"end":{"in":"1428"}}]}},{"toponym":"Ded(d)ynghurst","citations":[{"label":"1612 EssPR","year":1612}],"when":{"timespans":[{"start":{"in":"1612"},"end":{"in":"1612"}}]}},{"toponym":"Dyrrynghurst","citations":[{"label":"1542 FF","year":1542}],"when":{"timespans":[{"start":{"in":"1542"},"end":{"in":"1542"}}]}}],"types":[{"identifier":"http://vocab.getty.edu/aat/300232418","label":"administrative division","sourceLabels":[{"label":"township","lang":"en"}]}],"geometry":{"type":"GeometryCollection","geometries":[{"type":"Point","coordinates":[0.30183,51.65849],"citations":[{"label":"GeoNames, gazetteer record geonames:7293500"}]},{"type":"Point","coordinates":[0.3064067477331729,51.66214992767625],"citations":[{"label":"Unlock (EDINA) gazetteer, gazetteer record unlock:11130075"}]},{"type":"Point","coordinates":[0.304758,51.6626],"citations":[{"label":"Key to English Place-Names (KEPN), gazetteer record 12281"}]}]},"when":{"timespans":[{"start":{"in":"1086"},"end":{"in":"1612"}}]},"links":[{"type":"closeMatch","identifier":"https://sws.geonames.org/7293500/"}],"relations":[{"relationType":"gvp:broaderPartitive","relationTo":"https://w3id.org/whg-epns/12/004839","label":"within Doddinghurst"}]}]}