{"@context":"https://raw.githubusercontent.com/LinkedPasts/linked-places-format/main/linkedplaces-context-v1.1.jsonld","type":"FeatureCollection","license":"Digitisation of English Placenames MADS data is licensed to Jisc by the English Place Names Society and released under a Creative Commons Attribution-NonCommercial 4.0 International License.","note":"LPF v1.3, lossy; derived from the PLATO record; plato_commit=fa0d247ccc0263f8f19c8d7cdcd163df96935d1e","features":[{"@id":"https://w3id.org/whg-epns/12/005412","type":"Feature","properties":{"title":"Pitsea","ccodes":["GB"],"fclasses":["A","P"]},"names":[{"toponym":"Pitsea","lang":"en","citations":[{"label":"English Place-Name Society survey, volume 12: Essex"}]}],"types":[{"identifier":"http://vocab.getty.edu/aat/300232418","label":"administrative division","sourceLabels":[{"label":"parish","lang":"en"}]}],"geometry":{"type":"GeometryCollection","geometries":[{"type":"Point","coordinates":[0.50859,51.56387],"citations":[{"label":"GeoNames, gazetteer record geonames:2640246"}]},{"type":"Point","coordinates":[0.5036987772059978,51.56816479052742],"citations":[{"label":"Unlock (EDINA) gazetteer, gazetteer record unlock:11246054"}]},{"type":"Point","coordinates":[0.516446,51.5684],"citations":[{"label":"Key to English Place-Names (KEPN), gazetteer record 12296"}]}]},"links":[{"type":"closeMatch","identifier":"https://sws.geonames.org/2640246/"}],"relations":[{"relationType":"gvp:broaderPartitive","relationTo":"https://w3id.org/whg-epns/12/004368","label":"within Barstable Hundred"}]}]}