{"@context":"https://raw.githubusercontent.com/LinkedPasts/linked-places-format/main/linkedplaces-context-v1.1.jsonld","type":"FeatureCollection","license":"Digitisation of English Placenames MADS data is licensed to Jisc by the English Place Names Society and released under a Creative Commons Attribution-NonCommercial 4.0 International License.","note":"LPF v1.3, lossy; derived from the PLATO record; plato_commit=ca0afadabec1e23a145c0b03df77e8f151f79832","features":[{"@id":"http://placenames.org.uk/id/placename/12/006158","type":"Feature","properties":{"title":"Hockley","ccodes":["GB"],"fclasses":["A","P"]},"names":[{"toponym":"Hockley","lang":"en","citations":[{"label":"English Place-Name Society survey, volume 12: Essex"}]}],"types":[{"identifier":"http://vocab.getty.edu/aat/300232418","label":"administrative division","sourceLabels":[{"label":"parish","lang":"en"}]}],"geometry":{"type":"GeometryCollection","geometries":[{"type":"Point","coordinates":[0.64343,51.60737],"citations":[{"label":"GeoNames, gazetteer record geonames:7293538"}]},{"type":"Point","coordinates":[0.6643577947939145,51.60060350646829],"citations":[{"label":"Unlock (EDINA) gazetteer, gazetteer record unlock:11176166"}]},{"type":"Point","coordinates":[0.634346,51.6107],"citations":[{"label":"Key to English Place-Names (KEPN), gazetteer record 12316"}]}]},"links":[{"type":"closeMatch","identifier":"https://sws.geonames.org/7293538/"}],"relations":[{"relationType":"gvp:broaderPartitive","relationTo":"http://placenames.org.uk/id/placename/12/005771","label":"within Rochford Hundred"}]}]}