{"@context":"https://raw.githubusercontent.com/LinkedPasts/linked-places-format/main/linkedplaces-context-v1.1.jsonld","type":"FeatureCollection","license":"Digitisation of English Placenames MADS data is licensed to Jisc by the English Place Names Society and released under a Creative Commons Attribution-NonCommercial 4.0 International License.","note":"LPF v1.3, lossy; derived from the PLATO record; plato_commit=ca0afadabec1e23a145c0b03df77e8f151f79832","features":[{"@id":"http://placenames.org.uk/id/placename/12/006512","type":"Feature","properties":{"title":"Rayleigh","ccodes":["GB"],"fclasses":["A","P"]},"names":[{"toponym":"Rayleigh","lang":"en","citations":[{"label":"English Place-Name Society survey, volume 12: Essex"}]}],"types":[{"identifier":"http://vocab.getty.edu/aat/300232418","label":"administrative division","sourceLabels":[{"label":"parish","lang":"en"}]}],"geometry":{"type":"GeometryCollection","geometries":[{"type":"Point","coordinates":[0.60459,51.58571],"citations":[{"label":"GeoNames, gazetteer record geonames:2639583"}]},{"type":"Point","coordinates":[0.6200495965550367,51.58361241460825],"citations":[{"label":"Unlock (EDINA) gazetteer, gazetteer record unlock:11253217"}]},{"type":"Point","coordinates":[0.618369,51.5841],"citations":[{"label":"Key to English Place-Names (KEPN), gazetteer record 12321"}]}]},"links":[{"type":"closeMatch","identifier":"https://sws.geonames.org/2639583/"}],"relations":[{"relationType":"gvp:broaderPartitive","relationTo":"http://placenames.org.uk/id/placename/12/005771","label":"within Rochford Hundred"}]}]}