{"@context":"https://raw.githubusercontent.com/LinkedPasts/linked-places-format/main/linkedplaces-context-v1.1.jsonld","type":"FeatureCollection","license":"Digitisation of English Placenames MADS data is licensed to Jisc by the English Place Names Society and released under a Creative Commons Attribution-NonCommercial 4.0 International License.","note":"LPF v1.3, lossy; derived from the PLATO record; plato_commit=ca0afadabec1e23a145c0b03df77e8f151f79832","features":[{"@id":"https://w3id.org/whg-epns/12/007027","type":"Feature","properties":{"title":"Althorne","ccodes":["GB"],"fclasses":["A","P"]},"names":[{"toponym":"Althorne","lang":"en","citations":[{"label":"English Place-Name Society survey, volume 12: Essex"}]},{"toponym":"Aledhorn","citations":[{"label":"1198 FF","year":1198}],"when":{"timespans":[{"start":{"in":"1198"},"end":{"in":"1198"}}]}},{"toponym":"Alethorn","citations":[{"label":"1203 FF","year":1203},{"label":"1303 FA","year":1303},{"label":"1323 Londin","year":1323}],"when":{"timespans":[{"start":{"in":"1203"},"end":{"in":"1203"}},{"start":{"in":"1227"},"end":{"in":"1227"}},{"start":{"in":"1303"},"end":{"in":"1303"}},{"start":{"in":"1323"},"end":{"in":"1323"}}]}},{"toponym":"Althorn(e)","citations":[{"label":"1346-1428 FA","year":1346}],"when":{"timespans":[{"start":{"earliest":"1346","latest":"1428"},"end":{"earliest":"1346","latest":"1428"}}]}},{"toponym":"Althorn(e) Hamel","citations":[{"label":"1353 Pat","year":1353}],"when":{"timespans":[{"start":{"in":"1353"},"end":{"in":"1353"}}]}},{"toponym":"Allethorn(e)","citations":[{"label":"1291 Tax","year":1291},{"label":"1341 NI","year":1341}],"when":{"timespans":[{"start":{"in":"1291"},"end":{"in":"1291"}},{"start":{"in":"1341"},"end":{"in":"1341"}}]}},{"toponym":"Alest(h)orn","citations":[{"label":"1212 RBE","year":1212},{"label":"1268 Cl","year":1268}],"when":{"timespans":[{"start":{"in":"1212"},"end":{"in":"1212"}},{"start":{"in":"1268"},"end":{"in":"1268"}},{"start":{"in":"1286"},"end":{"in":"1286"}}]}},{"toponym":"Aldthorne","citations":[{"label":"1393 Cl","year":1393},{"label":"1393 FF","year":1393}],"when":{"timespans":[{"start":{"in":"1393"},"end":{"in":"1393"}},{"start":{"in":"1393"},"end":{"in":"1393"}}]}},{"toponym":"Aldern, Alderne or Aldthorne","citations":[{"label":"1538 LP","year":1538},{"label":"1538 FF","year":1538},{"label":"1594 N","year":1594}],"when":{"timespans":[{"start":{"in":"1538"},"end":{"in":"1538"}},{"start":{"in":"1538"},"end":{"in":"1538"}},{"start":{"in":"1594"},"end":{"in":"1594"}}]}},{"toponym":"Aldron or Althorne","citations":[{"label":"1608 EA","year":1608}],"when":{"timespans":[{"start":{"in":"1608"},"end":{"in":"1608"}}]}}],"types":[{"identifier":"http://vocab.getty.edu/aat/300232418","label":"administrative division","sourceLabels":[{"label":"township","lang":"en"}]}],"geometry":{"type":"GeometryCollection","geometries":[{"type":"Point","coordinates":[0.76085,51.65722],"citations":[{"label":"GeoNames, gazetteer record geonames:2657417"}]},{"type":"Point","coordinates":[0.7686007196126093,51.65215790067463],"citations":[{"label":"Unlock (EDINA) gazetteer, gazetteer record unlock:11061424"}]},{"type":"Point","coordinates":[0.7669,51.6527],"citations":[{"label":"Key to English Place-Names (KEPN), gazetteer record 12333"}]}]},"when":{"timespans":[{"start":{"in":"1198"},"end":{"in":"1608"}}]},"links":[{"type":"closeMatch","identifier":"https://sws.geonames.org/2657417/"}],"relations":[{"relationType":"gvp:broaderPartitive","relationTo":"https://w3id.org/whg-epns/12/007026","label":"within Althorne"}]}]}