{"@context":"https://raw.githubusercontent.com/LinkedPasts/linked-places-format/main/linkedplaces-context-v1.1.jsonld","type":"FeatureCollection","license":"Digitisation of English Placenames MADS data is licensed to Jisc by the English Place Names Society and released under a Creative Commons Attribution-NonCommercial 4.0 International License.","note":"LPF v1.3, lossy; derived from the PLATO record; plato_commit=ca0afadabec1e23a145c0b03df77e8f151f79832","features":[{"@id":"http://placenames.org.uk/id/placename/12/008304","type":"Feature","properties":{"title":"Buttsbury","ccodes":["GB"],"fclasses":["A","P"]},"names":[{"toponym":"Buttsbury","lang":"en","citations":[{"label":"English Place-Name Society survey, volume 12: Essex"}]},{"toponym":"Cingam","citations":[{"label":"1086 DB","year":1086}],"when":{"timespans":[{"start":{"in":"1086"},"end":{"in":"1086"}}]}},{"toponym":"Ginkes","citations":[{"label":"1197 FF","year":1197}],"when":{"timespans":[{"start":{"in":"1197"},"end":{"in":"1197"}}]}},{"toponym":"Ginge le viel defens","citations":[{"label":"1201 BM","year":1201}],"when":{"timespans":[{"start":{"in":"1201"},"end":{"in":"1201"}}]}},{"toponym":"Botolfvespirie","citations":[{"label":"1219 FF","year":1219}],"when":{"timespans":[{"start":{"in":"1219"},"end":{"in":"1219"}}]}},{"toponym":"Botulvespirie, Botulvespirye","citations":[{"label":"1231 Cl","year":1231}],"when":{"timespans":[{"start":{"in":"1231"},"end":{"in":"1231"}},{"start":{"in":"1300"},"end":{"in":"1300"}}]}},{"toponym":"Botolvespirie, Botolvespirye","citations":[{"label":"1232 FF","year":1232},{"label":"1247 Cl","year":1247}],"when":{"timespans":[{"start":{"in":"1232"},"end":{"in":"1232"}},{"start":{"in":"1247"},"end":{"in":"1247"}}]}},{"toponym":"Botulfs Pirye","citations":[{"label":"1370 Pat","year":1370}],"when":{"timespans":[{"start":{"in":"1370"},"end":{"in":"1370"}}]}},{"toponym":"Botulphesperye","citations":[{"label":"1392 IpmR","year":1392}],"when":{"timespans":[{"start":{"in":"1392"},"end":{"in":"1392"}}]}},{"toponym":"Ginges, Gynges","citations":[{"label":"1223 FF","year":1223}],"when":{"timespans":[{"start":{"in":"1223"},"end":{"in":"1223"}}]}},{"toponym":"Gynges Joberti","citations":[{"label":"1230 FF","year":1230}],"when":{"timespans":[{"start":{"in":"1230"},"end":{"in":"1230"}}]}},{"toponym":"Gynges Jordani","citations":[{"label":"1231 Cl","year":1231}],"when":{"timespans":[{"start":{"in":"1231"},"end":{"in":"1231"}}]}},{"toponym":"Gyngesjoiberd","citations":[{"label":"1247 Ch","year":1247}],"when":{"timespans":[{"start":{"in":"1247"},"end":{"in":"1247"}}]}},{"toponym":"Gynges Laundri","citations":[{"label":"1232 Bracton","year":1232},{"label":"1236 FF","year":1236}],"when":{"timespans":[{"start":{"in":"1232"},"end":{"in":"1232"}},{"start":{"in":"1236"},"end":{"in":"1236"}}]}},{"toponym":"Gynges Landri, Gynges Johiberd","citations":[{"label":"1234 FF","year":1234}],"when":{"timespans":[{"start":{"in":"1234"},"end":{"in":"1234"}}]}},{"toponym":"Gynges de Goyberd Landr'","citations":[{"label":"1238 SR","year":1238}],"when":{"timespans":[{"start":{"in":"1238"},"end":{"in":"1238"}}]}},{"toponym":"Gynges Laundry, Gynges Geyberd","citations":[{"label":"1253 Ch","year":1253}],"when":{"timespans":[{"start":{"in":"1253"},"end":{"in":"1253"}}]}},{"toponym":"Gyng(e)","citations":[{"label":"1255 Ass","year":1255}],"when":{"timespans":[{"start":{"in":"1255"},"end":{"in":"1255"}}]}},{"toponym":"Gyng(e) Joyberd","citations":[{"label":"1305 FF","year":1305}],"when":{"timespans":[{"start":{"in":"1305"},"end":{"in":"1305"}}]}},{"toponym":"Gyng(e) Joybert, Gyng(e) Joyberd, Gyng(e) Laundri, Gyng(e) Landry","citations":[{"label":"1303 FA","year":1303}],"when":{"timespans":[{"start":{"in":"1303"},"end":{"in":"1303"}},{"start":{"in":"1346"},"end":{"in":"1346"}}]}},{"toponym":"Gengeioriberd laundry","citations":[{"label":"1361 Hustings","year":1361}],"when":{"timespans":[{"start":{"in":"1361"},"end":{"in":"1361"}}]}},{"toponym":"Gyng(e)joyeberdlaund(rey), Gyng(e)joiberd laund(rey), Gyng(e)joiberd laundlay","citations":[{"label":"1361 IpmR","year":1361}],"when":{"timespans":[{"start":{"in":"1361"},"end":{"in":"1361"}},{"start":{"in":"1373"},"end":{"in":"1373"}},{"start":{"in":"1388"},"end":{"in":"1388"}}]}},{"toponym":"Gingerber-laundry","citations":[{"label":"1387 IpmR","year":1387}],"when":{"timespans":[{"start":{"in":"1387"},"end":{"in":"1387"}}]}},{"toponym":"Bottesbury","citations":[{"label":"1374 Hustings","year":1374}],"when":{"timespans":[{"start":{"in":"1374"},"end":{"in":"1374"}}]}},{"toponym":"Buttisbery","citations":[{"label":"1470 BM","year":1470}],"when":{"timespans":[{"start":{"in":"1470"},"end":{"in":"1470"}}]}},{"toponym":"Buttysbury","citations":[{"label":"1535 VE","year":1535},{"label":"1551 EAS (NS)","year":1551}],"when":{"timespans":[{"start":{"in":"1535"},"end":{"in":"1535"}},{"start":{"in":"1551"},"end":{"in":"1551"}}]}},{"toponym":"Buttesbury","citations":[{"label":"1548 Pat","year":1548}],"when":{"timespans":[{"start":{"in":"1548"},"end":{"in":"1548"}}]}},{"toponym":"Botelespirie","citations":[{"label":"1375 Cl","year":1375}],"when":{"timespans":[{"start":{"in":"1375"},"end":{"in":"1375"}}]}},{"toponym":"Botilisbery","citations":[{"label":"1412 FA","year":1412}],"when":{"timespans":[{"start":{"in":"1412"},"end":{"in":"1412"}}]}},{"toponym":"Botyllesperye","citations":[{"label":"1456 BM","year":1456}],"when":{"timespans":[{"start":{"in":"1456"},"end":{"in":"1456"}}]}},{"toponym":"Butlisbury","citations":[{"label":"1467-72 ECP","year":1467}],"when":{"timespans":[{"start":{"earliest":"1467","latest":"1472"},"end":{"earliest":"1467","latest":"1472"}}]}},{"toponym":"Ynggynyay Laundry, Buttesvery","citations":[{"label":"1476 IpmR","year":1476}],"when":{"timespans":[{"start":{"in":"1476"},"end":{"in":"1476"}}]}},{"toponym":"Butterbury","citations":[{"label":"1503 EAS","year":1503}],"when":{"timespans":[{"start":{"in":"1503"},"end":{"in":"1503"}}]}},{"toponym":"Bursburye","citations":[{"label":"1602 Stent","year":1602}],"when":{"timespans":[{"start":{"in":"1602"},"end":{"in":"1602"}}]}},{"toponym":"Yng, Gyngy, Jaber laundrell","citations":[{"label":"1537 HMC","year":1537}],"when":{"timespans":[{"start":{"in":"1537"},"end":{"in":"1537"}}]}}],"types":[{"identifier":"http://vocab.getty.edu/aat/300232418","label":"administrative division","sourceLabels":[{"label":"township","lang":"en"}]}],"geometry":{"type":"GeometryCollection","geometries":[{"type":"Point","coordinates":[0.4075341100023292,51.66011949031665],"citations":[{"label":"Unlock (EDINA) gazetteer, gazetteer record unlock:11094849"}]},{"type":"Point","coordinates":[0.405874,51.6606],"citations":[{"label":"Key to English Place-Names (KEPN), gazetteer record 12364"}]}]},"when":{"timespans":[{"start":{"in":"1086"},"end":{"in":"1602"}}]},"relations":[{"relationType":"gvp:broaderPartitive","relationTo":"http://placenames.org.uk/id/placename/12/008303","label":"within Buttsbury"}]}]}