{"@context":"https://raw.githubusercontent.com/LinkedPasts/linked-places-format/main/linkedplaces-context-v1.1.jsonld","type":"FeatureCollection","license":"Digitisation of English Placenames MADS data is licensed to Jisc by the English Place Names Society and released under a Creative Commons Attribution-NonCommercial 4.0 International License.","note":"LPF v1.3, lossy; derived from the PLATO record; plato_commit=ca0afadabec1e23a145c0b03df77e8f151f79832","features":[{"@id":"https://w3id.org/whg-epns/12/008920","type":"Feature","properties":{"title":"Margaretting","ccodes":["GB"],"fclasses":["A","P"]},"names":[{"toponym":"Margaretting","lang":"en","citations":[{"label":"English Place-Name Society survey, volume 12: Essex"}]},{"toponym":"Gingā","citations":[{"label":"1086 DB","year":1086}],"when":{"timespans":[{"start":{"in":"1086"},"end":{"in":"1086"}}]}},{"toponym":"Ging(e) Regine","citations":[{"label":"1240 FF","year":1240}],"when":{"timespans":[{"start":{"in":"1240"},"end":{"in":"1240"}}]}},{"toponym":"Gyng(g)e Reyne","citations":[{"label":"1285 Ass","year":1285}],"when":{"timespans":[{"start":{"in":"1285"},"end":{"in":"1285"}}]}},{"toponym":"Gyng(g)e Margarete","citations":[{"label":"1328-30 Londin","year":1328}],"when":{"timespans":[{"start":{"earliest":"1328","latest":"1330"},"end":{"earliest":"1328","latest":"1330"}}]}},{"toponym":"Gyng(g)e Reginne","citations":[{"label":"1428 FA","year":1428}],"when":{"timespans":[{"start":{"in":"1428"},"end":{"in":"1428"}}]}},{"toponym":"Gynges, Ginges Regine","citations":[{"label":"1238 SR","year":1238},{"label":"1241 For","year":1241},{"label":"1248 Ass","year":1248}],"when":{"timespans":[{"start":{"in":"1238"},"end":{"in":"1238"}},{"start":{"in":"1241"},"end":{"in":"1241"}},{"start":{"in":"1248"},"end":{"in":"1248"}},{"start":{"in":"1255"},"end":{"in":"1255"}}]}},{"toponym":"Genges Sce Margar'","citations":[{"label":"1285 Ass","year":1285}],"when":{"timespans":[{"start":{"in":"1285"},"end":{"in":"1285"}}]}},{"toponym":"Gyngen Margaret","citations":[{"label":"1312 Ipm","year":1312}],"when":{"timespans":[{"start":{"in":"1312"},"end":{"in":"1312"}}]}},{"toponym":"Yenge, Yngemergerete","citations":[{"label":"1331 Pat","year":1331}],"when":{"timespans":[{"start":{"in":"1331"},"end":{"in":"1331"}}]}},{"toponym":"Ynge Marg(a)rete(s)","citations":[{"label":"1377 Pat","year":1377}],"when":{"timespans":[{"start":{"in":"1377"},"end":{"in":"1377"}}]}},{"toponym":"Yng(ge) Marg(a)rete, Yng(ge) Seint Marg(a)rete","citations":[{"label":"1386 Cl","year":1386},{"label":"1387 Pat","year":1387}],"when":{"timespans":[{"start":{"in":"1386"},"end":{"in":"1386"}},{"start":{"in":"1387"},"end":{"in":"1387"}}]}},{"toponym":"Ingemergrete","citations":[{"label":"1397 Pat","year":1397}],"when":{"timespans":[{"start":{"in":"1397"},"end":{"in":"1397"}}]}},{"toponym":"Margaretesyngge","citations":[{"label":"1345 Pat","year":1345}],"when":{"timespans":[{"start":{"in":"1345"},"end":{"in":"1345"}}]}},{"toponym":"ynge","citations":[{"label":"1349 Hustings","year":1349}],"when":{"timespans":[{"start":{"in":"1349"},"end":{"in":"1349"}}]}},{"toponym":"Margretyinge","citations":[{"label":"1408 Pat","year":1408}],"when":{"timespans":[{"start":{"in":"1408"},"end":{"in":"1408"}}]}},{"toponym":"Margaret(e) Guy(i)ng(e)","citations":[{"label":"1428 Pat","year":1428},{"label":"1491 Ipm","year":1491}],"when":{"timespans":[{"start":{"in":"1428"},"end":{"in":"1428"}},{"start":{"in":"1441"},"end":{"in":"1441"}},{"start":{"in":"1491"},"end":{"in":"1491"}}]}},{"toponym":"Margaretyenge","citations":[{"label":"1450 IpmR","year":1450}],"when":{"timespans":[{"start":{"in":"1450"},"end":{"in":"1450"}}]}},{"toponym":"Margaretyinge","citations":[{"label":"1587 BM","year":1587}],"when":{"timespans":[{"start":{"in":"1587"},"end":{"in":"1587"}}]}},{"toponym":"Margettyng","citations":[{"label":"1500 Bodl","year":1500}],"when":{"timespans":[{"start":{"in":"1500"},"end":{"in":"1500"}}]}},{"toponym":"Gyngemargeret(t), Gyngemargeret(t) alias Tuhfant","citations":[{"label":"1509-47 Dugd","year":1509}],"when":{"timespans":[{"start":{"earliest":"1509","latest":"1547"},"end":{"earliest":"1509","latest":"1547"}}]}},{"toponym":"Gyngemargeret(t) alias Margetting","citations":[{"label":"1575 BM","year":1575}],"when":{"timespans":[{"start":{"in":"1575"},"end":{"in":"1575"}}]}},{"toponym":"Gyngemargeret(t) vulgo Margeting","citations":[{"label":"1768 M","year":1768}],"when":{"timespans":[{"start":{"in":"1768"},"end":{"in":"1768"}}]}},{"toponym":"Margrat-end","citations":[{"label":"1633 EssPR","year":1633}],"when":{"timespans":[{"start":{"in":"1633"},"end":{"in":"1633"}}]}},{"toponym":"Margett-Inn","citations":[{"label":"1657 EssPR","year":1657}],"when":{"timespans":[{"start":{"in":"1657"},"end":{"in":"1657"}}]}}],"types":[{"identifier":"http://vocab.getty.edu/aat/300232418","label":"administrative division","sourceLabels":[{"label":"township","lang":"en"}]}],"geometry":{"type":"GeometryCollection","geometries":[{"type":"Point","coordinates":[0.41499,51.69001],"citations":[{"label":"GeoNames, gazetteer record geonames:2643045"}]},{"type":"Point","coordinates":[0.4234187295335569,51.68677491876914],"citations":[{"label":"Unlock (EDINA) gazetteer, gazetteer record unlock:11213626"}]},{"type":"Point","coordinates":[0.421756,51.6873],"citations":[{"label":"Key to English Place-Names (KEPN), gazetteer record 12375"}]}]},"when":{"timespans":[{"start":{"in":"1086"},"end":{"in":"1768"}}]},"links":[{"type":"closeMatch","identifier":"https://sws.geonames.org/2643045/"}],"relations":[{"relationType":"gvp:broaderPartitive","relationTo":"https://w3id.org/whg-epns/12/008919","label":"within Margaretting"}]}]}