{"@context":"https://raw.githubusercontent.com/LinkedPasts/linked-places-format/main/linkedplaces-context-v1.1.jsonld","type":"FeatureCollection","license":"Digitisation of English Placenames MADS data is licensed to Jisc by the English Place Names Society and released under a Creative Commons Attribution-NonCommercial 4.0 International License.","note":"LPF v1.3, lossy; derived from the PLATO record; plato_commit=ca0afadabec1e23a145c0b03df77e8f151f79832","features":[{"@id":"https://w3id.org/whg-epns/12/009242","type":"Feature","properties":{"title":"Sandon","ccodes":["GB"],"fclasses":["A","P"]},"names":[{"toponym":"Sandon","lang":"en","citations":[{"label":"English Place-Name Society survey, volume 12: Essex"}]},{"toponym":"Sandun, Sandon(a), Sandone","citations":[{"label":"1199 FF","year":1199},{"label":"1199 CurR","year":1199},{"label":"1200 FF","year":1200},{"label":"1303 FA","year":1303}],"when":{"timespans":[{"start":{"in":"1199"},"end":{"in":"1199"}},{"start":{"in":"1199"},"end":{"in":"1199"}},{"start":{"in":"1200"},"end":{"in":"1200"}},{"start":{"in":"1247"},"end":{"in":"1247"}},{"start":{"in":"1303"},"end":{"in":"1303"}}]}},{"toponym":"Saundone","citations":[{"label":"1247 FF","year":1247}],"when":{"timespans":[{"start":{"in":"1247"},"end":{"in":"1247"}},{"start":{"in":"1271"},"end":{"in":"1271"}}]}},{"toponym":"Sondon","citations":[{"label":"1550 FF","year":1550}],"when":{"timespans":[{"start":{"in":"1550"},"end":{"in":"1550"}},{"start":{"in":"1552"},"end":{"in":"1552"}}]}}],"types":[{"identifier":"http://vocab.getty.edu/aat/300232418","label":"administrative division","sourceLabels":[{"label":"township","lang":"en"}]}],"geometry":{"type":"GeometryCollection","geometries":[{"type":"Point","coordinates":[0.53755,51.70956],"citations":[{"label":"GeoNames, gazetteer record geonames:7295113"}]},{"type":"Point","coordinates":[0.524418,51.7121],"citations":[{"label":"Key to English Place-Names (KEPN), gazetteer record 12380"}]}]},"when":{"timespans":[{"start":{"in":"1199"},"end":{"in":"1552"}}]},"links":[{"type":"closeMatch","identifier":"https://sws.geonames.org/7295113/"}],"relations":[{"relationType":"gvp:broaderPartitive","relationTo":"https://w3id.org/whg-epns/12/009241","label":"within Sandon"}]}]}