{"@context":"https://raw.githubusercontent.com/LinkedPasts/linked-places-format/main/linkedplaces-context-v1.1.jsonld","type":"FeatureCollection","license":"Digitisation of English Placenames MADS data is licensed to Jisc by the English Place Names Society and released under a Creative Commons Attribution-NonCommercial 4.0 International License.","note":"LPF v1.3, lossy; derived from the PLATO record; plato_commit=ca0afadabec1e23a145c0b03df77e8f151f79832","features":[{"@id":"https://w3id.org/whg-epns/12/009391","type":"Feature","properties":{"title":"Great Waltham and Little Waltham","ccodes":["GB"],"fclasses":["A","P"]},"names":[{"toponym":"Great Waltham and Little Waltham","lang":"en","citations":[{"label":"English Place-Name Society survey, volume 12: Essex"}]},{"toponym":"Waldham","citations":[{"label":"1086 DB","year":1086},{"label":"a. 1272 Colch","year":1222}],"when":{"timespans":[{"start":{"in":"1086"},"end":{"in":"1086"}},{"start":{"earliest":"1222","latest":"1272"},"end":{"earliest":"1222","latest":"1272"}}]}},{"toponym":"Wealdham","citations":[{"label":"1100-35 Colch","year":1100}],"when":{"timespans":[{"start":{"earliest":"1100","latest":"1135"},"end":{"earliest":"1100","latest":"1135"}}]}},{"toponym":"Waltham","citations":[{"label":"1086 DB","year":1086}],"when":{"timespans":[{"start":{"in":"1086"},"end":{"in":"1086"}}]}},{"toponym":"Waltham Magna","citations":[{"label":"1236-8 FF","year":1236},{"label":"1236-8 Waltham","year":1236}],"when":{"timespans":[{"start":{"earliest":"1236","latest":"1238"},"end":{"earliest":"1236","latest":"1238"}},{"start":{"earliest":"1236","latest":"1238"},"end":{"earliest":"1236","latest":"1238"}}]}},{"toponym":"iuxta Chelmerfford","citations":[{"label":"1279 Ass","year":1279}],"when":{"timespans":[{"start":{"in":"1279"},"end":{"in":"1279"}}]}},{"toponym":"Much Waltham","citations":[{"label":"1484 Lancs","year":1484}],"when":{"timespans":[{"start":{"in":"1484"},"end":{"in":"1484"}}]}},{"toponym":"Waltho","citations":[{"label":"1165-89 Colch","year":1165}],"when":{"timespans":[{"start":{"earliest":"1165","latest":"1189"},"end":{"earliest":"1165","latest":"1189"}}]}},{"toponym":"Waltam","citations":[{"label":"1179 Colch","year":1179}],"when":{"timespans":[{"start":{"in":"1179"},"end":{"in":"1179"}}]}},{"toponym":"Little Waltam","citations":[{"label":"1198 FF","year":1198}],"when":{"timespans":[{"start":{"in":"1198"},"end":{"in":"1198"}}]}},{"toponym":"Watham","citations":[{"label":"1219 Bracton","year":1219},{"label":"1248 Ass","year":1248},{"label":"1248 Fees","year":1248}],"when":{"timespans":[{"start":{"in":"1219"},"end":{"in":"1219"}},{"start":{"in":"1248"},"end":{"in":"1248"}},{"start":{"in":"1248"},"end":{"in":"1248"}}]}},{"toponym":"Wautham","citations":[{"label":"1219 Fees","year":1219},{"label":"1231-46 FF","year":1231},{"label":"1237 Colch","year":1237}],"when":{"timespans":[{"start":{"in":"1219"},"end":{"in":"1219"}},{"start":{"earliest":"1231","latest":"1246"},"end":{"earliest":"1231","latest":"1246"}},{"start":{"in":"1237"},"end":{"in":"1237"}}]}},{"toponym":"Waudham","citations":[{"label":"1227 Fees","year":1227}],"when":{"timespans":[{"start":{"in":"1227"},"end":{"in":"1227"}}]}},{"toponym":"Walham","citations":[{"label":"1221 Colch","year":1221},{"label":"1267 Abbr","year":1267}],"when":{"timespans":[{"start":{"in":"1221"},"end":{"in":"1221"}},{"start":{"in":"1267"},"end":{"in":"1267"}}]}},{"toponym":"Walteham","citations":[{"label":"1266 Pat","year":1266}],"when":{"timespans":[{"start":{"in":"1266"},"end":{"in":"1266"}}]}},{"toponym":"Whaltham","citations":[{"label":"1376 Ct","year":1376}],"when":{"timespans":[{"start":{"in":"1376"},"end":{"in":"1376"}}]}},{"toponym":"Waylltham","citations":[{"label":"1523 SR","year":1523}],"when":{"timespans":[{"start":{"in":"1523"},"end":{"in":"1523"}}]}}],"types":[{"identifier":"http://vocab.getty.edu/aat/300232418","label":"administrative division","sourceLabels":[{"label":"township","lang":"en"}]}],"geometry":{"type":"GeometryCollection","geometries":[{"type":"Point","coordinates":[0.45671,51.79383],"citations":[{"label":"GeoNames, gazetteer record geonames:2647998"}]},{"type":"Point","coordinates":[0.4581732585070162,51.79398122153362],"citations":[{"label":"Unlock (EDINA) gazetteer, gazetteer record unlock:11159341"}]},{"type":"Point","coordinates":[0.456502,51.7945],"citations":[{"label":"Key to English Place-Names (KEPN), gazetteer record 12383"}]}]},"when":{"timespans":[{"start":{"in":"1086"},"end":{"in":"1523"}}]},"links":[{"type":"closeMatch","identifier":"https://sws.geonames.org/2647998/"}],"relations":[{"relationType":"gvp:broaderPartitive","relationTo":"https://w3id.org/whg-epns/12/009390","label":"within Great and Little Waltham"}]}]}