{"@context":"https://raw.githubusercontent.com/LinkedPasts/linked-places-format/main/linkedplaces-context-v1.1.jsonld","type":"FeatureCollection","license":"Digitisation of English Placenames MADS data is licensed to Jisc by the English Place Names Society and released under a Creative Commons Attribution-NonCommercial 4.0 International License.","note":"LPF v1.3, lossy; derived from the PLATO record; plato_commit=ca0afadabec1e23a145c0b03df77e8f151f79832","features":[{"@id":"https://w3id.org/whg-epns/12/009335","type":"Feature","properties":{"title":"Stock","ccodes":["GB"],"fclasses":["A","P"]},"names":[{"toponym":"Stock","lang":"en","citations":[{"label":"English Place-Name Society survey, volume 12: Essex"}]},{"toponym":"Her(e)ward(e)stoc(ke), Her(e)ward(e)stok(e)","citations":[{"label":"1234 FF","year":1234},{"label":"1238 ChR","year":1238},{"label":"1251 Ch","year":1251},{"label":"1334 Londin","year":1334},{"label":"1372 IpmR","year":1372}],"when":{"timespans":[{"start":{"in":"1234"},"end":{"in":"1234"}},{"start":{"in":"1238"},"end":{"in":"1238"}},{"start":{"in":"1251"},"end":{"in":"1251"}},{"start":{"in":"1268"},"end":{"in":"1268"}},{"start":{"in":"1334"},"end":{"in":"1334"}},{"start":{"in":"1372"},"end":{"in":"1372"}}]}},{"toponym":"Stocke","citations":[{"label":"1337 FF","year":1337},{"label":"1583 Lancs","year":1583}],"when":{"timespans":[{"start":{"in":"1337"},"end":{"in":"1337"}},{"start":{"in":"1583"},"end":{"in":"1583"}}]}},{"toponym":"Stokk(e)","citations":[{"label":"1475 FF","year":1475},{"label":"1551 Pat","year":1551}],"when":{"timespans":[{"start":{"in":"1475"},"end":{"in":"1475"}},{"start":{"in":"1551"},"end":{"in":"1551"}}]}},{"toponym":"Herwarstok","citations":[{"label":"1370 Pat","year":1370}],"when":{"timespans":[{"start":{"in":"1370"},"end":{"in":"1370"}}]}},{"toponym":"Herefordstok","citations":[{"label":"1373 IpmR","year":1373}],"when":{"timespans":[{"start":{"in":"1373"},"end":{"in":"1373"}}]}},{"toponym":"Harwardstok","citations":[{"label":"1467-72 ECP","year":1467}],"when":{"timespans":[{"start":{"earliest":"1467","latest":"1472"},"end":{"earliest":"1467","latest":"1472"}}]}},{"toponym":"Herford Stoke","citations":[{"label":"1476 IpmR","year":1476}],"when":{"timespans":[{"start":{"in":"1476"},"end":{"in":"1476"}}]}},{"toponym":"Harfoth Stoke","citations":[{"label":"1518-29 ECP","year":1518}],"when":{"timespans":[{"start":{"earliest":"1518","latest":"1529"},"end":{"earliest":"1518","latest":"1529"}}]}},{"toponym":"Hardefordstok","citations":[{"label":"1535 VE","year":1535}],"when":{"timespans":[{"start":{"in":"1535"},"end":{"in":"1535"}}]}},{"toponym":"Hertford Stock","citations":[{"label":"t. Eliz ChancP","year":1558}],"when":{"timespans":[{"start":{"earliest":"1558","latest":"1603"},"end":{"earliest":"1558","latest":"1603"}}]}},{"toponym":"Stock Hereford","citations":[{"label":"1584 Lancs","year":1584}],"when":{"timespans":[{"start":{"in":"1584"},"end":{"in":"1584"}}]}},{"toponym":"Harvord Stook","citations":[{"label":"1604 EA","year":1604}],"when":{"timespans":[{"start":{"in":"1604"},"end":{"in":"1604"}}]}},{"toponym":"Harward alias Harrard Stock","citations":[{"label":"1608 EA","year":1608}],"when":{"timespans":[{"start":{"in":"1608"},"end":{"in":"1608"}}]}},{"toponym":"Stoke in Buttsbury","citations":[{"label":"1504-15 ECP","year":1504}],"when":{"timespans":[{"start":{"earliest":"1504","latest":"1515"},"end":{"earliest":"1504","latest":"1515"}}]}},{"toponym":"Stocke alias Haverstocke","citations":[{"label":"1627 Bodl","year":1627}],"when":{"timespans":[{"start":{"in":"1627"},"end":{"in":"1627"}}]}}],"types":[{"identifier":"http://vocab.getty.edu/aat/300232418","label":"administrative division","sourceLabels":[{"label":"township","lang":"en"}]}],"geometry":{"type":"GeometryCollection","geometries":[{"type":"Point","coordinates":[0.44263,51.66351],"citations":[{"label":"GeoNames, gazetteer record geonames:2636896"}]},{"type":"Point","coordinates":[0.4369076503435626,51.66850750375436],"citations":[{"label":"Unlock (EDINA) gazetteer, gazetteer record unlock:11292346"}]},{"type":"Point","coordinates":[0.449206,51.6597],"citations":[{"label":"Key to English Place-Names (KEPN), gazetteer record 12382"}]}]},"when":{"timespans":[{"start":{"in":"1234"},"end":{"in":"1627"}}]},"links":[{"type":"closeMatch","identifier":"https://sws.geonames.org/2636896/"}],"relations":[{"relationType":"gvp:broaderPartitive","relationTo":"https://w3id.org/whg-epns/12/009334","label":"within Stock"}]}]}