{"@context":"https://raw.githubusercontent.com/LinkedPasts/linked-places-format/main/linkedplaces-context-v1.1.jsonld","type":"FeatureCollection","license":"Digitisation of English Placenames MADS data is licensed to Jisc by the English Place Names Society and released under a Creative Commons Attribution-NonCommercial 4.0 International License.","note":"LPF v1.3, lossy; derived from the PLATO record; plato_commit=ca0afadabec1e23a145c0b03df77e8f151f79832","features":[{"@id":"https://w3id.org/whg-epns/12/010123","type":"Feature","properties":{"title":"Hatfield Peverel","ccodes":["GB"],"fclasses":["A","P"]},"names":[{"toponym":"Hatfield Peverel","lang":"en","citations":[{"label":"English Place-Name Society survey, volume 12: Essex"}]},{"toponym":"Hafelda, Hadfeldam","citations":[{"label":"1086 DB","year":1086}],"when":{"timespans":[{"start":{"in":"1086"},"end":{"in":"1086"}}]}},{"toponym":"Hedfeld","citations":[{"label":"1155 RBE","year":1155}],"when":{"timespans":[{"start":{"in":"1155"},"end":{"in":"1155"}}]}},{"toponym":"Hethfeld","citations":[{"label":"1263 Ipm","year":1263}],"when":{"timespans":[{"start":{"in":"1263"},"end":{"in":"1263"}}]}},{"toponym":"Hadfeld Peurell","citations":[{"label":"1166 P","year":1166}],"when":{"timespans":[{"start":{"in":"1166"},"end":{"in":"1166"}}]}},{"toponym":"Alia Hatfeud, Hatfeld Peuerel","citations":[{"label":"1254 Ass","year":1254}],"when":{"timespans":[{"start":{"in":"1254"},"end":{"in":"1254"}}]}},{"toponym":"Haffeld","citations":[{"label":"1230 Pat","year":1230},{"label":"1234 FF","year":1234}],"when":{"timespans":[{"start":{"in":"1230"},"end":{"in":"1230"}},{"start":{"in":"1234"},"end":{"in":"1234"}}]}},{"toponym":"Affeudpeverel","citations":[{"label":"1235 FF","year":1235}],"when":{"timespans":[{"start":{"in":"1235"},"end":{"in":"1235"}}]}},{"toponym":"Hatfell Peverell","citations":[{"label":"1428 FA","year":1428}],"when":{"timespans":[{"start":{"in":"1428"},"end":{"in":"1428"}}]}}],"types":[{"identifier":"http://vocab.getty.edu/aat/300232418","label":"administrative division","sourceLabels":[{"label":"township","lang":"en"}]}],"geometry":{"type":"GeometryCollection","geometries":[{"type":"Point","coordinates":[0.59489,51.77591],"citations":[{"label":"GeoNames, gazetteer record geonames:2647343"}]},{"type":"Point","coordinates":[0.6020068692486711,51.7728958904757],"citations":[{"label":"Unlock (EDINA) gazetteer, gazetteer record unlock:11167225"}]},{"type":"Point","coordinates":[0.60032,51.7734],"citations":[{"label":"Key to English Place-Names (KEPN), gazetteer record 12395"}]}]},"when":{"timespans":[{"start":{"in":"1086"},"end":{"in":"1428"}}]},"links":[{"type":"closeMatch","identifier":"https://sws.geonames.org/2647343/"}],"relations":[{"relationType":"gvp:broaderPartitive","relationTo":"https://w3id.org/whg-epns/12/010122","label":"within Hatfield Peverel"}]}]}