{"@context":"https://raw.githubusercontent.com/LinkedPasts/linked-places-format/main/linkedplaces-context-v1.1.jsonld","type":"FeatureCollection","license":"Digitisation of English Placenames MADS data is licensed to Jisc by the English Place Names Society and released under a Creative Commons Attribution-NonCommercial 4.0 International License.","note":"LPF v1.3, lossy; derived from the PLATO record; plato_commit=ca0afadabec1e23a145c0b03df77e8f151f79832","features":[{"@id":"https://w3id.org/whg-epns/12/010493","type":"Feature","properties":{"title":"Terling","ccodes":["GB"],"fclasses":["A","P"]},"names":[{"toponym":"Terling","lang":"en","citations":[{"label":"English Place-Name Society survey, volume 12: Essex"}]}],"types":[{"identifier":"http://vocab.getty.edu/aat/300232418","label":"administrative division","sourceLabels":[{"label":"parish","lang":"en"}]}],"geometry":{"type":"GeometryCollection","geometries":[{"type":"Point","coordinates":[0.56837,51.80612],"citations":[{"label":"GeoNames, gazetteer record geonames:2636097"}]},{"type":"Point","coordinates":[0.5750937397222532,51.80946561853624],"citations":[{"label":"Unlock (EDINA) gazetteer, gazetteer record unlock:11298747"}]},{"type":"Point","coordinates":[0.573408,51.81],"citations":[{"label":"Key to English Place-Names (KEPN), gazetteer record 12400"}]}]},"links":[{"type":"closeMatch","identifier":"https://sws.geonames.org/2636097/"}],"relations":[{"relationType":"gvp:broaderPartitive","relationTo":"https://w3id.org/whg-epns/12/009898","label":"within Witham Hundred"}]}]}