{"@context":"https://raw.githubusercontent.com/LinkedPasts/linked-places-format/main/linkedplaces-context-v1.1.jsonld","type":"FeatureCollection","license":"Digitisation of English Placenames MADS data is licensed to Jisc by the English Place Names Society and released under a Creative Commons Attribution-NonCommercial 4.0 International License.","note":"LPF v1.3, lossy; derived from the PLATO record; plato_commit=ca0afadabec1e23a145c0b03df77e8f151f79832","features":[{"@id":"http://placenames.org.uk/id/placename/12/011427","type":"Feature","properties":{"title":"Peldon","ccodes":["GB"],"fclasses":["A","P"]},"names":[{"toponym":"Peldon","lang":"en","citations":[{"label":"English Place-Name Society survey, volume 12: Essex"}]},{"toponym":"(at) Piltendone","citations":[{"label":"c. 950 ASWills","year":940}],"when":{"timespans":[{"start":{"earliest":"0940","latest":"0960"},"end":{"earliest":"0940","latest":"0960"}}]}},{"toponym":"(æt) Peltandune","citations":[{"label":"c. 975 ASWills","year":965}],"when":{"timespans":[{"start":{"earliest":"0965","latest":"0985"},"end":{"earliest":"0965","latest":"0985"}},{"start":{"earliest":"0990","latest":"1010"},"end":{"earliest":"0990","latest":"1010"}}]}},{"toponym":"Peltendunā","citations":[{"label":"1086 DB","year":1086}],"when":{"timespans":[{"start":{"in":"1086"},"end":{"in":"1086"}}]}},{"toponym":"Peltenden'","citations":[{"label":"1230 P","year":1230}],"when":{"timespans":[{"start":{"in":"1230"},"end":{"in":"1230"}}]}},{"toponym":"Peltendone","citations":[{"label":"1237 Colch","year":1237}],"when":{"timespans":[{"start":{"in":"1237"},"end":{"in":"1237"}}]}},{"toponym":"Peltidone, Peltyndone","citations":[{"label":"1202–1303, recurring Civil","year":1202},{"label":"1202–1303, recurring FA"},{"label":"1202 Civil","year":1202},{"label":"1303 FA","year":1303}],"when":{"timespans":[{"start":{"in":"1202"},"end":{"in":"1303"}},{"start":{"in":"1202"},"end":{"in":"1202"}},{"start":{"in":"1303"},"end":{"in":"1303"}}]}},{"toponym":"Peltedon'","citations":[{"label":"1205 Cur","year":1205}],"when":{"timespans":[{"start":{"in":"1205"},"end":{"in":"1205"}}]}},{"toponym":"Peltidune","citations":[{"label":"1217 AD","year":1217}],"when":{"timespans":[{"start":{"in":"1217"},"end":{"in":"1217"}}]}},{"toponym":"Poltedon'","citations":[{"label":"1205 Cur","year":1205}],"when":{"timespans":[{"start":{"in":"1205"},"end":{"in":"1205"}}]}},{"toponym":"Pultondon","citations":[{"label":"1285 Ass","year":1285}],"when":{"timespans":[{"start":{"in":"1285"},"end":{"in":"1285"}}]}},{"toponym":"Poldon","citations":[{"label":"1418 Pap","year":1418}],"when":{"timespans":[{"start":{"in":"1418"},"end":{"in":"1418"}}]}},{"toponym":"Peldinden', Peldingdon'","citations":[{"label":"1230 P","year":1230}],"when":{"timespans":[{"start":{"in":"1230"},"end":{"in":"1230"}}]}},{"toponym":"Peldyngton","citations":[{"label":"1393 Cl","year":1393}],"when":{"timespans":[{"start":{"in":"1393"},"end":{"in":"1393"}}]}},{"toponym":"Peltingdon(e), Pyltingdon(e)","citations":[{"label":"1280–1428, recurring Ipm","year":1280},{"label":"1280–1428, recurring FA"},{"label":"1280 Ipm","year":1280},{"label":"1428 FA","year":1428}],"when":{"timespans":[{"start":{"in":"1280"},"end":{"in":"1428"}},{"start":{"in":"1280"},"end":{"in":"1280"}},{"start":{"in":"1428"},"end":{"in":"1428"}}]}},{"toponym":"Pel(e)don","citations":[{"label":"1285–1457, recurring Ass","year":1285},{"label":"1285–1457, recurring Pap"},{"label":"1285 Ass","year":1285},{"label":"1457 Pap","year":1457}],"when":{"timespans":[{"start":{"in":"1285"},"end":{"in":"1457"}},{"start":{"in":"1285"},"end":{"in":"1285"}},{"start":{"in":"1457"},"end":{"in":"1457"}}]}},{"toponym":"Pel(e)doun","citations":[{"label":"1393 Cl","year":1393}],"when":{"timespans":[{"start":{"in":"1393"},"end":{"in":"1393"}}]}},{"toponym":"Pelledon","citations":[{"label":"1341 NI","year":1341}],"when":{"timespans":[{"start":{"in":"1341"},"end":{"in":"1341"}}]}},{"toponym":"Pelden in le Plaish","citations":[{"label":"1553 Pat","year":1553}],"when":{"timespans":[{"start":{"in":"1553"},"end":{"in":"1553"}}]}},{"toponym":"Pylton","citations":[{"label":"t. Ed 3 FA","year":1327}],"when":{"timespans":[{"start":{"earliest":"1327","latest":"1377"},"end":{"earliest":"1327","latest":"1377"}}]}},{"toponym":"Pelton","citations":[{"label":"1527 FF","year":1527}],"when":{"timespans":[{"start":{"in":"1527"},"end":{"in":"1527"}}]}}],"types":[{"identifier":"http://vocab.getty.edu/aat/300232418","label":"administrative division","sourceLabels":[{"label":"township","lang":"en"}]}],"geometry":{"type":"GeometryCollection","geometries":[{"type":"Point","coordinates":[0.88552,51.81313],"citations":[{"label":"GeoNames, gazetteer record geonames:2640513"}]},{"type":"Point","coordinates":[0.8799323053331572,51.81138486217755],"citations":[{"label":"Unlock (EDINA) gazetteer, gazetteer record unlock:11241836"}]},{"type":"Point","coordinates":[0.892699,51.8115],"citations":[{"label":"Key to English Place-Names (KEPN), gazetteer record 12422"}]}]},"when":{"timespans":[{"start":{"in":"0940"},"end":{"in":"1553"}}]},"links":[{"type":"closeMatch","identifier":"https://sws.geonames.org/2640513/"}],"relations":[{"relationType":"gvp:broaderPartitive","relationTo":"http://placenames.org.uk/id/placename/12/011426","label":"within Peldon"}]}]}