{"@context":"https://raw.githubusercontent.com/LinkedPasts/linked-places-format/main/linkedplaces-context-v1.1.jsonld","type":"FeatureCollection","license":"Digitisation of English Placenames MADS data is licensed to Jisc by the English Place Names Society and released under a Creative Commons Attribution-NonCommercial 4.0 International License.","note":"LPF v1.3, lossy; derived from the PLATO record; plato_commit=ca0afadabec1e23a145c0b03df77e8f151f79832","features":[{"@id":"http://placenames.org.uk/id/placename/12/012145","type":"Feature","properties":{"title":"Great Holland","ccodes":["GB"],"fclasses":["A","P"]},"names":[{"toponym":"Great Holland","lang":"en","citations":[{"label":"English Place-Name Society survey, volume 12: Essex"}]}],"types":[{"identifier":"http://vocab.getty.edu/aat/300232418","label":"administrative division","sourceLabels":[{"label":"parish","lang":"en"}]}],"geometry":{"type":"GeometryCollection","geometries":[{"type":"Point","coordinates":[1.20961,51.82817],"citations":[{"label":"GeoNames, gazetteer record geonames:2648080"}]},{"type":"Point","coordinates":[1.215008640838898,51.82967974772998],"citations":[{"label":"Unlock (EDINA) gazetteer, gazetteer record unlock:11158899"}]},{"type":"Point","coordinates":[1.21325,51.8302],"citations":[{"label":"Key to English Place-Names (KEPN), gazetteer record 12442"}]}]},"links":[{"type":"closeMatch","identifier":"https://sws.geonames.org/2648080/"}],"relations":[{"relationType":"gvp:broaderPartitive","relationTo":"http://placenames.org.uk/id/placename/12/011548","label":"within Tendring Hundred"}]}]}