{"@context":"https://raw.githubusercontent.com/LinkedPasts/linked-places-format/main/linkedplaces-context-v1.1.jsonld","type":"FeatureCollection","license":"Digitisation of English Placenames MADS data is licensed to Jisc by the English Place Names Society and released under a Creative Commons Attribution-NonCommercial 4.0 International License.","note":"LPF v1.3, lossy; derived from the PLATO record; plato_commit=ca0afadabec1e23a145c0b03df77e8f151f79832","features":[{"@id":"http://placenames.org.uk/id/placename/12/012398","type":"Feature","properties":{"title":"St Osyth","ccodes":["GB"],"fclasses":["A","P"]},"names":[{"toponym":"St Osyth","lang":"en","citations":[{"label":"English Place-Name Society survey, volume 12: Essex"}]},{"toponym":"Cicc","citations":[{"label":"c. 1000 Saints","year":990}],"when":{"timespans":[{"start":{"earliest":"0990","latest":"1010"},"end":{"earliest":"0990","latest":"1010"}}]}},{"toponym":"Ticc","citations":[{"label":"c. 1000 CCC 383","year":990}],"when":{"timespans":[{"start":{"earliest":"0990","latest":"1010"},"end":{"earliest":"0990","latest":"1010"}}]}},{"toponym":"Cice","citations":[{"label":"1086 DB","year":1086},{"label":"1123 ASC","year":1123}],"when":{"timespans":[{"start":{"in":"1086"},"end":{"in":"1086"}},{"start":{"in":"1123"},"end":{"in":"1123"}}]}},{"toponym":"Cicia","citations":[{"label":"1119 Colch","year":1119}],"when":{"timespans":[{"start":{"in":"1119"},"end":{"in":"1119"}}]}},{"toponym":"Cic","citations":[{"label":"c. 1125 WMP","year":1115}],"when":{"timespans":[{"start":{"earliest":"1115","latest":"1135"},"end":{"earliest":"1115","latest":"1135"}}]}},{"toponym":"Citā","citations":[{"label":"1086 DB","year":1086}],"when":{"timespans":[{"start":{"in":"1086"},"end":{"in":"1086"}}]}},{"toponym":"Chich(e)","citations":[{"label":"1198 Colch","year":1198},{"label":"1218-60 FF","year":1218}],"when":{"timespans":[{"start":{"in":"1198"},"end":{"in":"1198"}},{"start":{"earliest":"1218","latest":"1260"},"end":{"earliest":"1218","latest":"1260"}}]}},{"toponym":"Chich(e) St Osithe","citations":[{"label":"1289 FF","year":1289}],"when":{"timespans":[{"start":{"in":"1289"},"end":{"in":"1289"}}]}},{"toponym":"Chich(e) Seynte Osythe","citations":[{"label":"1544 LP","year":1544}],"when":{"timespans":[{"start":{"in":"1544"},"end":{"in":"1544"}}]}},{"toponym":"Chyche, Chyche Regis alias St Osith's","citations":[{"label":"1547 FF","year":1547}],"when":{"timespans":[{"start":{"in":"1547"},"end":{"in":"1547"}}]}},{"toponym":"Chicke","citations":[{"label":"1230 Pat","year":1230}],"when":{"timespans":[{"start":{"in":"1230"},"end":{"in":"1230"}}]}},{"toponym":"Chic(h)che","citations":[{"label":"1247 FF","year":1247}],"when":{"timespans":[{"start":{"in":"1247"},"end":{"in":"1247"}},{"start":{"in":"1256"},"end":{"in":"1256"}}]}},{"toponym":"Chuch","citations":[{"label":"t. Hy 3 FA","year":1216}],"when":{"timespans":[{"start":{"earliest":"1216","latest":"1272"},"end":{"earliest":"1216","latest":"1272"}}]}},{"toponym":"Chuthe","citations":[{"label":"1358 FF","year":1358}],"when":{"timespans":[{"start":{"in":"1358"},"end":{"in":"1358"}}]}},{"toponym":"Cheche","citations":[{"label":"1280 Ipm","year":1280}],"when":{"timespans":[{"start":{"in":"1280"},"end":{"in":"1280"}}]}},{"toponym":"Chichey","citations":[{"label":"1552 Pat","year":1552}],"when":{"timespans":[{"start":{"in":"1552"},"end":{"in":"1552"}}]}},{"toponym":"Sancta Osida","citations":[{"label":"1187 P","year":1187}],"when":{"timespans":[{"start":{"in":"1187"},"end":{"in":"1187"}}]}},{"toponym":"Sce Oside","citations":[{"label":"1205 ClR","year":1205}],"when":{"timespans":[{"start":{"in":"1205"},"end":{"in":"1205"}}]}},{"toponym":"Seyntosid'","citations":[{"label":"1229 Cl","year":1229}],"when":{"timespans":[{"start":{"in":"1229"},"end":{"in":"1229"}}]}},{"toponym":"St Osith","citations":[{"label":"1280–1302, recurring FF","year":1280},{"label":"1280 FF","year":1280}],"when":{"timespans":[{"start":{"in":"1280"},"end":{"in":"1302"}},{"start":{"in":"1280"},"end":{"in":"1280"}},{"start":{"in":"1302"},"end":{"in":"1302"}}]}},{"toponym":"Se(i)nt Osy(e)","citations":[{"label":"t. Ed 1 ChancMisc","year":1272},{"label":"1467-73 ECP","year":1467},{"label":"1493 Ipm","year":1493}],"when":{"timespans":[{"start":{"earliest":"1272","latest":"1307"},"end":{"earliest":"1272","latest":"1307"}},{"start":{"earliest":"1467","latest":"1473"},"end":{"earliest":"1467","latest":"1473"}},{"start":{"in":"1493"},"end":{"in":"1493"}}]}},{"toponym":"St Osea","citations":[{"label":"1713 WigboroughPR","year":1713}],"when":{"timespans":[{"start":{"in":"1713"},"end":{"in":"1713"}}]}},{"toponym":"Seint Osiez","citations":[{"label":"1362 Pat","year":1362}],"when":{"timespans":[{"start":{"in":"1362"},"end":{"in":"1362"}}]}},{"toponym":"St Osyes","citations":[{"label":"1467-83 ECP","year":1467}],"when":{"timespans":[{"start":{"earliest":"1467","latest":"1483"},"end":{"earliest":"1467","latest":"1483"}}]}},{"toponym":"St Oses, St Osis","citations":[{"label":"1538 LP","year":1538}],"when":{"timespans":[{"start":{"in":"1538"},"end":{"in":"1538"}}]}},{"toponym":"Seynt Osees","citations":[{"label":"1552 FF","year":1552}],"when":{"timespans":[{"start":{"in":"1552"},"end":{"in":"1552"}}]}},{"toponym":"Osys","citations":[{"label":"1431-42 ECP","year":1431}],"when":{"timespans":[{"start":{"earliest":"1431","latest":"1442"},"end":{"earliest":"1431","latest":"1442"}}]}},{"toponym":"Osy","citations":[{"label":"1459-65 ECP","year":1459}],"when":{"timespans":[{"start":{"earliest":"1459","latest":"1465"},"end":{"earliest":"1459","latest":"1465"}}]}},{"toponym":"Sayncte Ooses","citations":[{"label":"1553 Dickin","year":1553}],"when":{"timespans":[{"start":{"in":"1553"},"end":{"in":"1553"}}]}},{"toponym":"Sainte toosie, toosei","citations":[{"label":"1620 Dickin","year":1620}],"when":{"timespans":[{"start":{"in":"1620"},"end":{"in":"1620"}}]}}],"types":[{"identifier":"http://vocab.getty.edu/aat/300232418","label":"administrative division","sourceLabels":[{"label":"township","lang":"en"}]}],"geometry":{"type":"GeometryCollection","geometries":[{"type":"Point","coordinates":[1.082131260638086,51.79725976703455],"citations":[{"label":"Unlock (EDINA) gazetteer, gazetteer record unlock:11276878"}]},{"type":"Point","coordinates":[1.08039,51.7978],"citations":[{"label":"Key to English Place-Names (KEPN), gazetteer record 12451"}]}]},"when":{"timespans":[{"start":{"in":"0990"},"end":{"in":"1713"}}]},"relations":[{"relationType":"gvp:broaderPartitive","relationTo":"http://placenames.org.uk/id/placename/12/012397","label":"within St Osyth"}]}]}