{"@context":"https://raw.githubusercontent.com/LinkedPasts/linked-places-format/main/linkedplaces-context-v1.1.jsonld","type":"FeatureCollection","license":"Digitisation of English Placenames MADS data is licensed to Jisc by the English Place Names Society and released under a Creative Commons Attribution-NonCommercial 4.0 International License.","note":"LPF v1.3, lossy; derived from the PLATO record; plato_commit=ca0afadabec1e23a145c0b03df77e8f151f79832","features":[{"@id":"https://w3id.org/whg-epns/12/012720","type":"Feature","properties":{"title":"Weeley","ccodes":["GB"],"fclasses":["A","P"]},"names":[{"toponym":"Weeley","lang":"en","citations":[{"label":"English Place-Name Society survey, volume 12: Essex"}]}],"types":[{"identifier":"http://vocab.getty.edu/aat/300232418","label":"administrative division","sourceLabels":[{"label":"parish","lang":"en"}]}],"geometry":{"type":"GeometryCollection","geometries":[{"type":"Point","coordinates":[1.1163,51.85806],"citations":[{"label":"GeoNames, gazetteer record geonames:2634608"}]},{"type":"Point","coordinates":[1.115430999768844,51.85934739686978],"citations":[{"label":"Unlock (EDINA) gazetteer, gazetteer record unlock:11315372"}]},{"type":"Point","coordinates":[1.11368,51.8598],"citations":[{"label":"Key to English Place-Names (KEPN), gazetteer record 12456"}]}]},"links":[{"type":"closeMatch","identifier":"https://sws.geonames.org/2634608/"}],"relations":[{"relationType":"gvp:broaderPartitive","relationTo":"https://w3id.org/whg-epns/12/011548","label":"within Tendring Hundred"}]}]}