{"@context":"https://raw.githubusercontent.com/LinkedPasts/linked-places-format/main/linkedplaces-context-v1.1.jsonld","type":"FeatureCollection","license":"Digitisation of English Placenames MADS data is licensed to Jisc by the English Place Names Society and released under a Creative Commons Attribution-NonCommercial 4.0 International License.","note":"LPF v1.3, lossy; derived from the PLATO record; plato_commit=ca0afadabec1e23a145c0b03df77e8f151f79832","features":[{"@id":"http://placenames.org.uk/id/placename/12/013035","type":"Feature","properties":{"title":"Boxted","ccodes":["GB"],"fclasses":["A","P"]},"names":[{"toponym":"Boxted","lang":"en","citations":[{"label":"English Place-Name Society survey, volume 12: Essex"}]},{"toponym":"Bocchestedā, Bucchestedā","citations":[{"label":"1086 DB","year":1086}],"when":{"timespans":[{"start":{"in":"1086"},"end":{"in":"1086"}}]}},{"toponym":"Bocsted(e)","citations":[{"label":"1202 Colch","year":1202},{"label":"1233 Bracton","year":1233},{"label":"1234 FF","year":1234}],"when":{"timespans":[{"start":{"in":"1202"},"end":{"in":"1202"}},{"start":{"in":"1233"},"end":{"in":"1233"}},{"start":{"in":"1234"},"end":{"in":"1234"}}]}},{"toponym":"Bockestide","citations":[{"label":"1297 Ipm","year":1297}],"when":{"timespans":[{"start":{"in":"1297"},"end":{"in":"1297"}}]}},{"toponym":"Boxsted(e)","citations":[{"label":"1219-35 FF","year":1219}],"when":{"timespans":[{"start":{"earliest":"1219","latest":"1235"},"end":{"earliest":"1219","latest":"1235"}}]}},{"toponym":"Petit Boxsted(e)","citations":[{"label":"1312 BM","year":1312}],"when":{"timespans":[{"start":{"in":"1312"},"end":{"in":"1312"}}]}},{"toponym":"Boxstode","citations":[{"label":"1285 Ass","year":1285}],"when":{"timespans":[{"start":{"in":"1285"},"end":{"in":"1285"}}]}},{"toponym":"Boxted","citations":[{"label":"1257 FF","year":1257}],"when":{"timespans":[{"start":{"in":"1257"},"end":{"in":"1257"}}]}},{"toponym":"Bukstede","citations":[{"label":"1376 Cl","year":1376}],"when":{"timespans":[{"start":{"in":"1376"},"end":{"in":"1376"}}]}},{"toponym":"Bucsted by Colchester","citations":[{"label":"1536 LP","year":1536}],"when":{"timespans":[{"start":{"in":"1536"},"end":{"in":"1536"}}]}},{"toponym":"Bexstede","citations":[{"label":"1481 Pat","year":1481}],"when":{"timespans":[{"start":{"in":"1481"},"end":{"in":"1481"}}]}}],"types":[{"identifier":"http://vocab.getty.edu/aat/300232418","label":"administrative division","sourceLabels":[{"label":"township","lang":"en"}]}],"geometry":{"type":"GeometryCollection","geometries":[{"type":"Point","coordinates":[0.91667,51.95],"citations":[{"label":"GeoNames, gazetteer record geonames:2655038"}]},{"type":"Point","coordinates":[0.9042522284633088,51.96369557189884],"citations":[{"label":"Unlock (EDINA) gazetteer, gazetteer record unlock:11084449"}]},{"type":"Point","coordinates":[0.902522,51.9642],"citations":[{"label":"Key to English Place-Names (KEPN), gazetteer record 12462"}]}]},"when":{"timespans":[{"start":{"in":"1086"},"end":{"in":"1536"}}]},"links":[{"type":"closeMatch","identifier":"https://sws.geonames.org/2655038/"}],"relations":[{"relationType":"gvp:broaderPartitive","relationTo":"http://placenames.org.uk/id/placename/12/013034","label":"within Boxted"}]}]}