{"@context":"https://raw.githubusercontent.com/LinkedPasts/linked-places-format/main/linkedplaces-context-v1.1.jsonld","type":"FeatureCollection","license":"Digitisation of English Placenames MADS data is licensed to Jisc by the English Place Names Society and released under a Creative Commons Attribution-NonCommercial 4.0 International License.","note":"LPF v1.3, lossy; derived from the PLATO record; plato_commit=ca0afadabec1e23a145c0b03df77e8f151f79832","features":[{"@id":"http://placenames.org.uk/id/placename/12/014091","type":"Feature","properties":{"title":"Easthorpe","ccodes":["GB"],"fclasses":["A","P"]},"names":[{"toponym":"Easthorpe","lang":"en","citations":[{"label":"English Place-Name Society survey, volume 12: Essex"}]},{"toponym":"Estorp","citations":[{"label":"1086 DB","year":1086},{"label":"1204 Cur","year":1204},{"label":"1204 LibR","year":1204},{"label":"1212 RBE","year":1212},{"label":"1228 Ch","year":1228}],"when":{"timespans":[{"start":{"in":"1086"},"end":{"in":"1086"}},{"start":{"in":"1204"},"end":{"in":"1204"}},{"start":{"in":"1204"},"end":{"in":"1204"}},{"start":{"in":"1212"},"end":{"in":"1212"}},{"start":{"in":"1228"},"end":{"in":"1228"}}]}},{"toponym":"Estrop","citations":[{"label":"1204 Cur","year":1204},{"label":"1291 Tax","year":1291}],"when":{"timespans":[{"start":{"in":"1204"},"end":{"in":"1204"}},{"start":{"in":"1291"},"end":{"in":"1291"}}]}},{"toponym":"Est Thorpe","citations":[{"label":"1218 FF","year":1218}],"when":{"timespans":[{"start":{"in":"1218"},"end":{"in":"1218"}}]}},{"toponym":"Esthorp(e)","citations":[{"label":"1219 Fees","year":1219},{"label":"1227 ChR","year":1227},{"label":"1260 FF","year":1260},{"label":"1303 FA","year":1303},{"label":"1328 Londin","year":1328}],"when":{"timespans":[{"start":{"in":"1219"},"end":{"in":"1219"}},{"start":{"in":"1227"},"end":{"in":"1227"}},{"start":{"in":"1260"},"end":{"in":"1260"}},{"start":{"in":"1303"},"end":{"in":"1303"}},{"start":{"in":"1328"},"end":{"in":"1328"}}]}},{"toponym":"Estthrop","citations":[{"label":"1285 FF","year":1285}],"when":{"timespans":[{"start":{"in":"1285"},"end":{"in":"1285"}}]}}],"types":[{"identifier":"http://vocab.getty.edu/aat/300232418","label":"administrative division","sourceLabels":[{"label":"township","lang":"en"}]}],"geometry":{"type":"GeometryCollection","geometries":[{"type":"Point","coordinates":[0.7812716520342015,51.85873385194681],"citations":[{"label":"Unlock (EDINA) gazetteer, gazetteer record unlock:11137353"}]},{"type":"Point","coordinates":[0.77956,51.8592],"citations":[{"label":"Key to English Place-Names (KEPN), gazetteer record 12476"}]}]},"when":{"timespans":[{"start":{"in":"1086"},"end":{"in":"1328"}}]},"relations":[{"relationType":"gvp:broaderPartitive","relationTo":"http://placenames.org.uk/id/placename/12/014090","label":"within Easthorpe"}]}]}