{"@context":"https://raw.githubusercontent.com/LinkedPasts/linked-places-format/main/linkedplaces-context-v1.1.jsonld","type":"FeatureCollection","license":"Digitisation of English Placenames MADS data is licensed to Jisc by the English Place Names Society and released under a Creative Commons Attribution-NonCommercial 4.0 International License.","note":"LPF v1.3, lossy; derived from the PLATO record; plato_commit=fa0d247ccc0263f8f19c8d7cdcd163df96935d1e","features":[{"@id":"https://w3id.org/whg-epns/12/014555","type":"Feature","properties":{"title":"Great Tey, Little Tey and Marks Tey","ccodes":["GB"],"fclasses":["A","P"]},"names":[{"toponym":"Great Tey, Little Tey and Marks Tey","lang":"en","citations":[{"label":"English Place-Name Society survey, volume 12: Essex"}]},{"toponym":"(at) Tygan, Tigan","citations":[{"label":"c. 950 ASWills","year":940}],"when":{"timespans":[{"start":{"earliest":"0940","latest":"0960"},"end":{"earliest":"0940","latest":"0960"}}]}},{"toponym":"(into) Tigan","citations":[{"label":"c. 1000 ASWills","year":990}],"when":{"timespans":[{"start":{"earliest":"0990","latest":"1010"},"end":{"earliest":"0990","latest":"1010"}}]}},{"toponym":"Teiam","citations":[{"label":"1086 DB","year":1086}],"when":{"timespans":[{"start":{"in":"1086"},"end":{"in":"1086"}}]}},{"toponym":"Teia, Teya, Teye","citations":[{"label":"1135-54 Colch","year":1135}],"when":{"timespans":[{"start":{"earliest":"1135","latest":"1154"},"end":{"earliest":"1135","latest":"1154"}}]}},{"toponym":"Teye Magna","citations":[{"label":"1231 FF","year":1231}],"when":{"timespans":[{"start":{"in":"1231"},"end":{"in":"1231"}}]}},{"toponym":"Teye de Mandevill","citations":[{"label":"1238 SR","year":1238}],"when":{"timespans":[{"start":{"in":"1238"},"end":{"in":"1238"}}]}},{"toponym":"Teye al. Clocher","citations":[{"label":"1254 FF","year":1254}],"when":{"timespans":[{"start":{"in":"1254"},"end":{"in":"1254"}}]}},{"toponym":"Teya Godmar","citations":[{"label":"1266 Ipm","year":1266},{"label":"1366 LansdCh","year":1366}],"when":{"timespans":[{"start":{"in":"1266"},"end":{"in":"1266"}},{"start":{"in":"1366"},"end":{"in":"1366"}}]}},{"toponym":"Teye Godmar ad Hulmos","citations":[{"label":"1267 Ipm","year":1267}],"when":{"timespans":[{"start":{"in":"1267"},"end":{"in":"1267"}}]}},{"toponym":"Teye Mundevill, Teye Mondevile","citations":[{"label":"1274 RH","year":1274}],"when":{"timespans":[{"start":{"in":"1274"},"end":{"in":"1274"}}]}},{"toponym":"Teye ad Elmos","citations":[{"label":"1275 Ipm","year":1275}],"when":{"timespans":[{"start":{"in":"1275"},"end":{"in":"1275"}}]}},{"toponym":"Teye Parva","citations":[{"label":"1321 Londin","year":1321}],"when":{"timespans":[{"start":{"in":"1321"},"end":{"in":"1321"}}]}},{"toponym":"Teye atte Nelmes","citations":[{"label":"1342 FF","year":1342}],"when":{"timespans":[{"start":{"in":"1342"},"end":{"in":"1342"}}]}},{"toponym":"Teye atte Elmes","citations":[{"label":"1364 Works","year":1364}],"when":{"timespans":[{"start":{"in":"1364"},"end":{"in":"1364"}}]}},{"toponym":"Teye atte Staple","citations":[{"label":"1384 Cl","year":1384}],"when":{"timespans":[{"start":{"in":"1384"},"end":{"in":"1384"}}]}},{"toponym":"Teye Merkys","citations":[{"label":"1475 Oath","year":1475}],"when":{"timespans":[{"start":{"in":"1475"},"end":{"in":"1475"}}]}},{"toponym":"Moche Teye","citations":[{"label":"1494 EAS (OS)","year":1494}],"when":{"timespans":[{"start":{"in":"1494"},"end":{"in":"1494"}}]}},{"toponym":"Teye Markes alias Maundevyle","citations":[{"label":"1522 FF","year":1522}],"when":{"timespans":[{"start":{"in":"1522"},"end":{"in":"1522"}}]}},{"toponym":"Teye Godmer alias Little Teye","citations":[{"label":"1556 FF","year":1556}],"when":{"timespans":[{"start":{"in":"1556"},"end":{"in":"1556"}}]}},{"toponym":"They(e)","citations":[{"label":"1163-1221 WDB","year":1163},{"label":"1234 FF","year":1234}],"when":{"timespans":[{"start":{"earliest":"1163","latest":"1221"},"end":{"earliest":"1163","latest":"1221"}},{"start":{"in":"1234"},"end":{"in":"1234"}},{"start":{"in":"1254"},"end":{"in":"1254"}}]}},{"toponym":"They(e) a la steple","citations":[{"label":"1286 FF","year":1286}],"when":{"timespans":[{"start":{"in":"1286"},"end":{"in":"1286"}}]}},{"toponym":"They(e) ate Staple","citations":[{"label":"1291 Tax","year":1291}],"when":{"timespans":[{"start":{"in":"1291"},"end":{"in":"1291"}}]}},{"toponym":"Thea","citations":[{"label":"1176 P","year":1176}],"when":{"timespans":[{"start":{"in":"1176"},"end":{"in":"1176"}}]}},{"toponym":"Teyen","citations":[{"label":"1285 FF","year":1285},{"label":"1285 Ass","year":1285}],"when":{"timespans":[{"start":{"in":"1285"},"end":{"in":"1285"}},{"start":{"in":"1285"},"end":{"in":"1285"}}]}},{"toponym":"Merkysteyn","citations":[{"label":"1439 Pat","year":1439}],"when":{"timespans":[{"start":{"in":"1439"},"end":{"in":"1439"}}]}},{"toponym":"vulgo Tayn","citations":[{"label":"1768 M","year":1768}],"when":{"timespans":[{"start":{"in":"1768"},"end":{"in":"1768"}}]}},{"toponym":"Tye","citations":[{"label":"1336 Ipm","year":1336},{"label":"1375 Pat","year":1375},{"label":"1412 FA","year":1412}],"when":{"timespans":[{"start":{"in":"1336"},"end":{"in":"1336"}},{"start":{"in":"1375"},"end":{"in":"1375"}},{"start":{"in":"1412"},"end":{"in":"1412"}}]}},{"toponym":"Much Tye","citations":[{"label":"t. Jas 1 ChancP","year":1603}],"when":{"timespans":[{"start":{"earliest":"1603","latest":"1625"},"end":{"earliest":"1603","latest":"1625"}}]}},{"toponym":"ad Ulmes juxta urbem Colecestria","citations":[{"label":"a. 1272 Colch","year":1222}],"when":{"timespans":[{"start":{"earliest":"1222","latest":"1272"},"end":{"earliest":"1222","latest":"1272"}}]}},{"toponym":"Merkys","citations":[{"label":"1412 FA","year":1412}],"when":{"timespans":[{"start":{"in":"1412"},"end":{"in":"1412"}}]}}],"types":[{"identifier":"http://vocab.getty.edu/aat/300232418","label":"administrative division","sourceLabels":[{"label":"township","lang":"en"}]}],"geometry":{"type":"GeometryCollection","geometries":[{"type":"Point","coordinates":[0.74903,51.89925],"citations":[{"label":"GeoNames, gazetteer record geonames:2648005"}]},{"type":"Point","coordinates":[0.7544568955025514,51.89534276109588],"citations":[{"label":"Unlock (EDINA) gazetteer, gazetteer record unlock:11159292"}]},{"type":"Point","coordinates":[0.752747,51.8958],"citations":[{"label":"Key to English Place-Names (KEPN), gazetteer record 12487"}]}]},"when":{"timespans":[{"start":{"in":"0940"},"end":{"in":"1768"}}]},"links":[{"type":"closeMatch","identifier":"https://sws.geonames.org/2648005/"}],"relations":[{"relationType":"gvp:broaderPartitive","relationTo":"https://w3id.org/whg-epns/12/014554","label":"within Great, Little and Marks Tey"}]}]}