{"@context":"https://raw.githubusercontent.com/LinkedPasts/linked-places-format/main/linkedplaces-context-v1.1.jsonld","type":"FeatureCollection","license":"Digitisation of English Placenames MADS data is licensed to Jisc by the English Place Names Society and released under a Creative Commons Attribution-NonCommercial 4.0 International License.","note":"LPF v1.3, lossy; derived from the PLATO record; plato_commit=fa0d247ccc0263f8f19c8d7cdcd163df96935d1e","features":[{"@id":"https://w3id.org/whg-epns/12/014993","type":"Feature","properties":{"title":"Birdbrook","ccodes":["GB"],"fclasses":["A","P"]},"names":[{"toponym":"Birdbrook","lang":"en","citations":[{"label":"English Place-Name Society survey, volume 12: Essex"}]},{"toponym":"Bridebroc","citations":[{"label":"1086 DB","year":1086}],"when":{"timespans":[{"start":{"in":"1086"},"end":{"in":"1086"}}]}},{"toponym":"Bridbroc","citations":[{"label":"1258-1307 WDB","year":1258}],"when":{"timespans":[{"start":{"earliest":"1258","latest":"1307"},"end":{"earliest":"1258","latest":"1307"}}]}},{"toponym":"Brid(e)brok(e)","citations":[{"label":"Ass","year":1248},{"label":"FA"},{"label":"1248 Ass","year":1248},{"label":"1346 FA","year":1346}],"when":{"timespans":[{"start":{"in":"1248"},"end":{"in":"1346"}},{"start":{"in":"1248"},"end":{"in":"1248"}},{"start":{"in":"1346"},"end":{"in":"1346"}}]}},{"toponym":"Bryd(e)bro(o)k","citations":[{"label":"1294-1331 WAM","year":1294},{"label":"1428 FA","year":1428}],"when":{"timespans":[{"start":{"earliest":"1294","latest":"1331"},"end":{"earliest":"1294","latest":"1331"}},{"start":{"in":"1428"},"end":{"in":"1428"}}]}},{"toponym":"Bradebrock","citations":[{"label":"1248 Ass","year":1248}],"when":{"timespans":[{"start":{"in":"1248"},"end":{"in":"1248"}}]}},{"toponym":"Bradebroke","citations":[{"label":"1485 FF","year":1485}],"when":{"timespans":[{"start":{"in":"1485"},"end":{"in":"1485"}}]}},{"toponym":"Briddesbroke","citations":[{"label":"1285 Ass","year":1285}],"when":{"timespans":[{"start":{"in":"1285"},"end":{"in":"1285"}}]}},{"toponym":"Briddebrok(e)","citations":[{"label":"Ch","year":1292},{"label":"WAM"},{"label":"1292 Ch","year":1292},{"label":"1331 WAM","year":1331}],"when":{"timespans":[{"start":{"in":"1292"},"end":{"in":"1331"}},{"start":{"in":"1292"},"end":{"in":"1292"}},{"start":{"in":"1331"},"end":{"in":"1331"}}]}},{"toponym":"Bryddebroke","citations":[{"label":"1295 WAM","year":1295}],"when":{"timespans":[{"start":{"in":"1295"},"end":{"in":"1295"}}]}},{"toponym":"Bredebrok(e)","citations":[{"label":"1292-1300 WAM","year":1292},{"label":"1295 Pat","year":1295}],"when":{"timespans":[{"start":{"earliest":"1292","latest":"1300"},"end":{"earliest":"1292","latest":"1300"}},{"start":{"in":"1295"},"end":{"in":"1295"}}]}},{"toponym":"Brudebrok","citations":[{"label":"1302 FF","year":1302}],"when":{"timespans":[{"start":{"in":"1302"},"end":{"in":"1302"}}]}},{"toponym":"Brodebroke","citations":[{"label":"1362 IpmR","year":1362}],"when":{"timespans":[{"start":{"in":"1362"},"end":{"in":"1362"}}]}},{"toponym":"Brybroke","citations":[{"label":"1381 IpmR","year":1381}],"when":{"timespans":[{"start":{"in":"1381"},"end":{"in":"1381"}}]}},{"toponym":"Birdbrok(e)","citations":[{"label":"1432 IpmR","year":1432},{"label":"1535 VE","year":1535},{"label":"1559 Lancs","year":1559}],"when":{"timespans":[{"start":{"in":"1432"},"end":{"in":"1432"}},{"start":{"in":"1535"},"end":{"in":"1535"}},{"start":{"in":"1559"},"end":{"in":"1559"}}]}},{"toponym":"Burdebroke","citations":[{"label":"1500 Ipm","year":1500}],"when":{"timespans":[{"start":{"in":"1500"},"end":{"in":"1500"}}]}},{"toponym":"Burbrooke or Bridbroke","citations":[{"label":"1594 N","year":1594}],"when":{"timespans":[{"start":{"in":"1594"},"end":{"in":"1594"}}]}},{"toponym":"Bridbrook","citations":[{"label":"1713 Deed","year":1713}],"when":{"timespans":[{"start":{"in":"1713"},"end":{"in":"1713"}}]}}],"types":[{"identifier":"http://vocab.getty.edu/aat/300232418","label":"administrative division","sourceLabels":[{"label":"township","lang":"en"}]}],"geometry":{"type":"GeometryCollection","geometries":[{"type":"Point","coordinates":[0.48923,52.04272],"citations":[{"label":"GeoNames, gazetteer record geonames:2655623"}]},{"type":"Point","coordinates":[0.4865273636239978,52.04521356462629],"citations":[{"label":"Unlock (EDINA) gazetteer, gazetteer record unlock:11077533"}]},{"type":"Point","coordinates":[0.484842,52.0457],"citations":[{"label":"Key to English Place-Names (KEPN), gazetteer record 12498"}]}]},"when":{"timespans":[{"start":{"in":"1086"},"end":{"in":"1713"}}]},"links":[{"type":"closeMatch","identifier":"https://sws.geonames.org/2655623/"}],"relations":[{"relationType":"gvp:broaderPartitive","relationTo":"https://w3id.org/whg-epns/12/014992","label":"within Birdbrook"}]}]}