{"@context":"https://raw.githubusercontent.com/LinkedPasts/linked-places-format/main/linkedplaces-context-v1.1.jsonld","type":"FeatureCollection","license":"Digitisation of English Placenames MADS data is licensed to Jisc by the English Place Names Society and released under a Creative Commons Attribution-NonCommercial 4.0 International License.","note":"LPF v1.3, lossy; derived from the PLATO record; plato_commit=ca0afadabec1e23a145c0b03df77e8f151f79832","features":[{"@id":"http://placenames.org.uk/id/placename/12/016258","type":"Feature","properties":{"title":"Little Henny","ccodes":["GB"],"fclasses":["A","P"]},"names":[{"toponym":"Little Henny","lang":"en","citations":[{"label":"English Place-Name Society survey, volume 12: Essex"}]}],"types":[{"identifier":"http://vocab.getty.edu/aat/300232418","label":"administrative division","sourceLabels":[{"label":"parish","lang":"en"}]}],"geometry":{"type":"GeometryCollection","geometries":[{"type":"Point","coordinates":[0.70893,52.01057],"citations":[{"label":"GeoNames, gazetteer record geonames:7298508"}]},{"type":"Point","coordinates":[0.7034039829091514,52.01345221224764],"citations":[{"label":"Unlock (EDINA) gazetteer, gazetteer record unlock:11196437"}]},{"type":"Point","coordinates":[0.715705,52.0046],"citations":[{"label":"Key to English Place-Names (KEPN), gazetteer record 12514"}]}]},"links":[{"type":"closeMatch","identifier":"https://sws.geonames.org/7298508/"}],"relations":[{"relationType":"gvp:broaderPartitive","relationTo":"http://placenames.org.uk/id/placename/12/014755","label":"within Hinckford Hundred"}]}]}