{"@context":"https://raw.githubusercontent.com/LinkedPasts/linked-places-format/main/linkedplaces-context-v1.1.jsonld","type":"FeatureCollection","license":"Digitisation of English Placenames MADS data is licensed to Jisc by the English Place Names Society and released under a Creative Commons Attribution-NonCommercial 4.0 International License.","note":"LPF v1.3, lossy; derived from the PLATO record; plato_commit=ca0afadabec1e23a145c0b03df77e8f151f79832","features":[{"@id":"https://w3id.org/whg-epns/12/016766","type":"Feature","properties":{"title":"Stambourne","ccodes":["GB"],"fclasses":["A","P"]},"names":[{"toponym":"Stambourne","lang":"en","citations":[{"label":"English Place-Name Society survey, volume 12: Essex"}]},{"toponym":"Stanburna","citations":[{"label":"1086 DB","year":1086}],"when":{"timespans":[{"start":{"in":"1086"},"end":{"in":"1086"}}]}},{"toponym":"Stanburn(e)","citations":[{"label":"1221-54 FF","year":1221},{"label":"1227–1247, recurring Pat","year":1227},{"label":"1227-47 Pat","year":1227}],"when":{"timespans":[{"start":{"earliest":"1221","latest":"1254"},"end":{"earliest":"1221","latest":"1254"}},{"start":{"in":"1227"},"end":{"in":"1247"}},{"start":{"earliest":"1227","latest":"1247"},"end":{"earliest":"1227","latest":"1247"}}]}},{"toponym":"Stamburn","citations":[{"label":"1221 FF","year":1221},{"label":"1255 Ass","year":1255},{"label":"1316 Fine","year":1316}],"when":{"timespans":[{"start":{"in":"1221"},"end":{"in":"1221"}},{"start":{"in":"1255"},"end":{"in":"1255"}},{"start":{"in":"1316"},"end":{"in":"1316"}},{"start":{"in":"1317"},"end":{"in":"1317"}}]}},{"toponym":"Stamborne","citations":[{"label":"1358 Ct","year":1358}],"when":{"timespans":[{"start":{"in":"1358"},"end":{"in":"1358"}}]}},{"toponym":"Stalburn","citations":[{"label":"1275 RH","year":1275}],"when":{"timespans":[{"start":{"in":"1275"},"end":{"in":"1275"}}]}},{"toponym":"Stamborn, Magna Stanberge (Stanburgne)","citations":[{"label":"1303 FA","year":1303}],"when":{"timespans":[{"start":{"in":"1303"},"end":{"in":"1303"}}]}},{"toponym":"Stanburn (rectius Stanburg)","citations":[{"label":"1346 FA","year":1346}],"when":{"timespans":[{"start":{"in":"1346"},"end":{"in":"1346"}}]}}],"types":[{"identifier":"http://vocab.getty.edu/aat/300232418","label":"administrative division","sourceLabels":[{"label":"township","lang":"en"}]}],"geometry":{"type":"GeometryCollection","geometries":[{"type":"Point","coordinates":[0.50792,52.02057],"citations":[{"label":"GeoNames, gazetteer record geonames:2637105"}]},{"type":"Point","coordinates":[0.5141517513937585,52.0176457017787],"citations":[{"label":"Unlock (EDINA) gazetteer, gazetteer record unlock:11290654"}]},{"type":"Point","coordinates":[0.512464,52.0181],"citations":[{"label":"Key to English Place-Names (KEPN), gazetteer record 12531"}]}]},"when":{"timespans":[{"start":{"in":"1086"},"end":{"in":"1358"}}]},"links":[{"type":"closeMatch","identifier":"https://sws.geonames.org/2637105/"}],"relations":[{"relationType":"gvp:broaderPartitive","relationTo":"https://w3id.org/whg-epns/12/016765","label":"within Stambourne"}]}]}