{"@context":"https://raw.githubusercontent.com/LinkedPasts/linked-places-format/main/linkedplaces-context-v1.1.jsonld","type":"FeatureCollection","license":"Digitisation of English Placenames MADS data is licensed to Jisc by the English Place Names Society and released under a Creative Commons Attribution-NonCommercial 4.0 International License.","note":"LPF v1.3, lossy; derived from the PLATO record; plato_commit=ca0afadabec1e23a145c0b03df77e8f151f79832","features":[{"@id":"http://placenames.org.uk/id/placename/12/017298","type":"Feature","properties":{"title":"Wickham St Paul's","ccodes":["GB"],"fclasses":["A","P"]},"names":[{"toponym":"Wickham St Paul's","lang":"en","citations":[{"label":"English Place-Name Society survey, volume 12: Essex"}]},{"toponym":"Wic(h)am","citations":[{"label":"1086 DB","year":1086}],"when":{"timespans":[{"start":{"in":"1086"},"end":{"in":"1086"}}]}},{"toponym":"Wyk(h)am Sancti Pauli","citations":[{"label":"1254 Ass","year":1254},{"label":"1428 FA","year":1428}],"when":{"timespans":[{"start":{"in":"1254"},"end":{"in":"1254"}},{"start":{"in":"1428"},"end":{"in":"1428"}}]}},{"toponym":"Little Wykham","citations":[{"label":"1262 FF","year":1262}],"when":{"timespans":[{"start":{"in":"1262"},"end":{"in":"1262"}}]}},{"toponym":"Canouns Wykham","citations":[{"label":"1322 Pat","year":1322}],"when":{"timespans":[{"start":{"in":"1322"},"end":{"in":"1322"}}]}},{"toponym":"Wikehampaule","citations":[{"label":"1535 VE","year":1535}],"when":{"timespans":[{"start":{"in":"1535"},"end":{"in":"1535"}}]}},{"toponym":"Wykkam Pawley","citations":[{"label":"1545 LP","year":1545}],"when":{"timespans":[{"start":{"in":"1545"},"end":{"in":"1545"}}]}},{"toponym":"Wickam St Paul alias Wickam Pole","citations":[{"label":"1558 FF","year":1558}],"when":{"timespans":[{"start":{"in":"1558"},"end":{"in":"1558"}}]}},{"toponym":"Wickham poole","citations":[{"label":"1607 Kip","year":1607}],"when":{"timespans":[{"start":{"in":"1607"},"end":{"in":"1607"}}]}}],"types":[{"identifier":"http://vocab.getty.edu/aat/300232418","label":"administrative division","sourceLabels":[{"label":"township","lang":"en"}]}],"geometry":{"type":"Point","coordinates":[0.671515,51.9966],"citations":[{"label":"Key to English Place-Names (KEPN), gazetteer record 12539"}]},"when":{"timespans":[{"start":{"in":"1086"},"end":{"in":"1607"}}]},"relations":[{"relationType":"gvp:broaderPartitive","relationTo":"http://placenames.org.uk/id/placename/12/017297","label":"within Wickham St Paul's"}]}]}