{"@context":"https://raw.githubusercontent.com/LinkedPasts/linked-places-format/main/linkedplaces-context-v1.1.jsonld","type":"FeatureCollection","license":"Digitisation of English Placenames MADS data is licensed to Jisc by the English Place Names Society and released under a Creative Commons Attribution-NonCommercial 4.0 International License.","note":"LPF v1.3, lossy; derived from the PLATO record; plato_commit=ca0afadabec1e23a145c0b03df77e8f151f79832","features":[{"@id":"http://placenames.org.uk/id/placename/12/017316","type":"Feature","properties":{"title":"Great Yeldham and Little Yeldham","ccodes":["GB"],"fclasses":["A","P"]},"names":[{"toponym":"Great Yeldham and Little Yeldham","lang":"en","citations":[{"label":"English Place-Name Society survey, volume 12: Essex"}]},{"toponym":"Gerham","citations":[{"label":"1086 DB","year":1086}],"when":{"timespans":[{"start":{"in":"1086"},"end":{"in":"1086"}}]}},{"toponym":"Geld(e)ham","citations":[{"label":"1086 DB","year":1086}],"when":{"timespans":[{"start":{"in":"1086"},"end":{"in":"1086"}}]}},{"toponym":"Geldham","citations":[{"label":"1086 DB","year":1086},{"label":"1166 P","year":1166},{"label":"1178 AC","year":1178},{"label":"1178 ClR","year":1178},{"label":"1221 Pat","year":1221},{"label":"1237 Colch","year":1237}],"when":{"timespans":[{"start":{"in":"1086"},"end":{"in":"1086"}},{"start":{"in":"1166"},"end":{"in":"1166"}},{"start":{"in":"1178"},"end":{"in":"1178"}},{"start":{"in":"1178"},"end":{"in":"1178"}},{"start":{"in":"1221"},"end":{"in":"1221"}},{"start":{"in":"1237"},"end":{"in":"1237"}}]}},{"toponym":"Geldham Magna","citations":[{"label":"1248 Ass","year":1248},{"label":"1254 FF","year":1254}],"when":{"timespans":[{"start":{"in":"1248"},"end":{"in":"1248"}},{"start":{"in":"1254"},"end":{"in":"1254"}}]}},{"toponym":"Geldeham","citations":[{"label":"1212 RBE","year":1212}],"when":{"timespans":[{"start":{"in":"1212"},"end":{"in":"1212"}}]}},{"toponym":"Deldam","citations":[{"label":"t. Ric 1 France","year":1189}],"when":{"timespans":[{"start":{"earliest":"1189","latest":"1199"},"end":{"earliest":"1189","latest":"1199"}}]}},{"toponym":"Chelham, Celleham","citations":[{"label":"1200 Cur","year":1200}],"when":{"timespans":[{"start":{"in":"1200"},"end":{"in":"1200"}}]}},{"toponym":"Gelham","citations":[{"label":"1203 FF","year":1203},{"label":"1253 Ch","year":1253}],"when":{"timespans":[{"start":{"in":"1203"},"end":{"in":"1203"}},{"start":{"in":"1253"},"end":{"in":"1253"}}]}},{"toponym":"Gelhamhumfrei","citations":[{"label":"1254 Ass","year":1254}],"when":{"timespans":[{"start":{"in":"1254"},"end":{"in":"1254"}}]}},{"toponym":"Gelham Unfrey","citations":[{"label":"1255 Ass","year":1255},{"label":"1260 FF","year":1260},{"label":"1263 Ipm","year":1263}],"when":{"timespans":[{"start":{"in":"1255"},"end":{"in":"1255"}},{"start":{"in":"1260"},"end":{"in":"1260"}},{"start":{"in":"1263"},"end":{"in":"1263"}}]}},{"toponym":"Gell(h)am","citations":[{"label":"1288 FF","year":1288},{"label":"1364 Pat","year":1364},{"label":"1412 FA","year":1412}],"when":{"timespans":[{"start":{"in":"1288"},"end":{"in":"1288"}},{"start":{"in":"1364"},"end":{"in":"1364"}},{"start":{"in":"1412"},"end":{"in":"1412"}}]}},{"toponym":"Gehelham","citations":[{"label":"1291 Tax","year":1291}],"when":{"timespans":[{"start":{"in":"1291"},"end":{"in":"1291"}}]}},{"toponym":"Gehelham Parva","citations":[{"label":"1303 FA","year":1303},{"label":"1332-3 Londin","year":1332}],"when":{"timespans":[{"start":{"in":"1303"},"end":{"in":"1303"}},{"start":{"earliest":"1332","latest":"1333"},"end":{"earliest":"1332","latest":"1333"}}]}},{"toponym":"Gilham","citations":[{"label":"1243 Fees","year":1243},{"label":"1371 IpmR","year":1371}],"when":{"timespans":[{"start":{"in":"1243"},"end":{"in":"1243"}},{"start":{"in":"1371"},"end":{"in":"1371"}}]}},{"toponym":"Galdham","citations":[{"label":"1248 Ass","year":1248}],"when":{"timespans":[{"start":{"in":"1248"},"end":{"in":"1248"}}]}},{"toponym":"Galeham","citations":[{"label":"1262 Ipm","year":1262}],"when":{"timespans":[{"start":{"in":"1262"},"end":{"in":"1262"}}]}},{"toponym":"Collam","citations":[{"label":"1285 Ass","year":1285}],"when":{"timespans":[{"start":{"in":"1285"},"end":{"in":"1285"}}]}},{"toponym":"Colham","citations":[{"label":"1285 Ass","year":1285},{"label":"1364 Pat","year":1364}],"when":{"timespans":[{"start":{"in":"1285"},"end":{"in":"1285"}},{"start":{"in":"1364"},"end":{"in":"1364"}}]}},{"toponym":"Joldeham","citations":[{"label":"1285 Ass","year":1285}],"when":{"timespans":[{"start":{"in":"1285"},"end":{"in":"1285"}}]}},{"toponym":"Yldham","citations":[{"label":"1288 FF","year":1288}],"when":{"timespans":[{"start":{"in":"1288"},"end":{"in":"1288"}}]}},{"toponym":"Jelham","citations":[{"label":"1372 Fine","year":1372}],"when":{"timespans":[{"start":{"in":"1372"},"end":{"in":"1372"}},{"start":{"in":"1377"},"end":{"in":"1377"}}]}},{"toponym":"Yeldham","citations":[{"label":"1314 Inq aqd","year":1314},{"label":"1337 Ch","year":1337},{"label":"1341 Cl","year":1341}],"when":{"timespans":[{"start":{"in":"1314"},"end":{"in":"1314"}},{"start":{"in":"1337"},"end":{"in":"1337"}},{"start":{"in":"1341"},"end":{"in":"1341"}}]}},{"toponym":"Nethereyeldham, Ouereyeldham","citations":[{"label":"1360 FF","year":1360},{"label":"1436 Pat","year":1436}],"when":{"timespans":[{"start":{"in":"1360"},"end":{"in":"1360"}},{"start":{"in":"1436"},"end":{"in":"1436"}}]}},{"toponym":"MocheYeldham","citations":[{"label":"1494 AD","year":1494}],"when":{"timespans":[{"start":{"in":"1494"},"end":{"in":"1494"}}]}},{"toponym":"Nether Yeldham, Over Yeldham alias Littell Yeldham","citations":[{"label":"1562 Extent","year":1562}],"when":{"timespans":[{"start":{"in":"1562"},"end":{"in":"1562"}}]}},{"toponym":"Zeldham","citations":[{"label":"1337 Cl","year":1337},{"label":"1340 Pat","year":1340}],"when":{"timespans":[{"start":{"in":"1337"},"end":{"in":"1337"}},{"start":{"in":"1340"},"end":{"in":"1340"}}]}},{"toponym":"Heldham","citations":[{"label":"1548 Pat","year":1548}],"when":{"timespans":[{"start":{"in":"1548"},"end":{"in":"1548"}}]}},{"toponym":"Yald(e)ham","citations":[{"label":"1594 N","year":1594}],"when":{"timespans":[{"start":{"in":"1594"},"end":{"in":"1594"}}]}},{"toponym":"Yealdam","citations":[{"label":"1582 Lancs","year":1582}],"when":{"timespans":[{"start":{"in":"1582"},"end":{"in":"1582"}}]}},{"toponym":"Yealden","citations":[{"label":"1713 Deed","year":1713}],"when":{"timespans":[{"start":{"in":"1713"},"end":{"in":"1713"}}]}}],"types":[{"identifier":"http://vocab.getty.edu/aat/300232418","label":"administrative division","sourceLabels":[{"label":"township","lang":"en"}]}],"geometry":{"type":"GeometryCollection","geometries":[{"type":"Point","coordinates":[0.5654,52.01347],"citations":[{"label":"GeoNames, gazetteer record geonames:2647983"}]},{"type":"Point","coordinates":[0.5723881055998062,52.01638775242869],"citations":[{"label":"Unlock (EDINA) gazetteer, gazetteer record unlock:11159463"}]},{"type":"Point","coordinates":[0.5633,52.016559],"citations":[{"label":"Key to English Place-Names (KEPN), gazetteer record 0184"}]}]},"when":{"timespans":[{"start":{"in":"1086"},"end":{"in":"1713"}}]},"links":[{"type":"closeMatch","identifier":"https://sws.geonames.org/2647983/"}],"relations":[{"relationType":"gvp:broaderPartitive","relationTo":"http://placenames.org.uk/id/placename/12/017315","label":"within Great and Little Yeldham"}]}]}