{"@context":"https://raw.githubusercontent.com/LinkedPasts/linked-places-format/main/linkedplaces-context-v1.1.jsonld","type":"FeatureCollection","license":"Digitisation of English Placenames MADS data is licensed to Jisc by the English Place Names Society and released under a Creative Commons Attribution-NonCommercial 4.0 International License.","note":"LPF v1.3, lossy; derived from the PLATO record; plato_commit=fa0d247ccc0263f8f19c8d7cdcd163df96935d1e","features":[{"@id":"https://w3id.org/whg-epns/12/018409","type":"Feature","properties":{"title":"Berners Roding","ccodes":["GB"],"fclasses":["A","P"]},"names":[{"toponym":"Berners Roding","lang":"en","citations":[{"label":"English Place-Name Society survey, volume 12: Essex"}]},{"toponym":"Reynges, Royng', Rochyngg, Rothingg Berners","citations":[{"label":"1235 Ass","year":1235},{"label":"1238 SR","year":1238},{"label":"1294 FF","year":1294},{"label":"1303 FA","year":1303}],"when":{"timespans":[{"start":{"in":"1235"},"end":{"in":"1235"}},{"start":{"in":"1238"},"end":{"in":"1238"}},{"start":{"in":"1294"},"end":{"in":"1294"}},{"start":{"in":"1295"},"end":{"in":"1295"}},{"start":{"in":"1303"},"end":{"in":"1303"}}]}},{"toponym":"Rothyng Bernes","citations":[{"label":"1493- 1500 ECP","year":1493}],"when":{"timespans":[{"start":{"earliest":"1493","latest":"1500"},"end":{"earliest":"1493","latest":"1500"}}]}},{"toponym":"Barnards Rooding","citations":[{"label":"1535 VE","year":1535}],"when":{"timespans":[{"start":{"in":"1535"},"end":{"in":"1535"}}]}},{"toponym":"Bernes Redyng, Rodynge","citations":[{"label":"1544-6 LP","year":1544}],"when":{"timespans":[{"start":{"earliest":"1544","latest":"1546"},"end":{"earliest":"1544","latest":"1546"}}]}},{"toponym":"Rodyng Barneys","citations":[{"label":"1551 FF","year":1551}],"when":{"timespans":[{"start":{"in":"1551"},"end":{"in":"1551"}}]}},{"toponym":"Rodinge Barnishe","citations":[{"label":"1577 HMC","year":1577}],"when":{"timespans":[{"start":{"in":"1577"},"end":{"in":"1577"}}]}},{"toponym":"Barners Ro(o)thing alias Barnish Roothinge","citations":[{"label":"1593 BM","year":1593},{"label":"t. Jas 1 ChancP","year":1603}],"when":{"timespans":[{"start":{"in":"1593"},"end":{"in":"1593"}},{"start":{"earliest":"1603","latest":"1625"},"end":{"earliest":"1603","latest":"1625"}}]}},{"toponym":"Barnes Rodinge, Rothing or Roding Burneys","citations":[{"label":"1594 N","year":1594},{"label":"1684 EssPR","year":1684}],"when":{"timespans":[{"start":{"in":"1594"},"end":{"in":"1594"}},{"start":{"in":"1684"},"end":{"in":"1684"}}]}},{"toponym":"Barnish Roodin","citations":[{"label":"1697 ER","year":1697}],"when":{"timespans":[{"start":{"in":"1697"},"end":{"in":"1697"}}]}},{"toponym":"Barmish Roding","citations":[{"label":"1732 ER","year":1732}],"when":{"timespans":[{"start":{"in":"1732"},"end":{"in":"1732"}}]}},{"toponym":"Beamish Roding","citations":[{"label":"1753 EssPR","year":1753}],"when":{"timespans":[{"start":{"in":"1753"},"end":{"in":"1753"}}]}},{"toponym":"Berners","citations":[{"label":"1420 FA","year":1420}],"when":{"timespans":[{"start":{"in":"1420"},"end":{"in":"1420"}}]}},{"toponym":"Bernese","citations":[{"label":"1503 EAS","year":1503}],"when":{"timespans":[{"start":{"in":"1503"},"end":{"in":"1503"}}]}}],"types":[{"identifier":"http://vocab.getty.edu/aat/300232418","label":"administrative division","sourceLabels":[{"label":"township","lang":"en"}]}],"geometry":{"type":"GeometryCollection","geometries":[{"type":"Point","coordinates":[0.325920700941226,51.76069783504629],"citations":[{"label":"Unlock (EDINA) gazetteer, gazetteer record unlock:11075819"}]},{"type":"Point","coordinates":[0.324266,51.7612],"citations":[{"label":"Key to English Place-Names (KEPN), gazetteer record 12558"}]}]},"when":{"timespans":[{"start":{"in":"1235"},"end":{"in":"1753"}}]},"relations":[{"relationType":"gvp:broaderPartitive","relationTo":"https://w3id.org/whg-epns/12/018408","label":"within Berners Roding"}]}]}