{"@context":"https://raw.githubusercontent.com/LinkedPasts/linked-places-format/main/linkedplaces-context-v1.1.jsonld","type":"FeatureCollection","license":"Digitisation of English Placenames MADS data is licensed to Jisc by the English Place Names Society and released under a Creative Commons Attribution-NonCommercial 4.0 International License.","note":"LPF v1.3, lossy; derived from the PLATO record; plato_commit=ca0afadabec1e23a145c0b03df77e8f151f79832","features":[{"@id":"https://w3id.org/whg-epns/12/019365","type":"Feature","properties":{"title":"Uttlesford Hundred","ccodes":["GB"],"fclasses":["A"]},"names":[{"toponym":"Uttlesford Hundred","lang":"en","citations":[{"label":"English Place-Name Society survey, volume 12: Essex"}]},{"toponym":"Udelesfort, Wdelesfort, Wdelesforda","citations":[{"label":"1086 DB","year":1086}],"when":{"timespans":[{"start":{"in":"1086"},"end":{"in":"1086"}}]}},{"toponym":"Wudelesford","citations":[{"label":"1182-90 P","year":1182}],"when":{"timespans":[{"start":{"earliest":"1182","latest":"1190"},"end":{"earliest":"1182","latest":"1190"}}]}},{"toponym":"Udelesford(a)","citations":[{"label":"1086 InqEl","year":1086},{"label":"1238 SR","year":1238},{"label":"1248 Ass","year":1248},{"label":"1302 Ipm","year":1302}],"when":{"timespans":[{"start":{"in":"1086"},"end":{"in":"1086"}},{"start":{"in":"1238"},"end":{"in":"1238"}},{"start":{"in":"1248"},"end":{"in":"1248"}},{"start":{"in":"1254"},"end":{"in":"1254"}},{"start":{"in":"1302"},"end":{"in":"1302"}}]}},{"toponym":"Odelesforda, Odelesfort","citations":[{"label":"1086 DB","year":1086}],"when":{"timespans":[{"start":{"in":"1086"},"end":{"in":"1086"}}]}},{"toponym":"Estodelesfort, Westodelesfort","citations":[{"label":"1198 Cur","year":1198},{"label":"1254 Ass","year":1254},{"label":"1274 RH","year":1274},{"label":"1302 Ipm","year":1302}],"when":{"timespans":[{"start":{"in":"1198"},"end":{"in":"1198"}},{"start":{"in":"1254"},"end":{"in":"1254"}},{"start":{"in":"1274"},"end":{"in":"1274"}},{"start":{"in":"1302"},"end":{"in":"1302"}}]}},{"toponym":"Odelsfford","citations":[{"label":"1264 Misc","year":1264}],"when":{"timespans":[{"start":{"in":"1264"},"end":{"in":"1264"}}]}},{"toponym":"West Vselesford","citations":[{"label":"1161 P","year":1161}],"when":{"timespans":[{"start":{"in":"1161"},"end":{"in":"1161"}}]}},{"toponym":"Westludeford","citations":[{"label":"1174-7 P","year":1174}],"when":{"timespans":[{"start":{"earliest":"1174","latest":"1177"},"end":{"earliest":"1174","latest":"1177"}}]}},{"toponym":"Hud(de)lesford(e)","citations":[{"label":"1165-7 P","year":1165},{"label":"1248 Ass","year":1248},{"label":"1303-1428 FA","year":1303},{"label":"1321 Pat","year":1321}],"when":{"timespans":[{"start":{"earliest":"1165","latest":"1167"},"end":{"earliest":"1165","latest":"1167"}},{"start":{"in":"1248"},"end":{"in":"1248"}},{"start":{"in":"1254"},"end":{"in":"1254"}},{"start":{"earliest":"1303","latest":"1428"},"end":{"earliest":"1303","latest":"1428"}},{"start":{"in":"1321"},"end":{"in":"1321"}}]}},{"toponym":"Huddlisford","citations":[{"label":"1364 IpmR","year":1364}],"when":{"timespans":[{"start":{"in":"1364"},"end":{"in":"1364"}}]}},{"toponym":"Estudeleford'","citations":[{"label":"1185 RotDom","year":1185}],"when":{"timespans":[{"start":{"in":"1185"},"end":{"in":"1185"}}]}},{"toponym":"Esthoddeleford","citations":[{"label":"1285 QW","year":1285}],"when":{"timespans":[{"start":{"in":"1285"},"end":{"in":"1285"}}]}},{"toponym":"Hudeleford","citations":[{"label":"1235 Ass","year":1235}],"when":{"timespans":[{"start":{"in":"1235"},"end":{"in":"1235"}},{"start":{"in":"1248"},"end":{"in":"1248"}}]}},{"toponym":"Huddelford","citations":[{"label":"1274 RH","year":1274}],"when":{"timespans":[{"start":{"in":"1274"},"end":{"in":"1274"}}]}},{"toponym":"Hodelesford","citations":[{"label":"1248 Ass","year":1248},{"label":"1274 RH","year":1274}],"when":{"timespans":[{"start":{"in":"1248"},"end":{"in":"1248"}},{"start":{"in":"1274"},"end":{"in":"1274"}}]}},{"toponym":"Utlesford","citations":[{"label":"1383-9 Works","year":1383}],"when":{"timespans":[{"start":{"earliest":"1383","latest":"1389"},"end":{"earliest":"1383","latest":"1389"}}]}},{"toponym":"Vttlesforde","citations":[{"label":"1594 N","year":1594}],"when":{"timespans":[{"start":{"in":"1594"},"end":{"in":"1594"}}]}},{"toponym":"Uttlesforthe","citations":[{"label":"1552 EAS","year":1552}],"when":{"timespans":[{"start":{"in":"1552"},"end":{"in":"1552"}}]}}],"types":[{"identifier":"http://vocab.getty.edu/aat/300232418","label":"administrative division","sourceLabels":[{"label":"hundred / wapentake","lang":"en"}]}],"geometry":null,"when":{"timespans":[{"start":{"in":"1086"},"end":{"in":"1594"}}]},"relations":[{"relationType":"gvp:broaderPartitive","relationTo":"https://w3id.org/whg-epns/12/000001","label":"within Essex"}]}]}