{"@context":"https://raw.githubusercontent.com/LinkedPasts/linked-places-format/main/linkedplaces-context-v1.1.jsonld","type":"FeatureCollection","license":"Digitisation of English Placenames MADS data is licensed to Jisc by the English Place Names Society and released under a Creative Commons Attribution-NonCommercial 4.0 International License.","note":"LPF v1.3, lossy; derived from the PLATO record; plato_commit=ca0afadabec1e23a145c0b03df77e8f151f79832","features":[{"@id":"http://placenames.org.uk/id/placename/12/019431","type":"Feature","properties":{"title":"Birchanger","ccodes":["GB"],"fclasses":["A","P"]},"names":[{"toponym":"Birchanger","lang":"en","citations":[{"label":"English Place-Name Society survey, volume 12: Essex"}]}],"types":[{"identifier":"http://vocab.getty.edu/aat/300232418","label":"administrative division","sourceLabels":[{"label":"parish","lang":"en"}]}],"geometry":{"type":"GeometryCollection","geometries":[{"type":"Point","coordinates":[0.19157,51.8837],"citations":[{"label":"GeoNames, gazetteer record geonames:2655630"}]},{"type":"Point","coordinates":[0.2012898501244525,51.88001541489444],"citations":[{"label":"Unlock (EDINA) gazetteer, gazetteer record unlock:11077388"}]},{"type":"Point","coordinates":[0.185127,51.8808],"citations":[{"label":"Key to English Place-Names (KEPN), gazetteer record 12581"}]}]},"links":[{"type":"closeMatch","identifier":"https://sws.geonames.org/2655630/"}],"relations":[{"relationType":"gvp:broaderPartitive","relationTo":"http://placenames.org.uk/id/placename/12/019365","label":"within Uttlesford Hundred"}]}]}