{"@context":"https://raw.githubusercontent.com/LinkedPasts/linked-places-format/main/linkedplaces-context-v1.1.jsonld","type":"FeatureCollection","license":"Digitisation of English Placenames MADS data is licensed to Jisc by the English Place Names Society and released under a Creative Commons Attribution-NonCommercial 4.0 International License.","note":"LPF v1.3, lossy; derived from the PLATO record; plato_commit=fa0d247ccc0263f8f19c8d7cdcd163df96935d1e","features":[{"@id":"https://w3id.org/whg-epns/12/020462","type":"Feature","properties":{"title":"Wendon Lofts","ccodes":["GB"],"fclasses":["A","P"]},"names":[{"toponym":"Wendon Lofts","lang":"en","citations":[{"label":"English Place-Name Society survey, volume 12: Essex"}]},{"toponym":"Wendenā","citations":[{"label":"1086 DB","year":1086}],"when":{"timespans":[{"start":{"in":"1086"},"end":{"in":"1086"}}]}},{"toponym":"Wenden(e) Loot","citations":[{"label":"1254 FF","year":1254}],"when":{"timespans":[{"start":{"in":"1254"},"end":{"in":"1254"}}]}},{"toponym":"Wenden(e) Loutes","citations":[{"label":"1303 FA","year":1303}],"when":{"timespans":[{"start":{"in":"1303"},"end":{"in":"1303"}}]}},{"toponym":"Wenden(e)lout(h)es","citations":[{"label":"1326 Londin","year":1326}],"when":{"timespans":[{"start":{"in":"1326"},"end":{"in":"1326"}}]}},{"toponym":"Loteswenden(e)","citations":[{"label":"1336 Cl","year":1336}],"when":{"timespans":[{"start":{"in":"1336"},"end":{"in":"1336"}}]}},{"toponym":"Loutiswenden(e)","citations":[{"label":"1337 FF","year":1337}],"when":{"timespans":[{"start":{"in":"1337"},"end":{"in":"1337"}}]}},{"toponym":"Lovteswenden(e)","citations":[{"label":"1343 Cl","year":1343}],"when":{"timespans":[{"start":{"in":"1343"},"end":{"in":"1343"}}]}},{"toponym":"Wendon Lout","citations":[{"label":"1285 FF","year":1285}],"when":{"timespans":[{"start":{"in":"1285"},"end":{"in":"1285"}}]}},{"toponym":"Wendonloutes","citations":[{"label":"1324 Londin","year":1324}],"when":{"timespans":[{"start":{"in":"1324"},"end":{"in":"1324"}}]}},{"toponym":"Loteswendon","citations":[{"label":"1337 Ch","year":1337}],"when":{"timespans":[{"start":{"in":"1337"},"end":{"in":"1337"}}]}},{"toponym":"Wendon Louth","citations":[{"label":"1346 FA","year":1346}],"when":{"timespans":[{"start":{"in":"1346"},"end":{"in":"1346"}}]}},{"toponym":"Wendonlowes","citations":[{"label":"1510 LP","year":1510}],"when":{"timespans":[{"start":{"in":"1510"},"end":{"in":"1510"}}]}},{"toponym":"Wendon Lo(o)fthes","citations":[{"label":"1570 FF","year":1570}],"when":{"timespans":[{"start":{"in":"1570"},"end":{"in":"1570"}}]}},{"toponym":"Wandenlout","citations":[{"label":"1373 Pat","year":1373}],"when":{"timespans":[{"start":{"in":"1373"},"end":{"in":"1373"}}]}},{"toponym":"Quenden Lowtes","citations":[{"label":"1428 FA","year":1428}],"when":{"timespans":[{"start":{"in":"1428"},"end":{"in":"1428"}}]}},{"toponym":"Windon","citations":[{"label":"t. Hy 7 Lancs","year":1485}],"when":{"timespans":[{"start":{"earliest":"1485","latest":"1509"},"end":{"earliest":"1485","latest":"1509"}}]}},{"toponym":"Lowtes","citations":[{"label":"1570 FF","year":1570}],"when":{"timespans":[{"start":{"in":"1570"},"end":{"in":"1570"}}]}},{"toponym":"Loftes","citations":[{"label":"1572 FF","year":1572}],"when":{"timespans":[{"start":{"in":"1572"},"end":{"in":"1572"}}]}}],"types":[{"identifier":"http://vocab.getty.edu/aat/300232418","label":"administrative division","sourceLabels":[{"label":"township","lang":"en"}]}],"geometry":{"type":"Point","coordinates":[0.133873,52.0256],"citations":[{"label":"Key to English Place-Names (KEPN), gazetteer record 12601"}]},"when":{"timespans":[{"start":{"in":"1086"},"end":{"in":"1572"}}]},"relations":[{"relationType":"gvp:broaderPartitive","relationTo":"https://w3id.org/whg-epns/12/020461","label":"within Wendon Lofts"}]}]}