{"@context":"https://raw.githubusercontent.com/LinkedPasts/linked-places-format/main/linkedplaces-context-v1.1.jsonld","type":"FeatureCollection","license":"Digitisation of English Placenames MADS data is licensed to Jisc by the English Place Names Society and released under a Creative Commons Attribution-NonCommercial 4.0 International License.","note":"LPF v1.3, lossy; derived from the PLATO record; plato_commit=fa0d247ccc0263f8f19c8d7cdcd163df96935d1e","features":[{"@id":"https://w3id.org/whg-epns/12/020698","type":"Feature","properties":{"title":"Clavering","ccodes":["GB"],"fclasses":["A","P"]},"names":[{"toponym":"Clavering","lang":"en","citations":[{"label":"English Place-Name Society survey, volume 12: Essex"}]},{"toponym":"Clæfring","citations":[{"label":"c. 1050 KCD","year":1040}],"when":{"timespans":[{"start":{"earliest":"1040","latest":"1060"},"end":{"earliest":"1040","latest":"1060"}}]}},{"toponym":"Clauelinga","citations":[{"label":"1086 DB","year":1086}],"when":{"timespans":[{"start":{"in":"1086"},"end":{"in":"1086"}}]}},{"toponym":"Clauering(a)","citations":[{"label":"1154-89 Colch","year":1154},{"label":"1159 P","year":1159}],"when":{"timespans":[{"start":{"earliest":"1154","latest":"1189"},"end":{"earliest":"1154","latest":"1189"}},{"start":{"in":"1159"},"end":{"in":"1159"}}]}},{"toponym":"Clavering(e)","citations":[{"label":"1202 FF","year":1202},{"label":"1209 HarlCh","year":1209},{"label":"t. Hy 3 RBE","year":1216}],"when":{"timespans":[{"start":{"in":"1202"},"end":{"in":"1202"}},{"start":{"in":"1209"},"end":{"in":"1209"}},{"start":{"earliest":"1216","latest":"1272"},"end":{"earliest":"1216","latest":"1272"}}]}},{"toponym":"Claveryng(g)","citations":[{"label":"1274 RH","year":1274},{"label":"1303 FA","year":1303},{"label":"1335 Londin","year":1335}],"when":{"timespans":[{"start":{"in":"1274"},"end":{"in":"1274"}},{"start":{"in":"1303"},"end":{"in":"1303"}},{"start":{"in":"1335"},"end":{"in":"1335"}}]}},{"toponym":"Claveringes","citations":[{"label":"1177 WalthamCh","year":1177},{"label":"1200 FF","year":1200},{"label":"1306 Londin","year":1306}],"when":{"timespans":[{"start":{"in":"1177"},"end":{"in":"1177"}},{"start":{"in":"1200"},"end":{"in":"1200"}},{"start":{"in":"1270"},"end":{"in":"1270"}},{"start":{"in":"1306"},"end":{"in":"1306"}}]}},{"toponym":"Clafringes","citations":[{"label":"13th BM","year":1200}],"when":{"timespans":[{"start":{"earliest":"1200","latest":"1300"},"end":{"earliest":"1200","latest":"1300"}}]}},{"toponym":"Cleavering","citations":[{"label":"1699 Herts","year":1699}],"when":{"timespans":[{"start":{"in":"1699"},"end":{"in":"1699"}}]}}],"types":[{"identifier":"http://vocab.getty.edu/aat/300232418","label":"administrative division","sourceLabels":[{"label":"township","lang":"en"}]}],"geometry":{"type":"GeometryCollection","geometries":[{"type":"Point","coordinates":[0.14308,51.9654],"citations":[{"label":"GeoNames, gazetteer record geonames:2652919"}]},{"type":"Point","coordinates":[0.1470708809801644,51.96195797013744],"citations":[{"label":"Unlock (EDINA) gazetteer, gazetteer record unlock:11108307"}]},{"type":"Point","coordinates":[0.143287,51.966269],"citations":[{"label":"Key to English Place-Names (KEPN), gazetteer record 0174"}]}]},"when":{"timespans":[{"start":{"in":"1040"},"end":{"in":"1699"}}]},"links":[{"type":"closeMatch","identifier":"https://sws.geonames.org/2652919/"}],"relations":[{"relationType":"gvp:broaderPartitive","relationTo":"https://w3id.org/whg-epns/12/020697","label":"within Clavering"}]}]}