{"@context":"https://raw.githubusercontent.com/LinkedPasts/linked-places-format/main/linkedplaces-context-v1.1.jsonld","type":"FeatureCollection","license":"Digitisation of English Placenames MADS data is licensed to Jisc by the English Place Names Society and released under a Creative Commons Attribution-NonCommercial 4.0 International License.","note":"LPF v1.3, lossy; derived from the PLATO record; plato_commit=fa0d247ccc0263f8f19c8d7cdcd163df96935d1e","features":[{"@id":"https://w3id.org/whg-epns/12/020767","type":"Feature","properties":{"title":"Farnham","ccodes":["GB"],"fclasses":["A","P"]},"names":[{"toponym":"Farnham","lang":"en","citations":[{"label":"English Place-Name Society survey, volume 12: Essex"}]},{"toponym":"Phern(e)ham","citations":[{"label":"1086 DB","year":1086}],"when":{"timespans":[{"start":{"in":"1086"},"end":{"in":"1086"}}]}},{"toponym":"Fernham Parua","citations":[{"label":"1194 P","year":1194},{"label":"1198 FF","year":1198},{"label":"1281 Ch","year":1281}],"when":{"timespans":[{"start":{"in":"1194"},"end":{"in":"1194"}},{"start":{"in":"1198"},"end":{"in":"1198"}},{"start":{"in":"1281"},"end":{"in":"1281"}}]}},{"toponym":"Ferenham","citations":[{"label":"1195 P","year":1195}],"when":{"timespans":[{"start":{"in":"1195"},"end":{"in":"1195"}}]}},{"toponym":"Farnham","citations":[{"label":"FineR","year":1206},{"label":"1206 FineR","year":1206}],"when":{"timespans":[{"start":{"in":"1206"},"end":{"in":"1206"}},{"start":{"in":"1206"},"end":{"in":"1206"}}]}},{"toponym":"Farenham","citations":[{"label":"1226-7 ClR","year":1226},{"label":"1229 Cl","year":1229},{"label":"1235 Orig","year":1235}],"when":{"timespans":[{"start":{"earliest":"1226","latest":"1227"},"end":{"earliest":"1226","latest":"1227"}},{"start":{"in":"1229"},"end":{"in":"1229"}},{"start":{"in":"1235"},"end":{"in":"1235"}}]}},{"toponym":"Forn(h)am","citations":[{"label":"1234 FF","year":1234}],"when":{"timespans":[{"start":{"in":"1234"},"end":{"in":"1234"}}]}},{"toponym":"Farham","citations":[{"label":"1248 Ass","year":1248}],"when":{"timespans":[{"start":{"in":"1248"},"end":{"in":"1248"}}]}}],"types":[{"identifier":"http://vocab.getty.edu/aat/300232418","label":"administrative division","sourceLabels":[{"label":"township","lang":"en"}]}],"geometry":{"type":"GeometryCollection","geometries":[{"type":"Point","coordinates":[0.14214,51.90234],"citations":[{"label":"GeoNames, gazetteer record geonames:2649659"}]},{"type":"Point","coordinates":[0.144069899364123,51.89905919543387],"citations":[{"label":"Unlock (EDINA) gazetteer, gazetteer record unlock:11142282"}]},{"type":"Point","coordinates":[0.14243,51.8995],"citations":[{"label":"Key to English Place-Names (KEPN), gazetteer record 12607"}]}]},"when":{"timespans":[{"start":{"in":"1086"},"end":{"in":"1281"}}]},"links":[{"type":"closeMatch","identifier":"https://sws.geonames.org/2649659/"}],"relations":[{"relationType":"gvp:broaderPartitive","relationTo":"https://w3id.org/whg-epns/12/020766","label":"within Farnham"}]}]}