{"@context":"https://raw.githubusercontent.com/LinkedPasts/linked-places-format/main/linkedplaces-context-v1.1.jsonld","type":"FeatureCollection","license":"Digitisation of English Placenames MADS data is licensed to Jisc by the English Place Names Society and released under a Creative Commons Attribution-NonCommercial 4.0 International License.","note":"LPF v1.3, lossy; derived from the PLATO record; plato_commit=ca0afadabec1e23a145c0b03df77e8f151f79832","features":[{"@id":"https://w3id.org/whg-epns/16/000870","type":"Feature","properties":{"title":"Braydon","ccodes":["GB"],"fclasses":["A","P"]},"names":[{"toponym":"Braydon","lang":"en","citations":[{"label":"English Place-Name Society survey, volume 16: Wiltshire"}]}],"types":[{"identifier":"http://vocab.getty.edu/aat/300232418","label":"administrative division","sourceLabels":[{"label":"township","lang":"en"}]}],"geometry":{"type":"GeometryCollection","geometries":[{"type":"Point","coordinates":[-1.92795,51.59752],"citations":[{"label":"GeoNames, gazetteer record geonames:7297636"}]},{"type":"Point","coordinates":[-1.92198,51.5953],"citations":[{"label":"Key to English Place-Names (KEPN), gazetteer record 7178"}]}]},"links":[{"type":"closeMatch","identifier":"https://sws.geonames.org/7297636/"}],"relations":[{"relationType":"gvp:broaderPartitive","relationTo":"https://w3id.org/whg-epns/16/000869","label":"within Braydon"}]}]}