{"@context":"https://raw.githubusercontent.com/LinkedPasts/linked-places-format/main/linkedplaces-context-v1.1.jsonld","type":"FeatureCollection","license":"Digitisation of English Placenames MADS data is licensed to Jisc by the English Place Names Society and released under a Creative Commons Attribution-NonCommercial 4.0 International License.","note":"LPF v1.3, lossy; derived from the PLATO record; plato_commit=fa0d247ccc0263f8f19c8d7cdcd163df96935d1e","features":[{"@id":"https://w3id.org/whg-epns/16/001288","type":"Feature","properties":{"title":"Brokenborough","ccodes":["GB"],"fclasses":["A","P"]},"names":[{"toponym":"Brokenborough","lang":"en","citations":[{"label":"English Place-Name Society survey, volume 16: Wiltshire"}]}],"types":[{"identifier":"http://vocab.getty.edu/aat/300232418","label":"administrative division","sourceLabels":[{"label":"parish","lang":"en"}]}],"geometry":{"type":"GeometryCollection","geometries":[{"type":"Point","coordinates":[-2.1186,51.60131],"citations":[{"label":"GeoNames, gazetteer record geonames:2654598"}]},{"type":"Point","coordinates":[-2.12274676594498,51.60380345672692],"citations":[{"label":"Unlock (EDINA) gazetteer, gazetteer record unlock:11088554"}]},{"type":"Point","coordinates":[-2.12411,51.6043],"citations":[{"label":"Key to English Place-Names (KEPN), gazetteer record 7187"}]}]},"links":[{"type":"closeMatch","identifier":"https://sws.geonames.org/2654598/"}],"relations":[{"relationType":"gvp:broaderPartitive","relationTo":"https://w3id.org/whg-epns/16/001269","label":"within Chedglow Hundred"}]}]}