{"@context":"https://raw.githubusercontent.com/LinkedPasts/linked-places-format/main/linkedplaces-context-v1.1.jsonld","type":"FeatureCollection","license":"Digitisation of English Placenames MADS data is licensed to Jisc by the English Place Names Society and released under a Creative Commons Attribution-NonCommercial 4.0 International License.","note":"LPF v1.3, lossy; derived from the PLATO record; plato_commit=ca0afadabec1e23a145c0b03df77e8f151f79832","features":[{"@id":"http://placenames.org.uk/id/placename/16/001455","type":"Feature","properties":{"title":"Garsdon","ccodes":["GB"],"fclasses":["A","P"]},"names":[{"toponym":"Garsdon","lang":"en","citations":[{"label":"English Place-Name Society survey, volume 16: Wiltshire"}]}],"types":[{"identifier":"http://vocab.getty.edu/aat/300232418","label":"administrative division","sourceLabels":[{"label":"parish","lang":"en"}]}],"geometry":{"type":"GeometryCollection","geometries":[{"type":"Point","coordinates":[-2.04614,51.58931],"citations":[{"label":"GeoNames, gazetteer record geonames:2648832"}]},{"type":"Point","coordinates":[-2.050522880512063,51.58587202444839],"citations":[{"label":"Unlock (EDINA) gazetteer, gazetteer record unlock:11150568"}]},{"type":"Point","coordinates":[-2.0519,51.5863],"citations":[{"label":"Key to English Place-Names (KEPN), gazetteer record 7190"}]}]},"links":[{"type":"closeMatch","identifier":"https://sws.geonames.org/2648832/"}],"relations":[{"relationType":"gvp:broaderPartitive","relationTo":"http://placenames.org.uk/id/placename/16/001269","label":"within Chedglow Hundred"}]}]}