{"@context":"https://raw.githubusercontent.com/LinkedPasts/linked-places-format/main/linkedplaces-context-v1.1.jsonld","type":"FeatureCollection","license":"Digitisation of English Placenames MADS data is licensed to Jisc by the English Place Names Society and released under a Creative Commons Attribution-NonCommercial 4.0 International License.","note":"LPF v1.3, lossy; derived from the PLATO record; plato_commit=ca0afadabec1e23a145c0b03df77e8f151f79832","features":[{"@id":"http://placenames.org.uk/id/placename/16/001755","type":"Feature","properties":{"title":"Christian Malford","ccodes":["GB"],"fclasses":["A","P"]},"names":[{"toponym":"Christian Malford","lang":"en","citations":[{"label":"English Place-Name Society survey, volume 16: Wiltshire"}]},{"toponym":"Cristemal(l)eford","citations":[{"label":"937–1330, recurring BCS","year":937},{"label":"937–1330, recurring Ch"},{"label":"937 BCS","year":937},{"label":"1330 Ch","year":1330}],"when":{"timespans":[{"start":{"in":"0937"},"end":{"in":"1330"}},{"start":{"in":"0937"},"end":{"in":"0937"}},{"start":{"in":"1330"},"end":{"in":"1330"}}]}},{"toponym":"(at) Cristemalford","citations":[{"label":"940 BCS","year":940},{"label":"1330 Ch","year":1330}],"when":{"timespans":[{"start":{"in":"0940"},"end":{"in":"0940"}},{"start":{"in":"1330"},"end":{"in":"1330"}}]}},{"toponym":"Cristimalford","citations":[{"label":"1242 Fees","year":1242}],"when":{"timespans":[{"start":{"in":"1242"},"end":{"in":"1242"}}]}},{"toponym":"Chrystemalforde","citations":[{"label":"1539 Phillipps","year":1539}],"when":{"timespans":[{"start":{"in":"1539"},"end":{"in":"1539"}}]}},{"toponym":"Cristemeleford","citations":[{"label":"1086 DB","year":1086},{"label":"1189 GlastInq","year":1189},{"label":"1232 Ch","year":1232},{"label":"1275 Cl","year":1275}],"when":{"timespans":[{"start":{"in":"1086"},"end":{"in":"1086"}},{"start":{"in":"1189"},"end":{"in":"1189"}},{"start":{"in":"1232"},"end":{"in":"1232"}},{"start":{"in":"1275"},"end":{"in":"1275"}}]}},{"toponym":"Cristesmeleford","citations":[{"label":"1166 P","year":1166}],"when":{"timespans":[{"start":{"in":"1166"},"end":{"in":"1166"}},{"start":{"in":"1168"},"end":{"in":"1168"}}]}},{"toponym":"Cristesmelesford","citations":[{"label":"1167 P","year":1167}],"when":{"timespans":[{"start":{"in":"1167"},"end":{"in":"1167"}}]}},{"toponym":"Crestemeleford","citations":[{"label":"1197 P","year":1197}],"when":{"timespans":[{"start":{"in":"1197"},"end":{"in":"1197"}}]}},{"toponym":"Cristmel(l)(e)ford","citations":[{"label":"1227 Ch","year":1227},{"label":"1241 FF","year":1241},{"label":"1395 Pat","year":1395}],"when":{"timespans":[{"start":{"in":"1227"},"end":{"in":"1227"}},{"start":{"in":"1241"},"end":{"in":"1241"}},{"start":{"in":"1395"},"end":{"in":"1395"}}]}},{"toponym":"Cristemere(s)ford","citations":[{"label":"1181 P","year":1181}],"when":{"timespans":[{"start":{"in":"1181"},"end":{"in":"1181"}},{"start":{"in":"1186"},"end":{"in":"1186"}}]}},{"toponym":"Cristemareford","citations":[{"label":"1195 P","year":1195}],"when":{"timespans":[{"start":{"in":"1195"},"end":{"in":"1195"}}]}},{"toponym":"Cristesmaelford","citations":[{"label":"1196 Cur","year":1196}],"when":{"timespans":[{"start":{"in":"1196"},"end":{"in":"1196"}}]}},{"toponym":"Crystmoelford","citations":[{"label":"1428 FA","year":1428}],"when":{"timespans":[{"start":{"in":"1428"},"end":{"in":"1428"}}]}},{"toponym":"Cristine Malford","citations":[{"label":"1374 Pat","year":1374}],"when":{"timespans":[{"start":{"in":"1374"},"end":{"in":"1374"}}]}},{"toponym":"Christine Maleford","citations":[{"label":"c. 1540 L","year":1530}],"when":{"timespans":[{"start":{"earliest":"1530","latest":"1550"},"end":{"earliest":"1530","latest":"1550"}}]}},{"toponym":"Christen Malford","citations":[{"label":"t. Eliz ChancP","year":1558}],"when":{"timespans":[{"start":{"earliest":"1558","latest":"1603"},"end":{"earliest":"1558","latest":"1603"}}]}},{"toponym":"Christon Malford al. Christian Malford","citations":[{"label":"1611 Recov","year":1611}],"when":{"timespans":[{"start":{"in":"1611"},"end":{"in":"1611"}}]}},{"toponym":"Curst Mavord","citations":[{"label":"1585 WM","year":1585}],"when":{"timespans":[{"start":{"in":"1585"},"end":{"in":"1585"}}]}}],"types":[{"identifier":"http://vocab.getty.edu/aat/300232418","label":"administrative division","sourceLabels":[{"label":"township","lang":"en"}]}],"geometry":{"type":"GeometryCollection","geometries":[{"type":"Point","coordinates":[-2.05508,51.51039],"citations":[{"label":"GeoNames, gazetteer record geonames:2653070"}]},{"type":"Point","coordinates":[-2.050433328493865,51.50494009804307],"citations":[{"label":"Unlock (EDINA) gazetteer, gazetteer record unlock:11106850"}]},{"type":"Point","coordinates":[-2.05181,51.5054],"citations":[{"label":"Key to English Place-Names (KEPN), gazetteer record 7200"}]}]},"when":{"timespans":[{"start":{"in":"0937"},"end":{"in":"1611"}}]},"links":[{"type":"closeMatch","identifier":"https://sws.geonames.org/2653070/"}],"relations":[{"relationType":"gvp:broaderPartitive","relationTo":"http://placenames.org.uk/id/placename/16/001754","label":"within Christian Malford"}]}]}