{"@context":"https://raw.githubusercontent.com/LinkedPasts/linked-places-format/main/linkedplaces-context-v1.1.jsonld","type":"FeatureCollection","license":"Digitisation of English Placenames MADS data is licensed to Jisc by the English Place Names Society and released under a Creative Commons Attribution-NonCommercial 4.0 International License.","note":"LPF v1.3, lossy; derived from the PLATO record; plato_commit=ca0afadabec1e23a145c0b03df77e8f151f79832","features":[{"@id":"http://placenames.org.uk/id/placename/16/001880","type":"Feature","properties":{"title":"Hullavington","ccodes":["GB"],"fclasses":["A","P"]},"names":[{"toponym":"Hullavington","lang":"en","citations":[{"label":"English Place-Name Society survey, volume 16: Wiltshire"}]}],"types":[{"identifier":"http://vocab.getty.edu/aat/300232418","label":"administrative division","sourceLabels":[{"label":"parish","lang":"en"}]}],"geometry":{"type":"GeometryCollection","geometries":[{"type":"Point","coordinates":[-2.15163,51.53778],"citations":[{"label":"GeoNames, gazetteer record geonames:2646444"}]},{"type":"Point","coordinates":[-2.151418980404757,51.54082313860047],"citations":[{"label":"Unlock (EDINA) gazetteer, gazetteer record unlock:11180875"}]},{"type":"Point","coordinates":[-2.15278,51.5413],"citations":[{"label":"Key to English Place-Names (KEPN), gazetteer record 7205"}]}]},"links":[{"type":"closeMatch","identifier":"https://sws.geonames.org/2646444/"}],"relations":[{"relationType":"gvp:broaderPartitive","relationTo":"http://placenames.org.uk/id/placename/16/001667","label":"within Startley Hundred"}]}]}