{"@context":"https://raw.githubusercontent.com/LinkedPasts/linked-places-format/main/linkedplaces-context-v1.1.jsonld","type":"FeatureCollection","license":"Digitisation of English Placenames MADS data is licensed to Jisc by the English Place Names Society and released under a Creative Commons Attribution-NonCommercial 4.0 International License.","note":"LPF v1.3, lossy; derived from the PLATO record; plato_commit=ca0afadabec1e23a145c0b03df77e8f151f79832","features":[{"@id":"https://w3id.org/whg-epns/16/002045","type":"Feature","properties":{"title":"Alderton","ccodes":["GB"],"fclasses":["A","P"]},"names":[{"toponym":"Alderton","lang":"en","citations":[{"label":"English Place-Name Society survey, volume 16: Wiltshire"}]}],"types":[{"identifier":"http://vocab.getty.edu/aat/300232418","label":"administrative division","sourceLabels":[{"label":"parish","lang":"en"}]}],"geometry":{"type":"GeometryCollection","geometries":[{"type":"Point","coordinates":[-2.237943455127917,51.54067958314337],"citations":[{"label":"Unlock (EDINA) gazetteer, gazetteer record unlock:11058079"}]},{"type":"Point","coordinates":[-2.22492,51.5502],"citations":[{"label":"Key to English Place-Names (KEPN), gazetteer record 7210"}]}]},"relations":[{"relationType":"gvp:broaderPartitive","relationTo":"https://w3id.org/whg-epns/16/002038","label":"within Dunlow Hundred"}]}]}