{"@context":"https://raw.githubusercontent.com/LinkedPasts/linked-places-format/main/linkedplaces-context-v1.1.jsonld","type":"FeatureCollection","license":"Digitisation of English Placenames MADS data is licensed to Jisc by the English Place Names Society and released under a Creative Commons Attribution-NonCommercial 4.0 International License.","note":"LPF v1.3, lossy; derived from the PLATO record; plato_commit=ca0afadabec1e23a145c0b03df77e8f151f79832","features":[{"@id":"http://placenames.org.uk/id/placename/16/003744","type":"Feature","properties":{"title":"Monkton Farleigh","ccodes":["GB"],"fclasses":["A","P"]},"names":[{"toponym":"Monkton Farleigh","lang":"en","citations":[{"label":"English Place-Name Society survey, volume 16: Wiltshire"}]},{"toponym":"Farnleghe","citations":[{"label":"1001 KCD","year":1001}],"when":{"timespans":[{"start":{"in":"1001"},"end":{"in":"1001"}}]}},{"toponym":"Farnlege","citations":[{"label":"1196 Cur","year":1196},{"label":"1249 Ass","year":1249}],"when":{"timespans":[{"start":{"in":"1196"},"end":{"in":"1196"}},{"start":{"in":"1249"},"end":{"in":"1249"}}]}},{"toponym":"Farnligh","citations":[{"label":"1272 Ass","year":1272}],"when":{"timespans":[{"start":{"in":"1272"},"end":{"in":"1272"}}]}},{"toponym":"Farlege","citations":[{"label":"1086 DB","year":1086}],"when":{"timespans":[{"start":{"in":"1086"},"end":{"in":"1086"}}]}},{"toponym":"Farlega","citations":[{"label":"1155 RBE","year":1155}],"when":{"timespans":[{"start":{"in":"1155"},"end":{"in":"1155"}}]}},{"toponym":"Farle","citations":[{"label":"1241 Ch","year":1241}],"when":{"timespans":[{"start":{"in":"1241"},"end":{"in":"1241"}}]}},{"toponym":"Ferleia","citations":[{"label":"1131 AC","year":1131},{"label":"1203 Cur","year":1203}],"when":{"timespans":[{"start":{"in":"1131"},"end":{"in":"1131"}},{"start":{"in":"1203"},"end":{"in":"1203"}}]}},{"toponym":"Ferlega","citations":[{"label":"1156 P","year":1156},{"label":"t. Hy 2 BM","year":1154}],"when":{"timespans":[{"start":{"in":"1156"},"end":{"in":"1156"}},{"start":{"in":"1158"},"end":{"in":"1158"}},{"start":{"earliest":"1154","latest":"1189"},"end":{"earliest":"1154","latest":"1189"}}]}},{"toponym":"Ferneleia","citations":[{"label":"1198 Abbr","year":1198}],"when":{"timespans":[{"start":{"in":"1198"},"end":{"in":"1198"}}]}},{"toponym":"Ferneleg'","citations":[{"label":"1245 WM","year":1245},{"label":"1257 Cl","year":1257}],"when":{"timespans":[{"start":{"in":"1245"},"end":{"in":"1245"}},{"start":{"in":"1257"},"end":{"in":"1257"}}]}},{"toponym":"Franleye","citations":[{"label":"1267 Pat","year":1267}],"when":{"timespans":[{"start":{"in":"1267"},"end":{"in":"1267"}}]}},{"toponym":"Farley Monachorum","citations":[{"label":"1316 FA","year":1316}],"when":{"timespans":[{"start":{"in":"1316"},"end":{"in":"1316"}}]}},{"toponym":"Monekenefarlegh","citations":[{"label":"1321 FF","year":1321}],"when":{"timespans":[{"start":{"in":"1321"},"end":{"in":"1321"}}]}},{"toponym":"Munkesfarlegh","citations":[{"label":"1364 IpmR","year":1364}],"when":{"timespans":[{"start":{"in":"1364"},"end":{"in":"1364"}}]}},{"toponym":"Farleye Monketon","citations":[{"label":"1370 Ass","year":1370}],"when":{"timespans":[{"start":{"in":"1370"},"end":{"in":"1370"}}]}},{"toponym":"Monks Farlegh","citations":[{"label":"1384 Pat","year":1384}],"when":{"timespans":[{"start":{"in":"1384"},"end":{"in":"1384"}}]}},{"toponym":"Monkenferlowe","citations":[{"label":"1462 Pat","year":1462}],"when":{"timespans":[{"start":{"in":"1462"},"end":{"in":"1462"}}]}},{"toponym":"Mounton Farley","citations":[{"label":"1773 A and D","year":1773}],"when":{"timespans":[{"start":{"in":"1773"},"end":{"in":"1773"}}]}}],"types":[{"identifier":"http://vocab.getty.edu/aat/300232418","label":"administrative division","sourceLabels":[{"label":"township","lang":"en"}]}],"geometry":{"type":"GeometryCollection","geometries":[{"type":"Point","coordinates":[-2.27718,51.38089],"citations":[{"label":"GeoNames, gazetteer record geonames:7296288"}]},{"type":"Point","coordinates":[-2.280267360570468,51.38771211855093],"citations":[{"label":"Unlock (EDINA) gazetteer, gazetteer record unlock:11221790"}]},{"type":"Point","coordinates":[-2.28161,51.3882],"citations":[{"label":"Key to English Place-Names (KEPN), gazetteer record 7246"}]}]},"when":{"timespans":[{"start":{"in":"1001"},"end":{"in":"1773"}}]},"links":[{"type":"closeMatch","identifier":"https://sws.geonames.org/7296288/"}],"relations":[{"relationType":"gvp:broaderPartitive","relationTo":"http://placenames.org.uk/id/placename/16/003743","label":"within Monkton Farleigh"}]}]}