{"@context":"https://raw.githubusercontent.com/LinkedPasts/linked-places-format/main/linkedplaces-context-v1.1.jsonld","type":"FeatureCollection","license":"Digitisation of English Placenames MADS data is licensed to Jisc by the English Place Names Society and released under a Creative Commons Attribution-NonCommercial 4.0 International License.","note":"LPF v1.3, lossy; derived from the PLATO record; plato_commit=ca0afadabec1e23a145c0b03df77e8f151f79832","features":[{"@id":"https://w3id.org/whg-epns/16/003989","type":"Feature","properties":{"title":"Erlestoke","ccodes":["GB"],"fclasses":["A","P"]},"names":[{"toponym":"Erlestoke","lang":"en","citations":[{"label":"English Place-Name Society survey, volume 16: Wiltshire"}]},{"toponym":"Stokes","citations":[{"label":"c. 1200 BM","year":1190}],"when":{"timespans":[{"start":{"earliest":"1190","latest":"1210"},"end":{"earliest":"1190","latest":"1210"}}]}},{"toponym":"Erlestok(e)","citations":[{"label":"1227 FF","year":1227},{"label":"1239 Ch","year":1239},{"label":"1249 Ass","year":1249}],"when":{"timespans":[{"start":{"in":"1227"},"end":{"in":"1227"}},{"start":{"in":"1239"},"end":{"in":"1239"}},{"start":{"in":"1249"},"end":{"in":"1249"}}]}},{"toponym":"Erlystok(e)","citations":[{"label":"1325 Cl","year":1325}],"when":{"timespans":[{"start":{"in":"1325"},"end":{"in":"1325"}}]}},{"toponym":"Eorlestoke","citations":[{"label":"1340 WIpm","year":1340},{"label":"1392 Pat","year":1392},{"label":"1393 IpmR","year":1393}],"when":{"timespans":[{"start":{"in":"1340"},"end":{"in":"1340"}},{"start":{"in":"1392"},"end":{"in":"1392"}},{"start":{"in":"1393"},"end":{"in":"1393"}}]}},{"toponym":"Erelstoke","citations":[{"label":"1518-29 ECP","year":1518}],"when":{"timespans":[{"start":{"earliest":"1518","latest":"1529"},"end":{"earliest":"1518","latest":"1529"}}]}},{"toponym":"Earlestoke","citations":[{"label":"1611 SR","year":1611}],"when":{"timespans":[{"start":{"in":"1611"},"end":{"in":"1611"}}]}},{"toponym":"Littlestok(e)","citations":[{"label":"1310 Ass","year":1310},{"label":"1344 FF","year":1344}],"when":{"timespans":[{"start":{"in":"1310"},"end":{"in":"1310"}},{"start":{"in":"1344"},"end":{"in":"1344"}}]}},{"toponym":"Herrylstoke","citations":[{"label":"1517 NQ","year":1517}],"when":{"timespans":[{"start":{"in":"1517"},"end":{"in":"1517"}}]}}],"types":[{"identifier":"http://vocab.getty.edu/aat/300232418","label":"administrative division","sourceLabels":[{"label":"township","lang":"en"}]}],"geometry":{"type":"GeometryCollection","geometries":[{"type":"Point","coordinates":[-2.05444,51.28472],"citations":[{"label":"GeoNames, gazetteer record geonames:2649936"}]},{"type":"Point","coordinates":[-2.050186752451316,51.2801233167657],"citations":[{"label":"Unlock (EDINA) gazetteer, gazetteer record unlock:11140294"}]},{"type":"Point","coordinates":[-2.05156,51.2896],"citations":[{"label":"Key to English Place-Names (KEPN), gazetteer record 7250"}]}]},"when":{"timespans":[{"start":{"in":"1190"},"end":{"in":"1611"}}]},"links":[{"type":"closeMatch","identifier":"https://sws.geonames.org/2649936/"}],"relations":[{"relationType":"gvp:broaderPartitive","relationTo":"https://w3id.org/whg-epns/16/003988","label":"within Erlestoke"}]}]}