{"@context":"https://raw.githubusercontent.com/LinkedPasts/linked-places-format/main/linkedplaces-context-v1.1.jsonld","type":"FeatureCollection","license":"Digitisation of English Placenames MADS data is licensed to Jisc by the English Place Names Society and released under a Creative Commons Attribution-NonCommercial 4.0 International License.","note":"LPF v1.3, lossy; derived from the PLATO record; plato_commit=fa0d247ccc0263f8f19c8d7cdcd163df96935d1e","features":[{"@id":"https://w3id.org/whg-epns/16/004158","type":"Feature","properties":{"title":"Poulshot","ccodes":["GB"],"fclasses":["A","P"]},"names":[{"toponym":"Poulshot","lang":"en","citations":[{"label":"English Place-Name Society survey, volume 16: Wiltshire"}]},{"toponym":"Paveshou","citations":[{"label":"1086 DB","year":1086}],"when":{"timespans":[{"start":{"in":"1086"},"end":{"in":"1086"}}]}},{"toponym":"Paulesholt","citations":[{"label":"1187 P","year":1187},{"label":"1216 ClR","year":1216},{"label":"1255 RH","year":1255},{"label":"1272 FF","year":1272},{"label":"1274 Ass","year":1274},{"label":"1395 Ct","year":1395}],"when":{"timespans":[{"start":{"in":"1187"},"end":{"in":"1187"}},{"start":{"in":"1216"},"end":{"in":"1216"}},{"start":{"in":"1255"},"end":{"in":"1255"}},{"start":{"in":"1272"},"end":{"in":"1272"}},{"start":{"in":"1274"},"end":{"in":"1274"}},{"start":{"in":"1395"},"end":{"in":"1395"}}]}},{"toponym":"Palesholte","citations":[{"label":"1331 Ch","year":1331}],"when":{"timespans":[{"start":{"in":"1331"},"end":{"in":"1331"}}]}},{"toponym":"Pawelesholt(e)","citations":[{"label":"1242 Fees","year":1242}],"when":{"timespans":[{"start":{"in":"1242"},"end":{"in":"1242"}}]}},{"toponym":"Pauelesholt(e)","citations":[{"label":"1249 Ass","year":1249},{"label":"1332 SR","year":1332}],"when":{"timespans":[{"start":{"in":"1249"},"end":{"in":"1249"}},{"start":{"in":"1268"},"end":{"in":"1268"}},{"start":{"in":"1332"},"end":{"in":"1332"}}]}},{"toponym":"Powelesholt","citations":[{"label":"1268 Ass","year":1268}],"when":{"timespans":[{"start":{"in":"1268"},"end":{"in":"1268"}}]}},{"toponym":"Poulesholt","citations":[{"label":"1335 Cl","year":1335},{"label":"1428 FA","year":1428}],"when":{"timespans":[{"start":{"in":"1335"},"end":{"in":"1335"}},{"start":{"in":"1428"},"end":{"in":"1428"}}]}},{"toponym":"Powlesholde","citations":[{"label":"1553 WM","year":1553}],"when":{"timespans":[{"start":{"in":"1553"},"end":{"in":"1553"}}]}},{"toponym":"Pollesholde","citations":[{"label":"1585 NQ","year":1585}],"when":{"timespans":[{"start":{"in":"1585"},"end":{"in":"1585"}}]}},{"toponym":"Pollesholt","citations":[{"label":"1613 FF","year":1613}],"when":{"timespans":[{"start":{"in":"1613"},"end":{"in":"1613"}}]}},{"toponym":"Polshed","citations":[{"label":"t. Eliz WM","year":1558}],"when":{"timespans":[{"start":{"earliest":"1558","latest":"1603"},"end":{"earliest":"1558","latest":"1603"}}]}},{"toponym":"Pousall al. Polshead","citations":[{"label":"1675 Ogilby","year":1675}],"when":{"timespans":[{"start":{"in":"1675"},"end":{"in":"1675"}}]}},{"toponym":"Polshott al. Powlsholt","citations":[{"label":"1632 Recov","year":1632}],"when":{"timespans":[{"start":{"in":"1632"},"end":{"in":"1632"}}]}},{"toponym":"Polsholde","citations":[{"label":"1666 SR","year":1666}],"when":{"timespans":[{"start":{"in":"1666"},"end":{"in":"1666"}}]}}],"types":[{"identifier":"http://vocab.getty.edu/aat/300232418","label":"administrative division","sourceLabels":[{"label":"township","lang":"en"}]}],"geometry":{"type":"GeometryCollection","geometries":[{"type":"Point","coordinates":[-2.04488,51.33548],"citations":[{"label":"GeoNames, gazetteer record geonames:3345431"}]},{"type":"Point","coordinates":[-2.050245640243387,51.33408013270056],"citations":[{"label":"Unlock (EDINA) gazetteer, gazetteer record unlock:11249453"}]},{"type":"Point","coordinates":[-2.03726,51.3346],"citations":[{"label":"Key to English Place-Names (KEPN), gazetteer record 7253"}]}]},"when":{"timespans":[{"start":{"in":"1086"},"end":{"in":"1675"}}]},"links":[{"type":"closeMatch","identifier":"https://sws.geonames.org/3345431/"}],"relations":[{"relationType":"gvp:broaderPartitive","relationTo":"https://w3id.org/whg-epns/16/004157","label":"within Poulshot"}]}]}