{"@context":"https://raw.githubusercontent.com/LinkedPasts/linked-places-format/main/linkedplaces-context-v1.1.jsonld","type":"FeatureCollection","license":"Digitisation of English Placenames MADS data is licensed to Jisc by the English Place Names Society and released under a Creative Commons Attribution-NonCommercial 4.0 International License.","note":"LPF v1.3, lossy; derived from the PLATO record; plato_commit=ca0afadabec1e23a145c0b03df77e8f151f79832","features":[{"@id":"http://placenames.org.uk/id/placename/16/004688","type":"Feature","properties":{"title":"Bratton","ccodes":["GB"],"fclasses":["A","P"]},"names":[{"toponym":"Bratton","lang":"en","citations":[{"label":"English Place-Name Society survey, volume 16: Wiltshire"}]}],"types":[{"identifier":"http://vocab.getty.edu/aat/300232418","label":"administrative division","sourceLabels":[{"label":"parish","lang":"en"}]}],"geometry":{"type":"GeometryCollection","geometries":[{"type":"Point","coordinates":[-2.12444,51.27056],"citations":[{"label":"GeoNames, gazetteer record geonames:2654866"}]},{"type":"Point","coordinates":[-2.121858197818673,51.27107780443711],"citations":[{"label":"Unlock (EDINA) gazetteer, gazetteer record unlock:11085939"}]},{"type":"Point","coordinates":[-2.125096,51.272011],"citations":[{"label":"Key to English Place-Names (KEPN), gazetteer record 218"}]}]},"links":[{"type":"closeMatch","identifier":"https://sws.geonames.org/2654866/"}],"relations":[{"relationType":"gvp:broaderPartitive","relationTo":"http://placenames.org.uk/id/placename/16/004685","label":"within Westbury Hundred"}]}]}