{"@context":"https://raw.githubusercontent.com/LinkedPasts/linked-places-format/main/linkedplaces-context-v1.1.jsonld","type":"FeatureCollection","license":"Digitisation of English Placenames MADS data is licensed to Jisc by the English Place Names Society and released under a Creative Commons Attribution-NonCommercial 4.0 International License.","note":"LPF v1.3, lossy; derived from the PLATO record; plato_commit=ca0afadabec1e23a145c0b03df77e8f151f79832","features":[{"@id":"https://w3id.org/whg-epns/16/004633","type":"Feature","properties":{"title":"Southwick","ccodes":["GB"],"fclasses":["A","P"]},"names":[{"toponym":"Southwick","lang":"en","citations":[{"label":"English Place-Name Society survey, volume 16: Wiltshire"}]}],"types":[{"identifier":"http://vocab.getty.edu/aat/300232418","label":"administrative division","sourceLabels":[{"label":"parish","lang":"en"}]}],"geometry":{"type":"GeometryCollection","geometries":[{"type":"Point","coordinates":[-2.2325,51.29694],"citations":[{"label":"GeoNames, gazetteer record geonames:2637287"}]},{"type":"Point","coordinates":[-2.236686097419193,51.29788056079466],"citations":[{"label":"Unlock (EDINA) gazetteer, gazetteer record unlock:11288501"}]},{"type":"Point","coordinates":[-2.23803,51.2984],"citations":[{"label":"Key to English Place-Names (KEPN), gazetteer record 7262"}]}]},"links":[{"type":"closeMatch","identifier":"https://sws.geonames.org/2637287/"}],"relations":[{"relationType":"gvp:broaderPartitive","relationTo":"https://w3id.org/whg-epns/16/004311","label":"within Whorwellsdown Hundred"}]}]}