{"@context":"https://raw.githubusercontent.com/LinkedPasts/linked-places-format/main/linkedplaces-context-v1.1.jsonld","type":"FeatureCollection","license":"Digitisation of English Placenames MADS data is licensed to Jisc by the English Place Names Society and released under a Creative Commons Attribution-NonCommercial 4.0 International License.","note":"LPF v1.3, lossy; derived from the PLATO record; plato_commit=ca0afadabec1e23a145c0b03df77e8f151f79832","features":[{"@id":"http://placenames.org.uk/id/placename/16/004854","type":"Feature","properties":{"title":"Westbury","ccodes":["GB"],"fclasses":["A","P"]},"names":[{"toponym":"Westbury","lang":"en","citations":[{"label":"English Place-Name Society survey, volume 16: Wiltshire"}]}],"types":[{"identifier":"http://vocab.getty.edu/aat/300232418","label":"administrative division","sourceLabels":[{"label":"parish","lang":"en"}]}],"geometry":{"type":"GeometryCollection","geometries":[{"type":"Point","coordinates":[-2.1875,51.26],"citations":[{"label":"GeoNames, gazetteer record geonames:2634483"}]},{"type":"Point","coordinates":[-2.193463616235089,51.25299561075814],"citations":[{"label":"Unlock (EDINA) gazetteer, gazetteer record unlock:11317968"}]},{"type":"Point","coordinates":[-2.18052,51.2625],"citations":[{"label":"Key to English Place-Names (KEPN), gazetteer record 7267"}]}]},"links":[{"type":"closeMatch","identifier":"https://sws.geonames.org/2634483/"}],"relations":[{"relationType":"gvp:broaderPartitive","relationTo":"http://placenames.org.uk/id/placename/16/004685","label":"within Westbury Hundred"}]}]}