{"@context":"https://raw.githubusercontent.com/LinkedPasts/linked-places-format/main/linkedplaces-context-v1.1.jsonld","type":"FeatureCollection","license":"Digitisation of English Placenames MADS data is licensed to Jisc by the English Place Names Society and released under a Creative Commons Attribution-NonCommercial 4.0 International License.","note":"LPF v1.3, lossy; derived from the PLATO record; plato_commit=fa0d247ccc0263f8f19c8d7cdcd163df96935d1e","features":[{"@id":"https://w3id.org/whg-epns/16/004855","type":"Feature","properties":{"title":"Westbury","ccodes":["GB"],"fclasses":["A","P"]},"names":[{"toponym":"Westbury","lang":"en","citations":[{"label":"English Place-Name Society survey, volume 16: Wiltshire"}]},{"toponym":"Westberie, Wesberie","citations":[{"label":"1086 DB","year":1086}],"when":{"timespans":[{"start":{"in":"1086"},"end":{"in":"1086"}}]}},{"toponym":"Westbiri","citations":[{"label":"1115 StOsmund","year":1115}],"when":{"timespans":[{"start":{"in":"1115"},"end":{"in":"1115"}}]}},{"toponym":"Westberia","citations":[{"label":"SarumCh","year":1139},{"label":"1139 SarumCh","year":1139}],"when":{"timespans":[{"start":{"in":"1139"},"end":{"in":"1139"}},{"start":{"in":"1139"},"end":{"in":"1139"}}]}},{"toponym":"Westbury, Westburi, Westbery, Westbiri, Westbiry","citations":[{"label":"1139-1600 unspecified sources","year":1139}],"when":{"timespans":[{"start":{"in":"1139"},"end":{"in":"1600"}}]}},{"toponym":"Westbury(e) under the playne","citations":[{"label":"1518-29 ECP","year":1518}],"when":{"timespans":[{"start":{"earliest":"1518","latest":"1529"},"end":{"earliest":"1518","latest":"1529"}}]}},{"toponym":"Westbury(e) subtus le Playne","citations":[{"label":"1573 Recov","year":1573}],"when":{"timespans":[{"start":{"in":"1573"},"end":{"in":"1573"}}]}}],"types":[{"identifier":"http://vocab.getty.edu/aat/300232418","label":"administrative division","sourceLabels":[{"label":"township","lang":"en"}]}],"geometry":{"type":"GeometryCollection","geometries":[{"type":"Point","coordinates":[-2.1875,51.26],"citations":[{"label":"GeoNames, gazetteer record geonames:2634483"}]},{"type":"Point","coordinates":[-2.193463616235089,51.25299561075814],"citations":[{"label":"Unlock (EDINA) gazetteer, gazetteer record unlock:11317977"}]},{"type":"Point","coordinates":[-2.18052,51.2625],"citations":[{"label":"Key to English Place-Names (KEPN), gazetteer record 7267"}]}]},"when":{"timespans":[{"start":{"in":"1086"},"end":{"in":"1600"}}]},"links":[{"type":"closeMatch","identifier":"https://sws.geonames.org/2634483/"}],"relations":[{"relationType":"gvp:broaderPartitive","relationTo":"https://w3id.org/whg-epns/16/004854","label":"within Westbury"}]}]}