{"@context":"https://raw.githubusercontent.com/LinkedPasts/linked-places-format/main/linkedplaces-context-v1.1.jsonld","type":"FeatureCollection","license":"Digitisation of English Placenames MADS data is licensed to Jisc by the English Place Names Society and released under a Creative Commons Attribution-NonCommercial 4.0 International License.","note":"LPF v1.3, lossy; derived from the PLATO record; plato_commit=ca0afadabec1e23a145c0b03df77e8f151f79832","features":[{"@id":"https://w3id.org/whg-epns/16/005807","type":"Feature","properties":{"title":"East Knoyle and West Knoyle","ccodes":["GB"],"fclasses":["A","P"]},"names":[{"toponym":"East Knoyle and West Knoyle","lang":"en","citations":[{"label":"English Place-Name Society survey, volume 16: Wiltshire"}]},{"toponym":"(æt) Cnugel","citations":[{"label":"948 BCS","year":948}],"when":{"timespans":[{"start":{"in":"0948"},"end":{"in":"0948"}}]}},{"toponym":"Cnugel","citations":[{"label":"956 BCS","year":956}],"when":{"timespans":[{"start":{"in":"0956"},"end":{"in":"0956"}}]}},{"toponym":"(on) Cnugellege","citations":[{"label":"984 KCD","year":984}],"when":{"timespans":[{"start":{"in":"0984"},"end":{"in":"0984"}}]}},{"toponym":"Chenvel","citations":[{"label":"1086 DB","year":1086}],"when":{"timespans":[{"start":{"in":"1086"},"end":{"in":"1086"}}]}},{"toponym":"Cnoel","citations":[{"label":"1187–1332, recurring P","year":1187},{"label":"1187–1332, recurring SR"},{"label":"1187 P","year":1187},{"label":"1332 SR","year":1332}],"when":{"timespans":[{"start":{"in":"1187"},"end":{"in":"1332"}},{"start":{"in":"1187"},"end":{"in":"1187"}},{"start":{"in":"1195"},"end":{"in":"1195"}},{"start":{"in":"1332"},"end":{"in":"1332"}}]}},{"toponym":"Knoel","citations":[{"label":"1187-1332 unspecified sources","year":1187}],"when":{"timespans":[{"start":{"in":"1187"},"end":{"in":"1332"}}]}},{"toponym":"Cnoell'","citations":[{"label":"1200 Cur","year":1200}],"when":{"timespans":[{"start":{"in":"1200"},"end":{"in":"1200"}}]}},{"toponym":"Childecnoel","citations":[{"label":"1202 P","year":1202},{"label":"1205 Pap","year":1205},{"label":"1236 FF","year":1236}],"when":{"timespans":[{"start":{"in":"1202"},"end":{"in":"1202"}},{"start":{"in":"1205"},"end":{"in":"1205"}},{"start":{"in":"1236"},"end":{"in":"1236"}}]}},{"toponym":"Cnohell'","citations":[{"label":"1204 FineR","year":1204}],"when":{"timespans":[{"start":{"in":"1204"},"end":{"in":"1204"}}]}},{"toponym":"Cnohill","citations":[{"label":"1236 FF","year":1236}],"when":{"timespans":[{"start":{"in":"1236"},"end":{"in":"1236"}}]}},{"toponym":"Knoyhull","citations":[{"label":"1451 Trop","year":1451}],"when":{"timespans":[{"start":{"in":"1451"},"end":{"in":"1451"}}]}},{"toponym":"Childecnowell","citations":[{"label":"1204 WintonCart","year":1204}],"when":{"timespans":[{"start":{"in":"1204"},"end":{"in":"1204"}}]}},{"toponym":"Knowel","citations":[{"label":"1275 RH","year":1275}],"when":{"timespans":[{"start":{"in":"1275"},"end":{"in":"1275"}}]}},{"toponym":"Knowel Magna","citations":[{"label":"1285 FF","year":1285}],"when":{"timespans":[{"start":{"in":"1285"},"end":{"in":"1285"}}]}},{"toponym":"Cnowel","citations":[{"label":"1300 Ipm","year":1300},{"label":"1327 SR","year":1327}],"when":{"timespans":[{"start":{"in":"1300"},"end":{"in":"1300"}},{"start":{"in":"1327"},"end":{"in":"1327"}}]}},{"toponym":"Knouwell Magna","citations":[{"label":"1331 Pat","year":1331}],"when":{"timespans":[{"start":{"in":"1331"},"end":{"in":"1331"}}]}},{"toponym":"Knowell Episcopi","citations":[{"label":"1346 FF","year":1346}],"when":{"timespans":[{"start":{"in":"1346"},"end":{"in":"1346"}}]}},{"toponym":"Knowell Odierne","citations":[{"label":"1347 FF","year":1347}],"when":{"timespans":[{"start":{"in":"1347"},"end":{"in":"1347"}}]}},{"toponym":"Knoel Hodyerne al. Knoel Parva","citations":[{"label":"1428 FA","year":1428}],"when":{"timespans":[{"start":{"in":"1428"},"end":{"in":"1428"}}]}},{"toponym":"Stepelknoel","citations":[{"label":"1228 Cl","year":1228}],"when":{"timespans":[{"start":{"in":"1228"},"end":{"in":"1228"}}]}},{"toponym":"Little Knoyell","citations":[{"label":"1408 Pat","year":1408}],"when":{"timespans":[{"start":{"in":"1408"},"end":{"in":"1408"}}]}},{"toponym":"Esteknoyle, Westeknoyle","citations":[{"label":"1467 MinAcct","year":1467}],"when":{"timespans":[{"start":{"in":"1467"},"end":{"in":"1467"}}]}},{"toponym":"Westknoyle al. Cnoyle Oderne","citations":[{"label":"1540 MinAcct","year":1540}],"when":{"timespans":[{"start":{"in":"1540"},"end":{"in":"1540"}}]}},{"toponym":"Estknoyle al. Bisshopes Knoyle","citations":[{"label":"1570 FF","year":1570}],"when":{"timespans":[{"start":{"in":"1570"},"end":{"in":"1570"}}]}},{"toponym":"Noyle","citations":[{"label":"1693 Par Reg","year":1693}],"when":{"timespans":[{"start":{"in":"1693"},"end":{"in":"1693"}}]}}],"types":[{"identifier":"http://vocab.getty.edu/aat/300232418","label":"administrative division","sourceLabels":[{"label":"township","lang":"en"}]}],"geometry":{"type":"GeometryCollection","geometries":[{"type":"Point","coordinates":[-2.17052,51.07442],"citations":[{"label":"GeoNames, gazetteer record geonames:2650403"}]},{"type":"Point","coordinates":[-2.164162819736315,51.07317965225666],"citations":[{"label":"Unlock (EDINA) gazetteer, gazetteer record unlock:11136241"}]},{"type":"Point","coordinates":[-2.16551,51.0737],"citations":[{"label":"Key to English Place-Names (KEPN), gazetteer record 7288"}]}]},"when":{"timespans":[{"start":{"in":"0948"},"end":{"in":"1693"}}]},"links":[{"type":"closeMatch","identifier":"https://sws.geonames.org/2650403/"}],"relations":[{"relationType":"gvp:broaderPartitive","relationTo":"https://w3id.org/whg-epns/16/005806","label":"within Knoyle"}]}]}