{"@context":"https://raw.githubusercontent.com/LinkedPasts/linked-places-format/main/linkedplaces-context-v1.1.jsonld","type":"FeatureCollection","license":"Digitisation of English Placenames MADS data is licensed to Jisc by the English Place Names Society and released under a Creative Commons Attribution-NonCommercial 4.0 International License.","note":"LPF v1.3, lossy; derived from the PLATO record; plato_commit=ca0afadabec1e23a145c0b03df77e8f151f79832","features":[{"@id":"https://w3id.org/whg-epns/16/006474","type":"Feature","properties":{"title":"Teffont Evias and Teffont Magna","ccodes":["GB"],"fclasses":["A","P"]},"names":[{"toponym":"Teffont Evias and Teffont Magna","lang":"en","citations":[{"label":"English Place-Name Society survey, volume 16: Wiltshire"}]},{"toponym":"be Tefunte","citations":[{"label":"860 BCS","year":860}],"when":{"timespans":[{"start":{"in":"0860"},"end":{"in":"0860"}}]}},{"toponym":"Tefonte","citations":[{"label":"1086 DB","year":1086}],"when":{"timespans":[{"start":{"in":"1086"},"end":{"in":"1086"}}]}},{"toponym":"Tefunte","citations":[{"label":"1241 FF","year":1241}],"when":{"timespans":[{"start":{"in":"1241"},"end":{"in":"1241"}}]}},{"toponym":"Teofuntinga gemære","citations":[{"label":"940 BCS","year":940}],"when":{"timespans":[{"start":{"in":"0940"},"end":{"in":"0940"}}]}},{"toponym":"(at) Teofunten","citations":[{"label":"c. 965 BCS","year":955}],"when":{"timespans":[{"start":{"earliest":"0955","latest":"0975"},"end":{"earliest":"0955","latest":"0975"}}]}},{"toponym":"Theofunta, Teophonte","citations":[{"label":"t. Hy 2 Shaston","year":1154}],"when":{"timespans":[{"start":{"earliest":"1154","latest":"1189"},"end":{"earliest":"1154","latest":"1189"}}]}},{"toponym":"Tifhunt","citations":[{"label":"1236 FF","year":1236}],"when":{"timespans":[{"start":{"in":"1236"},"end":{"in":"1236"}}]}},{"toponym":"Tyfunte","citations":[{"label":"1268 Ass","year":1268}],"when":{"timespans":[{"start":{"in":"1268"},"end":{"in":"1268"}}]}},{"toponym":"Tefhunte","citations":[{"label":"1293 Pat","year":1293}],"when":{"timespans":[{"start":{"in":"1293"},"end":{"in":"1293"}}]}},{"toponym":"Hewyas Tefunte","citations":[{"label":"1242 Fees","year":1242}],"when":{"timespans":[{"start":{"in":"1242"},"end":{"in":"1242"}}]}},{"toponym":"Teffunt Ewyas","citations":[{"label":"1275 RH","year":1275}],"when":{"timespans":[{"start":{"in":"1275"},"end":{"in":"1275"}}]}},{"toponym":"Teffonteeweyas","citations":[{"label":"1284 FF","year":1284}],"when":{"timespans":[{"start":{"in":"1284"},"end":{"in":"1284"}}]}},{"toponym":"Teffunte Euwyas","citations":[{"label":"1302 Ass","year":1302}],"when":{"timespans":[{"start":{"in":"1302"},"end":{"in":"1302"}}]}},{"toponym":"Teffont Evyas","citations":[{"label":"1304 Pat","year":1304}],"when":{"timespans":[{"start":{"in":"1304"},"end":{"in":"1304"}}]}},{"toponym":"Teffunte Eweas","citations":[{"label":"1378 Cl","year":1378}],"when":{"timespans":[{"start":{"in":"1378"},"end":{"in":"1378"}}]}},{"toponym":"Tevaunte Evyas","citations":[{"label":"1553 Hoare","year":1553}],"when":{"timespans":[{"start":{"in":"1553"},"end":{"in":"1553"}}]}},{"toponym":"Over Tefunte","citations":[{"label":"1268 Ass","year":1268}],"when":{"timespans":[{"start":{"in":"1268"},"end":{"in":"1268"}}]}},{"toponym":"Overtevente","citations":[{"label":"1553 WM","year":1553}],"when":{"timespans":[{"start":{"in":"1553"},"end":{"in":"1553"}}]}},{"toponym":"Upperteffont","citations":[{"label":"1584 Recov","year":1584}],"when":{"timespans":[{"start":{"in":"1584"},"end":{"in":"1584"}}]}},{"toponym":"Teffount Hungerford","citations":[{"label":"1418 MinAcct","year":1418}],"when":{"timespans":[{"start":{"in":"1418"},"end":{"in":"1418"}}]}},{"toponym":"Tevent(e)","citations":[{"label":"1428 FA","year":1428},{"label":"1547 SR","year":1547}],"when":{"timespans":[{"start":{"in":"1428"},"end":{"in":"1428"}},{"start":{"in":"1547"},"end":{"in":"1547"}}]}},{"toponym":"Teffen","citations":[{"label":"1671 Recov","year":1671}],"when":{"timespans":[{"start":{"in":"1671"},"end":{"in":"1671"}}]}}],"types":[{"identifier":"http://vocab.getty.edu/aat/300232418","label":"administrative division","sourceLabels":[{"label":"township","lang":"en"}]}],"geometry":{"type":"GeometryCollection","geometries":[{"type":"Point","coordinates":[-2.01299,51.08041],"citations":[{"label":"GeoNames, gazetteer record geonames:8199187"}]},{"type":"Point","coordinates":[-2.021416739299678,51.08228611146914],"citations":[{"label":"Unlock (EDINA) gazetteer, gazetteer record unlock:11298398"}]},{"type":"Point","coordinates":[-2.0085,51.0828],"citations":[{"label":"Key to English Place-Names (KEPN), gazetteer record 7309"}]}]},"when":{"timespans":[{"start":{"in":"0860"},"end":{"in":"1671"}}]},"links":[{"type":"closeMatch","identifier":"https://sws.geonames.org/8199187/"}],"relations":[{"relationType":"gvp:broaderPartitive","relationTo":"https://w3id.org/whg-epns/16/006473","label":"within Teffont Evias and Magna"}]}]}