{"@context":"https://raw.githubusercontent.com/LinkedPasts/linked-places-format/main/linkedplaces-context-v1.1.jsonld","type":"FeatureCollection","license":"Digitisation of English Placenames MADS data is licensed to Jisc by the English Place Names Society and released under a Creative Commons Attribution-NonCommercial 4.0 International License.","note":"LPF v1.3, lossy; derived from the PLATO record; plato_commit=ca0afadabec1e23a145c0b03df77e8f151f79832","features":[{"@id":"https://w3id.org/whg-epns/16/006442","type":"Feature","properties":{"title":"Swallowcliffe","ccodes":["GB"],"fclasses":["A","P"]},"names":[{"toponym":"Swallowcliffe","lang":"en","citations":[{"label":"English Place-Name Society survey, volume 16: Wiltshire"}]},{"toponym":"rupis irundinis, id est Swealewanclif","citations":[{"label":"940 BCS","year":940}],"when":{"timespans":[{"start":{"in":"0940"},"end":{"in":"0940"}}]}},{"toponym":"Svaloclive","citations":[{"label":"1086 DB","year":1086}],"when":{"timespans":[{"start":{"in":"1086"},"end":{"in":"1086"}}]}},{"toponym":"Swaleweclive","citations":[{"label":"c. 1155 StOsmund","year":1145},{"label":"1236 Fees","year":1236}],"when":{"timespans":[{"start":{"earliest":"1145","latest":"1165"},"end":{"earliest":"1145","latest":"1165"}},{"start":{"in":"1236"},"end":{"in":"1236"}},{"start":{"in":"1242"},"end":{"in":"1242"}}]}},{"toponym":"Swaleweklive","citations":[{"label":"c. 1240 Wilton","year":1230}],"when":{"timespans":[{"start":{"earliest":"1230","latest":"1250"},"end":{"earliest":"1230","latest":"1250"}}]}},{"toponym":"Swaleweclyve","citations":[{"label":"1294 Pat","year":1294}],"when":{"timespans":[{"start":{"in":"1294"},"end":{"in":"1294"}}]}},{"toponym":"Svaleweclive","citations":[{"label":"1202 FF","year":1202}],"when":{"timespans":[{"start":{"in":"1202"},"end":{"in":"1202"}}]}},{"toponym":"Swaluweclive","citations":[{"label":"1277 Ipm","year":1277}],"when":{"timespans":[{"start":{"in":"1277"},"end":{"in":"1277"}}]}},{"toponym":"Swaleclive","citations":[{"label":"1241 FF","year":1241}],"when":{"timespans":[{"start":{"in":"1241"},"end":{"in":"1241"}}]}},{"toponym":"Swaleclyve","citations":[{"label":"1277 Ipm","year":1277},{"label":"1289 Ass","year":1289},{"label":"1316 FA","year":1316}],"when":{"timespans":[{"start":{"in":"1277"},"end":{"in":"1277"}},{"start":{"in":"1289"},"end":{"in":"1289"}},{"start":{"in":"1316"},"end":{"in":"1316"}}]}},{"toponym":"Swalfklyfe","citations":[{"label":"1276 Ipm","year":1276}],"when":{"timespans":[{"start":{"in":"1276"},"end":{"in":"1276"}}]}},{"toponym":"Swalowcliffe al. Swaclyff","citations":[{"label":"1546 LP","year":1546}],"when":{"timespans":[{"start":{"in":"1546"},"end":{"in":"1546"}}]}},{"toponym":"Swacliff","citations":[{"label":"1594 Recov","year":1594}],"when":{"timespans":[{"start":{"in":"1594"},"end":{"in":"1594"}}]}},{"toponym":"Swakley","citations":[{"label":"1618 Sess","year":1618}],"when":{"timespans":[{"start":{"in":"1618"},"end":{"in":"1618"}}]}},{"toponym":"Swaklie","citations":[{"label":"1648 WM","year":1648}],"when":{"timespans":[{"start":{"in":"1648"},"end":{"in":"1648"}}]}}],"types":[{"identifier":"http://vocab.getty.edu/aat/300232418","label":"administrative division","sourceLabels":[{"label":"township","lang":"en"}]}],"geometry":{"type":"GeometryCollection","geometries":[{"type":"Point","coordinates":[-2.04252,51.04005],"citations":[{"label":"GeoNames, gazetteer record geonames:3345422"}]},{"type":"Point","coordinates":[-2.049933667475426,51.04630468651951],"citations":[{"label":"Unlock (EDINA) gazetteer, gazetteer record unlock:11296078"}]},{"type":"Point","coordinates":[-2.05129,51.0468],"citations":[{"label":"Key to English Place-Names (KEPN), gazetteer record 7308"}]}]},"when":{"timespans":[{"start":{"in":"0940"},"end":{"in":"1648"}}]},"links":[{"type":"closeMatch","identifier":"https://sws.geonames.org/3345422/"}],"relations":[{"relationType":"gvp:broaderPartitive","relationTo":"https://w3id.org/whg-epns/16/006441","label":"within Swallowcliffe"}]}]}