{"@context":"https://raw.githubusercontent.com/LinkedPasts/linked-places-format/main/linkedplaces-context-v1.1.jsonld","type":"FeatureCollection","license":"Digitisation of English Placenames MADS data is licensed to Jisc by the English Place Names Society and released under a Creative Commons Attribution-NonCommercial 4.0 International License.","note":"LPF v1.3, lossy; derived from the PLATO record; plato_commit=fa0d247ccc0263f8f19c8d7cdcd163df96935d1e","features":[{"@id":"https://w3id.org/whg-epns/16/006621","type":"Feature","properties":{"title":"Wardour","ccodes":["GB"],"fclasses":["A","P"]},"names":[{"toponym":"Wardour","lang":"en","citations":[{"label":"English Place-Name Society survey, volume 16: Wiltshire"}]}],"types":[{"identifier":"http://vocab.getty.edu/aat/300232418","label":"administrative division","sourceLabels":[{"label":"parish","lang":"en"}]}],"geometry":{"type":"GeometryCollection","geometries":[{"type":"Point","coordinates":[-2.107000637894988,51.04626637527571],"citations":[{"label":"Unlock (EDINA) gazetteer, gazetteer record unlock:11313296"}]},{"type":"Point","coordinates":[-2.10835,51.0468],"citations":[{"label":"Key to English Place-Names (KEPN), gazetteer record 7310"}]}]},"relations":[{"relationType":"gvp:broaderPartitive","relationTo":"https://w3id.org/whg-epns/16/006126","label":"within Dunworth Hundred"}]}]}