{"@context":"https://raw.githubusercontent.com/LinkedPasts/linked-places-format/main/linkedplaces-context-v1.1.jsonld","type":"FeatureCollection","license":"Digitisation of English Placenames MADS data is licensed to Jisc by the English Place Names Society and released under a Creative Commons Attribution-NonCommercial 4.0 International License.","note":"LPF v1.3, lossy; derived from the PLATO record; plato_commit=fa0d247ccc0263f8f19c8d7cdcd163df96935d1e","features":[{"@id":"https://w3id.org/whg-epns/16/006692","type":"Feature","properties":{"title":"Alvediston","ccodes":["GB"],"fclasses":["A","P"]},"names":[{"toponym":"Alvediston","lang":"en","citations":[{"label":"English Place-Name Society survey, volume 16: Wiltshire"}]}],"types":[{"identifier":"http://vocab.getty.edu/aat/300232418","label":"administrative division","sourceLabels":[{"label":"parish","lang":"en"}]}],"geometry":{"type":"GeometryCollection","geometries":[{"type":"Point","coordinates":[-2.03481,51.01007],"citations":[{"label":"GeoNames, gazetteer record geonames:2657394"}]},{"type":"Point","coordinates":[-2.035639311473123,51.01033697551718],"citations":[{"label":"Unlock (EDINA) gazetteer, gazetteer record unlock:11061526"}]},{"type":"Point","coordinates":[-2.037,51.0109],"citations":[{"label":"Key to English Place-Names (KEPN), gazetteer record 7312"}]}]},"links":[{"type":"closeMatch","identifier":"https://sws.geonames.org/2657394/"}],"relations":[{"relationType":"gvp:broaderPartitive","relationTo":"https://w3id.org/whg-epns/16/006686","label":"within Chalke Hundred"}]}]}