{"@context":"https://raw.githubusercontent.com/LinkedPasts/linked-places-format/main/linkedplaces-context-v1.1.jsonld","type":"FeatureCollection","license":"Digitisation of English Placenames MADS data is licensed to Jisc by the English Place Names Society and released under a Creative Commons Attribution-NonCommercial 4.0 International License.","note":"LPF v1.3, lossy; derived from the PLATO record; plato_commit=ca0afadabec1e23a145c0b03df77e8f151f79832","features":[{"@id":"http://placenames.org.uk/id/placename/16/007464","type":"Feature","properties":{"title":"Coombe Bissett","ccodes":["GB"],"fclasses":["A","P"]},"names":[{"toponym":"Coombe Bissett","lang":"en","citations":[{"label":"English Place-Name Society survey, volume 16: Wiltshire"}]}],"types":[{"identifier":"http://vocab.getty.edu/aat/300232418","label":"administrative division","sourceLabels":[{"label":"parish","lang":"en"}]}],"geometry":{"type":"GeometryCollection","geometries":[{"type":"Point","coordinates":[-1.84578,51.03632],"citations":[{"label":"GeoNames, gazetteer record geonames:2652412"}]},{"type":"Point","coordinates":[-1.850228240637887,51.03722617288739],"citations":[{"label":"Unlock (EDINA) gazetteer, gazetteer record unlock:11115517"}]},{"type":"Point","coordinates":[-1.83734,51.0378],"citations":[{"label":"Key to English Place-Names (KEPN), gazetteer record 7321"}]}]},"links":[{"type":"closeMatch","identifier":"https://sws.geonames.org/2652412/"}],"relations":[{"relationType":"gvp:broaderPartitive","relationTo":"http://placenames.org.uk/id/placename/16/007409","label":"within Cawdon Hundred"}]}]}