{"@context":"https://raw.githubusercontent.com/LinkedPasts/linked-places-format/main/linkedplaces-context-v1.1.jsonld","type":"FeatureCollection","license":"Digitisation of English Placenames MADS data is licensed to Jisc by the English Place Names Society and released under a Creative Commons Attribution-NonCommercial 4.0 International License.","note":"LPF v1.3, lossy; derived from the PLATO record; plato_commit=ca0afadabec1e23a145c0b03df77e8f151f79832","features":[{"@id":"https://w3id.org/whg-epns/16/007691","type":"Feature","properties":{"title":"South Newton","ccodes":["GB"],"fclasses":["A","P"]},"names":[{"toponym":"South Newton","lang":"en","citations":[{"label":"English Place-Name Society survey, volume 16: Wiltshire"}]},{"toponym":"(in) niwantune, (æt) niwantune","citations":[{"label":"943 BCS","year":943}],"when":{"timespans":[{"start":{"in":"0943"},"end":{"in":"0943"}},{"start":{"in":"0946"},"end":{"in":"0946"}}]}},{"toponym":"Nyweton","citations":[{"label":"c. 1190 SarumCh","year":1180}],"when":{"timespans":[{"start":{"earliest":"1180","latest":"1200"},"end":{"earliest":"1180","latest":"1200"}}]}},{"toponym":"Niweton","citations":[{"label":"1208 FF","year":1208}],"when":{"timespans":[{"start":{"in":"1208"},"end":{"in":"1208"}}]}},{"toponym":"Sutneuton","citations":[{"label":"1242 Fees","year":1242},{"label":"1268 Ass","year":1268}],"when":{"timespans":[{"start":{"in":"1242"},"end":{"in":"1242"}},{"start":{"in":"1268"},"end":{"in":"1268"}}]}},{"toponym":"Sutnewenton","citations":[{"label":"1281 Ass","year":1281}],"when":{"timespans":[{"start":{"in":"1281"},"end":{"in":"1281"}}]}},{"toponym":"Suth Newenton juxta Wilton","citations":[{"label":"1305 FF","year":1305}],"when":{"timespans":[{"start":{"in":"1305"},"end":{"in":"1305"}}]}},{"toponym":"Niweton juxta Wilton","citations":[{"label":"1312 Ass","year":1312}],"when":{"timespans":[{"start":{"in":"1312"},"end":{"in":"1312"}}]}}],"types":[{"identifier":"http://vocab.getty.edu/aat/300232418","label":"administrative division","sourceLabels":[{"label":"township","lang":"en"}]}],"geometry":{"type":"GeometryCollection","geometries":[{"type":"Point","coordinates":[-1.87528,51.10653],"citations":[{"label":"GeoNames, gazetteer record geonames:2637359"}]},{"type":"Point","coordinates":[-1.87856797342582,51.10920441830531],"citations":[{"label":"Unlock (EDINA) gazetteer, gazetteer record unlock:11287803"}]},{"type":"Point","coordinates":[-1.87995,51.1097],"citations":[{"label":"Key to English Place-Names (KEPN), gazetteer record 7339"}]}]},"when":{"timespans":[{"start":{"in":"0943"},"end":{"in":"1312"}}]},"links":[{"type":"closeMatch","identifier":"https://sws.geonames.org/2637359/"}],"relations":[{"relationType":"gvp:broaderPartitive","relationTo":"https://w3id.org/whg-epns/16/007690","label":"within South Newton"}]}]}