{"@context":"https://raw.githubusercontent.com/LinkedPasts/linked-places-format/main/linkedplaces-context-v1.1.jsonld","type":"FeatureCollection","license":"Digitisation of English Placenames MADS data is licensed to Jisc by the English Place Names Society and released under a Creative Commons Attribution-NonCommercial 4.0 International License.","note":"LPF v1.3, lossy; derived from the PLATO record; plato_commit=ca0afadabec1e23a145c0b03df77e8f151f79832","features":[{"@id":"https://w3id.org/whg-epns/16/007810","type":"Feature","properties":{"title":"Wylye","ccodes":["GB"],"fclasses":["A","P"]},"names":[{"toponym":"Wylye","lang":"en","citations":[{"label":"English Place-Name Society survey, volume 16: Wiltshire"}]}],"types":[{"identifier":"http://vocab.getty.edu/aat/300232418","label":"administrative division","sourceLabels":[{"label":"parish","lang":"en"}]}],"geometry":{"type":"GeometryCollection","geometries":[{"type":"Point","coordinates":[-1.98946,51.13715],"citations":[{"label":"GeoNames, gazetteer record geonames:2633450"}]},{"type":"Point","coordinates":[-1.992852769015429,51.13624651934755],"citations":[{"label":"Unlock (EDINA) gazetteer, gazetteer record unlock:11327915"}]},{"type":"Point","coordinates":[-1.99422,51.1368],"citations":[{"label":"Key to English Place-Names (KEPN), gazetteer record 7343"}]}]},"links":[{"type":"closeMatch","identifier":"https://sws.geonames.org/2633450/"}],"relations":[{"relationType":"gvp:broaderPartitive","relationTo":"https://w3id.org/whg-epns/16/007580","label":"within Branch Hundred"}]}]}