{"@context":"https://raw.githubusercontent.com/LinkedPasts/linked-places-format/main/linkedplaces-context-v1.1.jsonld","type":"FeatureCollection","license":"Digitisation of English Placenames MADS data is licensed to Jisc by the English Place Names Society and released under a Creative Commons Attribution-NonCommercial 4.0 International License.","note":"LPF v1.3, lossy; derived from the PLATO record; plato_commit=fa0d247ccc0263f8f19c8d7cdcd163df96935d1e","features":[{"@id":"https://w3id.org/whg-epns/16/007952","type":"Feature","properties":{"title":"Rolleston","ccodes":["GB"],"fclasses":["A","P"]},"names":[{"toponym":"Rolleston","lang":"en","citations":[{"label":"English Place-Name Society survey, volume 16: Wiltshire"}]},{"toponym":"Wintreburne","citations":[{"label":"1086 DB","year":1086}],"when":{"timespans":[{"start":{"in":"1086"},"end":{"in":"1086"}}]}},{"toponym":"Rolveston(e)","citations":[{"label":"1242 Fees","year":1242},{"label":"Lacock","year":1240},{"label":"FA"},{"label":"c. 1250 Lacock","year":1240},{"label":"1428 FA","year":1428}],"when":{"timespans":[{"start":{"in":"1242"},"end":{"in":"1242"}},{"start":{"in":"1240"},"end":{"in":"1428"}},{"start":{"earliest":"1240","latest":"1260"},"end":{"earliest":"1240","latest":"1260"}},{"start":{"in":"1428"},"end":{"in":"1428"}}]}},{"toponym":"Wynterburne Rolveston","citations":[{"label":"1325 FF","year":1325}],"when":{"timespans":[{"start":{"in":"1325"},"end":{"in":"1325"}}]}},{"toponym":"Rowston","citations":[{"label":"1560 FF","year":1560}],"when":{"timespans":[{"start":{"in":"1560"},"end":{"in":"1560"}}]}},{"toponym":"Rolleston al. Rolveston","citations":[{"label":"1566 FF","year":1566}],"when":{"timespans":[{"start":{"in":"1566"},"end":{"in":"1566"}}]}},{"toponym":"Ralston","citations":[{"label":"1636 Recov","year":1636}],"when":{"timespans":[{"start":{"in":"1636"},"end":{"in":"1636"}}]}}],"types":[{"identifier":"http://vocab.getty.edu/aat/300232418","label":"administrative division","sourceLabels":[{"label":"township","lang":"en"}]}],"geometry":{"type":"Point","coordinates":[-1.8654,51.1996],"citations":[{"label":"Key to English Place-Names (KEPN), gazetteer record 7347"}]},"when":{"timespans":[{"start":{"in":"1086"},"end":{"in":"1636"}}]},"relations":[{"relationType":"gvp:broaderPartitive","relationTo":"https://w3id.org/whg-epns/16/007951","label":"within Rolleston"}]}]}