{"@context":"https://raw.githubusercontent.com/LinkedPasts/linked-places-format/main/linkedplaces-context-v1.1.jsonld","type":"FeatureCollection","license":"Digitisation of English Placenames MADS data is licensed to Jisc by the English Place Names Society and released under a Creative Commons Attribution-NonCommercial 4.0 International License.","note":"LPF v1.3, lossy; derived from the PLATO record; plato_commit=ca0afadabec1e23a145c0b03df77e8f151f79832","features":[{"@id":"http://placenames.org.uk/id/placename/16/008077","type":"Feature","properties":{"title":"Little Cheverell","ccodes":["GB"],"fclasses":["A","P"]},"names":[{"toponym":"Little Cheverell","lang":"en","citations":[{"label":"English Place-Name Society survey, volume 16: Wiltshire"}]}],"types":[{"identifier":"http://vocab.getty.edu/aat/300232418","label":"administrative division","sourceLabels":[{"label":"parish","lang":"en"}]}],"geometry":{"type":"GeometryCollection","geometries":[{"type":"Point","coordinates":[-2.01334,51.28103],"citations":[{"label":"GeoNames, gazetteer record geonames:3345430"}]},{"type":"Point","coordinates":[-2.007169537510178,51.28013385239267],"citations":[{"label":"Unlock (EDINA) gazetteer, gazetteer record unlock:11196067"}]},{"type":"Point","coordinates":[-2.015951,51.281837],"citations":[{"label":"Key to English Place-Names (KEPN), gazetteer record 226"}]}]},"links":[{"type":"closeMatch","identifier":"https://sws.geonames.org/3345430/"}],"relations":[{"relationType":"gvp:broaderPartitive","relationTo":"http://placenames.org.uk/id/placename/16/008037","label":"within Rowborough Regis Hundred"}]}]}