{"@context":"https://raw.githubusercontent.com/LinkedPasts/linked-places-format/main/linkedplaces-context-v1.1.jsonld","type":"FeatureCollection","license":"Digitisation of English Placenames MADS data is licensed to Jisc by the English Place Names Society and released under a Creative Commons Attribution-NonCommercial 4.0 International License.","note":"LPF v1.3, lossy; derived from the PLATO record; plato_commit=ca0afadabec1e23a145c0b03df77e8f151f79832","features":[{"@id":"http://placenames.org.uk/id/placename/16/008567","type":"Feature","properties":{"title":"Bromham","ccodes":["GB"],"fclasses":["A","P"]},"names":[{"toponym":"Bromham","lang":"en","citations":[{"label":"English Place-Name Society survey, volume 16: Wiltshire"}]},{"toponym":"Bromham","citations":[{"label":"1086 DB","year":1086},{"label":"1087–1100, recurring BM Facs","year":1087},{"label":"t. early Wm 2 BM Facs","year":1087}],"when":{"timespans":[{"start":{"in":"1086"},"end":{"in":"1086"}},{"start":{"in":"1087"},"end":{"in":"1100"}},{"start":{"earliest":"1087","latest":"1100"},"end":{"earliest":"1087","latest":"1100"}}]}},{"toponym":"Brumham","citations":[{"label":"1086 ExonDB","year":1086}],"when":{"timespans":[{"start":{"in":"1086"},"end":{"in":"1086"}}]}},{"toponym":"Bromham al. Brumham","citations":[{"label":"1760 Recov","year":1760}],"when":{"timespans":[{"start":{"in":"1760"},"end":{"in":"1760"}}]}},{"toponym":"Bramham","citations":[{"label":"1168 P","year":1168}],"when":{"timespans":[{"start":{"in":"1168"},"end":{"in":"1168"}}]}},{"toponym":"Bromeham","citations":[{"label":"1433 Cl","year":1433},{"label":"1458 Pat","year":1458},{"label":"1576 FF","year":1576}],"when":{"timespans":[{"start":{"in":"1433"},"end":{"in":"1433"}},{"start":{"in":"1458"},"end":{"in":"1458"}},{"start":{"in":"1494"},"end":{"in":"1494"}},{"start":{"in":"1576"},"end":{"in":"1576"}}]}}],"types":[{"identifier":"http://vocab.getty.edu/aat/300232418","label":"administrative division","sourceLabels":[{"label":"township","lang":"en"}]}],"geometry":{"type":"GeometryCollection","geometries":[{"type":"Point","coordinates":[-2.03738,51.38879],"citations":[{"label":"GeoNames, gazetteer record geonames:7300312"}]},{"type":"Point","coordinates":[-2.05030471094016,51.38803645052312],"citations":[{"label":"Unlock (EDINA) gazetteer, gazetteer record unlock:11088586"}]},{"type":"Point","coordinates":[-2.05167,51.3885],"citations":[{"label":"Key to English Place-Names (KEPN), gazetteer record 7367"}]}]},"when":{"timespans":[{"start":{"in":"1086"},"end":{"in":"1760"}}]},"links":[{"type":"closeMatch","identifier":"https://sws.geonames.org/7300312/"}],"relations":[{"relationType":"gvp:broaderPartitive","relationTo":"http://placenames.org.uk/id/placename/16/008566","label":"within Bromham"}]}]}