{"@context":"https://raw.githubusercontent.com/LinkedPasts/linked-places-format/main/linkedplaces-context-v1.1.jsonld","type":"FeatureCollection","license":"Digitisation of English Placenames MADS data is licensed to Jisc by the English Place Names Society and released under a Creative Commons Attribution-NonCommercial 4.0 International License.","note":"LPF v1.3, lossy; derived from the PLATO record; plato_commit=ca0afadabec1e23a145c0b03df77e8f151f79832","features":[{"@id":"http://placenames.org.uk/id/placename/16/009489","type":"Feature","properties":{"title":"Wroughton","ccodes":["GB"],"fclasses":["A","P"]},"names":[{"toponym":"Wroughton","lang":"en","citations":[{"label":"English Place-Name Society survey, volume 16: Wiltshire"}]},{"toponym":"Ellendun","citations":[{"label":"823 ASC","year":823},{"label":"823 ASC","year":823},{"label":"823 ASC","year":823},{"label":"c. 1000 Ethelwerd","year":990},{"label":"956 BCS","year":956}],"when":{"timespans":[{"start":{"in":"0823"},"end":{"in":"0823"}},{"start":{"in":"0823"},"end":{"in":"0823"}},{"start":{"in":"0823"},"end":{"in":"0823"}},{"start":{"earliest":"0990","latest":"1010"},"end":{"earliest":"0990","latest":"1010"}},{"start":{"in":"0956"},"end":{"in":"0956"}}]}},{"toponym":"Eallandun","citations":[{"label":"823 ASC","year":823}],"when":{"timespans":[{"start":{"in":"0823"},"end":{"in":"0823"}}]}},{"toponym":"Ællandun","citations":[{"label":"823 ASC","year":823}],"when":{"timespans":[{"start":{"in":"0823"},"end":{"in":"0823"}}]}},{"toponym":"(in) Ellandune, id est in monte Ealle","citations":[{"label":"c. 1120 FW","year":1110}],"when":{"timespans":[{"start":{"earliest":"1110","latest":"1130"},"end":{"earliest":"1110","latest":"1130"}}]}},{"toponym":"Ellandun","citations":[{"label":"823 ASC","year":823}],"when":{"timespans":[{"start":{"in":"0823"},"end":{"in":"0823"}}]}},{"toponym":"Elendune","citations":[{"label":"1086 DB","year":1086},{"label":"1242 Fees","year":1242}],"when":{"timespans":[{"start":{"in":"1086"},"end":{"in":"1086"}},{"start":{"in":"1242"},"end":{"in":"1242"}}]}},{"toponym":"El(l)endon(e)","citations":[{"label":"a. 1127 WintonCart","year":1077},{"label":"1205 Pap","year":1205}],"when":{"timespans":[{"start":{"earliest":"1077","latest":"1127"},"end":{"earliest":"1077","latest":"1127"}},{"start":{"in":"1205"},"end":{"in":"1205"}}]}},{"toponym":"Elindone","citations":[{"label":"1291 Tax","year":1291}],"when":{"timespans":[{"start":{"in":"1291"},"end":{"in":"1291"}}]}},{"toponym":"Elyndon","citations":[{"label":"1324 WM","year":1324}],"when":{"timespans":[{"start":{"in":"1324"},"end":{"in":"1324"}}]}},{"toponym":"Elyngdon","citations":[{"label":"1330 FF","year":1330},{"label":"1444 Pat","year":1444},{"label":"1535 VE","year":1535}],"when":{"timespans":[{"start":{"in":"1330"},"end":{"in":"1330"}},{"start":{"in":"1444"},"end":{"in":"1444"}},{"start":{"in":"1535"},"end":{"in":"1535"}}]}},{"toponym":"Wertune, Wervetone","citations":[{"label":"1086 DB","year":1086}],"when":{"timespans":[{"start":{"in":"1086"},"end":{"in":"1086"}}]}},{"toponym":"Worfton","citations":[{"label":"1196–1385, recurring Cur","year":1196},{"label":"1196–1385, recurring Pat"},{"label":"1196 Cur","year":1196},{"label":"1385 Pat","year":1385}],"when":{"timespans":[{"start":{"in":"1196"},"end":{"in":"1385"}},{"start":{"in":"1196"},"end":{"in":"1196"}},{"start":{"in":"1385"},"end":{"in":"1385"}}]}},{"toponym":"Wourfton","citations":[{"label":"1285 Ch","year":1285}],"when":{"timespans":[{"start":{"in":"1285"},"end":{"in":"1285"}}]}},{"toponym":"Nether Werfton","citations":[{"label":"1236 FF","year":1236},{"label":"1281 Ass","year":1281}],"when":{"timespans":[{"start":{"in":"1236"},"end":{"in":"1236"}},{"start":{"in":"1281"},"end":{"in":"1281"}},{"start":{"in":"1289"},"end":{"in":"1289"}}]}},{"toponym":"Werfton","citations":[{"label":"1249 FF","year":1249},{"label":"1249 Ass","year":1249}],"when":{"timespans":[{"start":{"in":"1249"},"end":{"in":"1249"}},{"start":{"in":"1249"},"end":{"in":"1249"}}]}},{"toponym":"Overewerfton","citations":[{"label":"1279 Ass","year":1279}],"when":{"timespans":[{"start":{"in":"1279"},"end":{"in":"1279"}}]}},{"toponym":"Werfeton","citations":[{"label":"1399 Cl","year":1399}],"when":{"timespans":[{"start":{"in":"1399"},"end":{"in":"1399"}}]}},{"toponym":"Warfton","citations":[{"label":"1236 FF","year":1236}],"when":{"timespans":[{"start":{"in":"1236"},"end":{"in":"1236"}}]}},{"toponym":"Netherwarfton","citations":[{"label":"1289 Ass","year":1289}],"when":{"timespans":[{"start":{"in":"1289"},"end":{"in":"1289"}}]}},{"toponym":"Warghton","citations":[{"label":"1365 Cl","year":1365}],"when":{"timespans":[{"start":{"in":"1365"},"end":{"in":"1365"}}]}},{"toponym":"Worefton","citations":[{"label":"1242 Fees","year":1242}],"when":{"timespans":[{"start":{"in":"1242"},"end":{"in":"1242"}}]}},{"toponym":"Nutherworefton","citations":[{"label":"1275 FF","year":1275}],"when":{"timespans":[{"start":{"in":"1275"},"end":{"in":"1275"}}]}},{"toponym":"Uvere Werefton","citations":[{"label":"1242 Fees","year":1242}],"when":{"timespans":[{"start":{"in":"1242"},"end":{"in":"1242"}}]}},{"toponym":"Wrfton(a)","citations":[{"label":"1242 Fees","year":1242},{"label":"1300 Ch","year":1300}],"when":{"timespans":[{"start":{"in":"1242"},"end":{"in":"1242"}},{"start":{"in":"1300"},"end":{"in":"1300"}}]}},{"toponym":"Nether Wrofton","citations":[{"label":"1418 Pat","year":1418}],"when":{"timespans":[{"start":{"in":"1418"},"end":{"in":"1418"}}]}},{"toponym":"Nethyr Wroghton","citations":[{"label":"1428 FA","year":1428}],"when":{"timespans":[{"start":{"in":"1428"},"end":{"in":"1428"}}]}},{"toponym":"Over Wroughton, Nether Wroughton","citations":[{"label":"1466 IpmR","year":1466}],"when":{"timespans":[{"start":{"in":"1466"},"end":{"in":"1466"}}]}},{"toponym":"Roahtun","citations":[{"label":"1655 ParReg","year":1655}],"when":{"timespans":[{"start":{"in":"1655"},"end":{"in":"1655"}}]}},{"toponym":"Elendone quod est Worftone","citations":[{"label":"c. 1270 Winton","year":1260}],"when":{"timespans":[{"start":{"earliest":"1260","latest":"1280"},"end":{"earliest":"1260","latest":"1280"}}]}},{"toponym":"Ellyngdon al. Wroughton","citations":[{"label":"1554 FF","year":1554},{"label":"1555 Pat","year":1555}],"when":{"timespans":[{"start":{"in":"1554"},"end":{"in":"1554"}},{"start":{"in":"1555"},"end":{"in":"1555"}}]}},{"toponym":"Elington al. Wroughton","citations":[{"label":"t. Eliz ChancP","year":1558}],"when":{"timespans":[{"start":{"earliest":"1558","latest":"1603"},"end":{"earliest":"1558","latest":"1603"}}]}},{"toponym":"Wroughton al. Elingdon","citations":[{"label":"1620 WM","year":1620}],"when":{"timespans":[{"start":{"in":"1620"},"end":{"in":"1620"}}]}}],"types":[{"identifier":"http://vocab.getty.edu/aat/300232418","label":"administrative division","sourceLabels":[{"label":"township","lang":"en"}]}],"geometry":{"type":"GeometryCollection","geometries":[{"type":"Point","coordinates":[-1.79559,51.52411],"citations":[{"label":"GeoNames, gazetteer record geonames:2633476"}]},{"type":"Point","coordinates":[-1.790939155295594,51.53174213010696],"citations":[{"label":"Unlock (EDINA) gazetteer, gazetteer record unlock:11233259"}]},{"type":"Point","coordinates":[-1.79238,51.5232],"citations":[{"label":"Key to English Place-Names (KEPN), gazetteer record 7383"}]}]},"when":{"timespans":[{"start":{"in":"0823"},"end":{"in":"1655"}}]},"links":[{"type":"closeMatch","identifier":"https://sws.geonames.org/2633476/"}],"relations":[{"relationType":"gvp:broaderPartitive","relationTo":"http://placenames.org.uk/id/placename/16/009488","label":"within Wroughton"}]}]}