{"@context":"https://raw.githubusercontent.com/LinkedPasts/linked-places-format/main/linkedplaces-context-v1.1.jsonld","type":"FeatureCollection","license":"Digitisation of English Placenames MADS data is licensed to Jisc by the English Place Names Society and released under a Creative Commons Attribution-NonCommercial 4.0 International License.","note":"LPF v1.3, lossy; derived from the PLATO record; plato_commit=ca0afadabec1e23a145c0b03df77e8f151f79832","features":[{"@id":"http://placenames.org.uk/id/placename/16/010670","type":"Feature","properties":{"title":"Winterbourne Bassett and Winterbourne Monkton","ccodes":["GB"],"fclasses":["A","P"]},"names":[{"toponym":"Winterbourne Bassett and Winterbourne Monkton","lang":"en","citations":[{"label":"English Place-Name Society survey, volume 16: Wiltshire"}]},{"toponym":"Wintreborne, Wintreburne","citations":[{"label":"950 BCS","year":950},{"label":"1086 DB","year":1086}],"when":{"timespans":[{"start":{"in":"0950"},"end":{"in":"0950"}},{"start":{"in":"1086"},"end":{"in":"1086"}}]}},{"toponym":"Wintreburn(a)","citations":[{"label":"1114 France","year":1114},{"label":"1198 BM","year":1198},{"label":"1220 FF","year":1220}],"when":{"timespans":[{"start":{"in":"1114"},"end":{"in":"1114"}},{"start":{"in":"1198"},"end":{"in":"1198"}},{"start":{"in":"1220"},"end":{"in":"1220"}}]}},{"toponym":"Winterborn","citations":[{"label":"1196 FF","year":1196}],"when":{"timespans":[{"start":{"in":"1196"},"end":{"in":"1196"}}]}},{"toponym":"Winterburne Monachorum","citations":[{"label":"1249 Ass","year":1249}],"when":{"timespans":[{"start":{"in":"1249"},"end":{"in":"1249"}}]}},{"toponym":"Winterburne Monacor'","citations":[{"label":"1275 RH","year":1275}],"when":{"timespans":[{"start":{"in":"1275"},"end":{"in":"1275"}}]}},{"toponym":"Moneke Wynterburn","citations":[{"label":"1251 FF","year":1251}],"when":{"timespans":[{"start":{"in":"1251"},"end":{"in":"1251"}}]}},{"toponym":"Wynterburne Abbatis Glaston'","citations":[{"label":"1267 Abbr","year":1267}],"when":{"timespans":[{"start":{"in":"1267"},"end":{"in":"1267"}}]}},{"toponym":"Monekenewynterburne","citations":[{"label":"1281 Ass","year":1281}],"when":{"timespans":[{"start":{"in":"1281"},"end":{"in":"1281"}}]}},{"toponym":"Wynterburn' Basset","citations":[{"label":"1249 Ass","year":1249}],"when":{"timespans":[{"start":{"in":"1249"},"end":{"in":"1249"}}]}},{"toponym":"Monketon","citations":[{"label":"1348 Cor","year":1348}],"when":{"timespans":[{"start":{"in":"1348"},"end":{"in":"1348"}}]}},{"toponym":"Mounkton","citations":[{"label":"1544 SR","year":1544}],"when":{"timespans":[{"start":{"in":"1544"},"end":{"in":"1544"}}]}},{"toponym":"Monkton","citations":[{"label":"1571 SR","year":1571}],"when":{"timespans":[{"start":{"in":"1571"},"end":{"in":"1571"}}]}}],"types":[{"identifier":"http://vocab.getty.edu/aat/300232418","label":"administrative division","sourceLabels":[{"label":"township","lang":"en"}]}],"geometry":{"type":"GeometryCollection","geometries":[{"type":"Point","coordinates":[-1.85194,51.4727],"citations":[{"label":"GeoNames, gazetteer record geonames:2633796"}]},{"type":"Point","coordinates":[-1.848819266795167,51.4688833732494],"citations":[{"label":"Unlock (EDINA) gazetteer, gazetteer record unlock:11324271"}]},{"type":"Point","coordinates":[-1.85018,51.4784],"citations":[{"label":"Key to English Place-Names (KEPN), gazetteer record 7403"}]}]},"when":{"timespans":[{"start":{"in":"0950"},"end":{"in":"1571"}}]},"links":[{"type":"closeMatch","identifier":"https://sws.geonames.org/2633796/"}],"relations":[{"relationType":"gvp:broaderPartitive","relationTo":"http://placenames.org.uk/id/placename/16/010669","label":"within Winterbourne Bassett and Monkton"}]}]}