{"@context":"https://raw.githubusercontent.com/LinkedPasts/linked-places-format/main/linkedplaces-context-v1.1.jsonld","type":"FeatureCollection","license":"Digitisation of English Placenames MADS data is licensed to Jisc by the English Place Names Society and released under a Creative Commons Attribution-NonCommercial 4.0 International License.","note":"LPF v1.3, lossy; derived from the PLATO record; plato_commit=ca0afadabec1e23a145c0b03df77e8f151f79832","features":[{"@id":"http://placenames.org.uk/id/placename/16/010984","type":"Feature","properties":{"title":"Charlton","ccodes":["GB"],"fclasses":["A","P"]},"names":[{"toponym":"Charlton","lang":"en","citations":[{"label":"English Place-Name Society survey, volume 16: Wiltshire"}]},{"toponym":"Cherlentona","citations":[{"label":"t. Hy 2 BM","year":1154}],"when":{"timespans":[{"start":{"earliest":"1154","latest":"1189"},"end":{"earliest":"1154","latest":"1189"}}]}},{"toponym":"Cherlinton","citations":[{"label":"1198 Abbr","year":1198}],"when":{"timespans":[{"start":{"in":"1198"},"end":{"in":"1198"}}]}},{"toponym":"Cherleton","citations":[{"label":"1198–1332, recurring Abbr","year":1198},{"label":"1198–1332, recurring SR"},{"label":"1198 Abbr","year":1198},{"label":"1332 SR","year":1332}],"when":{"timespans":[{"start":{"in":"1198"},"end":{"in":"1332"}},{"start":{"in":"1198"},"end":{"in":"1198"}},{"start":{"in":"1332"},"end":{"in":"1332"}}]}},{"toponym":"Cherleton juxta Upavene","citations":[{"label":"1325 FF","year":1325}],"when":{"timespans":[{"start":{"in":"1325"},"end":{"in":"1325"}}]}},{"toponym":"Churleton next Upavon","citations":[{"label":"1302 Ipm","year":1302}],"when":{"timespans":[{"start":{"in":"1302"},"end":{"in":"1302"}}]}},{"toponym":"Charleton by Uphaven","citations":[{"label":"1368 Cl","year":1368}],"when":{"timespans":[{"start":{"in":"1368"},"end":{"in":"1368"}}]}},{"toponym":"Chorleton","citations":[{"label":"1559 Recov","year":1559}],"when":{"timespans":[{"start":{"in":"1559"},"end":{"in":"1559"}}]}}],"types":[{"identifier":"http://vocab.getty.edu/aat/300232418","label":"administrative division","sourceLabels":[{"label":"township","lang":"en"}]}],"geometry":{"type":"Point","coordinates":[-1.83639,51.3075],"citations":[{"label":"Key to English Place-Names (KEPN), gazetteer record 7415"}]},"when":{"timespans":[{"start":{"in":"1154"},"end":{"in":"1559"}}]},"relations":[{"relationType":"gvp:broaderPartitive","relationTo":"http://placenames.org.uk/id/placename/16/010983","label":"within Charlton"}]}]}