{"@context":"https://raw.githubusercontent.com/LinkedPasts/linked-places-format/main/linkedplaces-context-v1.1.jsonld","type":"FeatureCollection","license":"Digitisation of English Placenames MADS data is licensed to Jisc by the English Place Names Society and released under a Creative Commons Attribution-NonCommercial 4.0 International License.","note":"LPF v1.3, lossy; derived from the PLATO record; plato_commit=ca0afadabec1e23a145c0b03df77e8f151f79832","features":[{"@id":"http://placenames.org.uk/id/placename/16/011121","type":"Feature","properties":{"title":"Stanton St Bernard","ccodes":["GB"],"fclasses":["A","P"]},"names":[{"toponym":"Stanton St Bernard","lang":"en","citations":[{"label":"English Place-Name Society survey, volume 16: Wiltshire"}]},{"toponym":"Stantun","citations":[{"label":"903 BCS","year":903}],"when":{"timespans":[{"start":{"in":"0903"},"end":{"in":"0903"}}]}},{"toponym":"(æt) Stantune","citations":[{"label":"957 BCS","year":957}],"when":{"timespans":[{"start":{"in":"0957"},"end":{"in":"0957"}}]}},{"toponym":"Stantone","citations":[{"label":"1086 DB","year":1086},{"label":"1268 Ass","year":1268}],"when":{"timespans":[{"start":{"in":"1086"},"end":{"in":"1086"}},{"start":{"in":"1268"},"end":{"in":"1268"}}]}},{"toponym":"Stauntone","citations":[{"label":"1275 RH","year":1275}],"when":{"timespans":[{"start":{"in":"1275"},"end":{"in":"1275"}}]}},{"toponym":"Staunton Fits Herbard","citations":[{"label":"1402 FA","year":1402}],"when":{"timespans":[{"start":{"in":"1402"},"end":{"in":"1402"}}]}},{"toponym":"Staunton Barnarde","citations":[{"label":"1553 Phillipps","year":1553}],"when":{"timespans":[{"start":{"in":"1553"},"end":{"in":"1553"}}]}},{"toponym":"Stanton Barnard","citations":[{"label":"1572 FF","year":1572}],"when":{"timespans":[{"start":{"in":"1572"},"end":{"in":"1572"}}]}}],"types":[{"identifier":"http://vocab.getty.edu/aat/300232418","label":"administrative division","sourceLabels":[{"label":"township","lang":"en"}]}],"geometry":{"type":"GeometryCollection","geometries":[{"type":"Point","coordinates":[-1.863539050933937,51.36098967511148],"citations":[{"label":"Unlock (EDINA) gazetteer, gazetteer record unlock:11291182"}]},{"type":"Point","coordinates":[-1.86493,51.3615],"citations":[{"label":"Key to English Place-Names (KEPN), gazetteer record 7423"}]}]},"when":{"timespans":[{"start":{"in":"0903"},"end":{"in":"1572"}}]},"relations":[{"relationType":"gvp:broaderPartitive","relationTo":"http://placenames.org.uk/id/placename/16/011120","label":"within Stanton St Bernard"}]}]}