{"@context":"https://raw.githubusercontent.com/LinkedPasts/linked-places-format/main/linkedplaces-context-v1.1.jsonld","type":"FeatureCollection","license":"Digitisation of English Placenames MADS data is licensed to Jisc by the English Place Names Society and released under a Creative Commons Attribution-NonCommercial 4.0 International License.","note":"LPF v1.3, lossy; derived from the PLATO record; plato_commit=ca0afadabec1e23a145c0b03df77e8f151f79832","features":[{"@id":"http://placenames.org.uk/id/placename/16/012788","type":"Feature","properties":{"title":"Wilsford","ccodes":["GB"],"fclasses":["A","P"]},"names":[{"toponym":"Wilsford","lang":"en","citations":[{"label":"English Place-Name Society survey, volume 16: Wiltshire"}]}],"types":[{"identifier":"http://vocab.getty.edu/aat/300232418","label":"administrative division","sourceLabels":[{"label":"parish","lang":"en"}]}],"geometry":{"type":"GeometryCollection","geometries":[{"type":"Point","coordinates":[-1.806950336691058,51.15407355300393],"citations":[{"label":"Unlock (EDINA) gazetteer, gazetteer record unlock:11323413"}]},{"type":"Point","coordinates":[-1.80834,51.1546],"citations":[{"label":"Key to English Place-Names (KEPN), gazetteer record 7465"}]}]},"relations":[{"relationType":"gvp:broaderPartitive","relationTo":"http://placenames.org.uk/id/placename/16/012761","label":"within Underditch Hundred"}]}]}