{"@context":"https://raw.githubusercontent.com/LinkedPasts/linked-places-format/main/linkedplaces-context-v1.1.jsonld","type":"FeatureCollection","license":"Digitisation of English Placenames MADS data is licensed to Jisc by the English Place Names Society and released under a Creative Commons Attribution-NonCommercial 4.0 International License.","note":"LPF v1.3, lossy; derived from the PLATO record; plato_commit=ca0afadabec1e23a145c0b03df77e8f151f79832","features":[{"@id":"https://w3id.org/whg-epns/16/012976","type":"Feature","properties":{"title":"West Dean","ccodes":["GB"],"fclasses":["A","P"]},"names":[{"toponym":"West Dean","lang":"en","citations":[{"label":"English Place-Name Society survey, volume 16: Wiltshire"}]},{"toponym":"(æt) Deone","citations":[{"label":"c. 880 BCS","year":870},{"label":"1275 RH","year":1275},{"label":"1279 Ass","year":1279},{"label":"1282 Ipm","year":1282},{"label":"1324 FA","year":1324},{"label":"1328 FF","year":1328},{"label":"1332 SR","year":1332}],"when":{"timespans":[{"start":{"earliest":"0870","latest":"0890"},"end":{"earliest":"0870","latest":"0890"}},{"start":{"in":"1275"},"end":{"in":"1275"}},{"start":{"in":"1279"},"end":{"in":"1279"}},{"start":{"in":"1282"},"end":{"in":"1282"}},{"start":{"in":"1324"},"end":{"in":"1324"}},{"start":{"in":"1328"},"end":{"in":"1328"}},{"start":{"in":"1332"},"end":{"in":"1332"}}]}},{"toponym":"Deon","citations":[{"label":"1341 NI","year":1341}],"when":{"timespans":[{"start":{"in":"1341"},"end":{"in":"1341"}}]}},{"toponym":"Westdeone","citations":[{"label":"1345 Ipm","year":1345}],"when":{"timespans":[{"start":{"in":"1345"},"end":{"in":"1345"}},{"start":{"in":"1351"},"end":{"in":"1351"}}]}},{"toponym":"Duene","citations":[{"label":"1086 DB","year":1086},{"label":"1315 Ipm","year":1315}],"when":{"timespans":[{"start":{"in":"1086"},"end":{"in":"1086"}},{"start":{"in":"1315"},"end":{"in":"1315"}}]}},{"toponym":"West Duene","citations":[{"label":"1319 Inq aqd","year":1319}],"when":{"timespans":[{"start":{"in":"1319"},"end":{"in":"1319"}}]}},{"toponym":"Westduene","citations":[{"label":"1324 Pat","year":1324}],"when":{"timespans":[{"start":{"in":"1324"},"end":{"in":"1324"}}]}},{"toponym":"Dune","citations":[{"label":"1242 Fees","year":1242},{"label":"1263 Ipm","year":1263},{"label":"1291 Tax","year":1291},{"label":"1316 FA","year":1316}],"when":{"timespans":[{"start":{"in":"1242"},"end":{"in":"1242"}},{"start":{"in":"1263"},"end":{"in":"1263"}},{"start":{"in":"1291"},"end":{"in":"1291"}},{"start":{"in":"1316"},"end":{"in":"1316"}}]}},{"toponym":"Westdune","citations":[{"label":"1270 Ipm","year":1270}],"when":{"timespans":[{"start":{"in":"1270"},"end":{"in":"1270"}}]}},{"toponym":"Dene","citations":[{"label":"1275 RH","year":1275},{"label":"1282 Ipm","year":1282}],"when":{"timespans":[{"start":{"in":"1275"},"end":{"in":"1275"}},{"start":{"in":"1282"},"end":{"in":"1282"}}]}},{"toponym":"Westden","citations":[{"label":"1275 Cl","year":1275}],"when":{"timespans":[{"start":{"in":"1275"},"end":{"in":"1275"}}]}},{"toponym":"Westdene","citations":[{"label":"1279 Ass","year":1279}],"when":{"timespans":[{"start":{"in":"1279"},"end":{"in":"1279"}}]}},{"toponym":"Westdeene","citations":[{"label":"1310 Ipm","year":1310}],"when":{"timespans":[{"start":{"in":"1310"},"end":{"in":"1310"}}]}},{"toponym":"Westedene","citations":[{"label":"1401 IpmR","year":1401}],"when":{"timespans":[{"start":{"in":"1401"},"end":{"in":"1401"}}]}},{"toponym":"Deene","citations":[{"label":"1467 Pat","year":1467}],"when":{"timespans":[{"start":{"in":"1467"},"end":{"in":"1467"}}]}},{"toponym":"Dean","citations":[{"label":"1547 SR","year":1547}],"when":{"timespans":[{"start":{"in":"1547"},"end":{"in":"1547"}}]}},{"toponym":"Doene","citations":[{"label":"1289 Ass","year":1289},{"label":"1428 FA","year":1428}],"when":{"timespans":[{"start":{"in":"1289"},"end":{"in":"1289"}},{"start":{"in":"1428"},"end":{"in":"1428"}}]}},{"toponym":"Westdoene","citations":[{"label":"1297 Pat","year":1297},{"label":"1327 Ass","year":1327}],"when":{"timespans":[{"start":{"in":"1297"},"end":{"in":"1297"}},{"start":{"in":"1327"},"end":{"in":"1327"}}]}}],"types":[{"identifier":"http://vocab.getty.edu/aat/300232418","label":"administrative division","sourceLabels":[{"label":"township","lang":"en"}]}],"geometry":{"type":"GeometryCollection","geometries":[{"type":"Point","coordinates":[-1.63507,51.04264],"citations":[{"label":"GeoNames, gazetteer record geonames:2634456"}]},{"type":"Point","coordinates":[-1.636201416966794,51.04574917992412],"citations":[{"label":"Unlock (EDINA) gazetteer, gazetteer record unlock:11316620"}]},{"type":"Point","coordinates":[-1.6376,51.0463],"citations":[{"label":"Key to English Place-Names (KEPN), gazetteer record 7476"}]}]},"when":{"timespans":[{"start":{"in":"0870"},"end":{"in":"1547"}}]},"links":[{"type":"closeMatch","identifier":"https://sws.geonames.org/2634456/"}],"relations":[{"relationType":"gvp:broaderPartitive","relationTo":"https://w3id.org/whg-epns/16/012975","label":"within West Dean"}]}]}