{"@context":"https://raw.githubusercontent.com/LinkedPasts/linked-places-format/main/linkedplaces-context-v1.1.jsonld","type":"FeatureCollection","license":"Digitisation of English Placenames MADS data is licensed to Jisc by the English Place Names Society and released under a Creative Commons Attribution-NonCommercial 4.0 International License.","note":"LPF v1.3, lossy; derived from the PLATO record; plato_commit=fa0d247ccc0263f8f19c8d7cdcd163df96935d1e","features":[{"@id":"https://w3id.org/whg-epns/16/013195","type":"Feature","properties":{"title":"Plaitford","ccodes":["GB"],"fclasses":["A","P"]},"names":[{"toponym":"Plaitford","lang":"en","citations":[{"label":"English Place-Name Society survey, volume 16: Wiltshire"}]},{"toponym":"Pleiteford","citations":[{"label":"1086 DB","year":1086},{"label":"1391 AD","year":1391}],"when":{"timespans":[{"start":{"in":"1086"},"end":{"in":"1086"}},{"start":{"in":"1391"},"end":{"in":"1391"}}]}},{"toponym":"Pleitesford","citations":[{"label":"AD"}]},{"toponym":"Pleyteford","citations":[{"label":"For","year":1263},{"label":"Cl"},{"label":"1263 For","year":1263},{"label":"1348 Cl","year":1348}],"when":{"timespans":[{"start":{"in":"1263"},"end":{"in":"1348"}},{"start":{"in":"1263"},"end":{"in":"1263"}},{"start":{"in":"1348"},"end":{"in":"1348"}}]}},{"toponym":"Pleytford","citations":[{"label":"1289 Ass","year":1289}],"when":{"timespans":[{"start":{"in":"1289"},"end":{"in":"1289"}}]}},{"toponym":"Playteford","citations":[{"label":"1275 RH","year":1275},{"label":"Ass","year":1289},{"label":"Ipm"},{"label":"1289 Ass","year":1289},{"label":"1495 Ipm","year":1495}],"when":{"timespans":[{"start":{"in":"1275"},"end":{"in":"1275"}},{"start":{"in":"1289"},"end":{"in":"1495"}},{"start":{"in":"1289"},"end":{"in":"1289"}},{"start":{"in":"1495"},"end":{"in":"1495"}}]}},{"toponym":"Playtfourth","citations":[{"label":"1484 Pat","year":1484}],"when":{"timespans":[{"start":{"in":"1484"},"end":{"in":"1484"}}]}},{"toponym":"Pleteford","citations":[{"label":"1333 Ipm","year":1333},{"label":"1338 GDR","year":1338}],"when":{"timespans":[{"start":{"in":"1333"},"end":{"in":"1333"}},{"start":{"in":"1338"},"end":{"in":"1338"}}]}},{"toponym":"Pledeford","citations":[{"label":"1338 Pat","year":1338}],"when":{"timespans":[{"start":{"in":"1338"},"end":{"in":"1338"}}]}},{"toponym":"Platford","citations":[{"label":"1610 Speed","year":1610},{"label":"1671 For","year":1671},{"label":"1695 Gough","year":1695}],"when":{"timespans":[{"start":{"in":"1610"},"end":{"in":"1610"}},{"start":{"in":"1671"},"end":{"in":"1671"}},{"start":{"in":"1695"},"end":{"in":"1695"}}]}}],"types":[{"identifier":"http://vocab.getty.edu/aat/300232418","label":"administrative division","sourceLabels":[{"label":"township","lang":"en"}]}],"geometry":{"type":"GeometryCollection","geometries":[{"type":"Point","coordinates":[-1.6,50.96667],"citations":[{"label":"GeoNames, gazetteer record geonames:2640231"}]},{"type":"Point","coordinates":[-1.608275378407426,50.9737124584688],"citations":[{"label":"Unlock (EDINA) gazetteer, gazetteer record unlock:11246287"}]},{"type":"Point","coordinates":[-1.59544,50.9742],"citations":[{"label":"Key to English Place-Names (KEPN), gazetteer record 7475"}]}]},"when":{"timespans":[{"start":{"in":"1086"},"end":{"in":"1695"}}]},"links":[{"type":"closeMatch","identifier":"https://sws.geonames.org/2640231/"}],"relations":[{"relationType":"gvp:broaderPartitive","relationTo":"https://w3id.org/whg-epns/16/013194","label":"within Plaitford"}]}]}