{"@context":"https://raw.githubusercontent.com/LinkedPasts/linked-places-format/main/linkedplaces-context-v1.1.jsonld","type":"FeatureCollection","license":"Digitisation of English Placenames MADS data is licensed to Jisc by the English Place Names Society and released under a Creative Commons Attribution-NonCommercial 4.0 International License.","note":"LPF v1.3, lossy; derived from the PLATO record; plato_commit=ca0afadabec1e23a145c0b03df77e8f151f79832","features":[{"@id":"https://w3id.org/whg-epns/16/013145","type":"Feature","properties":{"title":"Laverstock","ccodes":["GB"],"fclasses":["A","P"]},"names":[{"toponym":"Laverstock","lang":"en","citations":[{"label":"English Place-Name Society survey, volume 16: Wiltshire"}]},{"toponym":"Lavvrecestoches, Lavertestoche","citations":[{"label":"1086 DB","year":1086}],"when":{"timespans":[{"start":{"in":"1086"},"end":{"in":"1086"}}]}},{"toponym":"Laverkstok'","citations":[{"label":"1198 Fees","year":1198}],"when":{"timespans":[{"start":{"in":"1198"},"end":{"in":"1198"}}]}},{"toponym":"Laverekestoke","citations":[{"label":"1211 RBE","year":1211}],"when":{"timespans":[{"start":{"in":"1211"},"end":{"in":"1211"}}]}},{"toponym":"Laverkestok","citations":[{"label":"1221 Pat","year":1221},{"label":"1236 Fees","year":1236},{"label":"1249 Ass","year":1249},{"label":"1250 Ipm","year":1250}],"when":{"timespans":[{"start":{"in":"1221"},"end":{"in":"1221"}},{"start":{"in":"1236"},"end":{"in":"1236"}},{"start":{"in":"1242"},"end":{"in":"1242"}},{"start":{"in":"1249"},"end":{"in":"1249"}},{"start":{"in":"1250"},"end":{"in":"1250"}}]}},{"toponym":"Laverstok","citations":[{"label":"1255 RH","year":1255},{"label":"1316 FA","year":1316}],"when":{"timespans":[{"start":{"in":"1255"},"end":{"in":"1255"}},{"start":{"in":"1316"},"end":{"in":"1316"}}]}},{"toponym":"Larkestok","citations":[{"label":"1310 FF","year":1310}],"when":{"timespans":[{"start":{"in":"1310"},"end":{"in":"1310"}}]}},{"toponym":"Larkestok juxta Sar'","citations":[{"label":"1311 Orig","year":1311}],"when":{"timespans":[{"start":{"in":"1311"},"end":{"in":"1311"}}]}},{"toponym":"Laverstocke al. Larstocke","citations":[{"label":"1634 WIpm","year":1634}],"when":{"timespans":[{"start":{"in":"1634"},"end":{"in":"1634"}}]}},{"toponym":"Laystock","citations":[{"label":"1675 Ogilby","year":1675}],"when":{"timespans":[{"start":{"in":"1675"},"end":{"in":"1675"}}]}}],"types":[{"identifier":"http://vocab.getty.edu/aat/300232418","label":"administrative division","sourceLabels":[{"label":"township","lang":"en"}]}],"geometry":{"type":"GeometryCollection","geometries":[{"type":"Point","coordinates":[-1.77303,51.08717],"citations":[{"label":"GeoNames, gazetteer record geonames:7296282"}]},{"type":"Point","coordinates":[-1.778737466152693,51.07308552608397],"citations":[{"label":"Unlock (EDINA) gazetteer, gazetteer record unlock:11192434"}]},{"type":"Point","coordinates":[-1.78013,51.0736],"citations":[{"label":"Key to English Place-Names (KEPN), gazetteer record 7472"}]}]},"when":{"timespans":[{"start":{"in":"1086"},"end":{"in":"1675"}}]},"links":[{"type":"closeMatch","identifier":"https://sws.geonames.org/7296282/"}],"relations":[{"relationType":"gvp:broaderPartitive","relationTo":"https://w3id.org/whg-epns/16/013144","label":"within Laverstock"}]}]}