{"@context":"https://raw.githubusercontent.com/LinkedPasts/linked-places-format/main/linkedplaces-context-v1.1.jsonld","type":"FeatureCollection","license":"Digitisation of English Placenames MADS data is licensed to Jisc by the English Place Names Society and released under a Creative Commons Attribution-NonCommercial 4.0 International License.","note":"LPF v1.3, lossy; derived from the PLATO record; plato_commit=fa0d247ccc0263f8f19c8d7cdcd163df96935d1e","features":[{"@id":"https://w3id.org/whg-epns/16/013358","type":"Feature","properties":{"title":"Whiteparish","ccodes":["GB"],"fclasses":["A","P"]},"names":[{"toponym":"Whiteparish","lang":"en","citations":[{"label":"English Place-Name Society survey, volume 16: Wiltshire"}]},{"toponym":"la Whytechyrche","citations":[{"label":"1278 Ass","year":1278}],"when":{"timespans":[{"start":{"in":"1278"},"end":{"in":"1278"}}]}},{"toponym":"Wytechirche","citations":[{"label":"1281 Ass","year":1281}],"when":{"timespans":[{"start":{"in":"1281"},"end":{"in":"1281"}}]}},{"toponym":"Whitchirche","citations":[{"label":"1289 FF","year":1289}],"when":{"timespans":[{"start":{"in":"1289"},"end":{"in":"1289"}}]}},{"toponym":"Whytechirche, Whytcherche","citations":[{"label":"1289 Ass","year":1289}],"when":{"timespans":[{"start":{"in":"1289"},"end":{"in":"1289"}}]}},{"toponym":"Whyteparosshe","citations":[{"label":"1289 Ass","year":1289}],"when":{"timespans":[{"start":{"in":"1289"},"end":{"in":"1289"}}]}},{"toponym":"la Whiteparosse","citations":[{"label":"1301 FF","year":1301}],"when":{"timespans":[{"start":{"in":"1301"},"end":{"in":"1301"}}]}},{"toponym":"la Whiteperesshe","citations":[{"label":"1305 Ass","year":1305}],"when":{"timespans":[{"start":{"in":"1305"},"end":{"in":"1305"}}]}},{"toponym":"la Whyteparyshe","citations":[{"label":"t. Ed 2 For","year":1307}],"when":{"timespans":[{"start":{"earliest":"1307","latest":"1327"},"end":{"earliest":"1307","latest":"1327"}}]}},{"toponym":"la Whiteparisshe","citations":[{"label":"1324 Pat","year":1324}],"when":{"timespans":[{"start":{"in":"1324"},"end":{"in":"1324"}}]}},{"toponym":"Whiteparys","citations":[{"label":"1359 Ipm","year":1359}],"when":{"timespans":[{"start":{"in":"1359"},"end":{"in":"1359"}}]}},{"toponym":"Whiteparoch","citations":[{"label":"1414 Pat","year":1414}],"when":{"timespans":[{"start":{"in":"1414"},"end":{"in":"1414"}}]}},{"toponym":"Whyte Perysshe","citations":[{"label":"1553 WM","year":1553}],"when":{"timespans":[{"start":{"in":"1553"},"end":{"in":"1553"}}]}},{"toponym":"Album Monasterium","citations":[{"label":"1298 Sarum","year":1298}],"when":{"timespans":[{"start":{"in":"1298"},"end":{"in":"1298"}}]}},{"toponym":"in Albo monasterio","citations":[{"label":"1428 FA","year":1428}],"when":{"timespans":[{"start":{"in":"1428"},"end":{"in":"1428"}}]}},{"toponym":"Whitparishe","citations":[{"label":"t. Eliz WM","year":1558}],"when":{"timespans":[{"start":{"earliest":"1558","latest":"1603"},"end":{"earliest":"1558","latest":"1603"}}]}}],"types":[{"identifier":"http://vocab.getty.edu/aat/300232418","label":"administrative division","sourceLabels":[{"label":"township","lang":"en"}]}],"geometry":{"type":"GeometryCollection","geometries":[{"type":"Point","coordinates":[-1.64855,51.01041],"citations":[{"label":"GeoNames, gazetteer record geonames:2634065"}]},{"type":"Point","coordinates":[-1.650738183465784,51.0098204385628],"citations":[{"label":"Unlock (EDINA) gazetteer, gazetteer record unlock:11321720"}]},{"type":"Point","coordinates":[-1.65214,51.0104],"citations":[{"label":"Key to English Place-Names (KEPN), gazetteer record 7485"}]}]},"when":{"timespans":[{"start":{"in":"1278"},"end":{"in":"1603"}}]},"links":[{"type":"closeMatch","identifier":"https://sws.geonames.org/2634065/"}],"relations":[{"relationType":"gvp:broaderPartitive","relationTo":"https://w3id.org/whg-epns/16/013357","label":"within Whiteparish"}]}]}