{"@context":"https://raw.githubusercontent.com/LinkedPasts/linked-places-format/main/linkedplaces-context-v1.1.jsonld","type":"FeatureCollection","license":"Digitisation of English Placenames MADS data is licensed to Jisc by the English Place Names Society and released under a Creative Commons Attribution-NonCommercial 4.0 International License.","note":"LPF v1.3, lossy; derived from the PLATO record; plato_commit=ca0afadabec1e23a145c0b03df77e8f151f79832","features":[{"@id":"http://placenames.org.uk/id/placename/16/013316","type":"Feature","properties":{"title":"Landford","ccodes":["GB"],"fclasses":["A","P"]},"names":[{"toponym":"Landford","lang":"en","citations":[{"label":"English Place-Name Society survey, volume 16: Wiltshire"}]},{"toponym":"Langeford","citations":[{"label":"1086 DB","year":1086},{"label":"1198 Fees","year":1198},{"label":"1257 Ipm","year":1257},{"label":"1327 SR","year":1327}],"when":{"timespans":[{"start":{"in":"1086"},"end":{"in":"1086"}},{"start":{"in":"1198"},"end":{"in":"1198"}},{"start":{"in":"1257"},"end":{"in":"1257"}},{"start":{"in":"1327"},"end":{"in":"1327"}},{"start":{"in":"1332"},"end":{"in":"1332"}}]}},{"toponym":"Laneford","citations":[{"label":"1242 Fees","year":1242},{"label":"1255–1439, recurring RH","year":1255},{"label":"1255–1439, recurring WM"},{"label":"1255 RH","year":1255},{"label":"1439 WM","year":1439}],"when":{"timespans":[{"start":{"in":"1242"},"end":{"in":"1242"}},{"start":{"in":"1255"},"end":{"in":"1439"}},{"start":{"in":"1255"},"end":{"in":"1255"}},{"start":{"in":"1439"},"end":{"in":"1439"}}]}},{"toponym":"Loneford","citations":[{"label":"1412 FA","year":1412}],"when":{"timespans":[{"start":{"in":"1412"},"end":{"in":"1412"}}]}},{"toponym":"Landeford","citations":[{"label":"1295 Pat","year":1295}],"when":{"timespans":[{"start":{"in":"1295"},"end":{"in":"1295"}}]}},{"toponym":"Lanteford","citations":[{"label":"1486-93 ECP","year":1486}],"when":{"timespans":[{"start":{"earliest":"1486","latest":"1493"},"end":{"earliest":"1486","latest":"1493"}}]}},{"toponym":"Landford","citations":[{"label":"1594 FF","year":1594}],"when":{"timespans":[{"start":{"in":"1594"},"end":{"in":"1594"}}]}},{"toponym":"Lanford","citations":[{"label":"1525 SR","year":1525},{"label":"1567 Recov","year":1567}],"when":{"timespans":[{"start":{"in":"1525"},"end":{"in":"1525"}},{"start":{"in":"1567"},"end":{"in":"1567"}}]}},{"toponym":"Landford alias Langford","citations":[{"label":"1676 Recov","year":1676}],"when":{"timespans":[{"start":{"in":"1676"},"end":{"in":"1676"}}]}}],"types":[{"identifier":"http://vocab.getty.edu/aat/300232418","label":"administrative division","sourceLabels":[{"label":"township","lang":"en"}]}],"geometry":{"type":"GeometryCollection","geometries":[{"type":"Point","coordinates":[-1.63545,50.96827],"citations":[{"label":"GeoNames, gazetteer record geonames:2644966"}]},{"type":"Point","coordinates":[-1.63676380536551,50.97380451617251],"citations":[{"label":"Unlock (EDINA) gazetteer, gazetteer record unlock:11190967"}]},{"type":"Point","coordinates":[-1.63823,50.9654],"citations":[{"label":"Key to English Place-Names (KEPN), gazetteer record 7483"}]}]},"when":{"timespans":[{"start":{"in":"1086"},"end":{"in":"1676"}}]},"links":[{"type":"closeMatch","identifier":"https://sws.geonames.org/2644966/"}],"relations":[{"relationType":"gvp:broaderPartitive","relationTo":"http://placenames.org.uk/id/placename/16/013315","label":"within Landford"}]}]}