{"@context":"https://raw.githubusercontent.com/LinkedPasts/linked-places-format/main/linkedplaces-context-v1.1.jsonld","type":"FeatureCollection","license":"Digitisation of English Placenames MADS data is licensed to Jisc by the English Place Names Society and released under a Creative Commons Attribution-NonCommercial 4.0 International License.","note":"LPF v1.3, lossy; derived from the PLATO record; plato_commit=ca0afadabec1e23a145c0b03df77e8f151f79832","features":[{"@id":"http://placenames.org.uk/id/placename/16/013577","type":"Feature","properties":{"title":"Downton","ccodes":["GB"],"fclasses":["A","P"]},"names":[{"toponym":"Downton","lang":"en","citations":[{"label":"English Place-Name Society survey, volume 16: Wiltshire"}]}],"types":[{"identifier":"http://vocab.getty.edu/aat/300232418","label":"administrative division","sourceLabels":[{"label":"parish","lang":"en"}]}],"geometry":{"type":"GeometryCollection","geometries":[{"type":"Point","coordinates":[-1.73333,51.0],"citations":[{"label":"GeoNames, gazetteer record geonames:2651020"}]},{"type":"Point","coordinates":[-1.73637251383343,50.99205842695696],"citations":[{"label":"Unlock (EDINA) gazetteer, gazetteer record unlock:11131480"}]},{"type":"Point","coordinates":[-1.73781,50.9836],"citations":[{"label":"Key to English Place-Names (KEPN), gazetteer record 7486"}]}]},"links":[{"type":"closeMatch","identifier":"https://sws.geonames.org/2651020/"}],"relations":[{"relationType":"gvp:broaderPartitive","relationTo":"http://placenames.org.uk/id/placename/16/013499","label":"within Downton Hundred"}]}]}