{"@context":"https://raw.githubusercontent.com/LinkedPasts/linked-places-format/main/linkedplaces-context-v1.1.jsonld","type":"FeatureCollection","license":"Digitisation of English Placenames MADS data is licensed to Jisc by the English Place Names Society and released under a Creative Commons Attribution-NonCommercial 4.0 International License.","note":"LPF v1.3, lossy; derived from the PLATO record; plato_commit=ca0afadabec1e23a145c0b03df77e8f151f79832","features":[{"@id":"https://w3id.org/whg-epns/16/013628","type":"Feature","properties":{"title":"Redlynch","ccodes":["GB"],"fclasses":["A","P"]},"names":[{"toponym":"Redlynch","lang":"en","citations":[{"label":"English Place-Name Society survey, volume 16: Wiltshire"}]}],"types":[{"identifier":"http://vocab.getty.edu/aat/300232418","label":"administrative division","sourceLabels":[{"label":"parish","lang":"en"}]}],"geometry":{"type":"GeometryCollection","geometries":[{"type":"Point","coordinates":[-1.71159,50.98728],"citations":[{"label":"GeoNames, gazetteer record geonames:2639537"}]},{"type":"Point","coordinates":[-1.707929064748907,50.98299746078361],"citations":[{"label":"Unlock (EDINA) gazetteer, gazetteer record unlock:11254199"}]},{"type":"Point","coordinates":[-1.718165,50.99046],"citations":[{"label":"Key to English Place-Names (KEPN), gazetteer record 238"}]}]},"links":[{"type":"closeMatch","identifier":"https://sws.geonames.org/2639537/"}],"relations":[{"relationType":"gvp:broaderPartitive","relationTo":"https://w3id.org/whg-epns/16/013499","label":"within Downton Hundred"}]}]}