{"@context":"https://raw.githubusercontent.com/LinkedPasts/linked-places-format/main/linkedplaces-context-v1.1.jsonld","type":"FeatureCollection","license":"Digitisation of English Placenames MADS data is licensed to Jisc by the English Place Names Society and released under a Creative Commons Attribution-NonCommercial 4.0 International License.","note":"LPF v1.3, lossy; derived from the PLATO record; plato_commit=ca0afadabec1e23a145c0b03df77e8f151f79832","features":[{"@id":"https://w3id.org/whg-epns/39/000017","type":"Feature","properties":{"title":"Holford Hundred","ccodes":["GB"],"fclasses":["A"]},"names":[{"toponym":"Holford Hundred","lang":"en","citations":[{"label":"English Place-Name Society survey, volume 39: Gloucestershire"}]},{"toponym":"Holiforde, Holeford(es) hd'","citations":[{"label":"1086 DB","year":1086}],"when":{"timespans":[{"start":{"in":"1086"},"end":{"in":"1086"}}]}},{"toponym":"Holevord","citations":[{"label":"12 WinchLB","year":1100}],"when":{"timespans":[{"start":{"earliest":"1100","latest":"1200"},"end":{"earliest":"1100","latest":"1200"}}]}},{"toponym":"Holef(f)ord (hdr')","citations":[{"label":"1169 P","year":1169},{"label":"1221 Ass","year":1221},{"label":"1223 Pat","year":1223},{"label":"1251 Cl","year":1251},{"label":"1274–1391, recurring RH","year":1274},{"label":"1274–1391, recurring Ipm"},{"label":"1274 RH","year":1274},{"label":"1391 Ipm","year":1391}],"when":{"timespans":[{"start":{"in":"1169"},"end":{"in":"1169"}},{"start":{"in":"1191"},"end":{"in":"1191"}},{"start":{"in":"1221"},"end":{"in":"1221"}},{"start":{"in":"1248"},"end":{"in":"1248"}},{"start":{"in":"1223"},"end":{"in":"1223"}},{"start":{"in":"1230"},"end":{"in":"1230"}},{"start":{"in":"1251"},"end":{"in":"1251"}},{"start":{"in":"1274"},"end":{"in":"1391"}},{"start":{"in":"1274"},"end":{"in":"1274"}},{"start":{"in":"1391"},"end":{"in":"1391"}}]}},{"toponym":"Oleford","citations":[{"label":"1220 Fees","year":1220}],"when":{"timespans":[{"start":{"in":"1220"},"end":{"in":"1220"}}]}},{"toponym":"Holford(e)","citations":[{"label":"1316 FA","year":1316},{"label":"1327 SR","year":1327},{"label":"1390–1568, recurring Ch","year":1390},{"label":"1390–1568, recurring Comm"},{"label":"1390 Ch","year":1390},{"label":"1568 Comm","year":1568}],"when":{"timespans":[{"start":{"in":"1316"},"end":{"in":"1316"}},{"start":{"in":"1327"},"end":{"in":"1327"}},{"start":{"in":"1390"},"end":{"in":"1568"}},{"start":{"in":"1390"},"end":{"in":"1390"}},{"start":{"in":"1568"},"end":{"in":"1568"}}]}}],"types":[{"identifier":"http://vocab.getty.edu/aat/300232418","label":"administrative division","sourceLabels":[{"label":"Domesday hundred","lang":"en"}]}],"geometry":null,"when":{"timespans":[{"start":{"in":"1086"},"end":{"in":"1568"}}]},"relations":[{"relationType":"gvp:broaderPartitive","relationTo":"https://w3id.org/whg-epns/39/000002","label":"within Kiftsgate Hundred"}]}]}