{"@context":"https://raw.githubusercontent.com/LinkedPasts/linked-places-format/main/linkedplaces-context-v1.1.jsonld","type":"FeatureCollection","license":"Digitisation of English Placenames MADS data is licensed to Jisc by the English Place Names Society and released under a Creative Commons Attribution-NonCommercial 4.0 International License.","note":"LPF v1.3, lossy; derived from the PLATO record; plato_commit=fa0d247ccc0263f8f19c8d7cdcd163df96935d1e","features":[{"@id":"https://w3id.org/whg-epns/39/000023","type":"Feature","properties":{"title":"Winchcomb Hundred","ccodes":["GB"],"fclasses":["A"]},"names":[{"toponym":"Winchcomb Hundred","lang":"en","citations":[{"label":"English Place-Name Society survey, volume 39: Gloucestershire"}]},{"toponym":"Burgvm de Wincelcvmbe cum toto Hund' ejusdem uillæ","citations":[{"label":"1086 DB","year":1086}],"when":{"timespans":[{"start":{"in":"1086"},"end":{"in":"1086"}}]}},{"toponym":"hundredo de Wynchecumba, Winchecumba","citations":[{"label":"WinchLB","year":1100},{"label":"12 WinchLB","year":1100}],"when":{"timespans":[{"start":{"in":"1100"},"end":{"in":"1300"}},{"start":{"earliest":"1100","latest":"1200"},"end":{"earliest":"1100","latest":"1200"}},{"start":{"earliest":"1200","latest":"1300"},"end":{"earliest":"1200","latest":"1300"}}]}},{"toponym":"hundredum ville de Winchecumbe","citations":[{"label":"1202 WinchLB","year":1202}],"when":{"timespans":[{"start":{"in":"1202"},"end":{"in":"1202"}}]}},{"toponym":"hundred' de Wynchecumbe, Winchecumbe","citations":[{"label":"1227 Cl","year":1227},{"label":"1251 Pat","year":1251}],"when":{"timespans":[{"start":{"in":"1227"},"end":{"in":"1227"}},{"start":{"in":"1233"},"end":{"in":"1233"}},{"start":{"in":"1251"},"end":{"in":"1251"}},{"start":{"in":"1402"},"end":{"in":"1402"}}]}},{"toponym":"hundr' de Winchelcumb","citations":[{"label":"1535 VE","year":1535}],"when":{"timespans":[{"start":{"in":"1535"},"end":{"in":"1535"}}]}}],"types":[{"identifier":"http://vocab.getty.edu/aat/300232418","label":"administrative division","sourceLabels":[{"label":"Domesday hundred","lang":"en"}]}],"geometry":null,"when":{"timespans":[{"start":{"in":"1086"},"end":{"in":"1535"}}]},"relations":[{"relationType":"gvp:broaderPartitive","relationTo":"https://w3id.org/whg-epns/39/000002","label":"within Kiftsgate Hundred"}]}]}