{"@context":"https://raw.githubusercontent.com/LinkedPasts/linked-places-format/main/linkedplaces-context-v1.1.jsonld","type":"FeatureCollection","license":"Digitisation of English Placenames MADS data is licensed to Jisc by the English Place Names Society and released under a Creative Commons Attribution-NonCommercial 4.0 International License.","note":"LPF v1.3, lossy; derived from the PLATO record; plato_commit=fa0d247ccc0263f8f19c8d7cdcd163df96935d1e","features":[{"@id":"https://w3id.org/whg-epns/39/000628","type":"Feature","properties":{"title":"Hawling","ccodes":["GB"],"fclasses":["A","P"]},"names":[{"toponym":"Hawling","lang":"en","citations":[{"label":"English Place-Name Society survey, volume 39: Gloucestershire"}]},{"toponym":"to halhagan, into Hallinga homme, to Heallinga weallan","citations":[{"label":"816 BCS","year":816}],"when":{"timespans":[{"start":{"in":"0816"},"end":{"in":"0816"}}]}},{"toponym":"Hallinga, Halling(e), Hallyng(e)","citations":[{"label":"c. 1050 WinchLB","year":1040},{"label":"1086 DB","year":1086},{"label":"WinchLB","year":1202},{"label":"1202-1464 WinchLB","year":1202},{"label":"1221 Ass","year":1221},{"label":"1227 FF","year":1227},{"label":"QW","year":1287},{"label":"Inq"},{"label":"1287 QW","year":1287},{"label":"1633 Inq","year":1633}],"when":{"timespans":[{"start":{"earliest":"1040","latest":"1060"},"end":{"earliest":"1040","latest":"1060"}},{"start":{"in":"1086"},"end":{"in":"1086"}},{"start":{"in":"1202"},"end":{"in":"1464"}},{"start":{"earliest":"1202","latest":"1464"},"end":{"earliest":"1202","latest":"1464"}},{"start":{"in":"1221"},"end":{"in":"1221"}},{"start":{"in":"1227"},"end":{"in":"1227"}},{"start":{"in":"1287"},"end":{"in":"1633"}},{"start":{"in":"1287"},"end":{"in":"1287"}},{"start":{"in":"1633"},"end":{"in":"1633"}}]}},{"toponym":"Hallinges, Hallynges","citations":[{"label":"WinchLB","year":1162},{"label":"c. 1162-1424 WinchLB","year":1162},{"label":"1174 France","year":1174},{"label":"1221 Ass","year":1221},{"label":"1252 Ch","year":1252},{"label":"1293 Episc","year":1293}],"when":{"timespans":[{"start":{"in":"1162"},"end":{"in":"1424"}},{"start":{"earliest":"1162","latest":"1424"},"end":{"earliest":"1162","latest":"1424"}},{"start":{"in":"1174"},"end":{"in":"1174"}},{"start":{"in":"1221"},"end":{"in":"1221"}},{"start":{"in":"1252"},"end":{"in":"1252"}},{"start":{"in":"1293"},"end":{"in":"1293"}}]}},{"toponym":"Hawling(e), Hawlyng(e)","citations":[{"label":"1535 VE","year":1535},{"label":"MinAcct","year":1540},{"label":"PR"},{"label":"1540 MinAcct","year":1540},{"label":"1688 PR","year":1688}],"when":{"timespans":[{"start":{"in":"1535"},"end":{"in":"1535"}},{"start":{"in":"1540"},"end":{"in":"1688"}},{"start":{"in":"1540"},"end":{"in":"1540"}},{"start":{"in":"1688"},"end":{"in":"1688"}}]}}],"types":[{"identifier":"http://vocab.getty.edu/aat/300232418","label":"administrative division","sourceLabels":[{"label":"township","lang":"en"}]}],"geometry":{"type":"GeometryCollection","geometries":[{"type":"Point","coordinates":[-1.90671,51.90561],"citations":[{"label":"GeoNames, gazetteer record geonames:2647280"}]},{"type":"Point","coordinates":[-1.912776811,51.9050705],"citations":[{"label":"English Place-Name Society survey (DEEP coordinates)"}]},{"type":"Point","coordinates":[-1.905498759945206,51.90956161704855],"citations":[{"label":"Unlock (EDINA) gazetteer, gazetteer record unlock:11167886"}]},{"type":"Point","coordinates":[-1.9069,51.91],"citations":[{"label":"Key to English Place-Names (KEPN), gazetteer record 6337"}]}]},"when":{"timespans":[{"start":{"in":"0816"},"end":{"in":"1688"}}]},"links":[{"type":"closeMatch","identifier":"https://sws.geonames.org/2647280/"}],"relations":[{"relationType":"gvp:broaderPartitive","relationTo":"https://w3id.org/whg-epns/39/000627","label":"within Hawling"}]}]}