{"@context":"https://raw.githubusercontent.com/LinkedPasts/linked-places-format/main/linkedplaces-context-v1.1.jsonld","type":"FeatureCollection","license":"Digitisation of English Placenames MADS data is licensed to Jisc by the English Place Names Society and released under a Creative Commons Attribution-NonCommercial 4.0 International License.","note":"LPF v1.3, lossy; derived from the PLATO record; plato_commit=ca0afadabec1e23a145c0b03df77e8f151f79832","features":[{"@id":"https://w3id.org/whg-epns/39/001642","type":"Feature","properties":{"title":"Wormington","ccodes":["GB"],"fclasses":["A","P"]},"names":[{"toponym":"Wormington","lang":"en","citations":[{"label":"English Place-Name Society survey, volume 39: Gloucestershire"}]}],"types":[{"identifier":"http://vocab.getty.edu/aat/300232418","label":"administrative division","sourceLabels":[{"label":"parish","lang":"en"}]}],"geometry":{"type":"GeometryCollection","geometries":[{"type":"Point","coordinates":[-1.94122,52.02636],"citations":[{"label":"GeoNames, gazetteer record geonames:2633539"}]},{"type":"Point","coordinates":[-1.941699731,52.02198175],"citations":[{"label":"English Place-Name Society survey (DEEP coordinates)"}]},{"type":"Point","coordinates":[-1.948982131108735,52.02648180068503],"citations":[{"label":"Unlock (EDINA) gazetteer, gazetteer record unlock:11327292"}]},{"type":"Point","coordinates":[-1.93581,52.0269],"citations":[{"label":"Key to English Place-Names (KEPN), gazetteer record 6347"}]}]},"links":[{"type":"closeMatch","identifier":"https://sws.geonames.org/2633539/"}],"relations":[{"relationType":"gvp:broaderPartitive","relationTo":"https://w3id.org/whg-epns/39/000002","label":"within Kiftsgate Hundred"}]}]}