{"@context":"https://raw.githubusercontent.com/LinkedPasts/linked-places-format/main/linkedplaces-context-v1.1.jsonld","type":"FeatureCollection","license":"Digitisation of English Placenames MADS data is licensed to Jisc by the English Place Names Society and released under a Creative Commons Attribution-NonCommercial 4.0 International License.","note":"LPF v1.3, lossy; derived from the PLATO record; plato_commit=ca0afadabec1e23a145c0b03df77e8f151f79832","features":[{"@id":"https://w3id.org/whg-epns/39/003680","type":"Feature","properties":{"title":"Leigh","ccodes":["GB"],"fclasses":["A","P"]},"names":[{"toponym":"Leigh","lang":"en","citations":[{"label":"English Place-Name Society survey, volume 39: Gloucestershire"}]},{"toponym":"Lalege","citations":[{"label":"1086 DB","year":1086}],"when":{"timespans":[{"start":{"in":"1086"},"end":{"in":"1086"}}]}},{"toponym":"la Leia, Leia, Leya, Leye","citations":[{"label":"c. 1210 GlR","year":1200},{"label":"1241 FF","year":1241},{"label":"1287 Ass","year":1287},{"label":"1503 Ipm","year":1503}],"when":{"timespans":[{"start":{"earliest":"1200","latest":"1220"},"end":{"earliest":"1200","latest":"1220"}},{"start":{"in":"1241"},"end":{"in":"1241"}},{"start":{"in":"1287"},"end":{"in":"1287"}},{"start":{"in":"1503"},"end":{"in":"1503"}}]}},{"toponym":"la Legh, Legh","citations":[{"label":"1248 Ass","year":1248},{"label":"1288 Cl","year":1288},{"label":"1378–1478, recurring Ass","year":1378},{"label":"1378–1478, recurring Pat"},{"label":"1378 Ass","year":1378},{"label":"1478 Pat","year":1478}],"when":{"timespans":[{"start":{"in":"1248"},"end":{"in":"1248"}},{"start":{"in":"1288"},"end":{"in":"1288"}},{"start":{"in":"1378"},"end":{"in":"1478"}},{"start":{"in":"1378"},"end":{"in":"1378"}},{"start":{"in":"1478"},"end":{"in":"1478"}}]}},{"toponym":"Leg","citations":[{"label":"c. 1260 GlR","year":1250}],"when":{"timespans":[{"start":{"earliest":"1250","latest":"1270"},"end":{"earliest":"1250","latest":"1270"}}]}},{"toponym":"ye Leygh, the Leygh, ye Leigh(e), the Leigh(e)","citations":[{"label":"1377 Talbot","year":1377},{"label":"1348–1830, recurring FF","year":1348},{"label":"1348–1830, recurring M"},{"label":"1348 FF","year":1348},{"label":"1830 M","year":1830}],"when":{"timespans":[{"start":{"in":"1377"},"end":{"in":"1377"}},{"start":{"in":"1348"},"end":{"in":"1830"}},{"start":{"in":"1348"},"end":{"in":"1348"}},{"start":{"in":"1830"},"end":{"in":"1830"}}]}},{"toponym":"(la) Lee","citations":[{"label":"1378 Ass","year":1378},{"label":"1379 Ipm","year":1379},{"label":"1437 IpmR","year":1437}],"when":{"timespans":[{"start":{"in":"1378"},"end":{"in":"1378"}},{"start":{"in":"1379"},"end":{"in":"1379"}},{"start":{"in":"1437"},"end":{"in":"1437"}}]}},{"toponym":"le Lye, the Lye","citations":[{"label":"1415 Cl","year":1415},{"label":"1453–1794, recurring FF","year":1453},{"label":"1453–1794, recurring PR"},{"label":"1453 FF","year":1453},{"label":"1794 PR","year":1794}],"when":{"timespans":[{"start":{"in":"1415"},"end":{"in":"1415"}},{"start":{"in":"1453"},"end":{"in":"1794"}},{"start":{"in":"1453"},"end":{"in":"1453"}},{"start":{"in":"1794"},"end":{"in":"1794"}}]}},{"toponym":"Ligh(e)","citations":[{"label":"1473 Pat","year":1473},{"label":"1560 FF","year":1560}],"when":{"timespans":[{"start":{"in":"1473"},"end":{"in":"1473"}},{"start":{"in":"1560"},"end":{"in":"1560"}}]}}],"types":[{"identifier":"http://vocab.getty.edu/aat/300232418","label":"administrative division","sourceLabels":[{"label":"township","lang":"en"}]}],"geometry":{"type":"GeometryCollection","geometries":[{"type":"Point","coordinates":[-2.18333,51.93333],"citations":[{"label":"GeoNames, gazetteer record geonames:2644662"}]},{"type":"Point","coordinates":[-2.189096433,51.93192655],"citations":[{"label":"English Place-Name Society survey (DEEP coordinates)"}]},{"type":"Point","coordinates":[-2.18321,51.9369],"citations":[{"label":"Key to English Place-Names (KEPN), gazetteer record 6370"}]}]},"when":{"timespans":[{"start":{"in":"1086"},"end":{"in":"1830"}}]},"links":[{"type":"closeMatch","identifier":"https://sws.geonames.org/2644662/"}],"relations":[{"relationType":"gvp:broaderPartitive","relationTo":"https://w3id.org/whg-epns/39/003679","label":"within Leigh"}]}]}