{"@context":"https://raw.githubusercontent.com/LinkedPasts/linked-places-format/main/linkedplaces-context-v1.1.jsonld","type":"FeatureCollection","license":"Digitisation of English Placenames MADS data is licensed to Jisc by the English Place Names Society and released under a Creative Commons Attribution-NonCommercial 4.0 International License.","note":"LPF v1.3, lossy; derived from the PLATO record; plato_commit=ca0afadabec1e23a145c0b03df77e8f151f79832","features":[{"@id":"http://placenames.org.uk/id/placename/39/004184","type":"Feature","properties":{"title":"Stoke Orchard","ccodes":["GB"],"fclasses":["A","P"]},"names":[{"toponym":"Stoke Orchard","lang":"en","citations":[{"label":"English Place-Name Society survey, volume 39: Gloucestershire"}]}],"types":[{"identifier":"http://vocab.getty.edu/aat/300232418","label":"administrative division","sourceLabels":[{"label":"parish","lang":"en"}]}],"geometry":{"type":"GeometryCollection","geometries":[{"type":"Point","coordinates":[-2.12115,51.95637],"citations":[{"label":"GeoNames, gazetteer record geonames:7298615"}]},{"type":"Point","coordinates":[-2.11641379,51.95000453],"citations":[{"label":"English Place-Name Society survey (DEEP coordinates)"}]},{"type":"Point","coordinates":[-2.109148889176021,51.95450819975711],"citations":[{"label":"Unlock (EDINA) gazetteer, gazetteer record unlock:11292765"}]},{"type":"Point","coordinates":[-2.11053,51.9549],"citations":[{"label":"Key to English Place-Names (KEPN), gazetteer record 6376"}]}]},"links":[{"type":"closeMatch","identifier":"https://sws.geonames.org/7298615/"}],"relations":[{"relationType":"gvp:broaderPartitive","relationTo":"http://placenames.org.uk/id/placename/39/003824","label":"within Cleeve Hundred"}]}]}