{"@context":"https://raw.githubusercontent.com/LinkedPasts/linked-places-format/main/linkedplaces-context-v1.1.jsonld","type":"FeatureCollection","license":"Digitisation of English Placenames MADS data is licensed to Jisc by the English Place Names Society and released under a Creative Commons Attribution-NonCommercial 4.0 International License.","note":"LPF v1.3, lossy; derived from the PLATO record; plato_commit=ca0afadabec1e23a145c0b03df77e8f151f79832","features":[{"@id":"https://w3id.org/whg-epns/39/004330","type":"Feature","properties":{"title":"Cheltenham Hundred","ccodes":["GB"],"fclasses":["A"]},"names":[{"toponym":"Cheltenham Hundred","lang":"en","citations":[{"label":"English Place-Name Society survey, volume 39: Gloucestershire"}]},{"toponym":"Cilte(n)ham, Cliteham hvnd'","citations":[{"label":"1086 DB","year":1086}],"when":{"timespans":[{"start":{"in":"1086"},"end":{"in":"1086"}}]}},{"toponym":"Chiltehamhundredum","citations":[{"label":"1178 P","year":1178}],"when":{"timespans":[{"start":{"in":"1178"},"end":{"in":"1178"}},{"start":{"in":"1185"},"end":{"in":"1185"}}]}},{"toponym":"hundredum de Chilteham","citations":[{"label":"1220 Fees","year":1220},{"label":"1221 Ass","year":1221},{"label":"1226 Pat","year":1226},{"label":"1274 RH","year":1274}],"when":{"timespans":[{"start":{"in":"1220"},"end":{"in":"1220"}},{"start":{"in":"1221"},"end":{"in":"1221"}},{"start":{"in":"1226"},"end":{"in":"1226"}},{"start":{"in":"1274"},"end":{"in":"1274"}}]}},{"toponym":"hundredum de Chiltham","citations":[{"label":"1221 Ass","year":1221},{"label":"1226-8 Fees","year":1226},{"label":"1248 Ass","year":1248}],"when":{"timespans":[{"start":{"in":"1221"},"end":{"in":"1221"}},{"start":{"earliest":"1226","latest":"1228"},"end":{"earliest":"1226","latest":"1228"}},{"start":{"in":"1248"},"end":{"in":"1248"}}]}},{"toponym":"hundredum de Chiltaham","citations":[{"label":"Hy 3 Misc","year":1216}],"when":{"timespans":[{"start":{"earliest":"1216","latest":"1272"},"end":{"earliest":"1216","latest":"1272"}}]}},{"toponym":"hundredum de Chiltenham, hundredum de Chyltenham","citations":[{"label":"1290 Pat","year":1290},{"label":"1303 FA","year":1303}],"when":{"timespans":[{"start":{"in":"1290"},"end":{"in":"1290"}},{"start":{"in":"1303"},"end":{"in":"1303"}},{"start":{"in":"1316"},"end":{"in":"1316"}}]}},{"toponym":"hundredum de Cheltenham","citations":[{"label":"1327 SR","year":1327},{"label":"1542 LP","year":1542},{"label":"1568 Comm","year":1568}],"when":{"timespans":[{"start":{"in":"1327"},"end":{"in":"1327"}},{"start":{"in":"1542"},"end":{"in":"1542"}},{"start":{"in":"1568"},"end":{"in":"1568"}}]}},{"toponym":"hundredum de Chelteham","citations":[{"label":"1328 Banco","year":1328}],"when":{"timespans":[{"start":{"in":"1328"},"end":{"in":"1328"}}]}},{"toponym":"hundredum de Cheltenam","citations":[{"label":"Hy 6 AddR","year":1422}],"when":{"timespans":[{"start":{"earliest":"1422","latest":"1471"},"end":{"earliest":"1422","latest":"1471"}}]}}],"types":[{"identifier":"http://vocab.getty.edu/aat/300232418","label":"administrative division","sourceLabels":[{"label":"hundred / wapentake","lang":"en"}]}],"geometry":null,"when":{"timespans":[{"start":{"in":"1086"},"end":{"in":"1568"}}]},"relations":[{"relationType":"gvp:broaderPartitive","relationTo":"https://w3id.org/whg-epns/39/000001","label":"within Gloucestershire"}]}]}