{"@context":"https://raw.githubusercontent.com/LinkedPasts/linked-places-format/main/linkedplaces-context-v1.1.jsonld","type":"FeatureCollection","license":"Digitisation of English Placenames MADS data is licensed to Jisc by the English Place Names Society and released under a Creative Commons Attribution-NonCommercial 4.0 International License.","note":"LPF v1.3, lossy; derived from the PLATO record; plato_commit=ca0afadabec1e23a145c0b03df77e8f151f79832","features":[{"@id":"http://placenames.org.uk/id/placename/39/005536","type":"Feature","properties":{"title":"Barnwood","ccodes":["GB"],"fclasses":["A","P"]},"names":[{"toponym":"Barnwood","lang":"en","citations":[{"label":"English Place-Name Society survey, volume 39: Gloucestershire"}]},{"toponym":"Berneuude","citations":[{"label":"1086 DB","year":1086}],"when":{"timespans":[{"start":{"in":"1086"},"end":{"in":"1086"}}]}},{"toponym":"Bernewode","citations":[{"label":"1164-79 Glouc","year":1164},{"label":"c. 1220 GlR","year":1210},{"label":"1263-8 Glouc","year":1263},{"label":"1287–1378, recurring Ass","year":1287},{"label":"1287–1378, recurring Works"},{"label":"1287 Ass","year":1287},{"label":"1378 Works","year":1378}],"when":{"timespans":[{"start":{"earliest":"1164","latest":"1179"},"end":{"earliest":"1164","latest":"1179"}},{"start":{"in":"1200"},"end":{"in":"1200"}},{"start":{"in":"1215"},"end":{"in":"1215"}},{"start":{"earliest":"1210","latest":"1230"},"end":{"earliest":"1210","latest":"1230"}},{"start":{"earliest":"1263","latest":"1268"},"end":{"earliest":"1263","latest":"1268"}},{"start":{"in":"1287"},"end":{"in":"1378"}},{"start":{"in":"1287"},"end":{"in":"1287"}},{"start":{"in":"1378"},"end":{"in":"1378"}}]}},{"toponym":"Bernwude, Bernwode","citations":[{"label":"1086-7 Glouc","year":1086},{"label":"1221 Ass","year":1221},{"label":"1220–1365, recurring GlR","year":1220},{"label":"1220–1365, recurring GlR"},{"label":"c. 1230 GlR","year":1220},{"label":"1365 GlR","year":1365}],"when":{"timespans":[{"start":{"earliest":"1086","latest":"1087"},"end":{"earliest":"1086","latest":"1087"}},{"start":{"in":"1221"},"end":{"in":"1221"}},{"start":{"in":"1220"},"end":{"in":"1365"}},{"start":{"earliest":"1220","latest":"1240"},"end":{"earliest":"1220","latest":"1240"}},{"start":{"in":"1235"},"end":{"in":"1235"}},{"start":{"earliest":"1260","latest":"1280"},"end":{"earliest":"1260","latest":"1280"}},{"start":{"in":"1365"},"end":{"in":"1365"}}]}},{"toponym":"Barn(e)wood","citations":[{"label":"1535 VE","year":1535},{"label":"1589 Dep","year":1589}],"when":{"timespans":[{"start":{"in":"1535"},"end":{"in":"1535"}},{"start":{"in":"1589"},"end":{"in":"1589"}},{"start":{"in":"1617"},"end":{"in":"1617"}}]}}],"types":[{"identifier":"http://vocab.getty.edu/aat/300232418","label":"administrative division","sourceLabels":[{"label":"township","lang":"en"}]}],"geometry":{"type":"GeometryCollection","geometries":[{"type":"Point","coordinates":[-2.20087,51.86393],"citations":[{"label":"GeoNames, gazetteer record geonames:6695204"}]},{"type":"Point","coordinates":[-2.217839837,51.85994155],"citations":[{"label":"English Place-Name Society survey (DEEP coordinates)"}]},{"type":"Point","coordinates":[-2.210599616075157,51.86445149843685],"citations":[{"label":"Unlock (EDINA) gazetteer, gazetteer record unlock:11070685"}]},{"type":"Point","coordinates":[-2.19744,51.8649],"citations":[{"label":"Key to English Place-Names (KEPN), gazetteer record 6384"}]}]},"when":{"timespans":[{"start":{"in":"1086"},"end":{"in":"1617"}}]},"links":[{"type":"closeMatch","identifier":"https://sws.geonames.org/6695204/"}],"relations":[{"relationType":"gvp:broaderPartitive","relationTo":"http://placenames.org.uk/id/placename/39/005535","label":"within Barnwood"}]}]}