{"@context":"https://raw.githubusercontent.com/LinkedPasts/linked-places-format/main/linkedplaces-context-v1.1.jsonld","type":"FeatureCollection","license":"Digitisation of English Placenames MADS data is licensed to Jisc by the English Place Names Society and released under a Creative Commons Attribution-NonCommercial 4.0 International License.","note":"LPF v1.3, lossy; derived from the PLATO record; plato_commit=fa0d247ccc0263f8f19c8d7cdcd163df96935d1e","features":[{"@id":"https://w3id.org/whg-epns/39/006913","type":"Feature","properties":{"title":"Longford","ccodes":["GB"],"fclasses":["A","P"]},"names":[{"toponym":"Longford","lang":"en","citations":[{"label":"English Place-Name Society survey, volume 39: Gloucestershire"}]}],"types":[{"identifier":"http://vocab.getty.edu/aat/300232418","label":"administrative division","sourceLabels":[{"label":"parish","lang":"en"}]}],"geometry":{"type":"GeometryCollection","geometries":[{"type":"Point","coordinates":[-2.24395,51.884],"citations":[{"label":"GeoNames, gazetteer record geonames:7295201"}]},{"type":"Point","coordinates":[-2.24698336,51.87786791],"citations":[{"label":"English Place-Name Society survey (DEEP coordinates)"}]},{"type":"Point","coordinates":[-2.23974319532637,51.88237963561821],"citations":[{"label":"Unlock (EDINA) gazetteer, gazetteer record unlock:11205932"}]},{"type":"Point","coordinates":[-2.22662,51.8918],"citations":[{"label":"Key to English Place-Names (KEPN), gazetteer record 6392"}]}]},"links":[{"type":"closeMatch","identifier":"https://sws.geonames.org/7295201/"}],"relations":[{"relationType":"gvp:broaderPartitive","relationTo":"https://w3id.org/whg-epns/39/005343","label":"within Upper Dudstone and King's Barton Hundred"}]}]}