{"@context":"https://raw.githubusercontent.com/LinkedPasts/linked-places-format/main/linkedplaces-context-v1.1.jsonld","type":"FeatureCollection","license":"Digitisation of English Placenames MADS data is licensed to Jisc by the English Place Names Society and released under a Creative Commons Attribution-NonCommercial 4.0 International License.","note":"LPF v1.3, lossy; derived from the PLATO record; plato_commit=ca0afadabec1e23a145c0b03df77e8f151f79832","features":[{"@id":"https://w3id.org/whg-epns/39/007070","type":"Feature","properties":{"title":"Sandhurst","ccodes":["GB"],"fclasses":["A","P"]},"names":[{"toponym":"Sandhurst","lang":"en","citations":[{"label":"English Place-Name Society survey, volume 39: Gloucestershire"}]},{"toponym":"Sanher","citations":[{"label":"1086 DB","year":1086}],"when":{"timespans":[{"start":{"in":"1086"},"end":{"in":"1086"}}]}},{"toponym":"Sandhurst(e)","citations":[{"label":"12 Glouc","year":1100},{"label":"1204 P","year":1204},{"label":"1211-13 Fees","year":1211},{"label":"c. 1220 GlR","year":1210},{"label":"c. 1228 GlCh","year":1218},{"label":"1236 Fees","year":1236},{"label":"1248–1616, recurring Ass","year":1248},{"label":"1248–1616, recurring Dep"},{"label":"1248 Ass","year":1248},{"label":"1616 Dep","year":1616}],"when":{"timespans":[{"start":{"earliest":"1100","latest":"1200"},"end":{"earliest":"1100","latest":"1200"}},{"start":{"in":"1204"},"end":{"in":"1204"}},{"start":{"earliest":"1211","latest":"1213"},"end":{"earliest":"1211","latest":"1213"}},{"start":{"in":"1220"},"end":{"in":"1220"}},{"start":{"earliest":"1210","latest":"1230"},"end":{"earliest":"1210","latest":"1230"}},{"start":{"earliest":"1218","latest":"1238"},"end":{"earliest":"1218","latest":"1238"}},{"start":{"in":"1236"},"end":{"in":"1236"}},{"start":{"in":"1248"},"end":{"in":"1616"}},{"start":{"in":"1248"},"end":{"in":"1248"}},{"start":{"in":"1616"},"end":{"in":"1616"}}]}},{"toponym":"Sandherst","citations":[{"label":"1167 P","year":1167},{"label":"1221 Ass","year":1221},{"label":"1513 GlR","year":1513}],"when":{"timespans":[{"start":{"in":"1167"},"end":{"in":"1167"}},{"start":{"in":"1190"},"end":{"in":"1190"}},{"start":{"in":"1221"},"end":{"in":"1221"}},{"start":{"in":"1513"},"end":{"in":"1513"}}]}},{"toponym":"Sandhirst(e), Sandhyrst(e)","citations":[{"label":"1248 Ass","year":1248},{"label":"1306 FF","year":1306}],"when":{"timespans":[{"start":{"in":"1248"},"end":{"in":"1248"}},{"start":{"in":"1306"},"end":{"in":"1306"}}]}},{"toponym":"Sondhurst(e)","citations":[{"label":"1263-84 Glouc","year":1263},{"label":"1287 Ass","year":1287},{"label":"1311 Ch","year":1311},{"label":"1326 GlR","year":1326}],"when":{"timespans":[{"start":{"earliest":"1263","latest":"1284"},"end":{"earliest":"1263","latest":"1284"}},{"start":{"in":"1265"},"end":{"in":"1265"}},{"start":{"in":"1287"},"end":{"in":"1287"}},{"start":{"in":"1311"},"end":{"in":"1311"}},{"start":{"in":"1326"},"end":{"in":"1326"}}]}},{"toponym":"Sonthurste","citations":[{"label":"1327 SR","year":1327}],"when":{"timespans":[{"start":{"in":"1327"},"end":{"in":"1327"}}]}},{"toponym":"Santhurst","citations":[{"label":"1535 VE","year":1535},{"label":"1589 Dep","year":1589}],"when":{"timespans":[{"start":{"in":"1535"},"end":{"in":"1535"}},{"start":{"in":"1589"},"end":{"in":"1589"}},{"start":{"in":"1616"},"end":{"in":"1616"}}]}},{"toponym":"Sawntehurst","citations":[{"label":"1540 AOMB","year":1540},{"label":"1542 LP","year":1542}],"when":{"timespans":[{"start":{"in":"1540"},"end":{"in":"1540"}},{"start":{"in":"1542"},"end":{"in":"1542"}}]}}],"types":[{"identifier":"http://vocab.getty.edu/aat/300232418","label":"administrative division","sourceLabels":[{"label":"township","lang":"en"}]}],"geometry":{"type":"GeometryCollection","geometries":[{"type":"Point","coordinates":[-2.2479,51.90666],"citations":[{"label":"GeoNames, gazetteer record geonames:7299917"}]},{"type":"Point","coordinates":[-2.261668256,51.90481196],"citations":[{"label":"English Place-Name Society survey (DEEP coordinates)"}]},{"type":"Point","coordinates":[-2.254425247548722,51.9093245783764],"citations":[{"label":"Unlock (EDINA) gazetteer, gazetteer record unlock:11277722"}]},{"type":"Point","coordinates":[-2.24125,51.9098],"citations":[{"label":"Key to English Place-Names (KEPN), gazetteer record 6394"}]}]},"when":{"timespans":[{"start":{"in":"1086"},"end":{"in":"1616"}}]},"links":[{"type":"closeMatch","identifier":"https://sws.geonames.org/7299917/"}],"relations":[{"relationType":"gvp:broaderPartitive","relationTo":"https://w3id.org/whg-epns/39/007069","label":"within Sandhurst"}]}]}