{"@context":"https://raw.githubusercontent.com/LinkedPasts/linked-places-format/main/linkedplaces-context-v1.1.jsonld","type":"FeatureCollection","license":"Digitisation of English Placenames MADS data is licensed to Jisc by the English Place Names Society and released under a Creative Commons Attribution-NonCommercial 4.0 International License.","note":"LPF v1.3, lossy; derived from the PLATO record; plato_commit=fa0d247ccc0263f8f19c8d7cdcd163df96935d1e","features":[{"@id":"https://w3id.org/whg-epns/39/007283","type":"Feature","properties":{"title":"Shurdington","ccodes":["GB"],"fclasses":["A","P"]},"names":[{"toponym":"Shurdington","lang":"en","citations":[{"label":"English Place-Name Society survey, volume 39: Gloucestershire"}]}],"types":[{"identifier":"http://vocab.getty.edu/aat/300232418","label":"administrative division","sourceLabels":[{"label":"parish","lang":"en"}]}],"geometry":{"type":"GeometryCollection","geometries":[{"type":"Point","coordinates":[-2.1206,51.86264],"citations":[{"label":"GeoNames, gazetteer record geonames:2637878"}]},{"type":"Point","coordinates":[-2.116181571,51.86008586],"citations":[{"label":"English Place-Name Society survey (DEEP coordinates)"}]},{"type":"Point","coordinates":[-2.123430633990281,51.85558327018573],"citations":[{"label":"Unlock (EDINA) gazetteer, gazetteer record unlock:11196973"}]},{"type":"Point","coordinates":[-2.11031,51.865],"citations":[{"label":"Key to English Place-Names (KEPN), gazetteer record 6395"}]}]},"links":[{"type":"closeMatch","identifier":"https://sws.geonames.org/2637878/"}],"relations":[{"relationType":"gvp:broaderPartitive","relationTo":"https://w3id.org/whg-epns/39/005343","label":"within Upper Dudstone and King's Barton Hundred"}]}]}