{"@context":"https://raw.githubusercontent.com/LinkedPasts/linked-places-format/main/linkedplaces-context-v1.1.jsonld","type":"FeatureCollection","license":"Digitisation of English Placenames MADS data is licensed to Jisc by the English Place Names Society and released under a Creative Commons Attribution-NonCommercial 4.0 International License.","note":"LPF v1.3, lossy; derived from the PLATO record; plato_commit=ca0afadabec1e23a145c0b03df77e8f151f79832","features":[{"@id":"http://placenames.org.uk/id/placename/39/007946","type":"Feature","properties":{"title":"Prinknash Park","ccodes":["GB"],"fclasses":["A","P"]},"names":[{"toponym":"Prinknash Park","lang":"en","citations":[{"label":"English Place-Name Society survey, volume 39: Gloucestershire"}]}],"types":[{"identifier":"http://vocab.getty.edu/aat/300232418","label":"administrative division","sourceLabels":[{"label":"parish","lang":"en"}]}],"geometry":{"type":"GeometryCollection","geometries":[{"type":"Point","coordinates":[-2.188606769,51.81503204],"citations":[{"label":"English Place-Name Society survey (DEEP coordinates)"}]},{"type":"Point","coordinates":[-2.18137080513512,51.81954020771551],"citations":[{"label":"Unlock (EDINA) gazetteer, gazetteer record unlock:11250248"}]},{"type":"Point","coordinates":[-2.16823,51.82],"citations":[{"label":"Key to English Place-Names (KEPN), gazetteer record 6405"}]}]},"relations":[{"relationType":"gvp:broaderPartitive","relationTo":"http://placenames.org.uk/id/placename/39/007470","label":"within Dudstone and King's Barton Hundred"}]}]}