{"@context":"https://raw.githubusercontent.com/LinkedPasts/linked-places-format/main/linkedplaces-context-v1.1.jsonld","type":"FeatureCollection","license":"Digitisation of English Placenames MADS data is licensed to Jisc by the English Place Names Society and released under a Creative Commons Attribution-NonCommercial 4.0 International License.","note":"LPF v1.3, lossy; derived from the PLATO record; plato_commit=fa0d247ccc0263f8f19c8d7cdcd163df96935d1e","features":[{"@id":"https://w3id.org/whg-epns/39/007960","type":"Feature","properties":{"title":"Upton St Leonards","ccodes":["GB"],"fclasses":["A","P"]},"names":[{"toponym":"Upton St Leonards","lang":"en","citations":[{"label":"English Place-Name Society survey, volume 39: Gloucestershire"}]}],"types":[{"identifier":"http://vocab.getty.edu/aat/300232418","label":"administrative division","sourceLabels":[{"label":"parish","lang":"en"}]}],"geometry":{"type":"GeometryCollection","geometries":[{"type":"Point","coordinates":[-2.19958,51.8344],"citations":[{"label":"GeoNames, gazetteer record geonames:6692227"}]},{"type":"Point","coordinates":[-2.203155324,51.82399984],"citations":[{"label":"English Place-Name Society survey (DEEP coordinates)"}]},{"type":"Point","coordinates":[-2.195919384378901,51.82850889756408],"citations":[{"label":"Unlock (EDINA) gazetteer, gazetteer record unlock:11310821"}]},{"type":"Point","coordinates":[-2.19733,51.8379],"citations":[{"label":"Key to English Place-Names (KEPN), gazetteer record 6406"}]}]},"links":[{"type":"closeMatch","identifier":"https://sws.geonames.org/6692227/"}],"relations":[{"relationType":"gvp:broaderPartitive","relationTo":"https://w3id.org/whg-epns/39/007470","label":"within Dudstone and King's Barton Hundred"}]}]}