{"@context":"https://raw.githubusercontent.com/LinkedPasts/linked-places-format/main/linkedplaces-context-v1.1.jsonld","type":"FeatureCollection","license":"Digitisation of English Placenames MADS data is licensed to Jisc by the English Place Names Society and released under a Creative Commons Attribution-NonCommercial 4.0 International License.","note":"LPF v1.3, lossy; derived from the PLATO record; plato_commit=ca0afadabec1e23a145c0b03df77e8f151f79832","features":[{"@id":"https://w3id.org/whg-epns/39/007961","type":"Feature","properties":{"title":"Upton St Leonards","ccodes":["GB"],"fclasses":["A","P"]},"names":[{"toponym":"Upton St Leonards","lang":"en","citations":[{"label":"English Place-Name Society survey, volume 39: Gloucestershire"}]},{"toponym":"Optvne","citations":[{"label":"1086 DB","year":1086}],"when":{"timespans":[{"start":{"in":"1086"},"end":{"in":"1086"}}]}},{"toponym":"Opton","citations":[{"label":"1196 FF","year":1196},{"label":"1236 Fees","year":1236}],"when":{"timespans":[{"start":{"in":"1196"},"end":{"in":"1196"}},{"start":{"in":"1236"},"end":{"in":"1236"}}]}},{"toponym":"Huptone","citations":[{"label":"1164-79 Glouc","year":1164},{"label":"c. 1230 GlR","year":1220}],"when":{"timespans":[{"start":{"earliest":"1164","latest":"1179"},"end":{"earliest":"1164","latest":"1179"}},{"start":{"earliest":"1220","latest":"1240"},"end":{"earliest":"1220","latest":"1240"}}]}},{"toponym":"Vpton(e), Upton(e)","citations":[{"label":"1195 P","year":1195},{"label":"1212-17 RBE","year":1212},{"label":"1221 Ass","year":1221},{"label":"1226–1535, recurring Fees","year":1226},{"label":"1226–1535, recurring VE"},{"label":"1226-8 Fees","year":1226},{"label":"1535 VE","year":1535}],"when":{"timespans":[{"start":{"in":"1195"},"end":{"in":"1195"}},{"start":{"in":"1204"},"end":{"in":"1204"}},{"start":{"earliest":"1212","latest":"1217"},"end":{"earliest":"1212","latest":"1217"}},{"start":{"in":"1221"},"end":{"in":"1221"}},{"start":{"in":"1226"},"end":{"in":"1535"}},{"start":{"earliest":"1226","latest":"1228"},"end":{"earliest":"1226","latest":"1228"}},{"start":{"in":"1535"},"end":{"in":"1535"}}]}},{"toponym":"Upton(e) Underprickenasse","citations":[{"label":"1287 Ass","year":1287}],"when":{"timespans":[{"start":{"in":"1287"},"end":{"in":"1287"}}]}},{"toponym":"Upton(e) Sancti Leonardi","citations":[{"label":"1287 Ass","year":1287},{"label":"1308 FF","year":1308},{"label":"1310–1610, recurring Glouc","year":1310},{"label":"1310–1610, recurring Rec"},{"label":"1310 Glouc","year":1310},{"label":"1610 Rec","year":1610}],"when":{"timespans":[{"start":{"in":"1287"},"end":{"in":"1287"}},{"start":{"in":"1308"},"end":{"in":"1308"}},{"start":{"in":"1310"},"end":{"in":"1610"}},{"start":{"in":"1310"},"end":{"in":"1310"}},{"start":{"in":"1610"},"end":{"in":"1610"}}]}},{"toponym":"Upton(e) Seint Leonard","citations":[{"label":"1454 Pat","year":1454},{"label":"1525 Glouc","year":1525}],"when":{"timespans":[{"start":{"in":"1454"},"end":{"in":"1454"}},{"start":{"in":"1525"},"end":{"in":"1525"}}]}},{"toponym":"Seynt Leonardes Upton(e)","citations":[{"label":"1486 Ipm","year":1486}],"when":{"timespans":[{"start":{"in":"1486"},"end":{"in":"1486"}}]}},{"toponym":"Upton(e) St Leonardes","citations":[{"label":"1593 Dep","year":1593}],"when":{"timespans":[{"start":{"in":"1593"},"end":{"in":"1593"}}]}}],"types":[{"identifier":"http://vocab.getty.edu/aat/300232418","label":"administrative division","sourceLabels":[{"label":"township","lang":"en"}]}],"geometry":{"type":"GeometryCollection","geometries":[{"type":"Point","coordinates":[-2.19958,51.8344],"citations":[{"label":"GeoNames, gazetteer record geonames:6692227"}]},{"type":"Point","coordinates":[-2.203155324,51.82399984],"citations":[{"label":"English Place-Name Society survey (DEEP coordinates)"}]},{"type":"Point","coordinates":[-2.195919384378901,51.82850889756408],"citations":[{"label":"Unlock (EDINA) gazetteer, gazetteer record unlock:11310821"}]},{"type":"Point","coordinates":[-2.19733,51.8379],"citations":[{"label":"Key to English Place-Names (KEPN), gazetteer record 6406"}]}]},"when":{"timespans":[{"start":{"in":"1086"},"end":{"in":"1610"}}]},"links":[{"type":"closeMatch","identifier":"https://sws.geonames.org/6692227/"}],"relations":[{"relationType":"gvp:broaderPartitive","relationTo":"https://w3id.org/whg-epns/39/007960","label":"within Upton St Leonards"}]}]}