{"@context":"https://raw.githubusercontent.com/LinkedPasts/linked-places-format/main/linkedplaces-context-v1.1.jsonld","type":"FeatureCollection","license":"Digitisation of English Placenames MADS data is licensed to Jisc by the English Place Names Society and released under a Creative Commons Attribution-NonCommercial 4.0 International License.","note":"LPF v1.3, lossy; derived from the PLATO record; plato_commit=fa0d247ccc0263f8f19c8d7cdcd163df96935d1e","features":[{"@id":"https://w3id.org/whg-epns/39/008554","type":"Feature","properties":{"title":"Haresfield","ccodes":["GB"],"fclasses":["A","P"]},"names":[{"toponym":"Haresfield","lang":"en","citations":[{"label":"English Place-Name Society survey, volume 39: Gloucestershire"}]},{"toponym":"Hersefel(d), Hersefelde","citations":[{"label":"1086 DB","year":1086},{"label":"12 Glouc","year":1100},{"label":"1211-13 Fees","year":1211},{"label":"1217 Cl","year":1217},{"label":"1220 Fees","year":1220},{"label":"1255 Ch","year":1255}],"when":{"timespans":[{"start":{"in":"1086"},"end":{"in":"1086"}},{"start":{"earliest":"1100","latest":"1200"},"end":{"earliest":"1100","latest":"1200"}},{"start":{"earliest":"1211","latest":"1213"},"end":{"earliest":"1211","latest":"1213"}},{"start":{"in":"1217"},"end":{"in":"1217"}},{"start":{"in":"1220"},"end":{"in":"1220"}},{"start":{"in":"1255"},"end":{"in":"1255"}}]}},{"toponym":"Hersefeud","citations":[{"label":"1286 Ipm","year":1286}],"when":{"timespans":[{"start":{"in":"1286"},"end":{"in":"1286"}}]}},{"toponym":"Herssefeld","citations":[{"label":"c. 1200 GlR","year":1190}],"when":{"timespans":[{"start":{"earliest":"1190","latest":"1210"},"end":{"earliest":"1190","latest":"1210"}}]}},{"toponym":"Harsefeld(e)","citations":[{"label":"Glouc","year":1100},{"label":"12 Glouc","year":1100},{"label":"ClR","year":1216},{"label":"IpmR"},{"label":"1216 ClR","year":1216},{"label":"1438 IpmR","year":1438}],"when":{"timespans":[{"start":{"in":"1100"},"end":{"in":"1200"}},{"start":{"earliest":"1100","latest":"1200"},"end":{"earliest":"1100","latest":"1200"}},{"start":{"in":"1216"},"end":{"in":"1438"}},{"start":{"in":"1216"},"end":{"in":"1216"}},{"start":{"in":"1438"},"end":{"in":"1438"}}]}},{"toponym":"Haresfeld(e)","citations":[{"label":"1100-35 Tewk","year":1100},{"label":"1220 ClR","year":1220},{"label":"Ass","year":1248},{"label":"MinAcct"},{"label":"1248 Ass","year":1248},{"label":"1509 MinAcct","year":1509}],"when":{"timespans":[{"start":{"earliest":"1100","latest":"1135"},"end":{"earliest":"1100","latest":"1135"}},{"start":{"in":"1220"},"end":{"in":"1220"}},{"start":{"in":"1248"},"end":{"in":"1509"}},{"start":{"in":"1248"},"end":{"in":"1248"}},{"start":{"in":"1509"},"end":{"in":"1509"}}]}},{"toponym":"Harisfeld(e)","citations":[{"label":"1343 FF","year":1343},{"label":"1535 VE","year":1535}],"when":{"timespans":[{"start":{"in":"1343"},"end":{"in":"1343"}},{"start":{"in":"1535"},"end":{"in":"1535"}}]}},{"toponym":"Harresfeld","citations":[{"label":"1553 FF","year":1553}],"when":{"timespans":[{"start":{"in":"1553"},"end":{"in":"1553"}}]}},{"toponym":"Hersfeld(e)","citations":[{"label":"1221 Ass","year":1221},{"label":"1303 FA","year":1303}],"when":{"timespans":[{"start":{"in":"1221"},"end":{"in":"1221"}},{"start":{"in":"1248"},"end":{"in":"1248"}},{"start":{"in":"1303"},"end":{"in":"1303"}}]}},{"toponym":"Heresfeld","citations":[{"label":"13 Tewk","year":1200}],"when":{"timespans":[{"start":{"earliest":"1200","latest":"1300"},"end":{"earliest":"1200","latest":"1300"}}]}},{"toponym":"Haresefeld'","citations":[{"label":"1255 FF","year":1255}],"when":{"timespans":[{"start":{"in":"1255"},"end":{"in":"1255"}}]}},{"toponym":"Harsfeud","citations":[{"label":"1276 RH","year":1276}],"when":{"timespans":[{"start":{"in":"1276"},"end":{"in":"1276"}}]}},{"toponym":"Harsfeld(e), Harsfield","citations":[{"label":"1291 Tax","year":1291},{"label":"1303 FA","year":1303},{"label":"1306 FF","year":1306},{"label":"Works","year":1363},{"label":"PR"},{"label":"1363 Works","year":1363},{"label":"1654 PR","year":1654}],"when":{"timespans":[{"start":{"in":"1291"},"end":{"in":"1291"}},{"start":{"in":"1303"},"end":{"in":"1303"}},{"start":{"in":"1306"},"end":{"in":"1306"}},{"start":{"in":"1363"},"end":{"in":"1654"}},{"start":{"in":"1363"},"end":{"in":"1363"}},{"start":{"in":"1654"},"end":{"in":"1654"}}]}},{"toponym":"Shirreuesharsefeld, Sherreuesharsefeld","citations":[{"label":"1308 FF","year":1308}],"when":{"timespans":[{"start":{"in":"1308"},"end":{"in":"1308"}},{"start":{"in":"1319"},"end":{"in":"1319"}}]}}],"types":[{"identifier":"http://vocab.getty.edu/aat/300232418","label":"administrative division","sourceLabels":[{"label":"township","lang":"en"}]}],"geometry":{"type":"GeometryCollection","geometries":[{"type":"Point","coordinates":[-2.26667,51.78333],"citations":[{"label":"GeoNames, gazetteer record geonames:2647483"}]},{"type":"Point","coordinates":[-2.275490669,51.78788441],"citations":[{"label":"English Place-Name Society survey (DEEP coordinates)"}]},{"type":"Point","coordinates":[-2.282712305150916,51.78337197980348],"citations":[{"label":"Unlock (EDINA) gazetteer, gazetteer record unlock:11196390"}]},{"type":"Point","coordinates":[-2.26963,51.7928],"citations":[{"label":"Key to English Place-Names (KEPN), gazetteer record 6412"}]}]},"when":{"timespans":[{"start":{"in":"1086"},"end":{"in":"1654"}}]},"links":[{"type":"closeMatch","identifier":"https://sws.geonames.org/2647483/"}],"relations":[{"relationType":"gvp:broaderPartitive","relationTo":"https://w3id.org/whg-epns/39/008553","label":"within Haresfield"}]}]}