{"@context":"https://raw.githubusercontent.com/LinkedPasts/linked-places-format/main/linkedplaces-context-v1.1.jsonld","type":"FeatureCollection","license":"Digitisation of English Placenames MADS data is licensed to Jisc by the English Place Names Society and released under a Creative Commons Attribution-NonCommercial 4.0 International License.","note":"LPF v1.3, lossy; derived from the PLATO record; plato_commit=fa0d247ccc0263f8f19c8d7cdcd163df96935d1e","features":[{"@id":"https://w3id.org/whg-epns/39/008867","type":"Feature","properties":{"title":"Moreton Valence","ccodes":["GB"],"fclasses":["A","P"]},"names":[{"toponym":"Moreton Valence","lang":"en","citations":[{"label":"English Place-Name Society survey, volume 39: Gloucestershire"}]}],"types":[{"identifier":"http://vocab.getty.edu/aat/300232418","label":"administrative division","sourceLabels":[{"label":"parish","lang":"en"}]}],"geometry":{"type":"GeometryCollection","geometries":[{"type":"Point","coordinates":[-2.32189,51.78988],"citations":[{"label":"GeoNames, gazetteer record geonames:7293608"}]},{"type":"Point","coordinates":[-2.318925108,51.77878252],"citations":[{"label":"English Place-Name Society survey (DEEP coordinates)"}]},{"type":"Point","coordinates":[-2.311707997608903,51.78329868502905],"citations":[{"label":"Unlock (EDINA) gazetteer, gazetteer record unlock:11222853"}]},{"type":"Point","coordinates":[-2.31306,51.7837],"citations":[{"label":"Key to English Place-Names (KEPN), gazetteer record 6414"}]}]},"links":[{"type":"closeMatch","identifier":"https://sws.geonames.org/7293608/"}],"relations":[{"relationType":"gvp:broaderPartitive","relationTo":"https://w3id.org/whg-epns/39/008174","label":"within Whitstone Hundred"}]}]}