{"@context":"https://raw.githubusercontent.com/LinkedPasts/linked-places-format/main/linkedplaces-context-v1.1.jsonld","type":"FeatureCollection","license":"Digitisation of English Placenames MADS data is licensed to Jisc by the English Place Names Society and released under a Creative Commons Attribution-NonCommercial 4.0 International License.","note":"LPF v1.3, lossy; derived from the PLATO record; plato_commit=ca0afadabec1e23a145c0b03df77e8f151f79832","features":[{"@id":"https://w3id.org/whg-epns/39/009263","type":"Feature","properties":{"title":"Eastington","ccodes":["GB"],"fclasses":["A","P"]},"names":[{"toponym":"Eastington","lang":"en","citations":[{"label":"English Place-Name Society survey, volume 39: Gloucestershire"}]}],"types":[{"identifier":"http://vocab.getty.edu/aat/300232418","label":"administrative division","sourceLabels":[{"label":"parish","lang":"en"}]}],"geometry":{"type":"GeometryCollection","geometries":[{"type":"Point","coordinates":[-2.32639,51.74722],"citations":[{"label":"GeoNames, gazetteer record geonames:3345342"}]},{"type":"Point","coordinates":[-2.333156621,51.74277449],"citations":[{"label":"English Place-Name Society survey (DEEP coordinates)"}]},{"type":"Point","coordinates":[-2.325946660964832,51.74729152977715],"citations":[{"label":"Unlock (EDINA) gazetteer, gazetteer record unlock:11137363"}]},{"type":"Point","coordinates":[-2.3273,51.7477],"citations":[{"label":"Key to English Place-Names (KEPN), gazetteer record 6419"}]}]},"links":[{"type":"closeMatch","identifier":"https://sws.geonames.org/3345342/"}],"relations":[{"relationType":"gvp:broaderPartitive","relationTo":"https://w3id.org/whg-epns/39/009262","label":"within Whitstone Hundred"}]}]}