{"@context":"https://raw.githubusercontent.com/LinkedPasts/linked-places-format/main/linkedplaces-context-v1.1.jsonld","type":"FeatureCollection","license":"Digitisation of English Placenames MADS data is licensed to Jisc by the English Place Names Society and released under a Creative Commons Attribution-NonCommercial 4.0 International License.","note":"LPF v1.3, lossy; derived from the PLATO record; plato_commit=fa0d247ccc0263f8f19c8d7cdcd163df96935d1e","features":[{"@id":"https://w3id.org/whg-epns/39/009459","type":"Feature","properties":{"title":"Frocester","ccodes":["GB"],"fclasses":["A","P"]},"names":[{"toponym":"Frocester","lang":"en","citations":[{"label":"English Place-Name Society survey, volume 39: Gloucestershire"}]},{"toponym":"Frowecestre","citations":[{"label":"1086 DB","year":1086}],"when":{"timespans":[{"start":{"in":"1086"},"end":{"in":"1086"}}]}},{"toponym":"Frouecestr(e)'","citations":[{"label":"1241 GlR","year":1241},{"label":"1268 Episc","year":1268}],"when":{"timespans":[{"start":{"in":"1241"},"end":{"in":"1241"}},{"start":{"in":"1268"},"end":{"in":"1268"}}]}},{"toponym":"Froucestr(ia), Froucestre, Froucester","citations":[{"label":"Glouc","year":1154},{"label":"Hy 2 Glouc","year":1154},{"label":"c. 1230 GlR","year":1220},{"label":"1287 Ass","year":1287},{"label":"Tax","year":1291},{"label":"Ass"},{"label":"1291 Tax","year":1291},{"label":"1378 Ass","year":1378}],"when":{"timespans":[{"start":{"in":"1154"},"end":{"in":"1315"}},{"start":{"earliest":"1154","latest":"1189"},"end":{"earliest":"1154","latest":"1189"}},{"start":{"in":"1315"},"end":{"in":"1315"}},{"start":{"earliest":"1220","latest":"1240"},"end":{"earliest":"1220","latest":"1240"}},{"start":{"in":"1233"},"end":{"in":"1233"}},{"start":{"in":"1261"},"end":{"in":"1261"}},{"start":{"in":"1287"},"end":{"in":"1287"}},{"start":{"in":"1291"},"end":{"in":"1378"}},{"start":{"in":"1291"},"end":{"in":"1291"}},{"start":{"in":"1378"},"end":{"in":"1378"}}]}},{"toponym":"Frowcestre, Frowcester","citations":[{"label":"1287 Misc","year":1287},{"label":"1316 FA","year":1316},{"label":"1576 MonLand","year":1576}],"when":{"timespans":[{"start":{"in":"1287"},"end":{"in":"1287"}},{"start":{"in":"1316"},"end":{"in":"1316"}},{"start":{"in":"1576"},"end":{"in":"1576"}}]}},{"toponym":"Froucet(t)or, Frowcet(t)or, Frowcet(t)er, Frowcet(t)our","citations":[{"label":"1535 VE","year":1535},{"label":"1542 MinAcct","year":1542}],"when":{"timespans":[{"start":{"in":"1535"},"end":{"in":"1535"}},{"start":{"in":"1542"},"end":{"in":"1542"}},{"start":{"in":"1622"},"end":{"in":"1622"}}]}},{"toponym":"Froceter","citations":[{"label":"1574 PR","year":1574}],"when":{"timespans":[{"start":{"in":"1574"},"end":{"in":"1574"}}]}},{"toponym":"Frouster","citations":[{"label":"1562 PR","year":1562}],"when":{"timespans":[{"start":{"in":"1562"},"end":{"in":"1562"}}]}},{"toponym":"Froster","citations":[{"label":"1601 FF","year":1601},{"label":"1673 PR","year":1673}],"when":{"timespans":[{"start":{"in":"1601"},"end":{"in":"1601"}},{"start":{"in":"1673"},"end":{"in":"1673"}}]}},{"toponym":"Frochester","citations":[{"label":"1575 TRMB","year":1575}],"when":{"timespans":[{"start":{"in":"1575"},"end":{"in":"1575"}}]}}],"types":[{"identifier":"http://vocab.getty.edu/aat/300232418","label":"administrative division","sourceLabels":[{"label":"township","lang":"en"}]}],"geometry":{"type":"GeometryCollection","geometries":[{"type":"Point","coordinates":[-2.31181,51.72683],"citations":[{"label":"GeoNames, gazetteer record geonames:2649032"}]},{"type":"Point","coordinates":[-2.31854534,51.72483063],"citations":[{"label":"English Place-Name Society survey (DEEP coordinates)"}]},{"type":"Point","coordinates":[-2.311336762878316,51.72934678667226],"citations":[{"label":"Unlock (EDINA) gazetteer, gazetteer record unlock:11148359"}]},{"type":"Point","coordinates":[-2.31269,51.7298],"citations":[{"label":"Key to English Place-Names (KEPN), gazetteer record 6421"}]}]},"when":{"timespans":[{"start":{"in":"1086"},"end":{"in":"1673"}}]},"links":[{"type":"closeMatch","identifier":"https://sws.geonames.org/2649032/"}],"relations":[{"relationType":"gvp:broaderPartitive","relationTo":"https://w3id.org/whg-epns/39/009458","label":"within Frocester"}]}]}