{"@context":"https://raw.githubusercontent.com/LinkedPasts/linked-places-format/main/linkedplaces-context-v1.1.jsonld","type":"FeatureCollection","license":"Digitisation of English Placenames MADS data is licensed to Jisc by the English Place Names Society and released under a Creative Commons Attribution-NonCommercial 4.0 International License.","note":"LPF v1.3, lossy; derived from the PLATO record; plato_commit=ca0afadabec1e23a145c0b03df77e8f151f79832","features":[{"@id":"http://placenames.org.uk/id/placename/39/010275","type":"Feature","properties":{"title":"Berkeley","ccodes":["GB"],"fclasses":["A","P"]},"names":[{"toponym":"Berkeley","lang":"en","citations":[{"label":"English Place-Name Society survey, volume 39: Gloucestershire"}]},{"toponym":"Berclinga","citations":[{"label":"804 BCS","year":804}],"when":{"timespans":[{"start":{"in":"0804"},"end":{"in":"0804"}}]}},{"toponym":"æt Berclea","citations":[{"label":"824 BCS","year":824}],"when":{"timespans":[{"start":{"in":"0824"},"end":{"in":"0824"}}]}},{"toponym":"on Beorc lea","citations":[{"label":"1121 ASC","year":1121}],"when":{"timespans":[{"start":{"in":"1121"},"end":{"in":"1121"}}]}},{"toponym":"Berchelai(a), Berchele, Berchel', Berchelay, Bercheley(a)","citations":[{"label":"1086 DB","year":1086},{"label":"1100 Ch","year":1100},{"label":"1100-35 Pat","year":1100},{"label":"1130 P","year":1130},{"label":"1157 BM","year":1157},{"label":"1159 P","year":1159}],"when":{"timespans":[{"start":{"in":"1086"},"end":{"in":"1086"}},{"start":{"in":"1100"},"end":{"in":"1100"}},{"start":{"earliest":"1100","latest":"1135"},"end":{"earliest":"1100","latest":"1135"}},{"start":{"in":"1130"},"end":{"in":"1130"}},{"start":{"in":"1157"},"end":{"in":"1157"}},{"start":{"in":"1159"},"end":{"in":"1159"}},{"start":{"in":"1190"},"end":{"in":"1190"}}]}},{"toponym":"Berchalai","citations":[{"label":"1154 Berk","year":1154}],"when":{"timespans":[{"start":{"in":"1154"},"end":{"in":"1154"}}]}},{"toponym":"Berkelai, Berkelay(a), Berkelei(a), Berkeley(a), Berkeleye, Berkele","citations":[{"label":"1080 Glouc","year":1080},{"label":"1153 Berk","year":1153},{"label":"Hy 2 Ch","year":1154},{"label":"1161–1197, recurring RBE","year":1161},{"label":"1166 RBE","year":1166},{"label":"1195 P","year":1195},{"label":"1202–1512, recurring Abbr","year":1202},{"label":"1202–1512, recurring Comp"},{"label":"1202 Abbr","year":1202},{"label":"1512 Comp","year":1512}],"when":{"timespans":[{"start":{"in":"1080"},"end":{"in":"1080"}},{"start":{"earliest":"1100","latest":"1200"},"end":{"earliest":"1100","latest":"1200"}},{"start":{"in":"1153"},"end":{"in":"1153"}},{"start":{"earliest":"1154","latest":"1189"},"end":{"earliest":"1154","latest":"1189"}},{"start":{"in":"1161"},"end":{"in":"1197"}},{"start":{"in":"1166"},"end":{"in":"1166"}},{"start":{"earliest":"1161","latest":"1197"},"end":{"earliest":"1161","latest":"1197"}},{"start":{"in":"1195"},"end":{"in":"1195"}},{"start":{"in":"1202"},"end":{"in":"1512"}},{"start":{"in":"1202"},"end":{"in":"1202"}},{"start":{"in":"1512"},"end":{"in":"1512"}}]}},{"toponym":"-mercatorum","citations":[{"label":"1199 ChR","year":1199}],"when":{"timespans":[{"start":{"in":"1199"},"end":{"in":"1199"}}]}},{"toponym":"Burgus de-","citations":[{"label":"1285 FA","year":1285}],"when":{"timespans":[{"start":{"in":"1285"},"end":{"in":"1285"}},{"start":{"in":"1316"},"end":{"in":"1316"}}]}},{"toponym":"-Vetus","citations":[{"label":"1439 IpmR","year":1439}],"when":{"timespans":[{"start":{"in":"1439"},"end":{"in":"1439"}}]}},{"toponym":"Berc(k)el(ay), Berc(k)elai","citations":[{"label":"1100-35 Tewk","year":1100},{"label":"c. 1153 Berk","year":1143},{"label":"1166 RBE","year":1166}],"when":{"timespans":[{"start":{"earliest":"1100","latest":"1135"},"end":{"earliest":"1100","latest":"1135"}},{"start":{"earliest":"1143","latest":"1163"},"end":{"earliest":"1143","latest":"1163"}},{"start":{"in":"1166"},"end":{"in":"1166"}}]}},{"toponym":"Berquelee","citations":[{"label":"1360 Berk","year":1360}],"when":{"timespans":[{"start":{"in":"1360"},"end":{"in":"1360"}}]}},{"toponym":"Bercley(a), Berkley(a)","citations":[{"label":"J Ch","year":1199},{"label":"1497 Pat","year":1497},{"label":"1590 Comm","year":1590}],"when":{"timespans":[{"start":{"earliest":"1199","latest":"1216"},"end":{"earliest":"1199","latest":"1216"}},{"start":{"in":"1497"},"end":{"in":"1497"}},{"start":{"in":"1504"},"end":{"in":"1504"}},{"start":{"in":"1590"},"end":{"in":"1590"}}]}},{"toponym":"Bark(e)ley","citations":[{"label":"1492 Pat","year":1492},{"label":"Hy 8 Rent","year":1509},{"label":"1512 Ch","year":1512},{"label":"1521–1675, recurring FF","year":1521},{"label":"1521–1675, recurring Ogilby"},{"label":"1521 FF","year":1521},{"label":"1675 Ogilby","year":1675}],"when":{"timespans":[{"start":{"in":"1492"},"end":{"in":"1492"}},{"start":{"earliest":"1509","latest":"1547"},"end":{"earliest":"1509","latest":"1547"}},{"start":{"in":"1512"},"end":{"in":"1512"}},{"start":{"in":"1521"},"end":{"in":"1675"}},{"start":{"in":"1521"},"end":{"in":"1521"}},{"start":{"in":"1675"},"end":{"in":"1675"}}]}}],"types":[{"identifier":"http://vocab.getty.edu/aat/300232418","label":"administrative division","sourceLabels":[{"label":"township","lang":"en"}]}],"geometry":{"type":"GeometryCollection","geometries":[{"type":"Point","coordinates":[-2.45917,51.69111],"citations":[{"label":"GeoNames, gazetteer record geonames:2655861"}]},{"type":"Point","coordinates":[-2.462967078,51.68838139],"citations":[{"label":"English Place-Name Society survey (DEEP coordinates)"}]},{"type":"Point","coordinates":[-2.455778749964393,51.69290636580686],"citations":[{"label":"Unlock (EDINA) gazetteer, gazetteer record unlock:11075777"}]},{"type":"Point","coordinates":[-2.45711,51.6934],"citations":[{"label":"Key to English Place-Names (KEPN), gazetteer record 6427"}]}]},"when":{"timespans":[{"start":{"in":"0804"},"end":{"in":"1675"}}]},"links":[{"type":"closeMatch","identifier":"https://sws.geonames.org/2655861/"}],"relations":[{"relationType":"gvp:broaderPartitive","relationTo":"http://placenames.org.uk/id/placename/39/010274","label":"within Berkeley"}]}]}