{"@context":"https://raw.githubusercontent.com/LinkedPasts/linked-places-format/main/linkedplaces-context-v1.1.jsonld","type":"FeatureCollection","license":"Digitisation of English Placenames MADS data is licensed to Jisc by the English Place Names Society and released under a Creative Commons Attribution-NonCommercial 4.0 International License.","note":"LPF v1.3, lossy; derived from the PLATO record; plato_commit=fa0d247ccc0263f8f19c8d7cdcd163df96935d1e","features":[{"@id":"https://w3id.org/whg-epns/39/012235","type":"Feature","properties":{"title":"Owlpen","ccodes":["GB"],"fclasses":["A","P"]},"names":[{"toponym":"Owlpen","lang":"en","citations":[{"label":"English Place-Name Society survey, volume 39: Gloucestershire"}]}],"types":[{"identifier":"http://vocab.getty.edu/aat/300232418","label":"administrative division","sourceLabels":[{"label":"parish","lang":"en"}]}],"geometry":{"type":"GeometryCollection","geometries":[{"type":"Point","coordinates":[-2.28604,51.68379],"citations":[{"label":"GeoNames, gazetteer record geonames:7295193"}]},{"type":"Point","coordinates":[-2.289300209,51.67994515],"citations":[{"label":"English Place-Name Society survey (DEEP coordinates)"}]},{"type":"Point","coordinates":[-2.282095818879198,51.6844595273912],"citations":[{"label":"Unlock (EDINA) gazetteer, gazetteer record unlock:11238107"}]},{"type":"Point","coordinates":[-2.28345,51.6849],"citations":[{"label":"Key to English Place-Names (KEPN), gazetteer record 6441"}]}]},"links":[{"type":"closeMatch","identifier":"https://sws.geonames.org/7295193/"}],"relations":[{"relationType":"gvp:broaderPartitive","relationTo":"https://w3id.org/whg-epns/39/009969","label":"within Berkeley Hundred"}]}]}