{"@context":"https://raw.githubusercontent.com/LinkedPasts/linked-places-format/main/linkedplaces-context-v1.1.jsonld","type":"FeatureCollection","license":"Digitisation of English Placenames MADS data is licensed to Jisc by the English Place Names Society and released under a Creative Commons Attribution-NonCommercial 4.0 International License.","note":"LPF v1.3, lossy; derived from the PLATO record; plato_commit=ca0afadabec1e23a145c0b03df77e8f151f79832","features":[{"@id":"https://w3id.org/whg-epns/84/000018","type":"Feature","properties":{"title":"Billesdon","ccodes":["GB"],"fclasses":["A","P"]},"names":[{"toponym":"Billesdon","lang":"en","citations":[{"label":"English Place-Name Society survey, volume 84: Leicestershire"}]},{"toponym":"Billesdone","citations":[{"label":"1086 DB","year":1086},{"label":"Hy 2 Dugd","year":1154},{"label":"1274 LRoll","year":1274},{"label":"l.13 Peake","year":1275}],"when":{"timespans":[{"start":{"in":"1086"},"end":{"in":"1086"}},{"start":{"earliest":"1154","latest":"1189"},"end":{"earliest":"1154","latest":"1189"}},{"start":{"in":"1274"},"end":{"in":"1274"}},{"start":{"in":"1276"},"end":{"in":"1276"}},{"start":{"earliest":"1275","latest":"1300"},"end":{"earliest":"1275","latest":"1300"}}]}},{"toponym":"Billesdon","citations":[{"label":"1156 Ch","year":1156},{"label":"1190 P","year":1190},{"label":"1196 ChancR","year":1196}],"when":{"timespans":[{"start":{"in":"1156"},"end":{"in":"1156"}},{"start":{"in":"1190"},"end":{"in":"1190"}},{"start":{"in":"1191"},"end":{"in":"1191"}},{"start":{"in":"1196"},"end":{"in":"1196"}}]}},{"toponym":"Billesdun","citations":[{"label":"1203 FF","year":1203},{"label":"1229 Bracton","year":1229}],"when":{"timespans":[{"start":{"in":"1203"},"end":{"in":"1203"}},{"start":{"in":"1229"},"end":{"in":"1229"}}]}},{"toponym":"Billesdoun","citations":[{"label":"1360 Ipm","year":1360},{"label":"1394 Cl","year":1394}],"when":{"timespans":[{"start":{"in":"1360"},"end":{"in":"1360"}},{"start":{"in":"1394"},"end":{"in":"1394"}},{"start":{"in":"1395"},"end":{"in":"1395"}},{"start":{"in":"1412"},"end":{"in":"1412"}}]}},{"toponym":"Bilesdon","citations":[{"label":"1196 ChancR","year":1196},{"label":"1203 Cur","year":1203}],"when":{"timespans":[{"start":{"in":"1196"},"end":{"in":"1196"}},{"start":{"in":"1203"},"end":{"in":"1203"}},{"start":{"in":"1206"},"end":{"in":"1206"}},{"start":{"in":"1261"},"end":{"in":"1261"}}]}},{"toponym":"Billisdon","citations":[{"label":"1253 × 58 RHug","year":1253},{"label":"Hy 3 Crox","year":1216},{"label":"1275–1364, recurring Ipm","year":1275},{"label":"1275–1364, recurring Wyg"},{"label":"1275 Ipm","year":1275},{"label":"1364 Wyg","year":1364}],"when":{"timespans":[{"start":{"earliest":"1253","latest":"1258"},"end":{"earliest":"1253","latest":"1258"}},{"start":{"earliest":"1216","latest":"1272"},"end":{"earliest":"1216","latest":"1272"}},{"start":{"in":"1275"},"end":{"in":"1364"}},{"start":{"in":"1275"},"end":{"in":"1275"}},{"start":{"in":"1364"},"end":{"in":"1364"}}]}},{"toponym":"Billisdona","citations":[{"label":"e.13 Laz","year":1200}],"when":{"timespans":[{"start":{"earliest":"1200","latest":"1225"},"end":{"earliest":"1200","latest":"1225"}},{"start":{"earliest":"1250","latest":"1300"},"end":{"earliest":"1250","latest":"1300"}}]}},{"toponym":"Byllesdon","citations":[{"label":"1257 Laz","year":1257},{"label":"1278–1516, recurring IpmR","year":1278},{"label":"1278–1516, recurring LCh"},{"label":"1278 IpmR","year":1278},{"label":"1516 LCh","year":1516},{"label":"1571 LEpis","year":1571}],"when":{"timespans":[{"start":{"in":"1257"},"end":{"in":"1257"}},{"start":{"in":"1278"},"end":{"in":"1516"}},{"start":{"in":"1278"},"end":{"in":"1278"}},{"start":{"in":"1516"},"end":{"in":"1516"}},{"start":{"in":"1571"},"end":{"in":"1571"}}]}},{"toponym":"Byllesdoun","citations":[{"label":"1395 Cl","year":1395}],"when":{"timespans":[{"start":{"in":"1395"},"end":{"in":"1395"}}]}},{"toponym":"Billesden","citations":[{"label":"1546 AAS","year":1546},{"label":"1550 BodlCh","year":1550},{"label":"1580 LEpis","year":1580}],"when":{"timespans":[{"start":{"in":"1546"},"end":{"in":"1546"}},{"start":{"in":"1550"},"end":{"in":"1550"}},{"start":{"in":"1580"},"end":{"in":"1580"}}]}},{"toponym":"Byllesden","citations":[{"label":"1466 Pat","year":1466},{"label":"1550 Pat","year":1550}],"when":{"timespans":[{"start":{"in":"1466"},"end":{"in":"1466"}},{"start":{"in":"1550"},"end":{"in":"1550"}}]}},{"toponym":"Bilsdon","citations":[{"label":"1576 Saxton","year":1576},{"label":"1631 LML","year":1631}],"when":{"timespans":[{"start":{"in":"1576"},"end":{"in":"1576"}},{"start":{"in":"1631"},"end":{"in":"1631"}}]}},{"toponym":"Bylsdon","citations":[{"label":"1576 LibCl","year":1576}],"when":{"timespans":[{"start":{"in":"1576"},"end":{"in":"1576"}}]}}],"types":[{"identifier":"http://vocab.getty.edu/aat/300232418","label":"administrative division","sourceLabels":[{"label":"township","lang":"en"}]}],"geometry":{"type":"GeometryCollection","geometries":[{"type":"Point","coordinates":[-0.93725,52.61644],"citations":[{"label":"GeoNames, gazetteer record geonames:2655671"}]},{"type":"Point","coordinates":[-0.9438380753042787,52.61520727186683],"citations":[{"label":"Unlock (EDINA) gazetteer, gazetteer record unlock:11076941"}]},{"type":"Point","coordinates":[-0.945382,52.6156],"citations":[{"label":"Key to English Place-Names (KEPN), gazetteer record 8750"}]}]},"when":{"timespans":[{"start":{"in":"1086"},"end":{"in":"1631"}}]},"links":[{"type":"closeMatch","identifier":"https://sws.geonames.org/2655671/"}],"relations":[{"relationType":"gvp:broaderPartitive","relationTo":"https://w3id.org/whg-epns/84/000017","label":"within Billesdon"}]}]}