{"@context":"https://raw.githubusercontent.com/LinkedPasts/linked-places-format/main/linkedplaces-context-v1.1.jsonld","type":"FeatureCollection","license":"Digitisation of English Placenames MADS data is licensed to Jisc by the English Place Names Society and released under a Creative Commons Attribution-NonCommercial 4.0 International License.","note":"LPF v1.3, lossy; derived from the PLATO record; plato_commit=ca0afadabec1e23a145c0b03df77e8f151f79832","features":[{"@id":"http://placenames.org.uk/id/placename/84/001737","type":"Feature","properties":{"title":"Drayton","ccodes":["GB"],"fclasses":["A","P"]},"names":[{"toponym":"Drayton","lang":"en","citations":[{"label":"English Place-Name Society survey, volume 84: Leicestershire"}]}],"types":[{"identifier":"http://vocab.getty.edu/aat/300232418","label":"administrative division","sourceLabels":[{"label":"parish","lang":"en"}]}],"geometry":{"type":"GeometryCollection","geometries":[{"type":"Point","coordinates":[-0.78735,52.52249],"citations":[{"label":"GeoNames, gazetteer record geonames:7295988"}]},{"type":"Point","coordinates":[-0.7691411313064774,52.52360664150928],"citations":[{"label":"Unlock (EDINA) gazetteer, gazetteer record unlock:11131661"}]},{"type":"Point","coordinates":[-0.770701,52.524],"citations":[{"label":"Key to English Place-Names (KEPN), gazetteer record 8756"}]}]},"links":[{"type":"closeMatch","identifier":"https://sws.geonames.org/7295988/"}],"relations":[{"relationType":"gvp:broaderPartitive","relationTo":"http://placenames.org.uk/id/placename/84/000002","label":"within Gartree Hundred"}]}]}