{"@context":"https://raw.githubusercontent.com/LinkedPasts/linked-places-format/main/linkedplaces-context-v1.1.jsonld","type":"FeatureCollection","license":"Digitisation of English Placenames MADS data is licensed to Jisc by the English Place Names Society and released under a Creative Commons Attribution-NonCommercial 4.0 International License.","note":"LPF v1.3, lossy; derived from the PLATO record; plato_commit=fa0d247ccc0263f8f19c8d7cdcd163df96935d1e","features":[{"@id":"https://w3id.org/whg-epns/84/003129","type":"Feature","properties":{"title":"Frisby","ccodes":["GB"],"fclasses":["A","P"]},"names":[{"toponym":"Frisby","lang":"en","citations":[{"label":"English Place-Name Society survey, volume 84: Leicestershire"}]},{"toponym":"Frisebi","citations":[{"label":"1086 DB","year":1086},{"label":"c.1130 LeicSurv","year":1120},{"label":"1199 Cur","year":1199}],"when":{"timespans":[{"start":{"in":"1086"},"end":{"in":"1086"}},{"start":{"earliest":"1120","latest":"1140"},"end":{"earliest":"1120","latest":"1140"}},{"start":{"in":"1199"},"end":{"in":"1199"}},{"start":{"in":"1200"},"end":{"in":"1200"}}]}},{"toponym":"Frisebie","citations":[{"label":"1086 DB","year":1086}],"when":{"timespans":[{"start":{"in":"1086"},"end":{"in":"1086"}}]}},{"toponym":"Friseby","citations":[{"label":"1221 Fine","year":1221},{"label":"Ass","year":1221},{"label":"Pat"},{"label":"1221 Ass","year":1221},{"label":"1355 Pat","year":1355}],"when":{"timespans":[{"start":{"in":"1221"},"end":{"in":"1221"}},{"start":{"in":"1221"},"end":{"in":"1403"}},{"start":{"in":"1221"},"end":{"in":"1221"}},{"start":{"in":"1355"},"end":{"in":"1355"}},{"start":{"in":"1403"},"end":{"in":"1403"}}]}},{"toponym":"Friseby iuxta Galby","citations":[{"label":"1306 Banco","year":1306}],"when":{"timespans":[{"start":{"in":"1306"},"end":{"in":"1306"}},{"start":{"in":"1313"},"end":{"in":"1313"}},{"start":{"in":"1328"},"end":{"in":"1328"}}]}},{"toponym":"Frissebi","citations":[{"label":"1200 Cur","year":1200}],"when":{"timespans":[{"start":{"in":"1200"},"end":{"in":"1200"}}]}},{"toponym":"Frisseby","citations":[{"label":"1338 AD","year":1338},{"label":"1387 Pat","year":1387}],"when":{"timespans":[{"start":{"in":"1338"},"end":{"in":"1338"}},{"start":{"in":"1387"},"end":{"in":"1387"}}]}},{"toponym":"Fryseby","citations":[{"label":"a.1250 Peake","year":1200},{"label":"AD","year":1255},{"label":"SR"},{"label":"1255 AD","year":1255},{"label":"1332 SR","year":1332},{"label":"1370 Ass","year":1370}],"when":{"timespans":[{"start":{"earliest":"1200","latest":"1250"},"end":{"earliest":"1200","latest":"1250"}},{"start":{"in":"1255"},"end":{"in":"1332"}},{"start":{"in":"1255"},"end":{"in":"1255"}},{"start":{"in":"1332"},"end":{"in":"1332"}},{"start":{"in":"1370"},"end":{"in":"1370"}}]}},{"toponym":"Fryseby iuxta Gauby","citations":[{"label":"1255 AD","year":1255}],"when":{"timespans":[{"start":{"in":"1255"},"end":{"in":"1255"}}]}},{"toponym":"Fryseby iuxta Galby","citations":[{"label":"1327 IpmR","year":1327}],"when":{"timespans":[{"start":{"in":"1327"},"end":{"in":"1327"}},{"start":{"in":"1328"},"end":{"in":"1328"}}]}},{"toponym":"Frysseby","citations":[{"label":"1370 Ipm","year":1370}],"when":{"timespans":[{"start":{"in":"1370"},"end":{"in":"1370"}}]}},{"toponym":"Frysby","citations":[{"label":"1385 AD","year":1385},{"label":"Pat","year":1399},{"label":"Visit"},{"label":"1399 Pat","year":1399},{"label":"1528 Visit","year":1528},{"label":"1535 VE","year":1535}],"when":{"timespans":[{"start":{"in":"1385"},"end":{"in":"1385"}},{"start":{"in":"1399"},"end":{"in":"1528"}},{"start":{"in":"1399"},"end":{"in":"1399"}},{"start":{"in":"1528"},"end":{"in":"1528"}},{"start":{"in":"1535"},"end":{"in":"1535"}}]}},{"toponym":"Frysby iuxta Galby","citations":[{"label":"1385 AD","year":1385}],"when":{"timespans":[{"start":{"in":"1385"},"end":{"in":"1385"}}]}},{"toponym":"Frisby","citations":[{"label":"1550 AAS","year":1550},{"label":"1610 Speed","year":1610}],"when":{"timespans":[{"start":{"in":"1550"},"end":{"in":"1550"}},{"start":{"in":"1610"},"end":{"in":"1610"}}]}},{"toponym":"Frisby juxta Galby","citations":[{"label":"1611 LML","year":1611}],"when":{"timespans":[{"start":{"in":"1611"},"end":{"in":"1611"}}]}},{"toponym":"Fresebi","citations":[{"label":"1166 LN","year":1166}],"when":{"timespans":[{"start":{"in":"1166"},"end":{"in":"1166"}}]}},{"toponym":"Freseby","citations":[{"label":"1166 RBE","year":1166}],"when":{"timespans":[{"start":{"in":"1166"},"end":{"in":"1166"}}]}},{"toponym":"Fresseby","citations":[{"label":"1416 Nichols","year":1416}],"when":{"timespans":[{"start":{"in":"1416"},"end":{"in":"1416"}}]}}],"types":[{"identifier":"http://vocab.getty.edu/aat/300232418","label":"administrative division","sourceLabels":[{"label":"township","lang":"en"}]}],"geometry":{"type":"GeometryCollection","geometries":[{"type":"Point","coordinates":[-0.95567,52.60782],"citations":[{"label":"GeoNames, gazetteer record geonames:7295419"}]},{"type":"Point","coordinates":[-0.9588201565407748,52.60634870583494],"citations":[{"label":"Unlock (EDINA) gazetteer, gazetteer record unlock:11148250"}]},{"type":"Point","coordinates":[-0.960361,52.6067],"citations":[{"label":"Key to English Place-Names (KEPN), gazetteer record 8760"}]}]},"when":{"timespans":[{"start":{"in":"1086"},"end":{"in":"1611"}}]},"links":[{"type":"closeMatch","identifier":"https://sws.geonames.org/7295419/"}],"relations":[{"relationType":"gvp:broaderPartitive","relationTo":"https://w3id.org/whg-epns/84/003128","label":"within Frisby"}]}]}