{"@context":"https://raw.githubusercontent.com/LinkedPasts/linked-places-format/main/linkedplaces-context-v1.1.jsonld","type":"FeatureCollection","license":"Digitisation of English Placenames MADS data is licensed to Jisc by the English Place Names Society and released under a Creative Commons Attribution-NonCommercial 4.0 International License.","note":"LPF v1.3, lossy; derived from the PLATO record; plato_commit=fa0d247ccc0263f8f19c8d7cdcd163df96935d1e","features":[{"@id":"https://w3id.org/whg-epns/84/004014","type":"Feature","properties":{"title":"Great Easton","ccodes":["GB"],"fclasses":["A","P"]},"names":[{"toponym":"Great Easton","lang":"en","citations":[{"label":"English Place-Name Society survey, volume 84: Leicestershire"}]},{"toponym":"Estun","citations":[{"label":"1041 × 57 HCand","year":1041},{"label":"1300 Ch","year":1300}],"when":{"timespans":[{"start":{"earliest":"1041","latest":"1057"},"end":{"earliest":"1041","latest":"1057"}},{"start":{"earliest":"1125","latest":"1175"},"end":{"earliest":"1125","latest":"1175"}},{"start":{"in":"1300"},"end":{"in":"1300"}}]}},{"toponym":"Estone","citations":[{"label":"1086 DB","year":1086}],"when":{"timespans":[{"start":{"in":"1086"},"end":{"in":"1086"}}]}},{"toponym":"Estona","citations":[{"label":"1125 × 28 LNPetr","year":1125},{"label":"a.1150 Peake","year":1100},{"label":"m.12 HCand","year":1125},{"label":"1280 ChronPetr","year":1280}],"when":{"timespans":[{"start":{"earliest":"1125","latest":"1128"},"end":{"earliest":"1125","latest":"1128"}},{"start":{"earliest":"1100","latest":"1150"},"end":{"earliest":"1100","latest":"1150"}},{"start":{"earliest":"1125","latest":"1175"},"end":{"earliest":"1125","latest":"1175"}},{"start":{"in":"1280"},"end":{"in":"1280"}},{"start":{"in":"1284"},"end":{"in":"1284"}}]}},{"toponym":"Eston'","citations":[{"label":"1146 Dugd","year":1146},{"label":"Ch","year":1189},{"label":"LEpis"},{"label":"1189 Ch","year":1189},{"label":"1583 LEpis","year":1583},{"label":"1595 Ipm","year":1595}],"when":{"timespans":[{"start":{"in":"1146"},"end":{"in":"1146"}},{"start":{"in":"1189"},"end":{"in":"1583"}},{"start":{"in":"1189"},"end":{"in":"1189"}},{"start":{"in":"1227"},"end":{"in":"1227"}},{"start":{"in":"1583"},"end":{"in":"1583"}},{"start":{"in":"1595"},"end":{"in":"1595"}}]}},{"toponym":"Heston'","citations":[{"label":"l.13 Peake","year":1275}],"when":{"timespans":[{"start":{"earliest":"1275","latest":"1300"},"end":{"earliest":"1275","latest":"1300"}}]}},{"toponym":"Astuna","citations":[{"label":"m.12 HCand","year":1125}],"when":{"timespans":[{"start":{"earliest":"1125","latest":"1175"},"end":{"earliest":"1125","latest":"1175"}}]}},{"toponym":"Aston'","citations":[{"label":"Peake","year":1327},{"label":"Peake"},{"label":"1327 Peake","year":1327},{"label":"1346 Peake","year":1346}],"when":{"timespans":[{"start":{"in":"1327"},"end":{"in":"1346"}},{"start":{"in":"1327"},"end":{"in":"1327"}},{"start":{"in":"1346"},"end":{"in":"1346"}}]}},{"toponym":"Eyston","citations":[{"label":"1481 Dugd","year":1481}],"when":{"timespans":[{"start":{"in":"1481"},"end":{"in":"1481"}}]}},{"toponym":"Eystorn","citations":[{"label":"1609 LeicW","year":1609}],"when":{"timespans":[{"start":{"in":"1609"},"end":{"in":"1609"}}]}},{"toponym":"Easton","citations":[{"label":"1576 Saxton","year":1576},{"label":"1604 SR","year":1604},{"label":"Speed","year":1610},{"label":"1610 Speed","year":1610}],"when":{"timespans":[{"start":{"in":"1576"},"end":{"in":"1576"}},{"start":{"in":"1604"},"end":{"in":"1604"}},{"start":{"in":"1610"},"end":{"in":"1610"}},{"start":{"in":"1610"},"end":{"in":"1610"}}]}},{"toponym":"~ iuxta Rogingham Brigge","citations":[{"label":"1306 Ass","year":1306}],"when":{"timespans":[{"start":{"in":"1306"},"end":{"in":"1306"}}]}},{"toponym":"~ iuxta Rokyngham","citations":[{"label":"1305 Cl","year":1305}],"when":{"timespans":[{"start":{"in":"1305"},"end":{"in":"1305"}},{"start":{"in":"1343"},"end":{"in":"1343"}}]}},{"toponym":"~ iuxta Brynghyrst","citations":[{"label":"1410 Conant","year":1410}],"when":{"timespans":[{"start":{"in":"1410"},"end":{"in":"1410"}},{"start":{"in":"1429"},"end":{"in":"1429"}}]}},{"toponym":"~ by Halyok","citations":[{"label":"1505 Banco","year":1505}],"when":{"timespans":[{"start":{"in":"1505"},"end":{"in":"1505"}}]}},{"toponym":"~ super Weland","citations":[{"label":"1535 VE","year":1535}],"when":{"timespans":[{"start":{"in":"1535"},"end":{"in":"1535"}}]}},{"toponym":"~ by Willond","citations":[{"label":"1548 Conant","year":1548}],"when":{"timespans":[{"start":{"in":"1548"},"end":{"in":"1548"}}]}},{"toponym":"~ by Wolland","citations":[{"label":"1609 LeicW","year":1609}],"when":{"timespans":[{"start":{"in":"1609"},"end":{"in":"1609"}}]}},{"toponym":"~ juxta Willand","citations":[{"label":"1634 LeicW","year":1634}],"when":{"timespans":[{"start":{"in":"1634"},"end":{"in":"1634"}}]}},{"toponym":"~ Magna","citations":[{"label":"1619 LML","year":1619},{"label":"1628 SR","year":1628}],"when":{"timespans":[{"start":{"in":"1619"},"end":{"in":"1619"}},{"start":{"in":"1628"},"end":{"in":"1628"}}]}},{"toponym":"Great ~","citations":[{"label":"1717 LML","year":1717}],"when":{"timespans":[{"start":{"in":"1717"},"end":{"in":"1717"}}]}}],"types":[{"identifier":"http://vocab.getty.edu/aat/300232418","label":"administrative division","sourceLabels":[{"label":"township","lang":"en"}]}],"geometry":{"type":"GeometryCollection","geometries":[{"type":"Point","coordinates":[-0.75028,52.53874],"citations":[{"label":"GeoNames, gazetteer record geonames:7291682"}]},{"type":"Point","coordinates":[-0.7541497103736053,52.53244126284753],"citations":[{"label":"Unlock (EDINA) gazetteer, gazetteer record unlock:11158699"}]},{"type":"Point","coordinates":[-0.755712,52.5328],"citations":[{"label":"Key to English Place-Names (KEPN), gazetteer record 8757"}]}]},"when":{"timespans":[{"start":{"in":"1041"},"end":{"in":"1717"}}]},"links":[{"type":"closeMatch","identifier":"https://sws.geonames.org/7291682/"}],"relations":[{"relationType":"gvp:broaderPartitive","relationTo":"https://w3id.org/whg-epns/84/004013","label":"within Great Easton"}]}]}