{"@context":"https://raw.githubusercontent.com/LinkedPasts/linked-places-format/main/linkedplaces-context-v1.1.jsonld","type":"FeatureCollection","license":"Digitisation of English Placenames MADS data is licensed to Jisc by the English Place Names Society and released under a Creative Commons Attribution-NonCommercial 4.0 International License.","note":"LPF v1.3, lossy; derived from the PLATO record; plato_commit=fa0d247ccc0263f8f19c8d7cdcd163df96935d1e","features":[{"@id":"https://w3id.org/whg-epns/84/011712","type":"Feature","properties":{"title":"Nevill Holt","ccodes":["GB"],"fclasses":["A","P"]},"names":[{"toponym":"Nevill Holt","lang":"en","citations":[{"label":"English Place-Name Society survey, volume 84: Leicestershire"}]},{"toponym":"Holt","citations":[{"label":"Hy 1 Dugd","year":1100},{"label":"a.1150 Peake","year":1100},{"label":"1166 RBE","year":1166},{"label":"12 Peake","year":1100}],"when":{"timespans":[{"start":{"earliest":"1100","latest":"1135"},"end":{"earliest":"1100","latest":"1135"}},{"start":{"earliest":"1100","latest":"1150"},"end":{"earliest":"1100","latest":"1150"}},{"start":{"in":"1166"},"end":{"in":"1166"}},{"start":{"earliest":"1100","latest":"1200"},"end":{"earliest":"1100","latest":"1200"}}]}},{"toponym":"Holt Abbotes","citations":[{"label":"1316 FA","year":1316}],"when":{"timespans":[{"start":{"in":"1316"},"end":{"in":"1316"}}]}},{"toponym":"Holt iuxta Medburn'","citations":[{"label":"1425 Peake","year":1425}],"when":{"timespans":[{"start":{"in":"1425"},"end":{"in":"1425"}}]}},{"toponym":"Holt iuxta Meddeb'rn","citations":[{"label":"1443 Peake","year":1443}],"when":{"timespans":[{"start":{"in":"1443"},"end":{"in":"1443"}}]}},{"toponym":"Holt iuxta Medborn'","citations":[{"label":"1444 Peake","year":1444}],"when":{"timespans":[{"start":{"in":"1444"},"end":{"in":"1444"}}]}},{"toponym":"Holte","citations":[{"label":"a.1250 Peake","year":1200},{"label":"1299 LCDeeds","year":1299},{"label":"Peake","year":1308},{"label":"Peake"},{"label":"1308 Peake","year":1308},{"label":"1444 Peake","year":1444},{"label":"1559 Pat","year":1559},{"label":"1572 Peake","year":1572}],"when":{"timespans":[{"start":{"earliest":"1200","latest":"1250"},"end":{"earliest":"1200","latest":"1250"}},{"start":{"in":"1299"},"end":{"in":"1299"}},{"start":{"in":"1308"},"end":{"in":"1447"}},{"start":{"in":"1308"},"end":{"in":"1308"}},{"start":{"in":"1444"},"end":{"in":"1444"}},{"start":{"in":"1447"},"end":{"in":"1447"}},{"start":{"in":"1559"},"end":{"in":"1559"}},{"start":{"in":"1572"},"end":{"in":"1572"}}]}},{"toponym":"Holtt","citations":[{"label":"1526 Peake","year":1526}],"when":{"timespans":[{"start":{"in":"1526"},"end":{"in":"1526"}},{"start":{"in":"1537"},"end":{"in":"1537"}}]}},{"toponym":"Holth","citations":[{"label":"a.1250 Peake","year":1200}],"when":{"timespans":[{"start":{"earliest":"1200","latest":"1250"},"end":{"earliest":"1200","latest":"1250"}},{"start":{"earliest":"1200","latest":"1300"},"end":{"earliest":"1200","latest":"1300"}}]}},{"toponym":"le Holt(e)","citations":[{"label":"1302 Ipm","year":1302}],"when":{"timespans":[{"start":{"in":"1302"},"end":{"in":"1302"}}]}},{"toponym":"the Holt(e)","citations":[{"label":"1537 Peake","year":1537},{"label":"c.1545 Leland","year":1535},{"label":"1690 Deed","year":1690}],"when":{"timespans":[{"start":{"in":"1537"},"end":{"in":"1537"}},{"start":{"in":"1542"},"end":{"in":"1542"}},{"start":{"earliest":"1535","latest":"1555"},"end":{"earliest":"1535","latest":"1555"}},{"start":{"in":"1690"},"end":{"in":"1690"}}]}},{"toponym":"Hout'","citations":[{"label":"e.13 Peake","year":1200}],"when":{"timespans":[{"start":{"earliest":"1200","latest":"1225"},"end":{"earliest":"1200","latest":"1225"}}]}}],"types":[{"identifier":"http://vocab.getty.edu/aat/300232418","label":"administrative division","sourceLabels":[{"label":"township","lang":"en"}]}],"geometry":{"type":"GeometryCollection","geometries":[{"type":"Point","coordinates":[-0.78733,52.5423],"citations":[{"label":"GeoNames, gazetteer record geonames:7298969"}]},{"type":"Point","coordinates":[-0.7983703111972763,52.53289847318289],"citations":[{"label":"Unlock (EDINA) gazetteer, gazetteer record unlock:11228400"}]},{"type":"Point","coordinates":[-0.799927,52.5333],"citations":[{"label":"Key to English Place-Names (KEPN), gazetteer record 8768"}]}]},"when":{"timespans":[{"start":{"in":"1100"},"end":{"in":"1690"}}]},"links":[{"type":"closeMatch","identifier":"https://sws.geonames.org/7298969/"}],"relations":[{"relationType":"gvp:broaderPartitive","relationTo":"https://w3id.org/whg-epns/84/011711","label":"within Nevill Holt"}]}]}