{"@context":"https://raw.githubusercontent.com/LinkedPasts/linked-places-format/main/linkedplaces-context-v1.1.jsonld","type":"FeatureCollection","license":"Digitisation of English Placenames MADS data is licensed to Jisc by the English Place Names Society and released under a Creative Commons Attribution-NonCommercial 4.0 International License.","note":"LPF v1.3, lossy; derived from the PLATO record; plato_commit=ca0afadabec1e23a145c0b03df77e8f151f79832","features":[{"@id":"http://placenames.org.uk/id/placename/84/016841","type":"Feature","properties":{"title":"Newton Harcourt","ccodes":["GB"],"fclasses":["A","P"]},"names":[{"toponym":"Newton Harcourt","lang":"en","citations":[{"label":"English Place-Name Society survey, volume 84: Leicestershire"}]},{"toponym":"Niuuetone","citations":[{"label":"1086 DB","year":1086}],"when":{"timespans":[{"start":{"in":"1086"},"end":{"in":"1086"}}]}},{"toponym":"Nieweton","citations":[{"label":"1202 Fine","year":1202}],"when":{"timespans":[{"start":{"in":"1202"},"end":{"in":"1202"}}]}},{"toponym":"Nevtone","citations":[{"label":"1086 DB","year":1086}],"when":{"timespans":[{"start":{"in":"1086"},"end":{"in":"1086"}}]}},{"toponym":"Neuton'","citations":[{"label":"e.13 Rut","year":1200},{"label":"1220–1243, recurring MHW","year":1220},{"label":"1220–1243, recurring Fine"},{"label":"1220 MHW","year":1220},{"label":"1243 Fine","year":1243},{"label":"1247–1393, recurring Wyg","year":1247},{"label":"1247–1393, recurring Wyg"},{"label":"1247 Wyg","year":1247},{"label":"1393 Wyg","year":1393},{"label":"1395–1446, recurring Banco","year":1395},{"label":"1395–1446, recurring Banco"},{"label":"1395 Banco","year":1395},{"label":"1446 Banco","year":1446},{"label":"1475 Pat","year":1475}],"when":{"timespans":[{"start":{"earliest":"1200","latest":"1225"},"end":{"earliest":"1200","latest":"1225"}},{"start":{"in":"1220"},"end":{"in":"1243"}},{"start":{"in":"1220"},"end":{"in":"1220"}},{"start":{"in":"1243"},"end":{"in":"1243"}},{"start":{"in":"1247"},"end":{"in":"1393"}},{"start":{"in":"1247"},"end":{"in":"1247"}},{"start":{"in":"1393"},"end":{"in":"1393"}},{"start":{"in":"1395"},"end":{"in":"1446"}},{"start":{"in":"1395"},"end":{"in":"1395"}},{"start":{"in":"1446"},"end":{"in":"1446"}},{"start":{"in":"1475"},"end":{"in":"1475"}}]}},{"toponym":"Neutone","citations":[{"label":"1280 × 92 Wyg","year":1280}],"when":{"timespans":[{"start":{"earliest":"1280","latest":"1292"},"end":{"earliest":"1280","latest":"1292"}},{"start":{"in":"1342"},"end":{"in":"1342"}},{"start":{"in":"1347"},"end":{"in":"1347"}}]}},{"toponym":"Neutona","citations":[{"label":"c.1250 Rut","year":1240},{"label":"1247 × 60 Wyg","year":1247}],"when":{"timespans":[{"start":{"earliest":"1240","latest":"1260"},"end":{"earliest":"1240","latest":"1260"}},{"start":{"earliest":"1247","latest":"1260"},"end":{"earliest":"1247","latest":"1260"}}]}},{"toponym":"Neweton","citations":[{"label":"1421 Fine","year":1421},{"label":"1437 Pat","year":1437},{"label":"1510 Visit","year":1510}],"when":{"timespans":[{"start":{"in":"1421"},"end":{"in":"1421"}},{"start":{"in":"1422"},"end":{"in":"1422"}},{"start":{"in":"1437"},"end":{"in":"1437"}},{"start":{"in":"1510"},"end":{"in":"1510"}}]}},{"toponym":"Newton","citations":[{"label":"1393–1604, recurring Wyg","year":1393},{"label":"1393–1604, recurring SR"},{"label":"1393 Wyg","year":1393},{"label":"1604 SR","year":1604},{"label":"1610–1610, recurring Speed","year":1610},{"label":"1610 Speed","year":1610}],"when":{"timespans":[{"start":{"in":"1393"},"end":{"in":"1604"}},{"start":{"in":"1393"},"end":{"in":"1393"}},{"start":{"in":"1417"},"end":{"in":"1417"}},{"start":{"in":"1604"},"end":{"in":"1604"}},{"start":{"in":"1610"},"end":{"in":"1610"}},{"start":{"in":"1610"},"end":{"in":"1610"}}]}},{"toponym":"~ Harecurt","citations":[{"label":"1275 Banco","year":1275},{"label":"1281 Pat","year":1281}],"when":{"timespans":[{"start":{"in":"1275"},"end":{"in":"1275"}},{"start":{"in":"1281"},"end":{"in":"1281"}},{"start":{"in":"1284"},"end":{"in":"1284"}}]}},{"toponym":"~ Harcurt","citations":[{"label":"1282 Banco","year":1282},{"label":"1288 Wyg","year":1288}],"when":{"timespans":[{"start":{"in":"1282"},"end":{"in":"1282"}},{"start":{"in":"1288"},"end":{"in":"1288"}}]}},{"toponym":"~ Harecourt(e)","citations":[{"label":"1282 Pat","year":1282},{"label":"1283–1475, recurring Banco","year":1283},{"label":"1283–1475, recurring Pat"},{"label":"1283 Banco","year":1283},{"label":"1475 Pat","year":1475},{"label":"1559 Nichols","year":1559}],"when":{"timespans":[{"start":{"in":"1282"},"end":{"in":"1282"}},{"start":{"in":"1283"},"end":{"in":"1475"}},{"start":{"in":"1283"},"end":{"in":"1283"}},{"start":{"in":"1475"},"end":{"in":"1475"}},{"start":{"in":"1559"},"end":{"in":"1559"}}]}},{"toponym":"~ Harcourt","citations":[{"label":"1283–1524, recurring Banco","year":1283},{"label":"1283–1524, recurring Ipm"},{"label":"1283 Banco","year":1283},{"label":"1524 Ipm","year":1524},{"label":"1604–1604, recurring SR","year":1604},{"label":"1604 SR","year":1604}],"when":{"timespans":[{"start":{"in":"1283"},"end":{"in":"1524"}},{"start":{"in":"1283"},"end":{"in":"1283"}},{"start":{"in":"1284"},"end":{"in":"1284"}},{"start":{"in":"1524"},"end":{"in":"1524"}},{"start":{"in":"1604"},"end":{"in":"1604"}},{"start":{"in":"1604"},"end":{"in":"1604"}}]}}],"types":[{"identifier":"http://vocab.getty.edu/aat/300232418","label":"administrative division","sourceLabels":[{"label":"township","lang":"en"}]}],"geometry":{"type":"GeometryCollection","geometries":[{"type":"Point","coordinates":[-1.06314277443209,52.56226395845971],"citations":[{"label":"Unlock (EDINA) gazetteer, gazetteer record unlock:11230945"}]},{"type":"Point","coordinates":[-1.04992,52.5625],"citations":[{"label":"Key to English Place-Names (KEPN), gazetteer record 10167"}]}]},"when":{"timespans":[{"start":{"in":"1086"},"end":{"in":"1610"}}]},"relations":[{"relationType":"gvp:broaderPartitive","relationTo":"http://placenames.org.uk/id/placename/84/016716","label":"within Wistow"}]}]}