{"@context":"https://raw.githubusercontent.com/LinkedPasts/linked-places-format/main/linkedplaces-context-v1.1.jsonld","type":"FeatureCollection","license":"Digitisation of English Placenames MADS data is licensed to Jisc by the English Place Names Society and released under a Creative Commons Attribution-NonCommercial 4.0 International License.","note":"LPF v1.3, lossy; derived from the PLATO record; plato_commit=ca0afadabec1e23a145c0b03df77e8f151f79832","features":[{"@id":"https://w3id.org/whg-epns/27/000017","type":"Feature","properties":{"title":"Abney","ccodes":["GB"],"fclasses":["A","P"]},"names":[{"toponym":"Abney","lang":"en","citations":[{"label":"English Place-Name Society survey, volume 27: Derbyshire"}]}],"types":[{"identifier":"http://vocab.getty.edu/aat/300232418","label":"administrative division","sourceLabels":[{"label":"parish","lang":"en"}]}],"geometry":{"type":"GeometryCollection","geometries":[{"type":"Point","coordinates":[-1.707292328316412,53.31180714739533],"citations":[{"label":"Unlock (EDINA) gazetteer, gazetteer record unlock:11055956"}]},{"type":"Point","coordinates":[-1.70877,53.3121],"citations":[{"label":"Key to English Place-Names (KEPN), gazetteer record 3199"}]}]},"relations":[{"relationType":"gvp:broaderPartitive","relationTo":"https://w3id.org/whg-epns/27/000002","label":"within High Peak Hundred"}]}]}