{"@context":"https://raw.githubusercontent.com/LinkedPasts/linked-places-format/main/linkedplaces-context-v1.1.jsonld","type":"FeatureCollection","license":"Digitisation of English Placenames MADS data is licensed to Jisc by the English Place Names Society and released under a Creative Commons Attribution-NonCommercial 4.0 International License.","note":"LPF v1.3, lossy; derived from the PLATO record; plato_commit=fa0d247ccc0263f8f19c8d7cdcd163df96935d1e","features":[{"@id":"https://w3id.org/whg-epns/27/001215","type":"Feature","properties":{"title":"Birchover","ccodes":["GB"],"fclasses":["A","P"]},"names":[{"toponym":"Birchover","lang":"en","citations":[{"label":"English Place-Name Society survey, volume 27: Derbyshire"}]},{"toponym":"Barcovere","citations":[{"label":"1086 DB","year":1086}],"when":{"timespans":[{"start":{"in":"1086"},"end":{"in":"1086"}}]}},{"toponym":"Birchehoure","citations":[{"label":"late 12th WollCh","year":1175}],"when":{"timespans":[{"start":{"earliest":"1175","latest":"1200"},"end":{"earliest":"1175","latest":"1200"}}]}},{"toponym":"Birchouer(e), Birchour(e), Byrchouer(e), Byrchour(e), Byrchover(e)","citations":[{"label":"1226 FF","year":1226},{"label":"Misc","year":1265},{"label":"1265 Misc","year":1265}],"when":{"timespans":[{"start":{"in":"1226"},"end":{"in":"1226"}},{"start":{"in":"1265"},"end":{"in":"1265"}},{"start":{"in":"1265"},"end":{"in":"1265"}}]}},{"toponym":"Birchenouere","citations":[{"label":"1269 Ass","year":1269}],"when":{"timespans":[{"start":{"in":"1269"},"end":{"in":"1269"}}]}}],"types":[{"identifier":"http://vocab.getty.edu/aat/300232418","label":"administrative division","sourceLabels":[{"label":"township","lang":"en"}]}],"geometry":{"type":"GeometryCollection","geometries":[{"type":"Point","coordinates":[-1.63813,53.15472],"citations":[{"label":"GeoNames, gazetteer record geonames:7298134"}]},{"type":"Point","coordinates":[-1.648504953472017,53.15881993062827],"citations":[{"label":"Unlock (EDINA) gazetteer, gazetteer record unlock:11077496"}]},{"type":"Point","coordinates":[-1.64999,53.1591],"citations":[{"label":"Key to English Place-Names (KEPN), gazetteer record 3208"}]}]},"when":{"timespans":[{"start":{"in":"1086"},"end":{"in":"1269"}}]},"links":[{"type":"closeMatch","identifier":"https://sws.geonames.org/7298134/"}],"relations":[{"relationType":"gvp:broaderPartitive","relationTo":"https://w3id.org/whg-epns/27/001214","label":"within Birchover"}]}]}