{"@context":"https://raw.githubusercontent.com/LinkedPasts/linked-places-format/main/linkedplaces-context-v1.1.jsonld","type":"FeatureCollection","license":"Digitisation of English Placenames MADS data is licensed to Jisc by the English Place Names Society and released under a Creative Commons Attribution-NonCommercial 4.0 International License.","note":"LPF v1.3, lossy; derived from the PLATO record; plato_commit=fa0d247ccc0263f8f19c8d7cdcd163df96935d1e","features":[{"@id":"https://w3id.org/whg-epns/27/004074","type":"Feature","properties":{"title":"Eyam Woodlands","ccodes":["GB"],"fclasses":["A","P"]},"names":[{"toponym":"Eyam Woodlands","lang":"en","citations":[{"label":"English Place-Name Society survey, volume 27: Derbyshire"}]},{"toponym":"Woodlontt","citations":[{"label":"Ed 4 DuLa","year":1461}],"when":{"timespans":[{"start":{"earliest":"1461","latest":"1483"},"end":{"earliest":"1461","latest":"1483"}}]}},{"toponym":"Woodland","citations":[{"label":"Eliz DuLa","year":1558},{"label":"1665 Bateman","year":1665}],"when":{"timespans":[{"start":{"earliest":"1558","latest":"1603"},"end":{"earliest":"1558","latest":"1603"}},{"start":{"in":"1665"},"end":{"in":"1665"}}]}},{"toponym":"Woodlands Hamblet","citations":[{"label":"1670 Derby","year":1670}],"when":{"timespans":[{"start":{"in":"1670"},"end":{"in":"1670"}}]}}],"types":[{"identifier":"http://vocab.getty.edu/aat/300232418","label":"administrative division","sourceLabels":[{"label":"township","lang":"en"}]}],"geometry":{"type":"Point","coordinates":[-1.66389,53.294],"citations":[{"label":"Key to English Place-Names (KEPN), gazetteer record 3232"}]},"when":{"timespans":[{"start":{"in":"1461"},"end":{"in":"1670"}}]},"relations":[{"relationType":"gvp:broaderPartitive","relationTo":"https://w3id.org/whg-epns/27/004073","label":"within Eyam Woodlands"}]}]}