{"@context":"https://raw.githubusercontent.com/LinkedPasts/linked-places-format/main/linkedplaces-context-v1.1.jsonld","type":"FeatureCollection","license":"Digitisation of English Placenames MADS data is licensed to Jisc by the English Place Names Society and released under a Creative Commons Attribution-NonCommercial 4.0 International License.","note":"LPF v1.3, lossy; derived from the PLATO record; plato_commit=fa0d247ccc0263f8f19c8d7cdcd163df96935d1e","features":[{"@id":"https://w3id.org/whg-epns/27/004588","type":"Feature","properties":{"title":"Froggatt","ccodes":["GB"],"fclasses":["A","P"]},"names":[{"toponym":"Froggatt","lang":"en","citations":[{"label":"English Place-Name Society survey, volume 27: Derbyshire"}]},{"toponym":"Froggecot(e)","citations":[{"label":"1225 ClR","year":1225},{"label":"1330 Ass","year":1330},{"label":"1424 Cl","year":1424}],"when":{"timespans":[{"start":{"in":"1225"},"end":{"in":"1225"}},{"start":{"in":"1330"},"end":{"in":"1330"}},{"start":{"in":"1424"},"end":{"in":"1424"}}]}},{"toponym":"Froggecoate","citations":[{"label":"1423 Portland","year":1423}],"when":{"timespans":[{"start":{"in":"1423"},"end":{"in":"1423"}}]}},{"toponym":"Frogcot(e)","citations":[{"label":"Ed 1 WollCh","year":1272},{"label":"1348 DbA","year":1348}],"when":{"timespans":[{"start":{"earliest":"1272","latest":"1307"},"end":{"earliest":"1272","latest":"1307"}},{"start":{"in":"1348"},"end":{"in":"1348"}}]}},{"toponym":"Froggot(e)","citations":[{"label":"1319 DbA","year":1319},{"label":"1355 BelCh","year":1355},{"label":"1392 DbA","year":1392}],"when":{"timespans":[{"start":{"in":"1319"},"end":{"in":"1319"}},{"start":{"in":"1355"},"end":{"in":"1355"}},{"start":{"in":"1392"},"end":{"in":"1392"}},{"start":{"in":"1416"},"end":{"in":"1416"}}]}},{"toponym":"Froggat(t)","citations":[{"label":"1339 DbA","year":1339}],"when":{"timespans":[{"start":{"in":"1339"},"end":{"in":"1339"}}]}},{"toponym":"Froggegate","citations":[{"label":"1203 P","year":1203}],"when":{"timespans":[{"start":{"in":"1203"},"end":{"in":"1203"}}]}}],"types":[{"identifier":"http://vocab.getty.edu/aat/300232418","label":"administrative division","sourceLabels":[{"label":"township","lang":"en"}]}],"geometry":{"type":"GeometryCollection","geometries":[{"type":"Point","coordinates":[-1.63563,53.2825],"citations":[{"label":"GeoNames, gazetteer record geonames:2649027"}]},{"type":"Point","coordinates":[-1.632472193350628,53.28463065065957],"citations":[{"label":"Unlock (EDINA) gazetteer, gazetteer record unlock:11148407"}]},{"type":"Point","coordinates":[-1.63396,53.2849],"citations":[{"label":"Key to English Place-Names (KEPN), gazetteer record 3238"}]}]},"when":{"timespans":[{"start":{"in":"1203"},"end":{"in":"1424"}}]},"links":[{"type":"closeMatch","identifier":"https://sws.geonames.org/2649027/"}],"relations":[{"relationType":"gvp:broaderPartitive","relationTo":"https://w3id.org/whg-epns/27/004587","label":"within Froggatt"}]}]}