{"@context":"https://raw.githubusercontent.com/LinkedPasts/linked-places-format/main/linkedplaces-context-v1.1.jsonld","type":"FeatureCollection","license":"Digitisation of English Placenames MADS data is licensed to Jisc by the English Place Names Society and released under a Creative Commons Attribution-NonCommercial 4.0 International License.","note":"LPF v1.3, lossy; derived from the PLATO record; plato_commit=fa0d247ccc0263f8f19c8d7cdcd163df96935d1e","features":[{"@id":"https://w3id.org/whg-epns/27/005476","type":"Feature","properties":{"title":"Hazlebadge","ccodes":["GB"],"fclasses":["A","P"]},"names":[{"toponym":"Hazlebadge","lang":"en","citations":[{"label":"English Place-Name Society survey, volume 27: Derbyshire"}]},{"toponym":"Hegelebec","citations":[{"label":"1086 DB","year":1086}],"when":{"timespans":[{"start":{"in":"1086"},"end":{"in":"1086"}}]}},{"toponym":"Haselbech(e), Hasilbech(e)","citations":[{"label":"1251 DbA","year":1251},{"label":"FF","year":1252},{"label":"BelCh"},{"label":"1252 FF","year":1252},{"label":"1422 BelCh","year":1422}],"when":{"timespans":[{"start":{"in":"1251"},"end":{"in":"1251"}},{"start":{"in":"1252"},"end":{"in":"1422"}},{"start":{"in":"1252"},"end":{"in":"1252"}},{"start":{"in":"1422"},"end":{"in":"1422"}}]}},{"toponym":"Haselbek","citations":[{"label":"Hy 3 For","year":1216}],"when":{"timespans":[{"start":{"earliest":"1216","latest":"1272"},"end":{"earliest":"1216","latest":"1272"}}]}},{"toponym":"Haselbach(e), Hasilbach(e)","citations":[{"label":"Hy 3 BelCh","year":1216},{"label":"1279 LichChart","year":1279},{"label":"For","year":1285},{"label":"DuLa"},{"label":"1285 For","year":1285},{"label":"Eliz DuLa","year":1558}],"when":{"timespans":[{"start":{"earliest":"1216","latest":"1272"},"end":{"earliest":"1216","latest":"1272"}},{"start":{"in":"1279"},"end":{"in":"1279"}},{"start":{"in":"1285"},"end":{"in":"1603"}},{"start":{"in":"1285"},"end":{"in":"1285"}},{"start":{"earliest":"1558","latest":"1603"},"end":{"earliest":"1558","latest":"1603"}}]}},{"toponym":"Hasulbach(e)","citations":[{"label":"1446 AD","year":1446},{"label":"Ed 4 DuLa","year":1461}],"when":{"timespans":[{"start":{"in":"1446"},"end":{"in":"1446"}},{"start":{"earliest":"1461","latest":"1483"},"end":{"earliest":"1461","latest":"1483"}}]}},{"toponym":"Eslessbecke","citations":[{"label":"1271 Ipm","year":1271}],"when":{"timespans":[{"start":{"in":"1271"},"end":{"in":"1271"}}]}},{"toponym":"Heselbache","citations":[{"label":"1367 Ipm","year":1367}],"when":{"timespans":[{"start":{"in":"1367"},"end":{"in":"1367"}}]}},{"toponym":"Hasylbadge","citations":[{"label":"1483 Bemrose","year":1483}],"when":{"timespans":[{"start":{"in":"1483"},"end":{"in":"1483"}}]}},{"toponym":"Hasslebage","citations":[{"label":"1625 Rental","year":1625}],"when":{"timespans":[{"start":{"in":"1625"},"end":{"in":"1625"}}]}},{"toponym":"Haslebadge","citations":[{"label":"1658 DbA","year":1658},{"label":"1767 Burdett","year":1767}],"when":{"timespans":[{"start":{"in":"1658"},"end":{"in":"1658"}},{"start":{"in":"1767"},"end":{"in":"1767"}}]}}],"types":[{"identifier":"http://vocab.getty.edu/aat/300232418","label":"administrative division","sourceLabels":[{"label":"township","lang":"en"}]}],"geometry":{"type":"GeometryCollection","geometries":[{"type":"Point","coordinates":[-1.7433,53.31409],"citations":[{"label":"GeoNames, gazetteer record geonames:7298148"}]},{"type":"Point","coordinates":[-1.737258061006993,53.32086667266687],"citations":[{"label":"Unlock (EDINA) gazetteer, gazetteer record unlock:11168557"}]},{"type":"Point","coordinates":[-1.73874,53.3211],"citations":[{"label":"Key to English Place-Names (KEPN), gazetteer record 3248"}]}]},"when":{"timespans":[{"start":{"in":"1086"},"end":{"in":"1767"}}]},"links":[{"type":"closeMatch","identifier":"https://sws.geonames.org/7298148/"}],"relations":[{"relationType":"gvp:broaderPartitive","relationTo":"https://w3id.org/whg-epns/27/005475","label":"within Hazlebadge"}]}]}