{"@context":"https://raw.githubusercontent.com/LinkedPasts/linked-places-format/main/linkedplaces-context-v1.1.jsonld","type":"FeatureCollection","license":"Digitisation of English Placenames MADS data is licensed to Jisc by the English Place Names Society and released under a Creative Commons Attribution-NonCommercial 4.0 International License.","note":"LPF v1.3, lossy; derived from the PLATO record; plato_commit=ca0afadabec1e23a145c0b03df77e8f151f79832","features":[{"@id":"https://w3id.org/whg-epns/27/005515","type":"Feature","properties":{"title":"Highlow","ccodes":["GB"],"fclasses":["A","P"]},"names":[{"toponym":"Highlow","lang":"en","citations":[{"label":"English Place-Name Society survey, volume 27: Derbyshire"}]},{"toponym":"Heihlau","citations":[{"label":"13th Rufford","year":1200}],"when":{"timespans":[{"start":{"earliest":"1200","latest":"1300"},"end":{"earliest":"1200","latest":"1300"}}]}},{"toponym":"Heyelawe","citations":[{"label":"1232 FF","year":1232}],"when":{"timespans":[{"start":{"in":"1232"},"end":{"in":"1232"}}]}},{"toponym":"Heyelowe","citations":[{"label":"1339 DbA","year":1339}],"when":{"timespans":[{"start":{"in":"1339"},"end":{"in":"1339"}}]}},{"toponym":"Le Eyelowe","citations":[{"label":"1275 RH","year":1275}],"when":{"timespans":[{"start":{"in":"1275"},"end":{"in":"1275"}}]}},{"toponym":"Hegelawe","citations":[{"label":"1248 DbCh","year":1248},{"label":"Hy 3 WollCh","year":1216}],"when":{"timespans":[{"start":{"in":"1248"},"end":{"in":"1248"}},{"start":{"earliest":"1216","latest":"1272"},"end":{"earliest":"1216","latest":"1272"}}]}},{"toponym":"He(e)lowe","citations":[{"label":"1265 Misc","year":1265},{"label":"1431 FA","year":1431}],"when":{"timespans":[{"start":{"in":"1265"},"end":{"in":"1265"}},{"start":{"in":"1431"},"end":{"in":"1431"}}]}},{"toponym":"Alta Lauwe","citations":[{"label":"Hy 3 For","year":1216}],"when":{"timespans":[{"start":{"earliest":"1216","latest":"1272"},"end":{"earliest":"1216","latest":"1272"}}]}},{"toponym":"(la) Hegh(e)lowe","citations":[{"label":"1330 Ass","year":1330},{"label":"1381–1475, recurring BelCh","year":1381},{"label":"1381–1475, recurring DbA"},{"label":"1381 BelCh","year":1381},{"label":"1475 DbA","year":1475}],"when":{"timespans":[{"start":{"in":"1330"},"end":{"in":"1330"}},{"start":{"in":"1381"},"end":{"in":"1475"}},{"start":{"in":"1381"},"end":{"in":"1381"}},{"start":{"in":"1475"},"end":{"in":"1475"}}]}},{"toponym":"Hylowe","citations":[{"label":"1419 DbCh","year":1419}],"when":{"timespans":[{"start":{"in":"1419"},"end":{"in":"1419"}}]}},{"toponym":"High(e)low(e)","citations":[{"label":"1513 Add","year":1513},{"label":"1552 SaltCh","year":1552},{"label":"1658 DbA","year":1658}],"when":{"timespans":[{"start":{"in":"1513"},"end":{"in":"1513"}},{"start":{"in":"1552"},"end":{"in":"1552"}},{"start":{"in":"1658"},"end":{"in":"1658"}}]}}],"types":[{"identifier":"http://vocab.getty.edu/aat/300232418","label":"administrative division","sourceLabels":[{"label":"township","lang":"en"}]}],"geometry":{"type":"GeometryCollection","geometries":[{"type":"Point","coordinates":[-1.67126,53.31184],"citations":[{"label":"GeoNames, gazetteer record geonames:7298149"}]},{"type":"Point","coordinates":[-1.677271526309848,53.31172971456091],"citations":[{"label":"Unlock (EDINA) gazetteer, gazetteer record unlock:11173517"}]},{"type":"Point","coordinates":[-1.67876,53.312],"citations":[{"label":"Key to English Place-Names (KEPN), gazetteer record 3249"}]}]},"when":{"timespans":[{"start":{"in":"1200"},"end":{"in":"1658"}}]},"links":[{"type":"closeMatch","identifier":"https://sws.geonames.org/7298149/"}],"relations":[{"relationType":"gvp:broaderPartitive","relationTo":"https://w3id.org/whg-epns/27/005514","label":"within Highlow"}]}]}