{"@context":"https://raw.githubusercontent.com/LinkedPasts/linked-places-format/main/linkedplaces-context-v1.1.jsonld","type":"FeatureCollection","license":"Digitisation of English Placenames MADS data is licensed to Jisc by the English Place Names Society and released under a Creative Commons Attribution-NonCommercial 4.0 International License.","note":"LPF v1.3, lossy; derived from the PLATO record; plato_commit=ca0afadabec1e23a145c0b03df77e8f151f79832","features":[{"@id":"https://w3id.org/whg-epns/27/008359","type":"Feature","properties":{"title":"Stanton in Peak","ccodes":["GB"],"fclasses":["A","P"]},"names":[{"toponym":"Stanton in Peak","lang":"en","citations":[{"label":"English Place-Name Society survey, volume 27: Derbyshire"}]},{"toponym":"Stantune","citations":[{"label":"1086 DB","year":1086}],"when":{"timespans":[{"start":{"in":"1086"},"end":{"in":"1086"}}]}},{"toponym":"Stanton(e)","citations":[{"label":"John DbCh","year":1199},{"label":"Hy 3 WollCh","year":1216}],"when":{"timespans":[{"start":{"earliest":"1199","latest":"1216"},"end":{"earliest":"1199","latest":"1216"}},{"start":{"earliest":"1216","latest":"1272"},"end":{"earliest":"1216","latest":"1272"}},{"start":{"in":"1291"},"end":{"in":"1291"}},{"start":{"in":"1314"},"end":{"in":"1314"}}]}},{"toponym":"Stanton(e) in le Peake","citations":[{"label":"1372 WollCh","year":1372}],"when":{"timespans":[{"start":{"in":"1372"},"end":{"in":"1372"}}]}},{"toponym":"Stanton(e) by Haddon","citations":[{"label":"1453 Cl","year":1453}],"when":{"timespans":[{"start":{"in":"1453"},"end":{"in":"1453"}}]}},{"toponym":"Staunton","citations":[{"label":"1202 FF","year":1202}],"when":{"timespans":[{"start":{"in":"1202"},"end":{"in":"1202"}}]}},{"toponym":"Staunton in Peake","citations":[{"label":"Ed 1 WollCh","year":1272}],"when":{"timespans":[{"start":{"earliest":"1272","latest":"1307"},"end":{"earliest":"1272","latest":"1307"}}]}},{"toponym":"Staunton juxta Yolgreve","citations":[{"label":"1328–1387, recurring Banco","year":1328},{"label":"1328–1387, recurring Dugd"},{"label":"1328 Banco","year":1328},{"label":"1387 Dugd","year":1387}],"when":{"timespans":[{"start":{"in":"1328"},"end":{"in":"1387"}},{"start":{"in":"1328"},"end":{"in":"1328"}},{"start":{"in":"1387"},"end":{"in":"1387"}}]}},{"toponym":"Staynton","citations":[{"label":"1577 Saxton","year":1577}],"when":{"timespans":[{"start":{"in":"1577"},"end":{"in":"1577"}}]}}],"types":[{"identifier":"http://vocab.getty.edu/aat/300232418","label":"administrative division","sourceLabels":[{"label":"township","lang":"en"}]}],"geometry":{"type":"GeometryCollection","geometries":[{"type":"Point","coordinates":[-1.63954,53.17487],"citations":[{"label":"GeoNames, gazetteer record geonames:2637042"}]},{"type":"Point","coordinates":[-1.633394845972374,53.17675441784704],"citations":[{"label":"Unlock (EDINA) gazetteer, gazetteer record unlock:11291170"}]},{"type":"Point","coordinates":[-1.63488,53.177],"citations":[{"label":"Key to English Place-Names (KEPN), gazetteer record 3272"}]}]},"when":{"timespans":[{"start":{"in":"1086"},"end":{"in":"1577"}}]},"links":[{"type":"closeMatch","identifier":"https://sws.geonames.org/2637042/"}],"relations":[{"relationType":"gvp:broaderPartitive","relationTo":"https://w3id.org/whg-epns/27/008358","label":"within Stanton"}]}]}