{"@context":"https://raw.githubusercontent.com/LinkedPasts/linked-places-format/main/linkedplaces-context-v1.1.jsonld","type":"FeatureCollection","license":"Digitisation of English Placenames MADS data is licensed to Jisc by the English Place Names Society and released under a Creative Commons Attribution-NonCommercial 4.0 International License.","note":"LPF v1.3, lossy; derived from the PLATO record; plato_commit=ca0afadabec1e23a145c0b03df77e8f151f79832","features":[{"@id":"http://placenames.org.uk/id/placename/27/009063","type":"Feature","properties":{"title":"Winster","ccodes":["GB"],"fclasses":["A","P"]},"names":[{"toponym":"Winster","lang":"en","citations":[{"label":"English Place-Name Society survey, volume 27: Derbyshire"}]},{"toponym":"Winsterne","citations":[{"label":"1086 DB","year":1086}],"when":{"timespans":[{"start":{"in":"1086"},"end":{"in":"1086"}}]}},{"toponym":"Winesterna","citations":[{"label":"1121-6 RegAnt","year":1121},{"label":"1155 Ch","year":1155}],"when":{"timespans":[{"start":{"earliest":"1121","latest":"1126"},"end":{"earliest":"1121","latest":"1126"}},{"start":{"in":"1155"},"end":{"in":"1155"}},{"start":{"in":"1155"},"end":{"in":"1155"}}]}},{"toponym":"Vinesterna","citations":[{"label":"1120-6 RegAnt","year":1120},{"label":"1120-6 Ch","year":1120}],"when":{"timespans":[{"start":{"earliest":"1120","latest":"1126"},"end":{"earliest":"1120","latest":"1126"}},{"start":{"earliest":"1120","latest":"1126"},"end":{"earliest":"1120","latest":"1126"}}]}},{"toponym":"Win(e)ster, Wynster","citations":[{"label":"late 12th WollCh","year":1175},{"label":"1211 Cur","year":1211},{"label":"1212 FF","year":1212},{"label":"1260–1260, recurring Selden","year":1260},{"label":"1260 Selden","year":1260}],"when":{"timespans":[{"start":{"earliest":"1175","latest":"1200"},"end":{"earliest":"1175","latest":"1200"}},{"start":{"in":"1211"},"end":{"in":"1211"}},{"start":{"in":"1212"},"end":{"in":"1212"}},{"start":{"in":"1260"},"end":{"in":"1260"}},{"start":{"in":"1260"},"end":{"in":"1260"}}]}},{"toponym":"Winstre, Wynstre","citations":[{"label":"c. 1200 BurtCh","year":1190},{"label":"1271 Ass","year":1271},{"label":"1309–1758, recurring DbCh","year":1309},{"label":"1309–1758, recurring Bowen"},{"label":"1309 DbCh","year":1309},{"label":"1758 Bowen","year":1758}],"when":{"timespans":[{"start":{"earliest":"1190","latest":"1210"},"end":{"earliest":"1190","latest":"1210"}},{"start":{"in":"1271"},"end":{"in":"1271"}},{"start":{"in":"1309"},"end":{"in":"1758"}},{"start":{"in":"1309"},"end":{"in":"1309"}},{"start":{"in":"1758"},"end":{"in":"1758"}}]}}],"types":[{"identifier":"http://vocab.getty.edu/aat/300232418","label":"administrative division","sourceLabels":[{"label":"township","lang":"en"}]}],"geometry":{"type":"GeometryCollection","geometries":[{"type":"Point","coordinates":[-1.64258,53.1418],"citations":[{"label":"GeoNames, gazetteer record geonames:2633806"}]},{"type":"Point","coordinates":[-1.633701080807041,53.14079523600854],"citations":[{"label":"Unlock (EDINA) gazetteer, gazetteer record unlock:11324218"}]},{"type":"Point","coordinates":[-1.63518,53.1411],"citations":[{"label":"Key to English Place-Names (KEPN), gazetteer record 3279"}]}]},"when":{"timespans":[{"start":{"in":"1086"},"end":{"in":"1758"}}]},"links":[{"type":"closeMatch","identifier":"https://sws.geonames.org/2633806/"}],"relations":[{"relationType":"gvp:broaderPartitive","relationTo":"http://placenames.org.uk/id/placename/27/009062","label":"within Winster"}]}]}