{"@context":"https://raw.githubusercontent.com/LinkedPasts/linked-places-format/main/linkedplaces-context-v1.1.jsonld","type":"FeatureCollection","license":"Digitisation of English Placenames MADS data is licensed to Jisc by the English Place Names Society and released under a Creative Commons Attribution-NonCommercial 4.0 International License.","note":"LPF v1.3, lossy; derived from the PLATO record; plato_commit=ca0afadabec1e23a145c0b03df77e8f151f79832","features":[{"@id":"http://placenames.org.uk/id/placename/42/000368","type":"Feature","properties":{"title":"Dillicar","ccodes":["GB"],"fclasses":["A","P"]},"names":[{"toponym":"Dillicar","lang":"en","citations":[{"label":"English Place-Name Society survey, volume 42: Westmorland"}]},{"toponym":"Dilacre, Dylacre","citations":[{"label":"1190-1220 Cockers","year":1190},{"label":"1208 Kend","year":1208},{"label":"1227 FF","year":1227},{"label":"1279 Ass","year":1279},{"label":"1297 Pat","year":1297},{"label":"1375–1534, recurring Ipm","year":1375},{"label":"1375–1534, recurring Kend"},{"label":"1375 Ipm","year":1375},{"label":"1534 Kend","year":1534}],"when":{"timespans":[{"start":{"earliest":"1190","latest":"1220"},"end":{"earliest":"1190","latest":"1220"}},{"start":{"in":"1208"},"end":{"in":"1208"}},{"start":{"in":"1227"},"end":{"in":"1227"}},{"start":{"in":"1279"},"end":{"in":"1279"}},{"start":{"in":"1297"},"end":{"in":"1297"}},{"start":{"in":"1375"},"end":{"in":"1534"}},{"start":{"in":"1375"},"end":{"in":"1375"}},{"start":{"in":"1377"},"end":{"in":"1377"}},{"start":{"in":"1534"},"end":{"in":"1534"}}]}},{"toponym":"Dilaker","citations":[{"label":"1274 Ipm","year":1274},{"label":"1301 Kend","year":1301},{"label":"1310 Ipm","year":1310}],"when":{"timespans":[{"start":{"in":"1274"},"end":{"in":"1274"}},{"start":{"in":"1301"},"end":{"in":"1301"}},{"start":{"in":"1310"},"end":{"in":"1310"}}]}},{"toponym":"Dilhaker","citations":[{"label":"1279 Ass","year":1279}],"when":{"timespans":[{"start":{"in":"1279"},"end":{"in":"1279"}}]}},{"toponym":"Dillaker","citations":[{"label":"1307 Ipm","year":1307},{"label":"1618 Kend","year":1618},{"label":"1612 Comm","year":1612}],"when":{"timespans":[{"start":{"in":"1307"},"end":{"in":"1307"}},{"start":{"in":"1618"},"end":{"in":"1618"}},{"start":{"in":"1612"},"end":{"in":"1612"}},{"start":{"in":"1657"},"end":{"in":"1657"}}]}},{"toponym":"Dillacre","citations":[{"label":"1404 Kend","year":1404}],"when":{"timespans":[{"start":{"in":"1404"},"end":{"in":"1404"}},{"start":{"in":"1635"},"end":{"in":"1635"}}]}},{"toponym":"Delacre","citations":[{"label":"1541 Kend","year":1541}],"when":{"timespans":[{"start":{"in":"1541"},"end":{"in":"1541"}}]}},{"toponym":"Deliacre","citations":[{"label":"1556 Kend","year":1556}],"when":{"timespans":[{"start":{"in":"1556"},"end":{"in":"1556"}}]}},{"toponym":"Delaker","citations":[{"label":"1577 Harrison","year":1577}],"when":{"timespans":[{"start":{"in":"1577"},"end":{"in":"1577"}}]}},{"toponym":"Dillicar, Dillikar","citations":[{"label":"1574 Rent","year":1574},{"label":"1623 PR(K)","year":1623}],"when":{"timespans":[{"start":{"in":"1574"},"end":{"in":"1574"}},{"start":{"in":"1623"},"end":{"in":"1623"}}]}},{"toponym":"Dilli(c)ker","citations":[{"label":"1576 PR(K)","year":1576}],"when":{"timespans":[{"start":{"in":"1576"},"end":{"in":"1576"}},{"start":{"in":"1587"},"end":{"in":"1587"}}]}},{"toponym":"Deliker","citations":[{"label":"1599 PR(K)","year":1599}],"when":{"timespans":[{"start":{"in":"1599"},"end":{"in":"1599"}}]}},{"toponym":"Delicar","citations":[{"label":"1623 PR(K)","year":1623}],"when":{"timespans":[{"start":{"in":"1623"},"end":{"in":"1623"}}]}},{"toponym":"Deliger","citations":[{"label":"1650 ParlSurv","year":1650}],"when":{"timespans":[{"start":{"in":"1650"},"end":{"in":"1650"}}]}}],"types":[{"identifier":"http://vocab.getty.edu/aat/300232418","label":"administrative division","sourceLabels":[{"label":"township","lang":"en"}]}],"geometry":{"type":"GeometryCollection","geometries":[{"type":"Point","coordinates":[-2.59424,54.3805],"citations":[{"label":"English Place-Name Society survey (DEEP coordinates)"}]},{"type":"Point","coordinates":[-2.592820023460669,54.38039511859074],"citations":[{"label":"Unlock (EDINA) gazetteer, gazetteer record unlock:11129423"}]},{"type":"Point","coordinates":[-2.59424,54.3805],"citations":[{"label":"Key to English Place-Names (KEPN), gazetteer record 5071"}]}]},"when":{"timespans":[{"start":{"in":"1190"},"end":{"in":"1657"}}]},"relations":[{"relationType":"gvp:broaderPartitive","relationTo":"http://placenames.org.uk/id/placename/42/000024","label":"within Kirkby Lonsdale"}]}]}