{"@context":"https://raw.githubusercontent.com/LinkedPasts/linked-places-format/main/linkedplaces-context-v1.1.jsonld","type":"FeatureCollection","license":"Digitisation of English Placenames MADS data is licensed to Jisc by the English Place Names Society and released under a Creative Commons Attribution-NonCommercial 4.0 International License.","note":"LPF v1.3, lossy; derived from the PLATO record; plato_commit=fa0d247ccc0263f8f19c8d7cdcd163df96935d1e","features":[{"@id":"https://w3id.org/whg-epns/42/006516","type":"Feature","properties":{"title":"Strickland Roger","ccodes":["GB"],"fclasses":["A","P"]},"names":[{"toponym":"Strickland Roger","lang":"en","citations":[{"label":"English Place-Name Society survey, volume 42: Westmorland"}]},{"toponym":"Stirk(e)land(e), Styrk(e)land(e)","citations":[{"label":"1186-1200 Kend","year":1186}],"when":{"timespans":[{"start":{"earliest":"1186","latest":"1200"},"end":{"earliest":"1186","latest":"1200"}},{"start":{"in":"1256"},"end":{"in":"1256"}}]}},{"toponym":"Strikeland","citations":[{"label":"1409 Kend","year":1409}],"when":{"timespans":[{"start":{"in":"1409"},"end":{"in":"1409"}}]}},{"toponym":"Strickland","citations":[{"label":"Hy 8 Add","year":1509}],"when":{"timespans":[{"start":{"earliest":"1509","latest":"1547"},"end":{"earliest":"1509","latest":"1547"}}]}},{"toponym":"-Roger","citations":[{"label":"1301 Kend","year":1301},{"label":"1310 Ipm","year":1310},{"label":"1330 Lowth","year":1330},{"label":"Lanc","year":1371},{"label":"Rent"},{"label":"1371 Lanc","year":1371},{"label":"1650 Rent","year":1650}],"when":{"timespans":[{"start":{"in":"1301"},"end":{"in":"1301"}},{"start":{"in":"1310"},"end":{"in":"1310"}},{"start":{"in":"1330"},"end":{"in":"1330"}},{"start":{"in":"1371"},"end":{"in":"1650"}},{"start":{"in":"1371"},"end":{"in":"1371"}},{"start":{"in":"1650"},"end":{"in":"1650"}}]}},{"toponym":"-rogger","citations":[{"label":"1441 ChancM","year":1441}],"when":{"timespans":[{"start":{"in":"1441"},"end":{"in":"1441"}}]}},{"toponym":"-Rogers","citations":[{"label":"1517 NCWills","year":1517}],"when":{"timespans":[{"start":{"in":"1517"},"end":{"in":"1517"}}]}}],"types":[{"identifier":"http://vocab.getty.edu/aat/300232418","label":"administrative division","sourceLabels":[{"label":"township","lang":"en"}]}],"geometry":{"type":"GeometryCollection","geometries":[{"type":"Point","coordinates":[-2.76408,54.4065],"citations":[{"label":"English Place-Name Society survey (DEEP coordinates)"}]},{"type":"Point","coordinates":[-2.76408,54.4065],"citations":[{"label":"Key to English Place-Names (KEPN), gazetteer record 5110"}]}]},"when":{"timespans":[{"start":{"in":"1186"},"end":{"in":"1650"}}]},"relations":[{"relationType":"gvp:broaderPartitive","relationTo":"https://w3id.org/whg-epns/42/006239","label":"within Burneside Chapelry"}]}]}