{"@context":"https://raw.githubusercontent.com/LinkedPasts/linked-places-format/main/linkedplaces-context-v1.1.jsonld","type":"FeatureCollection","license":"Digitisation of English Placenames MADS data is licensed to Jisc by the English Place Names Society and released under a Creative Commons Attribution-NonCommercial 4.0 International License.","note":"LPF v1.3, lossy; derived from the PLATO record; plato_commit=fa0d247ccc0263f8f19c8d7cdcd163df96935d1e","features":[{"@id":"https://w3id.org/whg-epns/42/007458","type":"Feature","properties":{"title":"Over Staveley","ccodes":["GB"],"fclasses":["A","P"]},"names":[{"toponym":"Over Staveley","lang":"en","citations":[{"label":"English Place-Name Society survey, volume 42: Westmorland"}]},{"toponym":"Staueley(e), Staveley(e)","citations":[{"label":"Ipm","year":1341},{"label":"Dep"},{"label":"1341 Ipm","year":1341},{"label":"1633 Dep","year":1633}],"when":{"timespans":[{"start":{"in":"1341"},"end":{"in":"1633"}},{"start":{"in":"1341"},"end":{"in":"1341"}},{"start":{"in":"1375"},"end":{"in":"1375"}},{"start":{"in":"1504"},"end":{"in":"1504"}},{"start":{"in":"1633"},"end":{"in":"1633"}}]}},{"toponym":"-Gamel","citations":[{"label":"1301 Kend","year":1301},{"label":"1337 SR","year":1337},{"label":"1383 Pedw","year":1383},{"label":"1345 SR","year":1345}],"when":{"timespans":[{"start":{"in":"1301"},"end":{"in":"1301"}},{"start":{"in":"1337"},"end":{"in":"1337"}},{"start":{"in":"1383"},"end":{"in":"1383"}},{"start":{"in":"1345"},"end":{"in":"1345"}}]}},{"toponym":"Stavelay Gamyll","citations":[{"label":"1431 Kend","year":1431}],"when":{"timespans":[{"start":{"in":"1431"},"end":{"in":"1431"}}]}},{"toponym":"Over-","citations":[{"label":"1545 FF","year":1545},{"label":"PR(K)","year":1556},{"label":"Dep"},{"label":"1556 PR(K)","year":1556},{"label":"1634 Dep","year":1634},{"label":"1657 Comm","year":1657}],"when":{"timespans":[{"start":{"in":"1545"},"end":{"in":"1545"}},{"start":{"in":"1556"},"end":{"in":"1634"}},{"start":{"in":"1556"},"end":{"in":"1556"}},{"start":{"in":"1634"},"end":{"in":"1634"}},{"start":{"in":"1657"},"end":{"in":"1657"}}]}},{"toponym":"Upper Staveley","citations":[{"label":"1669 Kend","year":1669}],"when":{"timespans":[{"start":{"in":"1669"},"end":{"in":"1669"}}]}},{"toponym":"Stauley(e), Stavley(e), -lay","citations":[{"label":"1374 Fine","year":1374}],"when":{"timespans":[{"start":{"in":"1374"},"end":{"in":"1374"}}]}},{"toponym":"Staflay","citations":[{"label":"1399 Fine","year":1399}],"when":{"timespans":[{"start":{"in":"1399"},"end":{"in":"1399"}}]}}],"types":[{"identifier":"http://vocab.getty.edu/aat/300232418","label":"administrative division","sourceLabels":[{"label":"township","lang":"en"}]}],"geometry":{"type":"GeometryCollection","geometries":[{"type":"Point","coordinates":[-2.81143,54.39607],"citations":[{"label":"GeoNames, gazetteer record geonames:7298112"}]},{"type":"Point","coordinates":[-2.81029,54.4062],"citations":[{"label":"English Place-Name Society survey (DEEP coordinates)"}]},{"type":"Point","coordinates":[-2.81029,54.4062],"citations":[{"label":"Key to English Place-Names (KEPN), gazetteer record 5115"}]}]},"when":{"timespans":[{"start":{"in":"1301"},"end":{"in":"1669"}}]},"links":[{"type":"closeMatch","identifier":"https://sws.geonames.org/7298112/"}],"relations":[{"relationType":"gvp:broaderPartitive","relationTo":"https://w3id.org/whg-epns/42/007170","label":"within Staveley Chapelry"}]}]}