{"@context":"https://raw.githubusercontent.com/LinkedPasts/linked-places-format/main/linkedplaces-context-v1.1.jsonld","type":"FeatureCollection","license":"Digitisation of English Placenames MADS data is licensed to Jisc by the English Place Names Society and released under a Creative Commons Attribution-NonCommercial 4.0 International License.","note":"LPF v1.3, lossy; derived from the PLATO record; plato_commit=ca0afadabec1e23a145c0b03df77e8f151f79832","features":[{"@id":"http://placenames.org.uk/id/placename/42/007851","type":"Feature","properties":{"title":"Ambleside","ccodes":["GB"],"fclasses":["A","P"]},"names":[{"toponym":"Ambleside","lang":"en","citations":[{"label":"English Place-Name Society survey, volume 42: Westmorland"}]},{"toponym":"Amdeseta","citations":[{"label":"1090-7 Ch","year":1090}],"when":{"timespans":[{"start":{"earliest":"1090","latest":"1097"},"end":{"earliest":"1090","latest":"1097"}}]}},{"toponym":"Amelsat(e)","citations":[{"label":"13 NB","year":1200},{"label":"1274 CW","year":1274},{"label":"1275 Ch","year":1275}],"when":{"timespans":[{"start":{"earliest":"1200","latest":"1300"},"end":{"earliest":"1200","latest":"1300"}},{"start":{"in":"1274"},"end":{"in":"1274"}},{"start":{"in":"1275"},"end":{"in":"1275"}},{"start":{"in":"1340"},"end":{"in":"1340"}}]}},{"toponym":"Amelsayt","citations":[{"label":"1332 SR","year":1332}],"when":{"timespans":[{"start":{"in":"1332"},"end":{"in":"1332"}}]}},{"toponym":"Amelsath","citations":[{"label":"1337 SR","year":1337}],"when":{"timespans":[{"start":{"in":"1337"},"end":{"in":"1337"}}]}},{"toponym":"Amelset(t), Amelsette","citations":[{"label":"1439 MinAcct","year":1439},{"label":"1446–1547, recurring Fine","year":1446},{"label":"1446–1547, recurring MinAcct"},{"label":"1446 Fine","year":1446},{"label":"1547 MinAcct","year":1547}],"when":{"timespans":[{"start":{"in":"1439"},"end":{"in":"1439"}},{"start":{"in":"1446"},"end":{"in":"1547"}},{"start":{"in":"1446"},"end":{"in":"1446"}},{"start":{"in":"1547"},"end":{"in":"1547"}}]}},{"toponym":"Amelsatt, Amelshede","citations":[{"label":"1443 Pat","year":1443}],"when":{"timespans":[{"start":{"in":"1443"},"end":{"in":"1443"}}]}},{"toponym":"Amellside","citations":[{"label":"1581 Dep","year":1581}],"when":{"timespans":[{"start":{"in":"1581"},"end":{"in":"1581"}}]}},{"toponym":"Amelesete, Hamelesete","citations":[{"label":"1292 Ass","year":1292}],"when":{"timespans":[{"start":{"in":"1292"},"end":{"in":"1292"}}]}},{"toponym":"Hamelset(t), Hamelsete","citations":[{"label":"1304 Pat","year":1304},{"label":"1324–1547, recurring Ipm","year":1324},{"label":"1324–1547, recurring Kend"},{"label":"1324 Ipm","year":1324},{"label":"1547 Kend","year":1547}],"when":{"timespans":[{"start":{"in":"1304"},"end":{"in":"1304"}},{"start":{"in":"1324"},"end":{"in":"1547"}},{"start":{"in":"1324"},"end":{"in":"1324"}},{"start":{"in":"1547"},"end":{"in":"1547"}}]}},{"toponym":"Hamelsate","citations":[{"label":"1335 Ipm","year":1335},{"label":"1375 Cl","year":1375},{"label":"1376 Ipm","year":1376}],"when":{"timespans":[{"start":{"in":"1335"},"end":{"in":"1335"}},{"start":{"in":"1375"},"end":{"in":"1375"}},{"start":{"in":"1376"},"end":{"in":"1376"}}]}},{"toponym":"Hamelsed","citations":[{"label":"1472 Kend","year":1472}],"when":{"timespans":[{"start":{"in":"1472"},"end":{"in":"1472"}}]}},{"toponym":"Amylside, Amylsyde","citations":[{"label":"1379-1403 Ambls","year":1379},{"label":"1390-4 Kend","year":1390},{"label":"1553–1650, recurring HMC","year":1553},{"label":"1553–1650, recurring Rent"},{"label":"1553 HMC","year":1553},{"label":"1650 Rent","year":1650}],"when":{"timespans":[{"start":{"earliest":"1379","latest":"1403"},"end":{"earliest":"1379","latest":"1403"}},{"start":{"earliest":"1390","latest":"1394"},"end":{"earliest":"1390","latest":"1394"}},{"start":{"in":"1553"},"end":{"in":"1650"}},{"start":{"in":"1553"},"end":{"in":"1553"}},{"start":{"in":"1650"},"end":{"in":"1650"}}]}},{"toponym":"Amylsed","citations":[{"label":"1437 Kend","year":1437},{"label":"1443 Ct","year":1443}],"when":{"timespans":[{"start":{"in":"1437"},"end":{"in":"1437"}},{"start":{"in":"1443"},"end":{"in":"1443"}}]}},{"toponym":"Amylsette","citations":[{"label":"1512 Kend","year":1512}],"when":{"timespans":[{"start":{"in":"1512"},"end":{"in":"1512"}}]}},{"toponym":"Ambelsede, Hambilsede","citations":[{"label":"1437 Pat","year":1437}],"when":{"timespans":[{"start":{"in":"1437"},"end":{"in":"1437"}},{"start":{"in":"1440"},"end":{"in":"1440"}}]}},{"toponym":"Ambleset","citations":[{"label":"1475 Pat","year":1475}],"when":{"timespans":[{"start":{"in":"1475"},"end":{"in":"1475"}}]}},{"toponym":"Ambleside, Amblesyde","citations":[{"label":"1564 Ambls","year":1564},{"label":"1577 Harrison","year":1577},{"label":"1583–1716, recurring PR(K)","year":1583},{"label":"1583–1716, recurring Ct"},{"label":"1583 PR(K)","year":1583},{"label":"1716 Ct","year":1716}],"when":{"timespans":[{"start":{"in":"1564"},"end":{"in":"1564"}},{"start":{"in":"1577"},"end":{"in":"1577"}},{"start":{"in":"1583"},"end":{"in":"1716"}},{"start":{"in":"1583"},"end":{"in":"1583"}},{"start":{"in":"1716"},"end":{"in":"1716"}}]}}],"types":[{"identifier":"http://vocab.getty.edu/aat/300232418","label":"administrative division","sourceLabels":[{"label":"township","lang":"en"}]}],"geometry":{"type":"GeometryCollection","geometries":[{"type":"Point","coordinates":[-2.96167,54.43261],"citations":[{"label":"GeoNames, gazetteer record geonames:2657360"}]},{"type":"Point","coordinates":[-2.96496,54.4321],"citations":[{"label":"English Place-Name Society survey (DEEP coordinates)"}]},{"type":"Point","coordinates":[-2.96358681023542,54.4319364520582],"citations":[{"label":"Unlock (EDINA) gazetteer, gazetteer record unlock:11061737"}]},{"type":"Point","coordinates":[-2.96496,54.4321],"citations":[{"label":"Key to English Place-Names (KEPN), gazetteer record 5118"}]}]},"when":{"timespans":[{"start":{"in":"1090"},"end":{"in":"1716"}}]},"links":[{"type":"closeMatch","identifier":"https://sws.geonames.org/2657360/"}],"relations":[{"relationType":"gvp:broaderPartitive","relationTo":"http://placenames.org.uk/id/placename/42/007850","label":"within Windermere"}]}]}