{"@context":"https://raw.githubusercontent.com/LinkedPasts/linked-places-format/main/linkedplaces-context-v1.1.jsonld","type":"FeatureCollection","license":"Digitisation of English Placenames MADS data is licensed to Jisc by the English Place Names Society and released under a Creative Commons Attribution-NonCommercial 4.0 International License.","note":"LPF v1.3, lossy; derived from the PLATO record; plato_commit=fa0d247ccc0263f8f19c8d7cdcd163df96935d1e","features":[{"@id":"https://w3id.org/whg-epns/42/007850","type":"Feature","properties":{"title":"Windermere","ccodes":["GB"],"fclasses":["A","P"]},"names":[{"toponym":"Windermere","lang":"en","citations":[{"label":"English Place-Name Society survey, volume 42: Westmorland"}]}],"types":[{"identifier":"http://vocab.getty.edu/aat/300232418","label":"administrative division","sourceLabels":[{"label":"parish","lang":"en"}]}],"geometry":{"type":"GeometryCollection","geometries":[{"type":"Point","coordinates":[-2.90709,54.38086],"citations":[{"label":"GeoNames, gazetteer record geonames:2633851"}]},{"type":"Point","coordinates":[-2.90212,54.3786],"citations":[{"label":"English Place-Name Society survey (DEEP coordinates)"}]},{"type":"Point","coordinates":[-2.900743528286292,54.37849056657576],"citations":[{"label":"Unlock (EDINA) gazetteer, gazetteer record unlock:11323643"}]},{"type":"Point","coordinates":[-2.90212,54.3786],"citations":[{"label":"Key to English Place-Names (KEPN), gazetteer record 5117"}]}]},"links":[{"type":"closeMatch","identifier":"https://sws.geonames.org/2633851/"}],"relations":[{"relationType":"gvp:broaderPartitive","relationTo":"https://w3id.org/whg-epns/42/001954","label":"within Kendal Ward"}]}]}