{"@context":"https://raw.githubusercontent.com/LinkedPasts/linked-places-format/main/linkedplaces-context-v1.1.jsonld","type":"FeatureCollection","license":"Digitisation of English Placenames MADS data is licensed to Jisc by the English Place Names Society and released under a Creative Commons Attribution-NonCommercial 4.0 International License.","note":"LPF v1.3, lossy; derived from the PLATO record; plato_commit=ca0afadabec1e23a145c0b03df77e8f151f79832","features":[{"@id":"https://w3id.org/whg-epns/98/000002","type":"Feature","properties":{"title":"Bedford","ccodes":["GB"],"fclasses":["P"]},"names":[{"toponym":"Bedford","lang":"en","citations":[{"label":"English Place-Name Society survey, volume 3: Bedfordshire"}]},{"toponym":"Bedanford","citations":[{"label":"918 ASC","year":918}],"when":{"timespans":[{"start":{"in":"0918"},"end":{"in":"0918"}}]}},{"toponym":"Bydanford","citations":[{"label":"c. 1000 Saints","year":990}],"when":{"timespans":[{"start":{"earliest":"0990","latest":"1010"},"end":{"earliest":"0990","latest":"1010"}}]}},{"toponym":"Bedeford","citations":[{"label":"1086 DB","year":1086}],"when":{"timespans":[{"start":{"in":"1086"},"end":{"in":"1086"}}]}},{"toponym":"Bedford","citations":[{"label":"1198 FF","year":1198}],"when":{"timespans":[{"start":{"in":"1198"},"end":{"in":"1198"}}]}}],"types":[{"identifier":"http://vocab.getty.edu/aat/300008375","label":"town","sourceLabels":[{"label":"county town","lang":"en"}]}],"geometry":{"type":"GeometryCollection","geometries":[{"type":"Point","coordinates":[-0.46632,52.13459],"citations":[{"label":"GeoNames, gazetteer record geonames:2656046"}]},{"type":"Point","coordinates":[-0.458454493822241,52.13330856833755],"citations":[{"label":"Unlock (EDINA) gazetteer, gazetteer record unlock:11073124"}]},{"type":"Point","coordinates":[-0.474639,52.1339],"citations":[{"label":"Key to English Place-Names (KEPN), gazetteer record 4221"}]}]},"when":{"timespans":[{"start":{"in":"0918"},"end":{"in":"1198"}}]},"links":[{"type":"closeMatch","identifier":"https://sws.geonames.org/2656046/"}],"relations":[{"relationType":"gvp:broaderPartitive","relationTo":"https://w3id.org/whg-epns/98/000001","label":"within Bedfordshire"}]}]}