{"@context":"https://raw.githubusercontent.com/LinkedPasts/linked-places-format/main/linkedplaces-context-v1.1.jsonld","type":"FeatureCollection","license":"Digitisation of English Placenames MADS data is licensed to Jisc by the English Place Names Society and released under a Creative Commons Attribution-NonCommercial 4.0 International License.","note":"LPF v1.3, lossy; derived from the PLATO record; plato_commit=ca0afadabec1e23a145c0b03df77e8f151f79832","features":[{"@id":"https://w3id.org/whg-epns/98/000091","type":"Feature","properties":{"title":"Melchbourne","ccodes":["GB"],"fclasses":["A","P"]},"names":[{"toponym":"Melchbourne","lang":"en","citations":[{"label":"English Place-Name Society survey, volume 3: Bedfordshire"}]}],"types":[{"identifier":"http://vocab.getty.edu/aat/300232418","label":"administrative division","sourceLabels":[{"label":"parish","lang":"en"}]}],"geometry":{"type":"GeometryCollection","geometries":[{"type":"Point","coordinates":[-0.49327,52.28018],"citations":[{"label":"GeoNames, gazetteer record geonames:2642795"}]},{"type":"Point","coordinates":[-0.4974292217173902,52.27768680008554],"citations":[{"label":"Unlock (EDINA) gazetteer, gazetteer record unlock:11216862"}]},{"type":"Point","coordinates":[-0.499011,52.2781],"citations":[{"label":"Key to English Place-Names (KEPN), gazetteer record 4226"}]}]},"links":[{"type":"closeMatch","identifier":"https://sws.geonames.org/2642795/"}],"relations":[{"relationType":"gvp:broaderPartitive","relationTo":"https://w3id.org/whg-epns/98/000022","label":"within Stodden Hundred"}]}]}