{"@context":"https://raw.githubusercontent.com/LinkedPasts/linked-places-format/main/linkedplaces-context-v1.1.jsonld","type":"FeatureCollection","license":"Digitisation of English Placenames MADS data is licensed to Jisc by the English Place Names Society and released under a Creative Commons Attribution-NonCommercial 4.0 International License.","note":"LPF v1.3, lossy; derived from the PLATO record; plato_commit=fa0d247ccc0263f8f19c8d7cdcd163df96935d1e","features":[{"@id":"https://w3id.org/whg-epns/98/000052","type":"Feature","properties":{"title":"Upper and Lower Dean","ccodes":["GB"],"fclasses":["A","P"]},"names":[{"toponym":"Upper and Lower Dean","lang":"en","citations":[{"label":"English Place-Name Society survey, volume 3: Bedfordshire"}]},{"toponym":"Dene","citations":[{"label":"1086 DB","year":1086}],"when":{"timespans":[{"start":{"in":"1086"},"end":{"in":"1086"}}]}},{"toponym":"Middeldene","citations":[{"label":"1287 Ass","year":1287}],"when":{"timespans":[{"start":{"in":"1287"},"end":{"in":"1287"}}]}},{"toponym":"Dene juxta Tillebroke","citations":[{"label":"1307 Ass","year":1307}],"when":{"timespans":[{"start":{"in":"1307"},"end":{"in":"1307"}}]}},{"toponym":"Overdene","citations":[{"label":"1430 Pat","year":1430}],"when":{"timespans":[{"start":{"in":"1430"},"end":{"in":"1430"}}]}},{"toponym":"Overdeane, Netherdeane","citations":[{"label":"1539 Dugd","year":1539}],"when":{"timespans":[{"start":{"in":"1539"},"end":{"in":"1539"}}]}},{"toponym":"Overden, Netherden","citations":[{"label":"1545 LP","year":1545}],"when":{"timespans":[{"start":{"in":"1545"},"end":{"in":"1545"}}]}}],"types":[{"identifier":"http://vocab.getty.edu/aat/300232418","label":"administrative division","sourceLabels":[{"label":"township","lang":"en"}]}],"geometry":{"type":"Point","coordinates":[-0.469088,52.2957],"citations":[{"label":"Key to English Place-Names (KEPN), gazetteer record 4223"}]},"when":{"timespans":[{"start":{"in":"1086"},"end":{"in":"1545"}}]},"relations":[{"relationType":"gvp:broaderPartitive","relationTo":"https://w3id.org/whg-epns/98/000051","label":"within Dean"}]}]}