{"@context":"https://raw.githubusercontent.com/LinkedPasts/linked-places-format/main/linkedplaces-context-v1.1.jsonld","type":"FeatureCollection","license":"Digitisation of English Placenames MADS data is licensed to Jisc by the English Place Names Society and released under a Creative Commons Attribution-NonCommercial 4.0 International License.","note":"LPF v1.3, lossy; derived from the PLATO record; plato_commit=fa0d247ccc0263f8f19c8d7cdcd163df96935d1e","features":[{"@id":"https://w3id.org/whg-epns/98/000213","type":"Feature","properties":{"title":"Clapham","ccodes":["GB"],"fclasses":["A","P"]},"names":[{"toponym":"Clapham","lang":"en","citations":[{"label":"English Place-Name Society survey, volume 3: Bedfordshire"}]},{"toponym":"Cloppham","citations":[{"label":"1060 KCD","year":1060},{"label":"1253 BM","year":1253},{"label":"1402 AD","year":1402},{"label":"1253 BM","year":1253},{"label":"1582 AD","year":1582}],"when":{"timespans":[{"start":{"in":"1060"},"end":{"in":"1060"}},{"start":{"in":"1253"},"end":{"in":"1253"}},{"start":{"in":"1402"},"end":{"in":"1402"}},{"start":{"in":"1253"},"end":{"in":"1253"}},{"start":{"in":"1582"},"end":{"in":"1582"}}]}},{"toponym":"Clopeham","citations":[{"label":"1086 DB","year":1086}],"when":{"timespans":[{"start":{"in":"1086"},"end":{"in":"1086"}}]}},{"toponym":"Clopham","citations":[{"label":"1163 P","year":1163},{"label":"LS","year":1220},{"label":"VE"},{"label":"1220 LS","year":1220},{"label":"1535 VE","year":1535},{"label":"17th BHRS","year":1600}],"when":{"timespans":[{"start":{"in":"1163"},"end":{"in":"1163"}},{"start":{"in":"1167"},"end":{"in":"1167"}},{"start":{"in":"1220"},"end":{"in":"1535"}},{"start":{"in":"1220"},"end":{"in":"1220"}},{"start":{"in":"1535"},"end":{"in":"1535"}},{"start":{"earliest":"1600","latest":"1700"},"end":{"earliest":"1600","latest":"1700"}}]}},{"toponym":"Clapham","citations":[{"label":"1247 Ass","year":1247},{"label":"1579 AD","year":1579}],"when":{"timespans":[{"start":{"in":"1247"},"end":{"in":"1247"}},{"start":{"in":"1579"},"end":{"in":"1579"}}]}},{"toponym":"Clappam(e)","citations":[{"label":"1542 Ipm","year":1542},{"label":"1545 AD","year":1545}],"when":{"timespans":[{"start":{"in":"1542"},"end":{"in":"1542"}},{"start":{"in":"1545"},"end":{"in":"1545"}}]}},{"toponym":"Clappham","citations":[{"label":"1582 AD","year":1582}],"when":{"timespans":[{"start":{"in":"1582"},"end":{"in":"1582"}}]}}],"types":[{"identifier":"http://vocab.getty.edu/aat/300232418","label":"administrative division","sourceLabels":[{"label":"township","lang":"en"}]}],"geometry":{"type":"GeometryCollection","geometries":[{"type":"Point","coordinates":[-0.49529,52.16085],"citations":[{"label":"GeoNames, gazetteer record geonames:2652950"}]},{"type":"Point","coordinates":[-0.5010662118646618,52.16982703486942],"citations":[{"label":"Unlock (EDINA) gazetteer, gazetteer record unlock:11107980"}]},{"type":"Point","coordinates":[-0.502945,52.1613],"citations":[{"label":"Key to English Place-Names (KEPN), gazetteer record 4233"}]}]},"when":{"timespans":[{"start":{"in":"1060"},"end":{"in":"1700"}}]},"links":[{"type":"closeMatch","identifier":"https://sws.geonames.org/2652950/"}],"relations":[{"relationType":"gvp:broaderPartitive","relationTo":"https://w3id.org/whg-epns/98/000212","label":"within Clapham"}]}]}