{"@context":"https://raw.githubusercontent.com/LinkedPasts/linked-places-format/main/linkedplaces-context-v1.1.jsonld","type":"FeatureCollection","license":"Digitisation of English Placenames MADS data is licensed to Jisc by the English Place Names Society and released under a Creative Commons Attribution-NonCommercial 4.0 International License.","note":"LPF v1.3, lossy; derived from the PLATO record; plato_commit=fa0d247ccc0263f8f19c8d7cdcd163df96935d1e","features":[{"@id":"https://w3id.org/whg-epns/98/000262","type":"Feature","properties":{"title":"Biddenham","ccodes":["GB"],"fclasses":["A","P"]},"names":[{"toponym":"Biddenham","lang":"en","citations":[{"label":"English Place-Name Society survey, volume 3: Bedfordshire"}]},{"toponym":"Bideham","citations":[{"label":"1086 DB","year":1086},{"label":"1219 FF","year":1219},{"label":"1242 Fees","year":1242},{"label":"1247 Ass","year":1247},{"label":"1315 Ipm","year":1315},{"label":"1347 Cl","year":1347}],"when":{"timespans":[{"start":{"in":"1086"},"end":{"in":"1086"}},{"start":{"in":"1219"},"end":{"in":"1219"}},{"start":{"in":"1228"},"end":{"in":"1228"}},{"start":{"in":"1242"},"end":{"in":"1242"}},{"start":{"in":"1247"},"end":{"in":"1247"}},{"start":{"in":"1315"},"end":{"in":"1315"}},{"start":{"in":"1347"},"end":{"in":"1347"}}]}},{"toponym":"Bidenham","citations":[{"label":"1086 DB","year":1086},{"label":"1202 FF","year":1202},{"label":"1227 Ass","year":1227},{"label":"1232 Ch","year":1232},{"label":"1276 Ass","year":1276},{"label":"1302 BM","year":1302},{"label":"1302 Ipm","year":1302},{"label":"1316 FA","year":1316}],"when":{"timespans":[{"start":{"in":"1086"},"end":{"in":"1086"}},{"start":{"in":"1202"},"end":{"in":"1202"}},{"start":{"in":"1227"},"end":{"in":"1227"}},{"start":{"in":"1232"},"end":{"in":"1232"}},{"start":{"in":"1276"},"end":{"in":"1276"}},{"start":{"in":"1287"},"end":{"in":"1287"}},{"start":{"in":"1302"},"end":{"in":"1302"}},{"start":{"in":"1302"},"end":{"in":"1302"}},{"start":{"in":"1316"},"end":{"in":"1316"}}]}},{"toponym":"Beydenham","citations":[{"label":"1240 Ass","year":1240}],"when":{"timespans":[{"start":{"in":"1240"},"end":{"in":"1240"}}]}},{"toponym":"Budeham","citations":[{"label":"1247 Ass","year":1247}],"when":{"timespans":[{"start":{"in":"1247"},"end":{"in":"1247"}}]}},{"toponym":"Bydenham","citations":[{"label":"1276 Ass","year":1276},{"label":"1302 FA","year":1302},{"label":"1348 Ipm","year":1348},{"label":"1373 Cl","year":1373},{"label":"1390-2 CS","year":1390},{"label":"1428 FA","year":1428}],"when":{"timespans":[{"start":{"in":"1276"},"end":{"in":"1276"}},{"start":{"in":"1302"},"end":{"in":"1302"}},{"start":{"in":"1348"},"end":{"in":"1348"}},{"start":{"in":"1373"},"end":{"in":"1373"}},{"start":{"earliest":"1390","latest":"1392"},"end":{"earliest":"1390","latest":"1392"}},{"start":{"in":"1428"},"end":{"in":"1428"}}]}},{"toponym":"Bedenham","citations":[{"label":"1276 Ass","year":1276},{"label":"1461 IpmR","year":1461},{"label":"1535 VE","year":1535}],"when":{"timespans":[{"start":{"in":"1276"},"end":{"in":"1276"}},{"start":{"in":"1461"},"end":{"in":"1461"}},{"start":{"in":"1535"},"end":{"in":"1535"}}]}},{"toponym":"Budenham","citations":[{"label":"1276 Ass","year":1276}],"when":{"timespans":[{"start":{"in":"1276"},"end":{"in":"1276"}}]}},{"toponym":"Bedenham al. Biddenham","citations":[{"label":"1312 Ipm","year":1312}],"when":{"timespans":[{"start":{"in":"1312"},"end":{"in":"1312"}}]}},{"toponym":"Bydyngham","citations":[{"label":"1362 Cl","year":1362}],"when":{"timespans":[{"start":{"in":"1362"},"end":{"in":"1362"}}]}},{"toponym":"Bedynham","citations":[{"label":"1428 FA","year":1428}],"when":{"timespans":[{"start":{"in":"1428"},"end":{"in":"1428"}}]}},{"toponym":"Bydnam","citations":[{"label":"1512 FF","year":1512},{"label":"1535 VE","year":1535}],"when":{"timespans":[{"start":{"in":"1512"},"end":{"in":"1512"}},{"start":{"in":"1535"},"end":{"in":"1535"}}]}},{"toponym":"Byddyngham","citations":[{"label":"1535 VE","year":1535}],"when":{"timespans":[{"start":{"in":"1535"},"end":{"in":"1535"}}]}},{"toponym":"Bignam","citations":[{"label":"c. 1550 Linc","year":1540}],"when":{"timespans":[{"start":{"earliest":"1540","latest":"1560"},"end":{"earliest":"1540","latest":"1560"}}]}}],"types":[{"identifier":"http://vocab.getty.edu/aat/300232418","label":"administrative division","sourceLabels":[{"label":"township","lang":"en"}]}],"geometry":{"type":"GeometryCollection","geometries":[{"type":"Point","coordinates":[-0.50687,52.13847],"citations":[{"label":"GeoNames, gazetteer record geonames:2655712"}]},{"type":"Point","coordinates":[-0.5019718840334354,52.14286175685594],"citations":[{"label":"Unlock (EDINA) gazetteer, gazetteer record unlock:11076572"}]},{"type":"Point","coordinates":[-0.503547,52.1433],"citations":[{"label":"Key to English Place-Names (KEPN), gazetteer record 4237"}]}]},"when":{"timespans":[{"start":{"in":"1086"},"end":{"in":"1560"}}]},"links":[{"type":"closeMatch","identifier":"https://sws.geonames.org/2655712/"}],"relations":[{"relationType":"gvp:broaderPartitive","relationTo":"https://w3id.org/whg-epns/98/000261","label":"within Biddenham"}]}]}