{"@context":"https://raw.githubusercontent.com/LinkedPasts/linked-places-format/main/linkedplaces-context-v1.1.jsonld","type":"FeatureCollection","license":"Digitisation of English Placenames MADS data is licensed to Jisc by the English Place Names Society and released under a Creative Commons Attribution-NonCommercial 4.0 International License.","note":"LPF v1.3, lossy; derived from the PLATO record; plato_commit=ca0afadabec1e23a145c0b03df77e8f151f79832","features":[{"@id":"https://w3id.org/whg-epns/98/000308","type":"Feature","properties":{"title":"Bromham","ccodes":["GB"],"fclasses":["A","P"]},"names":[{"toponym":"Bromham","lang":"en","citations":[{"label":"English Place-Name Society survey, volume 3: Bedfordshire"}]},{"toponym":"Bruneham, Brimeham","citations":[{"label":"1086 DB","year":1086}],"when":{"timespans":[{"start":{"in":"1086"},"end":{"in":"1086"}}]}},{"toponym":"Bruham","citations":[{"label":"1164 P","year":1164},{"label":"1220 LS","year":1220},{"label":"1220 FF","year":1220},{"label":"1242 Fees","year":1242},{"label":"1247 Ass","year":1247},{"label":"1258 FF","year":1258},{"label":"1274 Ipm","year":1274},{"label":"1276 Ass","year":1276},{"label":"1284 FA","year":1284},{"label":"1287 Ass","year":1287},{"label":"1296 Ipm","year":1296},{"label":"1302 FA","year":1302}],"when":{"timespans":[{"start":{"in":"1164"},"end":{"in":"1164"}},{"start":{"in":"1165"},"end":{"in":"1165"}},{"start":{"in":"1173"},"end":{"in":"1173"}},{"start":{"in":"1220"},"end":{"in":"1220"}},{"start":{"in":"1220"},"end":{"in":"1220"}},{"start":{"in":"1242"},"end":{"in":"1242"}},{"start":{"in":"1247"},"end":{"in":"1247"}},{"start":{"in":"1258"},"end":{"in":"1258"}},{"start":{"in":"1274"},"end":{"in":"1274"}},{"start":{"in":"1276"},"end":{"in":"1276"}},{"start":{"in":"1284"},"end":{"in":"1284"}},{"start":{"in":"1287"},"end":{"in":"1287"}},{"start":{"in":"1296"},"end":{"in":"1296"}},{"start":{"in":"1302"},"end":{"in":"1302"}}]}},{"toponym":"Bromham","citations":[{"label":"1227 Ass","year":1227},{"label":"1248 Cl","year":1248},{"label":"1271 FA","year":1271},{"label":"1276 Ass","year":1276},{"label":"1286 Ipm","year":1286},{"label":"1297 Ch","year":1297},{"label":"1316 FA","year":1316},{"label":"1324 Fine","year":1324},{"label":"1324 Ipm","year":1324},{"label":"1328 Ipm","year":1328},{"label":"1338 Cl","year":1338},{"label":"1346 FA","year":1346},{"label":"1361 Cl","year":1361},{"label":"1366 Ch","year":1366},{"label":"1428 FA","year":1428}],"when":{"timespans":[{"start":{"in":"1227"},"end":{"in":"1227"}},{"start":{"in":"1248"},"end":{"in":"1248"}},{"start":{"in":"1271"},"end":{"in":"1271"}},{"start":{"in":"1276"},"end":{"in":"1276"}},{"start":{"in":"1286"},"end":{"in":"1286"}},{"start":{"in":"1295"},"end":{"in":"1295"}},{"start":{"in":"1297"},"end":{"in":"1297"}},{"start":{"in":"1316"},"end":{"in":"1316"}},{"start":{"in":"1324"},"end":{"in":"1324"}},{"start":{"in":"1324"},"end":{"in":"1324"}},{"start":{"in":"1328"},"end":{"in":"1328"}},{"start":{"in":"1338"},"end":{"in":"1338"}},{"start":{"in":"1346"},"end":{"in":"1346"}},{"start":{"in":"1361"},"end":{"in":"1361"}},{"start":{"in":"1366"},"end":{"in":"1366"}},{"start":{"in":"1428"},"end":{"in":"1428"}}]}},{"toponym":"Braham","citations":[{"label":"1227 Ass","year":1227}],"when":{"timespans":[{"start":{"in":"1227"},"end":{"in":"1227"}}]}},{"toponym":"Bramham","citations":[{"label":"1228 FF","year":1228}],"when":{"timespans":[{"start":{"in":"1228"},"end":{"in":"1228"}}]}},{"toponym":"Brumham","citations":[{"label":"1262 FF","year":1262},{"label":"1287 Ass","year":1287},{"label":"1576 Saxton","year":1576}],"when":{"timespans":[{"start":{"in":"1262"},"end":{"in":"1262"}},{"start":{"in":"1287"},"end":{"in":"1287"}},{"start":{"in":"1576"},"end":{"in":"1576"}}]}},{"toponym":"Brunham","citations":[{"label":"1276 Ass","year":1276},{"label":"1291 Tax","year":1291}],"when":{"timespans":[{"start":{"in":"1276"},"end":{"in":"1276"}},{"start":{"in":"1287"},"end":{"in":"1287"}},{"start":{"in":"1291"},"end":{"in":"1291"}}]}},{"toponym":"Brumbham","citations":[{"label":"1276 Ass","year":1276}],"when":{"timespans":[{"start":{"in":"1276"},"end":{"in":"1276"}}]}},{"toponym":"Brynham","citations":[{"label":"1276 Ass","year":1276}],"when":{"timespans":[{"start":{"in":"1276"},"end":{"in":"1276"}}]}},{"toponym":"Broham","citations":[{"label":"1278 Fine","year":1278}],"when":{"timespans":[{"start":{"in":"1278"},"end":{"in":"1278"}}]}},{"toponym":"Bronham","citations":[{"label":"1338 Fine","year":1338}],"when":{"timespans":[{"start":{"in":"1338"},"end":{"in":"1338"}}]}},{"toponym":"Broam","citations":[{"label":"1360 Ipm","year":1360}],"when":{"timespans":[{"start":{"in":"1360"},"end":{"in":"1360"}}]}},{"toponym":"Brounham","citations":[{"label":"1361 Fine","year":1361}],"when":{"timespans":[{"start":{"in":"1361"},"end":{"in":"1361"}}]}},{"toponym":"Burnham","citations":[{"label":"1361 Cl","year":1361}],"when":{"timespans":[{"start":{"in":"1361"},"end":{"in":"1361"}}]}}],"types":[{"identifier":"http://vocab.getty.edu/aat/300232418","label":"administrative division","sourceLabels":[{"label":"township","lang":"en"}]}],"geometry":{"type":"GeometryCollection","geometries":[{"type":"Point","coordinates":[-0.52906,52.14508],"citations":[{"label":"GeoNames, gazetteer record geonames:2654589"}]},{"type":"Point","coordinates":[-0.5308953449745558,52.1522178801992],"citations":[{"label":"Unlock (EDINA) gazetteer, gazetteer record unlock:11088587"}]},{"type":"Point","coordinates":[-0.532468,52.1526],"citations":[{"label":"Key to English Place-Names (KEPN), gazetteer record 4239"}]}]},"when":{"timespans":[{"start":{"in":"1086"},"end":{"in":"1576"}}]},"links":[{"type":"closeMatch","identifier":"https://sws.geonames.org/2654589/"}],"relations":[{"relationType":"gvp:broaderPartitive","relationTo":"https://w3id.org/whg-epns/98/000307","label":"within Bromham"}]}]}