{"@context":"https://raw.githubusercontent.com/LinkedPasts/linked-places-format/main/linkedplaces-context-v1.1.jsonld","type":"FeatureCollection","license":"Digitisation of English Placenames MADS data is licensed to Jisc by the English Place Names Society and released under a Creative Commons Attribution-NonCommercial 4.0 International License.","note":"LPF v1.3, lossy; derived from the PLATO record; plato_commit=ca0afadabec1e23a145c0b03df77e8f151f79832","features":[{"@id":"https://w3id.org/whg-epns/98/000426","type":"Feature","properties":{"title":"Odell","ccodes":["GB"],"fclasses":["A","P"]},"names":[{"toponym":"Odell","lang":"en","citations":[{"label":"English Place-Name Society survey, volume 3: Bedfordshire"}]},{"toponym":"Wadelle","citations":[{"label":"1086 DB","year":1086}],"when":{"timespans":[{"start":{"in":"1086"},"end":{"in":"1086"}}]}},{"toponym":"Wadehelle","citations":[{"label":"1086 DB","year":1086}],"when":{"timespans":[{"start":{"in":"1086"},"end":{"in":"1086"}}]}},{"toponym":"Wahelle","citations":[{"label":"1162 P","year":1162}],"when":{"timespans":[{"start":{"in":"1162"},"end":{"in":"1162"}}]}},{"toponym":"Wahull","citations":[{"label":"1222 FF","year":1222},{"label":"c. 1230-40 Bodl (Bucks)","year":1230},{"label":"1235 Fees","year":1235},{"label":"1240 Ass","year":1240},{"label":"1242 Fees","year":1242},{"label":"1244 Cl","year":1244},{"label":"1245 Ch","year":1245},{"label":"1276 RH","year":1276},{"label":"1284 FA","year":1284},{"label":"1287 Ass","year":1287},{"label":"1302 FA","year":1302},{"label":"1324 Ipm","year":1324},{"label":"1346 FA","year":1346}],"when":{"timespans":[{"start":{"in":"1222"},"end":{"in":"1222"}},{"start":{"in":"1232"},"end":{"in":"1232"}},{"start":{"in":"1236"},"end":{"in":"1236"}},{"start":{"earliest":"1230","latest":"1240"},"end":{"earliest":"1230","latest":"1240"}},{"start":{"in":"1235"},"end":{"in":"1235"}},{"start":{"in":"1240"},"end":{"in":"1240"}},{"start":{"in":"1242"},"end":{"in":"1242"}},{"start":{"in":"1244"},"end":{"in":"1244"}},{"start":{"in":"1245"},"end":{"in":"1245"}},{"start":{"in":"1276"},"end":{"in":"1276"}},{"start":{"in":"1284"},"end":{"in":"1284"}},{"start":{"in":"1287"},"end":{"in":"1287"}},{"start":{"in":"1302"},"end":{"in":"1302"}},{"start":{"in":"1316"},"end":{"in":"1316"}},{"start":{"in":"1324"},"end":{"in":"1324"}},{"start":{"in":"1346"},"end":{"in":"1346"}},{"start":{"in":"1428"},"end":{"in":"1428"}}]}},{"toponym":"Wa(h)ille","citations":[{"label":"1240 Ass","year":1240}],"when":{"timespans":[{"start":{"in":"1240"},"end":{"in":"1240"}}]}},{"toponym":"Wadehulle","citations":[{"label":"1276 Ass","year":1276}],"when":{"timespans":[{"start":{"in":"1276"},"end":{"in":"1276"}}]}},{"toponym":"Wodhull","citations":[{"label":"1276 RH","year":1276},{"label":"1287 Ass","year":1287},{"label":"1296 Ipm","year":1296},{"label":"1358 Fine","year":1358},{"label":"1376 Cl","year":1376},{"label":"1390-2 CS","year":1390},{"label":"1422 IpmR","year":1422},{"label":"1428 FA","year":1428}],"when":{"timespans":[{"start":{"in":"1276"},"end":{"in":"1276"}},{"start":{"in":"1287"},"end":{"in":"1287"}},{"start":{"in":"1296"},"end":{"in":"1296"}},{"start":{"in":"1308"},"end":{"in":"1308"}},{"start":{"in":"1337"},"end":{"in":"1337"}},{"start":{"in":"1358"},"end":{"in":"1358"}},{"start":{"in":"1376"},"end":{"in":"1376"}},{"start":{"earliest":"1390","latest":"1392"},"end":{"earliest":"1390","latest":"1392"}},{"start":{"in":"1422"},"end":{"in":"1422"}},{"start":{"in":"1428"},"end":{"in":"1428"}}]}},{"toponym":"Wahull al. Wadhull","citations":[{"label":"1304 Ipm","year":1304}],"when":{"timespans":[{"start":{"in":"1304"},"end":{"in":"1304"}}]}},{"toponym":"Wod(e)hill","citations":[{"label":"1359 Cl","year":1359},{"label":"1476 IpmR","year":1476}],"when":{"timespans":[{"start":{"in":"1359"},"end":{"in":"1359"}},{"start":{"in":"1382"},"end":{"in":"1382"}},{"start":{"in":"1476"},"end":{"in":"1476"}}]}},{"toponym":"Wodell","citations":[{"label":"1485 IpmR","year":1485}],"when":{"timespans":[{"start":{"in":"1485"},"end":{"in":"1485"}}]}},{"toponym":"Odyll, Odill","citations":[{"label":"1494 Ipm","year":1494}],"when":{"timespans":[{"start":{"in":"1494"},"end":{"in":"1494"}},{"start":{"in":"1502"},"end":{"in":"1502"}}]}},{"toponym":"Wodhyl","citations":[{"label":"1503 Ipm","year":1503}],"when":{"timespans":[{"start":{"in":"1503"},"end":{"in":"1503"}}]}},{"toponym":"Odell","citations":[{"label":"1526 LS","year":1526}],"when":{"timespans":[{"start":{"in":"1526"},"end":{"in":"1526"}}]}},{"toponym":"Odell al. Woodhill","citations":[{"label":"16th BHRS","year":1500}],"when":{"timespans":[{"start":{"earliest":"1500","latest":"1600"},"end":{"earliest":"1500","latest":"1600"}}]}}],"types":[{"identifier":"http://vocab.getty.edu/aat/300232418","label":"administrative division","sourceLabels":[{"label":"township","lang":"en"}]}],"geometry":{"type":"GeometryCollection","geometries":[{"type":"Point","coordinates":[-0.5888,52.20937],"citations":[{"label":"GeoNames, gazetteer record geonames:2641084"}]},{"type":"Point","coordinates":[-0.6019888309939666,52.21602691325728],"citations":[{"label":"Unlock (EDINA) gazetteer, gazetteer record unlock:11235068"}]},{"type":"Point","coordinates":[-0.588923,52.2163],"citations":[{"label":"Key to English Place-Names (KEPN), gazetteer record 4244"}]}]},"when":{"timespans":[{"start":{"in":"1086"},"end":{"in":"1600"}}]},"links":[{"type":"closeMatch","identifier":"https://sws.geonames.org/2641084/"}],"relations":[{"relationType":"gvp:broaderPartitive","relationTo":"https://w3id.org/whg-epns/98/000425","label":"within Odell"}]}]}