{"@context":"https://raw.githubusercontent.com/LinkedPasts/linked-places-format/main/linkedplaces-context-v1.1.jsonld","type":"FeatureCollection","license":"Digitisation of English Placenames MADS data is licensed to Jisc by the English Place Names Society and released under a Creative Commons Attribution-NonCommercial 4.0 International License.","note":"LPF v1.3, lossy; derived from the PLATO record; plato_commit=ca0afadabec1e23a145c0b03df77e8f151f79832","features":[{"@id":"http://placenames.org.uk/id/placename/98/000458","type":"Feature","properties":{"title":"Pavenham","ccodes":["GB"],"fclasses":["A","P"]},"names":[{"toponym":"Pavenham","lang":"en","citations":[{"label":"English Place-Name Society survey, volume 3: Bedfordshire"}]}],"types":[{"identifier":"http://vocab.getty.edu/aat/300232418","label":"administrative division","sourceLabels":[{"label":"parish","lang":"en"}]}],"geometry":{"type":"GeometryCollection","geometries":[{"type":"Point","coordinates":[-0.55249,52.18913],"citations":[{"label":"GeoNames, gazetteer record geonames:2640556"}]},{"type":"Point","coordinates":[-0.544334989057304,52.1883533278784],"citations":[{"label":"Unlock (EDINA) gazetteer, gazetteer record unlock:11241264"}]},{"type":"Point","coordinates":[-0.545907,52.1888],"citations":[{"label":"Key to English Place-Names (KEPN), gazetteer record 4245"}]}]},"links":[{"type":"closeMatch","identifier":"https://sws.geonames.org/2640556/"}],"relations":[{"relationType":"gvp:broaderPartitive","relationTo":"http://placenames.org.uk/id/placename/98/000248","label":"within Willey Hundred"}]}]}