{"@context":"https://raw.githubusercontent.com/LinkedPasts/linked-places-format/main/linkedplaces-context-v1.1.jsonld","type":"FeatureCollection","license":"Digitisation of English Placenames MADS data is licensed to Jisc by the English Place Names Society and released under a Creative Commons Attribution-NonCommercial 4.0 International License.","note":"LPF v1.3, lossy; derived from the PLATO record; plato_commit=fa0d247ccc0263f8f19c8d7cdcd163df96935d1e","features":[{"@id":"https://w3id.org/whg-epns/98/000695","type":"Feature","properties":{"title":"Wymington","ccodes":["GB"],"fclasses":["A","P"]},"names":[{"toponym":"Wymington","lang":"en","citations":[{"label":"English Place-Name Society survey, volume 3: Bedfordshire"}]},{"toponym":"Wimenton(e)","citations":[{"label":"1086 DB","year":1086},{"label":"Chanc Roll","year":1163},{"label":"1163 Chanc Roll","year":1163}],"when":{"timespans":[{"start":{"in":"1086"},"end":{"in":"1086"}},{"start":{"in":"1163"},"end":{"in":"1176"}},{"start":{"in":"1163"},"end":{"in":"1163"}},{"start":{"in":"1165"},"end":{"in":"1165"}},{"start":{"in":"1176"},"end":{"in":"1176"}}]}},{"toponym":"Wimetone","citations":[{"label":"1086 DB","year":1086},{"label":"13th Dunst","year":1200}],"when":{"timespans":[{"start":{"in":"1086"},"end":{"in":"1086"}},{"start":{"earliest":"1200","latest":"1300"},"end":{"earliest":"1200","latest":"1300"}}]}},{"toponym":"Wimunton","citations":[{"label":"1169 P","year":1169}],"when":{"timespans":[{"start":{"in":"1169"},"end":{"in":"1169"}},{"start":{"in":"1175"},"end":{"in":"1175"}}]}},{"toponym":"Wimuncton","citations":[{"label":"1174 P","year":1174}],"when":{"timespans":[{"start":{"in":"1174"},"end":{"in":"1174"}}]}},{"toponym":"Wiminton","citations":[{"label":"1176 Chanc Roll","year":1176}],"when":{"timespans":[{"start":{"in":"1176"},"end":{"in":"1176"}}]}},{"toponym":"Wimedune","citations":[{"label":"1185 Rot Dom","year":1185}],"when":{"timespans":[{"start":{"in":"1185"},"end":{"in":"1185"}}]}},{"toponym":"Widminton","citations":[{"label":"1195 Cur(P)","year":1195},{"label":"1211 Abbr","year":1211}],"when":{"timespans":[{"start":{"in":"1195"},"end":{"in":"1195"}},{"start":{"in":"1211"},"end":{"in":"1211"}}]}},{"toponym":"Wimmenton","citations":[{"label":"13th Dunst","year":1200}],"when":{"timespans":[{"start":{"earliest":"1200","latest":"1300"},"end":{"earliest":"1200","latest":"1300"}}]}},{"toponym":"Wyminton, Wiminton","citations":[{"label":"1203 FF","year":1203},{"label":"1227 Ass","year":1227},{"label":"Cl","year":1231},{"label":"1231 Cl","year":1231}],"when":{"timespans":[{"start":{"in":"1203"},"end":{"in":"1203"}},{"start":{"in":"1227"},"end":{"in":"1227"}},{"start":{"in":"1231"},"end":{"in":"1231"}},{"start":{"in":"1231"},"end":{"in":"1231"}}]}},{"toponym":"Wimminton","citations":[{"label":"1208 FF","year":1208}],"when":{"timespans":[{"start":{"in":"1208"},"end":{"in":"1208"}}]}},{"toponym":"Wymington","citations":[{"label":"1284 FA","year":1284},{"label":"1348 Ipm","year":1348},{"label":"1372 Cl","year":1372},{"label":"1390-2 CS","year":1390}],"when":{"timespans":[{"start":{"in":"1284"},"end":{"in":"1284"}},{"start":{"in":"1316"},"end":{"in":"1316"}},{"start":{"in":"1348"},"end":{"in":"1348"}},{"start":{"in":"1372"},"end":{"in":"1372"}},{"start":{"earliest":"1390","latest":"1392"},"end":{"earliest":"1390","latest":"1392"}}]}},{"toponym":"Wymmington, Wimmington","citations":[{"label":"1287 Ass","year":1287},{"label":"1780-1830 Jury","year":1780}],"when":{"timespans":[{"start":{"in":"1287"},"end":{"in":"1287"}},{"start":{"earliest":"1780","latest":"1830"},"end":{"earliest":"1780","latest":"1830"}}]}},{"toponym":"Wemyngtone","citations":[{"label":"1428 FA","year":1428},{"label":"1455 AD","year":1455},{"label":"1492 Ipm","year":1492}],"when":{"timespans":[{"start":{"in":"1428"},"end":{"in":"1428"}},{"start":{"in":"1455"},"end":{"in":"1455"}},{"start":{"in":"1492"},"end":{"in":"1492"}}]}}],"types":[{"identifier":"http://vocab.getty.edu/aat/300232418","label":"administrative division","sourceLabels":[{"label":"township","lang":"en"}]}],"geometry":{"type":"GeometryCollection","geometries":[{"type":"Point","coordinates":[-0.60077,52.26829],"citations":[{"label":"GeoNames, gazetteer record geonames:2633447"}]},{"type":"Point","coordinates":[-0.600009377742998,52.27894768691364],"citations":[{"label":"Unlock (EDINA) gazetteer, gazetteer record unlock:11197208"}]},{"type":"Point","coordinates":[-0.601862,52.2704],"citations":[{"label":"Key to English Place-Names (KEPN), gazetteer record 4253"}]}]},"when":{"timespans":[{"start":{"in":"1086"},"end":{"in":"1830"}}]},"links":[{"type":"closeMatch","identifier":"https://sws.geonames.org/2633447/"}],"relations":[{"relationType":"gvp:broaderPartitive","relationTo":"https://w3id.org/whg-epns/98/000694","label":"within Wymington"}]}]}