{"@context":"https://raw.githubusercontent.com/LinkedPasts/linked-places-format/main/linkedplaces-context-v1.1.jsonld","type":"FeatureCollection","license":"Digitisation of English Placenames MADS data is licensed to Jisc by the English Place Names Society and released under a Creative Commons Attribution-NonCommercial 4.0 International License.","note":"LPF v1.3, lossy; derived from the PLATO record; plato_commit=ca0afadabec1e23a145c0b03df77e8f151f79832","features":[{"@id":"http://placenames.org.uk/id/placename/98/001383","type":"Feature","properties":{"title":"Blunham","ccodes":["GB"],"fclasses":["A","P"]},"names":[{"toponym":"Blunham","lang":"en","citations":[{"label":"English Place-Name Society survey, volume 3: Bedfordshire"}]},{"toponym":"Blunham","citations":[{"label":"1086 DB","year":1086},{"label":"1220 LS","year":1220},{"label":"1227 Ass","year":1227},{"label":"1247 Ass","year":1247},{"label":"1309–1309, recurring Ch","year":1309},{"label":"1309 Ch","year":1309}],"when":{"timespans":[{"start":{"in":"1086"},"end":{"in":"1086"}},{"start":{"in":"1220"},"end":{"in":"1220"}},{"start":{"in":"1227"},"end":{"in":"1227"}},{"start":{"in":"1247"},"end":{"in":"1247"}},{"start":{"in":"1276"},"end":{"in":"1276"}},{"start":{"in":"1287"},"end":{"in":"1287"}},{"start":{"in":"1309"},"end":{"in":"1309"}},{"start":{"in":"1309"},"end":{"in":"1309"}}]}},{"toponym":"Bluneham","citations":[{"label":"1086 DB","year":1086},{"label":"1240 FF","year":1240},{"label":"1247 Cl","year":1247}],"when":{"timespans":[{"start":{"in":"1086"},"end":{"in":"1086"}},{"start":{"in":"1240"},"end":{"in":"1240"}},{"start":{"in":"1247"},"end":{"in":"1247"}},{"start":{"in":"1303"},"end":{"in":"1303"}}]}},{"toponym":"Bluham","citations":[{"label":"1227 Ass","year":1227}],"when":{"timespans":[{"start":{"in":"1227"},"end":{"in":"1227"}}]}},{"toponym":"Blowenham","citations":[{"label":"1250 Pat","year":1250},{"label":"1287 Ass","year":1287}],"when":{"timespans":[{"start":{"in":"1250"},"end":{"in":"1250"}},{"start":{"in":"1287"},"end":{"in":"1287"}}]}},{"toponym":"Bluenham","citations":[{"label":"1276 Ass","year":1276}],"when":{"timespans":[{"start":{"in":"1276"},"end":{"in":"1276"}}]}},{"toponym":"Blounham","citations":[{"label":"1276 Ass","year":1276},{"label":"1287 Ass","year":1287},{"label":"1316 FA","year":1316},{"label":"1325 Ipm","year":1325},{"label":"1331 Fine","year":1331},{"label":"1345 Cl","year":1345},{"label":"1346 FA","year":1346},{"label":"1347 Cl","year":1347},{"label":"1355 Ipm","year":1355},{"label":"1376 Cl","year":1376},{"label":"1401 IpmR","year":1401},{"label":"1428 FA","year":1428},{"label":"1517 AD","year":1517},{"label":"c. 1550 Linc","year":1540}],"when":{"timespans":[{"start":{"in":"1276"},"end":{"in":"1276"}},{"start":{"in":"1287"},"end":{"in":"1287"}},{"start":{"in":"1316"},"end":{"in":"1316"}},{"start":{"in":"1325"},"end":{"in":"1325"}},{"start":{"in":"1331"},"end":{"in":"1331"}},{"start":{"in":"1345"},"end":{"in":"1345"}},{"start":{"in":"1346"},"end":{"in":"1346"}},{"start":{"in":"1347"},"end":{"in":"1347"}},{"start":{"in":"1355"},"end":{"in":"1355"}},{"start":{"in":"1360"},"end":{"in":"1360"}},{"start":{"in":"1376"},"end":{"in":"1376"}},{"start":{"in":"1395"},"end":{"in":"1395"}},{"start":{"in":"1401"},"end":{"in":"1401"}},{"start":{"in":"1428"},"end":{"in":"1428"}},{"start":{"in":"1517"},"end":{"in":"1517"}},{"start":{"earliest":"1540","latest":"1560"},"end":{"earliest":"1540","latest":"1560"}}]}},{"toponym":"Blonham","citations":[{"label":"1276 Ass","year":1276},{"label":"1584 AD","year":1584}],"when":{"timespans":[{"start":{"in":"1276"},"end":{"in":"1276"}},{"start":{"in":"1584"},"end":{"in":"1584"}}]}},{"toponym":"Blownham","citations":[{"label":"1314 Ch","year":1314},{"label":"1526 LS","year":1526}],"when":{"timespans":[{"start":{"in":"1314"},"end":{"in":"1314"}},{"start":{"in":"1526"},"end":{"in":"1526"}}]}},{"toponym":"Blownam","citations":[{"label":"1425 BM","year":1425}],"when":{"timespans":[{"start":{"in":"1425"},"end":{"in":"1425"}}]}},{"toponym":"Bleweham","citations":[{"label":"1527 BM","year":1527}],"when":{"timespans":[{"start":{"in":"1527"},"end":{"in":"1527"}}]}},{"toponym":"Bloneham","citations":[{"label":"1531 BM","year":1531},{"label":"c. 1550 Linc","year":1540}],"when":{"timespans":[{"start":{"in":"1531"},"end":{"in":"1531"}},{"start":{"earliest":"1540","latest":"1560"},"end":{"earliest":"1540","latest":"1560"}}]}},{"toponym":"Bloungham","citations":[{"label":"1629 BM","year":1629}],"when":{"timespans":[{"start":{"in":"1629"},"end":{"in":"1629"}}]}}],"types":[{"identifier":"http://vocab.getty.edu/aat/300232418","label":"administrative division","sourceLabels":[{"label":"township","lang":"en"}]}],"geometry":{"type":"GeometryCollection","geometries":[{"type":"Point","coordinates":[-0.32178,52.14695],"citations":[{"label":"GeoNames, gazetteer record geonames:2655322"}]},{"type":"Point","coordinates":[-0.3117223855513829,52.14928383483328],"citations":[{"label":"Unlock (EDINA) gazetteer, gazetteer record unlock:11081545"}]},{"type":"Point","coordinates":[-0.31332,52.1497],"citations":[{"label":"Key to English Place-Names (KEPN), gazetteer record 4276"}]}]},"when":{"timespans":[{"start":{"in":"1086"},"end":{"in":"1629"}}]},"links":[{"type":"closeMatch","identifier":"https://sws.geonames.org/2655322/"}],"relations":[{"relationType":"gvp:broaderPartitive","relationTo":"http://placenames.org.uk/id/placename/98/001382","label":"within Blunham"}]}]}