{"@context":"https://raw.githubusercontent.com/LinkedPasts/linked-places-format/main/linkedplaces-context-v1.1.jsonld","type":"FeatureCollection","license":"Digitisation of English Placenames MADS data is licensed to Jisc by the English Place Names Society and released under a Creative Commons Attribution-NonCommercial 4.0 International License.","note":"LPF v1.3, lossy; derived from the PLATO record; plato_commit=ca0afadabec1e23a145c0b03df77e8f151f79832","features":[{"@id":"https://w3id.org/whg-epns/98/001434","type":"Feature","properties":{"title":"Eastcotts","ccodes":["GB"],"fclasses":["A","P"]},"names":[{"toponym":"Eastcotts","lang":"en","citations":[{"label":"English Place-Name Society survey, volume 3: Bedfordshire"}]},{"toponym":"Cotes","citations":[{"label":"1220 LS","year":1220},{"label":"1227 Ass","year":1227}],"when":{"timespans":[{"start":{"in":"1220"},"end":{"in":"1220"}},{"start":{"in":"1227"},"end":{"in":"1227"}}]}},{"toponym":"Estcotes","citations":[{"label":"1240 Ass","year":1240},{"label":"1393 Cl","year":1393}],"when":{"timespans":[{"start":{"in":"1240"},"end":{"in":"1240"}},{"start":{"in":"1393"},"end":{"in":"1393"}}]}},{"toponym":"Escotes","citations":[{"label":"1382 Cl","year":1382}],"when":{"timespans":[{"start":{"in":"1382"},"end":{"in":"1382"}}]}},{"toponym":"Escotts","citations":[{"label":"1780 Jury","year":1780}],"when":{"timespans":[{"start":{"in":"1780"},"end":{"in":"1780"}}]}}],"types":[{"identifier":"http://vocab.getty.edu/aat/300232418","label":"administrative division","sourceLabels":[{"label":"township","lang":"en"}]}],"geometry":{"type":"GeometryCollection","geometries":[{"type":"Point","coordinates":[-0.41683,52.09657],"citations":[{"label":"GeoNames, gazetteer record geonames:7292842"}]},{"type":"Point","coordinates":[-0.4444746568223947,52.11514023713852],"citations":[{"label":"Unlock (EDINA) gazetteer, gazetteer record unlock:11136841"}]},{"type":"Point","coordinates":[-0.446056,52.1156],"citations":[{"label":"Key to English Place-Names (KEPN), gazetteer record 4280"}]}]},"when":{"timespans":[{"start":{"in":"1220"},"end":{"in":"1780"}}]},"links":[{"type":"closeMatch","identifier":"https://sws.geonames.org/7292842/"}],"relations":[{"relationType":"gvp:broaderPartitive","relationTo":"https://w3id.org/whg-epns/98/001433","label":"within Eastcotts"}]}]}