{"@context":"https://raw.githubusercontent.com/LinkedPasts/linked-places-format/main/linkedplaces-context-v1.1.jsonld","type":"FeatureCollection","license":"Digitisation of English Placenames MADS data is licensed to Jisc by the English Place Names Society and released under a Creative Commons Attribution-NonCommercial 4.0 International License.","note":"LPF v1.3, lossy; derived from the PLATO record; plato_commit=ca0afadabec1e23a145c0b03df77e8f151f79832","features":[{"@id":"http://placenames.org.uk/id/placename/98/001647","type":"Feature","properties":{"title":"Biggleswade Hundred","ccodes":["GB"],"fclasses":["A"]},"names":[{"toponym":"Biggleswade Hundred","lang":"en","citations":[{"label":"English Place-Name Society survey, volume 3: Bedfordshire"}]},{"toponym":"Bichelesuuorde, Bicheleswade","citations":[{"label":"1086 DB","year":1086}],"when":{"timespans":[{"start":{"in":"1086"},"end":{"in":"1086"}}]}},{"toponym":"Bicheleswatere","citations":[{"label":"1107 Hist Mon de Abingdon","year":1107}],"when":{"timespans":[{"start":{"in":"1107"},"end":{"in":"1107"}}]}}],"types":[{"identifier":"http://vocab.getty.edu/aat/300232418","label":"administrative division","sourceLabels":[{"label":"hundred / wapentake","lang":"en"}]}],"geometry":null,"when":{"timespans":[{"start":{"in":"1086"},"end":{"in":"1107"}}]},"relations":[{"relationType":"gvp:broaderPartitive","relationTo":"http://placenames.org.uk/id/placename/98/000001","label":"within Bedfordshire"}]}]}