{"@context":"https://raw.githubusercontent.com/LinkedPasts/linked-places-format/main/linkedplaces-context-v1.1.jsonld","type":"FeatureCollection","license":"Digitisation of English Placenames MADS data is licensed to Jisc by the English Place Names Society and released under a Creative Commons Attribution-NonCommercial 4.0 International License.","note":"LPF v1.3, lossy; derived from the PLATO record; plato_commit=ca0afadabec1e23a145c0b03df77e8f151f79832","features":[{"@id":"https://w3id.org/whg-epns/98/001883","type":"Feature","properties":{"title":"Wrestlingworth","ccodes":["GB"],"fclasses":["A","P"]},"names":[{"toponym":"Wrestlingworth","lang":"en","citations":[{"label":"English Place-Name Society survey, volume 3: Bedfordshire"}]},{"toponym":"Wrastlingewrd","citations":[{"label":"c. 1150 BM","year":1140}],"when":{"timespans":[{"start":{"earliest":"1140","latest":"1160"},"end":{"earliest":"1140","latest":"1160"}}]}},{"toponym":"Wrastlingeworde","citations":[{"label":"Hy 2 BM","year":1154},{"label":"1198 FF","year":1198}],"when":{"timespans":[{"start":{"earliest":"1154","latest":"1189"},"end":{"earliest":"1154","latest":"1189"}},{"start":{"in":"1198"},"end":{"in":"1198"}}]}},{"toponym":"Westlingewurda","citations":[{"label":"1194 P","year":1194}],"when":{"timespans":[{"start":{"in":"1194"},"end":{"in":"1194"}}]}},{"toponym":"Wrastlingewurde","citations":[{"label":"1195 P","year":1195}],"when":{"timespans":[{"start":{"in":"1195"},"end":{"in":"1195"}}]}},{"toponym":"Wrestligewrde","citations":[{"label":"1197 FF","year":1197}],"when":{"timespans":[{"start":{"in":"1197"},"end":{"in":"1197"}}]}},{"toponym":"Wrestlingewurth","citations":[{"label":"1212 BM","year":1212}],"when":{"timespans":[{"start":{"in":"1212"},"end":{"in":"1212"}}]}},{"toponym":"Wrastlingewrdh","citations":[{"label":"1220 LS","year":1220}],"when":{"timespans":[{"start":{"in":"1220"},"end":{"in":"1220"}}]}},{"toponym":"Wrestlingeworth","citations":[{"label":"1227 Ch","year":1227}],"when":{"timespans":[{"start":{"in":"1227"},"end":{"in":"1227"}}]}},{"toponym":"Wrastlingwrthe","citations":[{"label":"1227 Ass","year":1227}],"when":{"timespans":[{"start":{"in":"1227"},"end":{"in":"1227"}}]}},{"toponym":"Wraxlingwurth","citations":[{"label":"1232 Cl","year":1232}],"when":{"timespans":[{"start":{"in":"1232"},"end":{"in":"1232"}}]}},{"toponym":"Wrastlingworth","citations":[{"label":"1232 Cl","year":1232},{"label":"1234 Pat","year":1234}],"when":{"timespans":[{"start":{"in":"1232"},"end":{"in":"1232"}},{"start":{"in":"1234"},"end":{"in":"1234"}}]}},{"toponym":"Wrestlingwurth","citations":[{"label":"1234 Cl","year":1234}],"when":{"timespans":[{"start":{"in":"1234"},"end":{"in":"1234"}}]}},{"toponym":"Wrestlyngworth or Wrastlyngworth","citations":[{"label":"1335 Ipm","year":1335}],"when":{"timespans":[{"start":{"in":"1335"},"end":{"in":"1335"}}]}},{"toponym":"Warslyngwrth","citations":[{"label":"1291 Tax","year":1291}],"when":{"timespans":[{"start":{"in":"1291"},"end":{"in":"1291"}}]}},{"toponym":"Warstlyngworth","citations":[{"label":"1291 NI","year":1291}],"when":{"timespans":[{"start":{"in":"1291"},"end":{"in":"1291"}}]}},{"toponym":"Wraxlingworth","citations":[{"label":"1434 IpmR","year":1434}],"when":{"timespans":[{"start":{"in":"1434"},"end":{"in":"1434"}}]}}],"types":[{"identifier":"http://vocab.getty.edu/aat/300232418","label":"administrative division","sourceLabels":[{"label":"township","lang":"en"}]}],"geometry":{"type":"GeometryCollection","geometries":[{"type":"Point","coordinates":[-0.16342,52.11041],"citations":[{"label":"GeoNames, gazetteer record geonames:2633486"}]},{"type":"Point","coordinates":[-0.1671051743189704,52.11115391451646],"citations":[{"label":"Unlock (EDINA) gazetteer, gazetteer record unlock:11327622"}]},{"type":"Point","coordinates":[-0.168718,52.1116],"citations":[{"label":"Key to English Place-Names (KEPN), gazetteer record 4300"}]}]},"when":{"timespans":[{"start":{"in":"1140"},"end":{"in":"1434"}}]},"links":[{"type":"closeMatch","identifier":"https://sws.geonames.org/2633486/"}],"relations":[{"relationType":"gvp:broaderPartitive","relationTo":"https://w3id.org/whg-epns/98/001882","label":"within Wrestlingworth"}]}]}