{"@context":"https://raw.githubusercontent.com/LinkedPasts/linked-places-format/main/linkedplaces-context-v1.1.jsonld","type":"FeatureCollection","license":"Digitisation of English Placenames MADS data is licensed to Jisc by the English Place Names Society and released under a Creative Commons Attribution-NonCommercial 4.0 International License.","note":"LPF v1.3, lossy; derived from the PLATO record; plato_commit=ca0afadabec1e23a145c0b03df77e8f151f79832","features":[{"@id":"http://placenames.org.uk/id/placename/98/001962","type":"Feature","properties":{"title":"Chalgrave","ccodes":["GB"],"fclasses":["A","P"]},"names":[{"toponym":"Chalgrave","lang":"en","citations":[{"label":"English Place-Name Society survey, volume 3: Bedfordshire"}]},{"toponym":"Cealhgræfan","citations":[{"label":"926 BCS","year":926}],"when":{"timespans":[{"start":{"in":"0926"},"end":{"in":"0926"}}]}},{"toponym":"Celgraue","citations":[{"label":"1086 DB","year":1086}],"when":{"timespans":[{"start":{"in":"1086"},"end":{"in":"1086"}}]}},{"toponym":"Chealgraue","citations":[{"label":"1163-87 Merton","year":1163}],"when":{"timespans":[{"start":{"earliest":"1163","latest":"1187"},"end":{"earliest":"1163","latest":"1187"}}]}},{"toponym":"Chalgraue","citations":[{"label":"1173 P","year":1173},{"label":"1276 Ass","year":1276},{"label":"1284 FA","year":1284},{"label":"1291 NI","year":1291},{"label":"1302 FA","year":1302},{"label":"1366–1366, recurring Cl","year":1366},{"label":"1366 Cl","year":1366}],"when":{"timespans":[{"start":{"in":"1173"},"end":{"in":"1173"}},{"start":{"in":"1276"},"end":{"in":"1276"}},{"start":{"in":"1284"},"end":{"in":"1284"}},{"start":{"in":"1291"},"end":{"in":"1291"}},{"start":{"in":"1302"},"end":{"in":"1302"}},{"start":{"in":"1316"},"end":{"in":"1316"}},{"start":{"in":"1346"},"end":{"in":"1346"}},{"start":{"in":"1366"},"end":{"in":"1366"}},{"start":{"in":"1366"},"end":{"in":"1366"}}]}},{"toponym":"Calgraua","citations":[{"label":"a. 1177 Dunst","year":1127}],"when":{"timespans":[{"start":{"earliest":"1127","latest":"1177"},"end":{"earliest":"1127","latest":"1177"}}]}},{"toponym":"Chalkgrave","citations":[{"label":"1220 LS","year":1220},{"label":"1308 Cl","year":1308}],"when":{"timespans":[{"start":{"in":"1220"},"end":{"in":"1220"}},{"start":{"in":"1308"},"end":{"in":"1308"}}]}},{"toponym":"Chaugrave","citations":[{"label":"1220 Dunst","year":1220},{"label":"1242 Fees","year":1242},{"label":"1247 Ass","year":1247},{"label":"1257 FF","year":1257},{"label":"1276 Ass","year":1276},{"label":"1286 Dunst","year":1286}],"when":{"timespans":[{"start":{"in":"1220"},"end":{"in":"1220"}},{"start":{"in":"1242"},"end":{"in":"1242"}},{"start":{"in":"1247"},"end":{"in":"1247"}},{"start":{"in":"1257"},"end":{"in":"1257"}},{"start":{"in":"1276"},"end":{"in":"1276"}},{"start":{"in":"1286"},"end":{"in":"1286"}}]}},{"toponym":"Chagrave","citations":[{"label":"1286 Dunst","year":1286}],"when":{"timespans":[{"start":{"in":"1286"},"end":{"in":"1286"}}]}},{"toponym":"Chalfgrave","citations":[{"label":"1346 FA","year":1346}],"when":{"timespans":[{"start":{"in":"1346"},"end":{"in":"1346"}}]}}],"types":[{"identifier":"http://vocab.getty.edu/aat/300232418","label":"administrative division","sourceLabels":[{"label":"township","lang":"en"}]}],"geometry":{"type":"GeometryCollection","geometries":[{"type":"Point","coordinates":[-0.53633,51.93512],"citations":[{"label":"GeoNames, gazetteer record geonames:6946885"}]},{"type":"Point","coordinates":[-0.5234106560872578,51.93630680961503],"citations":[{"label":"Unlock (EDINA) gazetteer, gazetteer record unlock:11103179"}]},{"type":"Point","coordinates":[-0.524975,51.9368],"citations":[{"label":"Key to English Place-Names (KEPN), gazetteer record 4306"}]}]},"when":{"timespans":[{"start":{"in":"0926"},"end":{"in":"1366"}}]},"links":[{"type":"closeMatch","identifier":"https://sws.geonames.org/6946885/"}],"relations":[{"relationType":"gvp:broaderPartitive","relationTo":"http://placenames.org.uk/id/placename/98/001961","label":"within Chalgrave"}]}]}