{"@context":"https://raw.githubusercontent.com/LinkedPasts/linked-places-format/main/linkedplaces-context-v1.1.jsonld","type":"FeatureCollection","license":"Digitisation of English Placenames MADS data is licensed to Jisc by the English Place Names Society and released under a Creative Commons Attribution-NonCommercial 4.0 International License.","note":"LPF v1.3, lossy; derived from the PLATO record; plato_commit=ca0afadabec1e23a145c0b03df77e8f151f79832","features":[{"@id":"http://placenames.org.uk/id/placename/98/002010","type":"Feature","properties":{"title":"Dunstable","ccodes":["GB"],"fclasses":["A","P"]},"names":[{"toponym":"Dunstable","lang":"en","citations":[{"label":"English Place-Name Society survey, volume 3: Bedfordshire"}]}],"types":[{"identifier":"http://vocab.getty.edu/aat/300232418","label":"administrative division","sourceLabels":[{"label":"parish","lang":"en"}]}],"geometry":{"type":"GeometryCollection","geometries":[{"type":"Point","coordinates":[-0.52099,51.886],"citations":[{"label":"GeoNames, gazetteer record geonames:2650657"}]},{"type":"Point","coordinates":[-0.5251787151111726,51.88237343085569],"citations":[{"label":"Unlock (EDINA) gazetteer, gazetteer record unlock:11134479"}]},{"type":"Point","coordinates":[-0.512218,51.8827],"citations":[{"label":"Key to English Place-Names (KEPN), gazetteer record 4308"}]}]},"links":[{"type":"closeMatch","identifier":"https://sws.geonames.org/2650657/"}],"relations":[{"relationType":"gvp:broaderPartitive","relationTo":"http://placenames.org.uk/id/placename/98/001900","label":"within Manshead Hundred"}]}]}