{"@context":"https://raw.githubusercontent.com/LinkedPasts/linked-places-format/main/linkedplaces-context-v1.1.jsonld","type":"FeatureCollection","license":"Digitisation of English Placenames MADS data is licensed to Jisc by the English Place Names Society and released under a Creative Commons Attribution-NonCommercial 4.0 International License.","note":"LPF v1.3, lossy; derived from the PLATO record; plato_commit=ca0afadabec1e23a145c0b03df77e8f151f79832","features":[{"@id":"https://w3id.org/whg-epns/98/002168","type":"Feature","properties":{"title":"Leighton Buzzard","ccodes":["GB"],"fclasses":["A","P"]},"names":[{"toponym":"Leighton Buzzard","lang":"en","citations":[{"label":"English Place-Name Society survey, volume 3: Bedfordshire"}]},{"toponym":"Lestone","citations":[{"label":"1086 DB","year":1086}],"when":{"timespans":[{"start":{"in":"1086"},"end":{"in":"1086"}}]}},{"toponym":"Le(c)htone","citations":[{"label":"1164 P","year":1164},{"label":"1227 Ass","year":1227}],"when":{"timespans":[{"start":{"in":"1164"},"end":{"in":"1164"}},{"start":{"in":"1169"},"end":{"in":"1169"}},{"start":{"in":"1227"},"end":{"in":"1227"}},{"start":{"in":"1240"},"end":{"in":"1240"}}]}},{"toponym":"Lechtone","citations":[{"label":"1173 P","year":1173},{"label":"1202 P","year":1202}],"when":{"timespans":[{"start":{"in":"1173"},"end":{"in":"1173"}},{"start":{"in":"1202"},"end":{"in":"1202"}}]}},{"toponym":"Leocton","citations":[{"label":"1177 P","year":1177}],"when":{"timespans":[{"start":{"in":"1177"},"end":{"in":"1177"}}]}},{"toponym":"Lectune","citations":[{"label":"1194 Cur(P)","year":1194}],"when":{"timespans":[{"start":{"in":"1194"},"end":{"in":"1194"}}]}},{"toponym":"Lecton","citations":[{"label":"1195 P","year":1195},{"label":"1196 FF","year":1196},{"label":"1202 Ass","year":1202},{"label":"1228 Cl","year":1228},{"label":"1253 AD","year":1253}],"when":{"timespans":[{"start":{"in":"1195"},"end":{"in":"1195"}},{"start":{"in":"1196"},"end":{"in":"1196"}},{"start":{"in":"1202"},"end":{"in":"1202"}},{"start":{"in":"1228"},"end":{"in":"1228"}},{"start":{"in":"1253"},"end":{"in":"1253"}}]}},{"toponym":"Leiton, Leyton","citations":[{"label":"1206 FF","year":1206},{"label":"1227 Ass","year":1227}],"when":{"timespans":[{"start":{"in":"1206"},"end":{"in":"1206"}},{"start":{"in":"1227"},"end":{"in":"1227"}}]}},{"toponym":"Leghton","citations":[{"label":"1247 Ass","year":1247}],"when":{"timespans":[{"start":{"in":"1247"},"end":{"in":"1247"}}]}},{"toponym":"Leghton Busard","citations":[{"label":"1287 Ass","year":1287}],"when":{"timespans":[{"start":{"in":"1287"},"end":{"in":"1287"}}]}},{"toponym":"Lachton","citations":[{"label":"1264 Pat","year":1264}],"when":{"timespans":[{"start":{"in":"1264"},"end":{"in":"1264"}}]}},{"toponym":"Bussard","citations":[{"label":"1287 QW","year":1287},{"label":"1321 Cl","year":1321},{"label":"1656 BM","year":1656}],"when":{"timespans":[{"start":{"in":"1287"},"end":{"in":"1287"}},{"start":{"in":"1321"},"end":{"in":"1321"}},{"start":{"in":"1656"},"end":{"in":"1656"}}]}},{"toponym":"Busard","citations":[{"label":"1287 Ass","year":1287},{"label":"1297 SR","year":1297},{"label":"1307 Cl","year":1307},{"label":"1316 FA","year":1316},{"label":"1326 Cl","year":1326},{"label":"1349 BM","year":1349},{"label":"1446 HMC","year":1446},{"label":"1477 AD","year":1477}],"when":{"timespans":[{"start":{"in":"1287"},"end":{"in":"1287"}},{"start":{"in":"1297"},"end":{"in":"1297"}},{"start":{"in":"1307"},"end":{"in":"1307"}},{"start":{"in":"1316"},"end":{"in":"1316"}},{"start":{"in":"1326"},"end":{"in":"1326"}},{"start":{"in":"1349"},"end":{"in":"1349"}},{"start":{"in":"1446"},"end":{"in":"1446"}},{"start":{"in":"1477"},"end":{"in":"1477"}}]}},{"toponym":"Bousard","citations":[{"label":"1331 QW","year":1331}],"when":{"timespans":[{"start":{"in":"1331"},"end":{"in":"1331"}}]}},{"toponym":"Bosard","citations":[{"label":"1355 Cl","year":1355},{"label":"1447 IpmR","year":1447},{"label":"1499 Ipm","year":1499}],"when":{"timespans":[{"start":{"in":"1355"},"end":{"in":"1355"}},{"start":{"in":"1447"},"end":{"in":"1447"}},{"start":{"in":"1499"},"end":{"in":"1499"}}]}},{"toponym":"Bussarde al. Budeserte","citations":[{"label":"Eliz ChancP","year":1558}],"when":{"timespans":[{"start":{"earliest":"1558","latest":"1603"},"end":{"earliest":"1558","latest":"1603"}}]}},{"toponym":"Beaudesert","citations":[{"label":"1643 HMC","year":1643}],"when":{"timespans":[{"start":{"in":"1643"},"end":{"in":"1643"}}]}},{"toponym":"Beudesert al. Budezard","citations":[{"label":"1646 NQ","year":1646}],"when":{"timespans":[{"start":{"in":"1646"},"end":{"in":"1646"}}]}},{"toponym":"Buzard","citations":[{"label":"1649 HMC","year":1649}],"when":{"timespans":[{"start":{"in":"1649"},"end":{"in":"1649"}}]}},{"toponym":"Beuzard","citations":[{"label":"1655 NQ","year":1655}],"when":{"timespans":[{"start":{"in":"1655"},"end":{"in":"1655"}}]}}],"types":[{"identifier":"http://vocab.getty.edu/aat/300232418","label":"administrative division","sourceLabels":[{"label":"township","lang":"en"}]}],"geometry":{"type":"GeometryCollection","geometries":[{"type":"Point","coordinates":[-0.65802,51.91722],"citations":[{"label":"GeoNames, gazetteer record geonames:2644652"}]},{"type":"Point","coordinates":[-0.6548365548500603,51.91989718745418],"citations":[{"label":"Unlock (EDINA) gazetteer, gazetteer record unlock:11193864"}]},{"type":"Point","coordinates":[-0.656385,51.9204],"citations":[{"label":"Key to English Place-Names (KEPN), gazetteer record 4317"}]}]},"when":{"timespans":[{"start":{"in":"1086"},"end":{"in":"1656"}}]},"links":[{"type":"closeMatch","identifier":"https://sws.geonames.org/2644652/"}],"relations":[{"relationType":"gvp:broaderPartitive","relationTo":"https://w3id.org/whg-epns/98/002167","label":"within Leighton Buzzard"}]}]}