{"@context":"https://raw.githubusercontent.com/LinkedPasts/linked-places-format/main/linkedplaces-context-v1.1.jsonld","type":"FeatureCollection","license":"Digitisation of English Placenames MADS data is licensed to Jisc by the English Place Names Society and released under a Creative Commons Attribution-NonCommercial 4.0 International License.","note":"LPF v1.3, lossy; derived from the PLATO record; plato_commit=ca0afadabec1e23a145c0b03df77e8f151f79832","features":[{"@id":"http://placenames.org.uk/id/placename/98/002594","type":"Feature","properties":{"title":"Haynes","ccodes":["GB"],"fclasses":["A","P"]},"names":[{"toponym":"Haynes","lang":"en","citations":[{"label":"English Place-Name Society survey, volume 3: Bedfordshire"}]},{"toponym":"Hagenes","citations":[{"label":"1086 DB","year":1086},{"label":"c. 1206 BHRS","year":1196},{"label":"Hy 3 Ch","year":1216}],"when":{"timespans":[{"start":{"in":"1086"},"end":{"in":"1086"}},{"start":{"earliest":"1196","latest":"1216"},"end":{"earliest":"1196","latest":"1216"}},{"start":{"earliest":"1216","latest":"1272"},"end":{"earliest":"1216","latest":"1272"}}]}},{"toponym":"Hagnes","citations":[{"label":"c. 1150 BM","year":1140}],"when":{"timespans":[{"start":{"earliest":"1140","latest":"1160"},"end":{"earliest":"1140","latest":"1160"}}]}},{"toponym":"Hawenes","citations":[{"label":"1202 Ass","year":1202},{"label":"1219 FF","year":1219},{"label":"1291 NI","year":1291},{"label":"1297 SR","year":1297},{"label":"1302 FA","year":1302},{"label":"1347 Pat","year":1347},{"label":"1390-2 CS","year":1390}],"when":{"timespans":[{"start":{"in":"1202"},"end":{"in":"1202"}},{"start":{"in":"1219"},"end":{"in":"1219"}},{"start":{"in":"1291"},"end":{"in":"1291"}},{"start":{"in":"1297"},"end":{"in":"1297"}},{"start":{"in":"1302"},"end":{"in":"1302"}},{"start":{"in":"1316"},"end":{"in":"1316"}},{"start":{"in":"1347"},"end":{"in":"1347"}},{"start":{"earliest":"1390","latest":"1392"},"end":{"earliest":"1390","latest":"1392"}}]}},{"toponym":"Hawenis","citations":[{"label":"1219 FF","year":1219},{"label":"1276 Ass","year":1276}],"when":{"timespans":[{"start":{"in":"1219"},"end":{"in":"1219"}},{"start":{"in":"1276"},"end":{"in":"1276"}}]}},{"toponym":"Haunnes","citations":[{"label":"1242 Fees","year":1242}],"when":{"timespans":[{"start":{"in":"1242"},"end":{"in":"1242"}}]}},{"toponym":"Hawnes","citations":[{"label":"1247 Ass","year":1247},{"label":"1287 Ass","year":1287},{"label":"1426 IpmR","year":1426},{"label":"1535 VE","year":1535},{"label":"1549 Pat","year":1549},{"label":"1800 Jury","year":1800}],"when":{"timespans":[{"start":{"in":"1247"},"end":{"in":"1247"}},{"start":{"in":"1287"},"end":{"in":"1287"}},{"start":{"in":"1426"},"end":{"in":"1426"}},{"start":{"in":"1535"},"end":{"in":"1535"}},{"start":{"in":"1549"},"end":{"in":"1549"}},{"start":{"in":"1800"},"end":{"in":"1800"}},{"start":{"in":"1830"},"end":{"in":"1830"}}]}},{"toponym":"Haunes","citations":[{"label":"1247 Ass","year":1247},{"label":"1257 FF","year":1257},{"label":"1276 Ass","year":1276},{"label":"1291 NI","year":1291},{"label":"1326 Cl","year":1326},{"label":"1327 Ipm","year":1327},{"label":"1361 Cl","year":1361},{"label":"1402 CS","year":1402},{"label":"1610 Speed","year":1610}],"when":{"timespans":[{"start":{"in":"1247"},"end":{"in":"1247"}},{"start":{"in":"1257"},"end":{"in":"1257"}},{"start":{"in":"1276"},"end":{"in":"1276"}},{"start":{"in":"1287"},"end":{"in":"1287"}},{"start":{"in":"1291"},"end":{"in":"1291"}},{"start":{"in":"1326"},"end":{"in":"1326"}},{"start":{"in":"1327"},"end":{"in":"1327"}},{"start":{"in":"1351"},"end":{"in":"1351"}},{"start":{"in":"1361"},"end":{"in":"1361"}},{"start":{"in":"1402"},"end":{"in":"1402"}},{"start":{"in":"1610"},"end":{"in":"1610"}}]}},{"toponym":"Hauwnes","citations":[{"label":"1287 Ass","year":1287}],"when":{"timespans":[{"start":{"in":"1287"},"end":{"in":"1287"}}]}},{"toponym":"Hawens","citations":[{"label":"1325 Cl","year":1325},{"label":"1780 Jury","year":1780}],"when":{"timespans":[{"start":{"in":"1325"},"end":{"in":"1325"}},{"start":{"in":"1780"},"end":{"in":"1780"}}]}},{"toponym":"Haynes","citations":[{"label":"c. 1560 Linc","year":1550}],"when":{"timespans":[{"start":{"earliest":"1550","latest":"1570"},"end":{"earliest":"1550","latest":"1570"}}]}},{"toponym":"Hains","citations":[{"label":"1712 NQ","year":1712}],"when":{"timespans":[{"start":{"in":"1712"},"end":{"in":"1712"}}]}}],"types":[{"identifier":"http://vocab.getty.edu/aat/300232418","label":"administrative division","sourceLabels":[{"label":"township","lang":"en"}]}],"geometry":{"type":"GeometryCollection","geometries":[{"type":"Point","coordinates":[-0.39946,52.06646],"citations":[{"label":"GeoNames, gazetteer record geonames:2647254"}]},{"type":"Point","coordinates":[-0.4022817528024314,52.06961368386408],"citations":[{"label":"Unlock (EDINA) gazetteer, gazetteer record unlock:11168278"}]},{"type":"Point","coordinates":[-0.389283,52.0699],"citations":[{"label":"Key to English Place-Names (KEPN), gazetteer record 4334"}]}]},"when":{"timespans":[{"start":{"in":"1086"},"end":{"in":"1830"}}]},"links":[{"type":"closeMatch","identifier":"https://sws.geonames.org/2647254/"}],"relations":[{"relationType":"gvp:broaderPartitive","relationTo":"http://placenames.org.uk/id/placename/98/002593","label":"within Haynes"}]}]}