{"@context":"https://raw.githubusercontent.com/LinkedPasts/linked-places-format/main/linkedplaces-context-v1.1.jsonld","type":"FeatureCollection","license":"Digitisation of English Placenames MADS data is licensed to Jisc by the English Place Names Society and released under a Creative Commons Attribution-NonCommercial 4.0 International License.","note":"LPF v1.3, lossy; derived from the PLATO record; plato_commit=fa0d247ccc0263f8f19c8d7cdcd163df96935d1e","features":[{"@id":"https://w3id.org/whg-epns/98/002821","type":"Feature","properties":{"title":"Stopsley","ccodes":["GB"],"fclasses":["A","P"]},"names":[{"toponym":"Stopsley","lang":"en","citations":[{"label":"English Place-Name Society survey, volume 3: Bedfordshire"}]},{"toponym":"Stoppelee","citations":[{"label":"1199 FF","year":1199}],"when":{"timespans":[{"start":{"in":"1199"},"end":{"in":"1199"}}]}},{"toponym":"Stopeleg, Stopelee","citations":[{"label":"1201 Cur","year":1201},{"label":"1240 Ass","year":1240}],"when":{"timespans":[{"start":{"in":"1201"},"end":{"in":"1201"}},{"start":{"in":"1240"},"end":{"in":"1240"}}]}},{"toponym":"Stoppeleg","citations":[{"label":"1202 Ass","year":1202},{"label":"1235 Cl","year":1235}],"when":{"timespans":[{"start":{"in":"1202"},"end":{"in":"1202"}},{"start":{"in":"1235"},"end":{"in":"1235"}}]}},{"toponym":"Stoppesle(gh)","citations":[{"label":"1207 FF","year":1207},{"label":"1227 Ass","year":1227},{"label":"1247 Ass","year":1247},{"label":"Dunst","year":1286},{"label":"Ipm"},{"label":"1286 Dunst","year":1286},{"label":"1504 Ipm","year":1504}],"when":{"timespans":[{"start":{"in":"1207"},"end":{"in":"1207"}},{"start":{"in":"1227"},"end":{"in":"1227"}},{"start":{"in":"1240"},"end":{"in":"1240"}},{"start":{"in":"1247"},"end":{"in":"1247"}},{"start":{"in":"1286"},"end":{"in":"1504"}},{"start":{"in":"1286"},"end":{"in":"1286"}},{"start":{"in":"1504"},"end":{"in":"1504"}}]}},{"toponym":"Stopeslegh","citations":[{"label":"1247 Ass","year":1247}],"when":{"timespans":[{"start":{"in":"1247"},"end":{"in":"1247"}}]}},{"toponym":"Stop(p)isle(y)","citations":[{"label":"1262 BM","year":1262},{"label":"1487 Ipm","year":1487}],"when":{"timespans":[{"start":{"in":"1262"},"end":{"in":"1262"}},{"start":{"in":"1487"},"end":{"in":"1487"}}]}},{"toponym":"Stopeleye","citations":[{"label":"1276 Ass","year":1276}],"when":{"timespans":[{"start":{"in":"1276"},"end":{"in":"1276"}}]}},{"toponym":"Stopesleye","citations":[{"label":"1276 Ass","year":1276},{"label":"1337 Ch","year":1337},{"label":"1381 Cl","year":1381}],"when":{"timespans":[{"start":{"in":"1276"},"end":{"in":"1276"}},{"start":{"in":"1337"},"end":{"in":"1337"}},{"start":{"in":"1381"},"end":{"in":"1381"}}]}},{"toponym":"Stopley","citations":[{"label":"Eliz ChancP","year":1558}],"when":{"timespans":[{"start":{"earliest":"1558","latest":"1603"},"end":{"earliest":"1558","latest":"1603"}}]}}],"types":[{"identifier":"http://vocab.getty.edu/aat/300232418","label":"administrative division","sourceLabels":[{"label":"township","lang":"en"}]}],"geometry":{"type":"GeometryCollection","geometries":[{"type":"Point","coordinates":[-0.38924,51.89736],"citations":[{"label":"GeoNames, gazetteer record geonames:2636792"}]},{"type":"Point","coordinates":[-0.3938187057378617,51.89863890365817],"citations":[{"label":"Unlock (EDINA) gazetteer, gazetteer record unlock:11293553"}]},{"type":"Point","coordinates":[-0.395397,51.8991],"citations":[{"label":"Key to English Place-Names (KEPN), gazetteer record 4342"}]}]},"when":{"timespans":[{"start":{"in":"1199"},"end":{"in":"1603"}}]},"links":[{"type":"closeMatch","identifier":"https://sws.geonames.org/2636792/"}],"relations":[{"relationType":"gvp:broaderPartitive","relationTo":"https://w3id.org/whg-epns/98/002820","label":"within Stopsley"}]}]}