{"@context":"https://raw.githubusercontent.com/LinkedPasts/linked-places-format/main/linkedplaces-context-v1.1.jsonld","type":"FeatureCollection","license":"Digitisation of English Placenames MADS data is licensed to Jisc by the English Place Names Society and released under a Creative Commons Attribution-NonCommercial 4.0 International License.","note":"LPF v1.3, lossy; derived from the PLATO record; plato_commit=ca0afadabec1e23a145c0b03df77e8f151f79832","features":[{"@id":"https://w3id.org/whg-epns/98/003096","type":"Feature","properties":{"title":"Upper Stondon","ccodes":["GB"],"fclasses":["A","P"]},"names":[{"toponym":"Upper Stondon","lang":"en","citations":[{"label":"English Place-Name Society survey, volume 3: Bedfordshire"}]}],"types":[{"identifier":"http://vocab.getty.edu/aat/300232418","label":"administrative division","sourceLabels":[{"label":"parish","lang":"en"}]}],"geometry":{"type":"GeometryCollection","geometries":[{"type":"Point","coordinates":[-0.3317036449365092,52.00568735179515],"citations":[{"label":"Unlock (EDINA) gazetteer, gazetteer record unlock:11310483"}]},{"type":"Point","coordinates":[-0.333293,52.0061],"citations":[{"label":"Key to English Place-Names (KEPN), gazetteer record 4353"}]}]},"relations":[{"relationType":"gvp:broaderPartitive","relationTo":"https://w3id.org/whg-epns/98/002878","label":"within Clifton Hundred"}]}]}