{"@context":"https://raw.githubusercontent.com/LinkedPasts/linked-places-format/main/linkedplaces-context-v1.1.jsonld","type":"FeatureCollection","license":"Digitisation of English Placenames MADS data is licensed to Jisc by the English Place Names Society and released under a Creative Commons Attribution-NonCommercial 4.0 International License.","note":"LPF v1.3, lossy; derived from the PLATO record; plato_commit=fa0d247ccc0263f8f19c8d7cdcd163df96935d1e","features":[{"@id":"https://w3id.org/whg-epns/34/000020","type":"Feature","properties":{"title":"Wharfedale","ccodes":["GB"],"fclasses":["A"]},"names":[{"toponym":"Wharfedale","lang":"en","citations":[{"label":"English Place-Name Society survey, volume 34: West Riding of Yorkshire"}]},{"toponym":"Hwerverdale","citations":[{"label":"12 SD","year":1100}],"when":{"timespans":[{"start":{"earliest":"1100","latest":"1200"},"end":{"earliest":"1100","latest":"1200"}}]}},{"toponym":"Werverdal'","citations":[{"label":"1204 Ch","year":1204}],"when":{"timespans":[{"start":{"in":"1204"},"end":{"in":"1204"}}]}},{"toponym":"Querfdale","citations":[{"label":"1198 Fount","year":1198}],"when":{"timespans":[{"start":{"in":"1198"},"end":{"in":"1198"}}]}},{"toponym":"Querfdall","citations":[{"label":"1320 Calv","year":1320}],"when":{"timespans":[{"start":{"in":"1320"},"end":{"in":"1320"}}]}},{"toponym":"Qwervedale","citations":[{"label":"1344 YD","year":1344}],"when":{"timespans":[{"start":{"in":"1344"},"end":{"in":"1344"}}]}},{"toponym":"Quarfdale","citations":[{"label":"1391 YD","year":1391}],"when":{"timespans":[{"start":{"in":"1391"},"end":{"in":"1391"}}]}},{"toponym":"Quervesdale","citations":[{"label":"Ed 1 BM","year":1272}],"when":{"timespans":[{"start":{"earliest":"1272","latest":"1307"},"end":{"earliest":"1272","latest":"1307"}}]}},{"toponym":"Querfesdale","citations":[{"label":"1325 YD","year":1325}],"when":{"timespans":[{"start":{"in":"1325"},"end":{"in":"1325"}}]}},{"toponym":"Whervesdale","citations":[{"label":"1344 YD","year":1344}],"when":{"timespans":[{"start":{"in":"1344"},"end":{"in":"1344"}}]}},{"toponym":"Werfedalle","citations":[{"label":"Ed 1 BM","year":1272}],"when":{"timespans":[{"start":{"earliest":"1272","latest":"1307"},"end":{"earliest":"1272","latest":"1307"}}]}},{"toponym":"Whervedale","citations":[{"label":"1306 Pat","year":1306}],"when":{"timespans":[{"start":{"in":"1306"},"end":{"in":"1306"}}]}},{"toponym":"Werfdale","citations":[{"label":"1386 MinAcct","year":1386}],"when":{"timespans":[{"start":{"in":"1386"},"end":{"in":"1386"}}]}},{"toponym":"Wherfedale","citations":[{"label":"1393 YD","year":1393}],"when":{"timespans":[{"start":{"in":"1393"},"end":{"in":"1393"}}]}},{"toponym":"Qhwardale","citations":[{"label":"1269-82 YD","year":1269}],"when":{"timespans":[{"start":{"earliest":"1269","latest":"1282"},"end":{"earliest":"1269","latest":"1282"}}]}},{"toponym":"Querdale","citations":[{"label":"1401 Calv","year":1401}],"when":{"timespans":[{"start":{"in":"1401"},"end":{"in":"1401"}}]}},{"toponym":"Wherdale","citations":[{"label":"1409 YI","year":1409}],"when":{"timespans":[{"start":{"in":"1409"},"end":{"in":"1409"}}]}},{"toponym":"Whardayll","citations":[{"label":"1457 YD","year":1457}],"when":{"timespans":[{"start":{"in":"1457"},"end":{"in":"1457"}}]}},{"toponym":"Wherveldale","citations":[{"label":"1260-70 Bodl","year":1260},{"label":"1349 YD","year":1349}],"when":{"timespans":[{"start":{"earliest":"1260","latest":"1270"},"end":{"earliest":"1260","latest":"1270"}},{"start":{"in":"1349"},"end":{"in":"1349"}}]}},{"toponym":"Werneldale","citations":[{"label":"1279-81 QW","year":1279}],"when":{"timespans":[{"start":{"earliest":"1279","latest":"1281"},"end":{"earliest":"1279","latest":"1281"}}]}},{"toponym":"Querfildale","citations":[{"label":"1318 Calv","year":1318}],"when":{"timespans":[{"start":{"in":"1318"},"end":{"in":"1318"}}]}},{"toponym":"Wharldale","citations":[{"label":"1269-82 YD","year":1269}],"when":{"timespans":[{"start":{"earliest":"1269","latest":"1282"},"end":{"earliest":"1269","latest":"1282"}}]}},{"toponym":"Wharldayll","citations":[{"label":"1457 YD","year":1457}],"when":{"timespans":[{"start":{"in":"1457"},"end":{"in":"1457"}}]}},{"toponym":"Querledalle","citations":[{"label":"1366 Calv","year":1366}],"when":{"timespans":[{"start":{"in":"1366"},"end":{"in":"1366"}}]}}],"types":[{"identifier":"http://vocab.getty.edu/aat/300232418","label":"administrative division","sourceLabels":[{"label":"local district","lang":"en"}]}],"geometry":null,"when":{"timespans":[{"start":{"in":"1100"},"end":{"in":"1457"}}]},"relations":[{"relationType":"gvp:broaderPartitive","relationTo":"https://w3id.org/whg-epns/34/000003","label":"within Upper Claro Division"}]}]}