{"@context":"https://raw.githubusercontent.com/LinkedPasts/linked-places-format/main/linkedplaces-context-v1.1.jsonld","type":"FeatureCollection","license":"Digitisation of English Placenames MADS data is licensed to Jisc by the English Place Names Society and released under a Creative Commons Attribution-NonCommercial 4.0 International License.","note":"LPF v1.3, lossy; derived from the PLATO record; plato_commit=fa0d247ccc0263f8f19c8d7cdcd163df96935d1e","features":[{"@id":"https://w3id.org/whg-epns/34/000137","type":"Feature","properties":{"title":"Kirby Hall","ccodes":["GB"],"fclasses":["A","P"]},"names":[{"toponym":"Kirby Hall","lang":"en","citations":[{"label":"English Place-Name Society survey, volume 34: West Riding of Yorkshire"}]},{"toponym":"Chirchebi","citations":[{"label":"1086 DB","year":1086}],"when":{"timespans":[{"start":{"in":"1086"},"end":{"in":"1086"}}]}},{"toponym":"Chircheby","citations":[{"label":"1140-7 YCh","year":1140}],"when":{"timespans":[{"start":{"earliest":"1140","latest":"1147"},"end":{"earliest":"1140","latest":"1147"}}]}},{"toponym":"Kirkeby (juxta) Useburn(e)","citations":[{"label":"12 Font","year":1100},{"label":"1147-53 YCh","year":1147},{"label":"1198 Abbr","year":1198},{"label":"1206 ChR","year":1206},{"label":"1209 FF","year":1209}],"when":{"timespans":[{"start":{"earliest":"1100","latest":"1200"},"end":{"earliest":"1100","latest":"1200"}},{"start":{"earliest":"1147","latest":"1153"},"end":{"earliest":"1147","latest":"1153"}},{"start":{"in":"1198"},"end":{"in":"1198"}},{"start":{"in":"1206"},"end":{"in":"1206"}},{"start":{"in":"1209"},"end":{"in":"1209"}}]}},{"toponym":"Kirkeby Vseburun","citations":[{"label":"12 Font","year":1100}],"when":{"timespans":[{"start":{"earliest":"1100","latest":"1200"},"end":{"earliest":"1100","latest":"1200"}}]}},{"toponym":"Kirkeby Usburn","citations":[{"label":"1198 Fount","year":1198},{"label":"RH","year":1276},{"label":"1276 RH","year":1276}],"when":{"timespans":[{"start":{"in":"1198"},"end":{"in":"1198"}},{"start":{"in":"1276"},"end":{"in":"1276"}},{"start":{"in":"1276"},"end":{"in":"1276"}}]}},{"toponym":"Kirkeby juxta Huseburn'","citations":[{"label":"1200 ChR","year":1200}],"when":{"timespans":[{"start":{"in":"1200"},"end":{"in":"1200"}}]}},{"toponym":"Kirkeby Ussuburn'","citations":[{"label":"1206 ChR","year":1206}],"when":{"timespans":[{"start":{"in":"1206"},"end":{"in":"1206"}}]}},{"toponym":"Kirkby Cattall","citations":[{"label":"1379 PT","year":1379}],"when":{"timespans":[{"start":{"in":"1379"},"end":{"in":"1379"}}]}},{"toponym":"Kyrkebyhall","citations":[{"label":"1383 Font","year":1383}],"when":{"timespans":[{"start":{"in":"1383"},"end":{"in":"1383"}},{"start":{"in":"1399"},"end":{"in":"1399"}}]}},{"toponym":"Kirkbehall","citations":[{"label":"1522 Star","year":1522}],"when":{"timespans":[{"start":{"in":"1522"},"end":{"in":"1522"}}]}},{"toponym":"Kirkby Hall, Kyrkby Hall","citations":[{"label":"1557 FF","year":1557},{"label":"1673 Dep","year":1673}],"when":{"timespans":[{"start":{"in":"1557"},"end":{"in":"1557"}},{"start":{"in":"1673"},"end":{"in":"1673"}}]}},{"toponym":"Kirby Hall","citations":[{"label":"1847 TA","year":1847}],"when":{"timespans":[{"start":{"in":"1847"},"end":{"in":"1847"}}]}},{"toponym":"Kirk(e)by Hall als. Kyrk(e)by Usburne, Kyrk(e)by Hall als. Kyrk(e)by Usburne","citations":[{"label":"1558 FF","year":1558},{"label":"1680 Dep","year":1680}],"when":{"timespans":[{"start":{"in":"1558"},"end":{"in":"1558"}},{"start":{"in":"1680"},"end":{"in":"1680"}}]}}],"types":[{"identifier":"http://vocab.getty.edu/aat/300232418","label":"administrative division","sourceLabels":[{"label":"township","lang":"en"}]}],"geometry":{"type":"GeometryCollection","geometries":[{"type":"Point","coordinates":[-1.30302,54.04221],"citations":[{"label":"GeoNames, gazetteer record geonames:7296838"}]},{"type":"Point","coordinates":[-1.312867733,54.03383252],"citations":[{"label":"English Place-Name Society survey (DEEP coordinates)"}]},{"type":"Point","coordinates":[-1.305158396399486,54.03828401839964],"citations":[{"label":"Unlock (EDINA) gazetteer, gazetteer record unlock:11187657"}]},{"type":"Point","coordinates":[-1.30657,54.0475],"citations":[{"label":"Key to English Place-Names (KEPN), gazetteer record 14722"}]}]},"when":{"timespans":[{"start":{"in":"1086"},"end":{"in":"1847"}}]},"links":[{"type":"closeMatch","identifier":"https://sws.geonames.org/7296838/"}],"relations":[{"relationType":"gvp:broaderPartitive","relationTo":"https://w3id.org/whg-epns/34/000136","label":"within Little Ouseburn"}]}]}