{"@context":"https://raw.githubusercontent.com/LinkedPasts/linked-places-format/main/linkedplaces-context-v1.1.jsonld","type":"FeatureCollection","license":"Digitisation of English Placenames MADS data is licensed to Jisc by the English Place Names Society and released under a Creative Commons Attribution-NonCommercial 4.0 International License.","note":"LPF v1.3, lossy; derived from the PLATO record; plato_commit=ca0afadabec1e23a145c0b03df77e8f151f79832","features":[{"@id":"https://w3id.org/whg-epns/34/000499","type":"Feature","properties":{"title":"Kirk Hammerton","ccodes":["GB"],"fclasses":["A","P"]},"names":[{"toponym":"Kirk Hammerton","lang":"en","citations":[{"label":"English Place-Name Society survey, volume 34: West Riding of Yorkshire"}]},{"toponym":"Ambretone, Hanbretone","citations":[{"label":"1086 DB","year":1086}],"when":{"timespans":[{"start":{"in":"1086"},"end":{"in":"1086"}}]}},{"toponym":"Hametona","citations":[{"label":"1140-7 YCh","year":1140}],"when":{"timespans":[{"start":{"earliest":"1140","latest":"1147"},"end":{"earliest":"1140","latest":"1147"}}]}},{"toponym":"Hamertun, Hamertona","citations":[{"label":"12 Font","year":1100},{"label":"1118-50 Tockw","year":1118},{"label":"1147-53 Dugd","year":1147},{"label":"1217–1539, recurring Font","year":1217},{"label":"1217–1539, recurring Star"},{"label":"1217-24 Font","year":1217},{"label":"1539 Star","year":1539}],"when":{"timespans":[{"start":{"earliest":"1100","latest":"1200"},"end":{"earliest":"1100","latest":"1200"}},{"start":{"earliest":"1118","latest":"1150"},"end":{"earliest":"1118","latest":"1150"}},{"start":{"in":"1121"},"end":{"in":"1121"}},{"start":{"earliest":"1147","latest":"1153"},"end":{"earliest":"1147","latest":"1153"}},{"start":{"in":"1217"},"end":{"in":"1539"}},{"start":{"earliest":"1217","latest":"1224"},"end":{"earliest":"1217","latest":"1224"}},{"start":{"in":"1539"},"end":{"in":"1539"}}]}},{"toponym":"Kirk(e) Hamertona, Kyrk(e) Hamertona","citations":[{"label":"1198 Fount","year":1198},{"label":"13 Font","year":1200},{"label":"1226–1439, recurring FF","year":1226},{"label":"1226–1439, recurring YD"},{"label":"1226 FF","year":1226},{"label":"1439 YD","year":1439}],"when":{"timespans":[{"start":{"in":"1198"},"end":{"in":"1198"}},{"start":{"earliest":"1200","latest":"1300"},"end":{"earliest":"1200","latest":"1300"}},{"start":{"in":"1226"},"end":{"in":"1439"}},{"start":{"in":"1226"},"end":{"in":"1226"}},{"start":{"in":"1240"},"end":{"in":"1240"}},{"start":{"in":"1439"},"end":{"in":"1439"}}]}},{"toponym":"Kirk Hammerton","citations":[{"label":"1316 Vill","year":1316}],"when":{"timespans":[{"start":{"in":"1316"},"end":{"in":"1316"}}]}},{"toponym":"Kyrkhamb'ton","citations":[{"label":"1535 VE","year":1535}],"when":{"timespans":[{"start":{"in":"1535"},"end":{"in":"1535"}}]}}],"types":[{"identifier":"http://vocab.getty.edu/aat/300232418","label":"administrative division","sourceLabels":[{"label":"township","lang":"en"}]}],"geometry":{"type":"GeometryCollection","geometries":[{"type":"Point","coordinates":[-1.29176,53.99435],"citations":[{"label":"GeoNames, gazetteer record geonames:2645277"}]},{"type":"Point","coordinates":[-1.298355859,53.98880421],"citations":[{"label":"English Place-Name Society survey (DEEP coordinates)"}]},{"type":"Point","coordinates":[-1.290653341287403,53.99325482659388],"citations":[{"label":"Unlock (EDINA) gazetteer, gazetteer record unlock:11187725"}]},{"type":"Point","coordinates":[-1.29221,53.9935],"citations":[{"label":"Key to English Place-Names (KEPN), gazetteer record 3406"}]}]},"when":{"timespans":[{"start":{"in":"1086"},"end":{"in":"1539"}}]},"links":[{"type":"closeMatch","identifier":"https://sws.geonames.org/2645277/"}],"relations":[{"relationType":"gvp:broaderPartitive","relationTo":"https://w3id.org/whg-epns/34/000498","label":"within Kirk Hammerton"}]}]}