{"@context":"https://raw.githubusercontent.com/LinkedPasts/linked-places-format/main/linkedplaces-context-v1.1.jsonld","type":"FeatureCollection","license":"Digitisation of English Placenames MADS data is licensed to Jisc by the English Place Names Society and released under a Creative Commons Attribution-NonCommercial 4.0 International License.","note":"LPF v1.3, lossy; derived from the PLATO record; plato_commit=fa0d247ccc0263f8f19c8d7cdcd163df96935d1e","features":[{"@id":"https://w3id.org/whg-epns/34/000858","type":"Feature","properties":{"title":"Great Ribston","ccodes":["GB"],"fclasses":["A","P"]},"names":[{"toponym":"Great Ribston","lang":"en","citations":[{"label":"English Place-Name Society survey, volume 34: West Riding of Yorkshire"}]},{"toponym":"Ripestan, Ripestain","citations":[{"label":"1086 DB","year":1086}],"when":{"timespans":[{"start":{"in":"1086"},"end":{"in":"1086"}}]}},{"toponym":"Ribestan(n), Rybestan(n)","citations":[{"label":"1173 YCh","year":1173},{"label":"1182-5 YCh","year":1182},{"label":"1220-4 YD","year":1220},{"label":"1226 YCh","year":1226},{"label":"1227 Ch","year":1227}],"when":{"timespans":[{"start":{"in":"1173"},"end":{"in":"1173"}},{"start":{"earliest":"1182","latest":"1185"},"end":{"earliest":"1182","latest":"1185"}},{"start":{"earliest":"1220","latest":"1224"},"end":{"earliest":"1220","latest":"1224"}},{"start":{"in":"1226"},"end":{"in":"1226"}},{"start":{"in":"1227"},"end":{"in":"1227"}}]}},{"toponym":"Rybestain, Rybestayn","citations":[{"label":"13 YD","year":1200},{"label":"1236-47 YCh","year":1236}],"when":{"timespans":[{"start":{"earliest":"1200","latest":"1300"},"end":{"earliest":"1200","latest":"1300"}},{"start":{"earliest":"1236","latest":"1247"},"end":{"earliest":"1236","latest":"1247"}}]}},{"toponym":"Ribbestain, Ribbestein, Ribbesteyn","citations":[{"label":"1196 P","year":1196},{"label":"l. 12 YD","year":1175},{"label":"13 Percy","year":1200},{"label":"1202 FF","year":1202},{"label":"1206-12 YCh","year":1206},{"label":"YD","year":1217},{"label":"YD"},{"label":"1217-41 YD","year":1217},{"label":"1327 YD","year":1327}],"when":{"timespans":[{"start":{"in":"1196"},"end":{"in":"1196"}},{"start":{"earliest":"1175","latest":"1200"},"end":{"earliest":"1175","latest":"1200"}},{"start":{"earliest":"1200","latest":"1300"},"end":{"earliest":"1200","latest":"1300"}},{"start":{"in":"1202"},"end":{"in":"1202"}},{"start":{"in":"1213"},"end":{"in":"1213"}},{"start":{"earliest":"1206","latest":"1212"},"end":{"earliest":"1206","latest":"1212"}},{"start":{"in":"1217"},"end":{"in":"1327"}},{"start":{"earliest":"1217","latest":"1241"},"end":{"earliest":"1217","latest":"1241"}},{"start":{"in":"1327"},"end":{"in":"1327"}}]}},{"toponym":"Rybbystayn","citations":[{"label":"13 YD","year":1200}],"when":{"timespans":[{"start":{"earliest":"1200","latest":"1300"},"end":{"earliest":"1200","latest":"1300"}}]}},{"toponym":"Ribbestan, Rybbestan","citations":[{"label":"13 Percy","year":1200},{"label":"1278 YI","year":1278},{"label":"1372 YD","year":1372}],"when":{"timespans":[{"start":{"earliest":"1200","latest":"1300"},"end":{"earliest":"1200","latest":"1300"}},{"start":{"in":"1278"},"end":{"in":"1278"}},{"start":{"in":"1372"},"end":{"in":"1372"}}]}},{"toponym":"Rybbeston","citations":[{"label":"1205 OblR","year":1205}],"when":{"timespans":[{"start":{"in":"1205"},"end":{"in":"1205"}}]}},{"toponym":"Ribstain, Rybstain, Rybstayn","citations":[{"label":"1217 YD","year":1217},{"label":"1370 YD","year":1370}],"when":{"timespans":[{"start":{"in":"1217"},"end":{"in":"1217"}},{"start":{"in":"1370"},"end":{"in":"1370"}}]}},{"toponym":"Rybstan(e)","citations":[{"label":"1276 RH","year":1276},{"label":"Pat","year":1314},{"label":"Ipm"},{"label":"1314 Pat","year":1314},{"label":"1502 Ipm","year":1502}],"when":{"timespans":[{"start":{"in":"1276"},"end":{"in":"1276"}},{"start":{"in":"1314"},"end":{"in":"1502"}},{"start":{"in":"1314"},"end":{"in":"1314"}},{"start":{"in":"1502"},"end":{"in":"1502"}}]}},{"toponym":"Magna Rybstan(e)","citations":[{"label":"1303 KF","year":1303},{"label":"1316 Vill","year":1316}],"when":{"timespans":[{"start":{"in":"1303"},"end":{"in":"1303"}},{"start":{"in":"1316"},"end":{"in":"1316"}}]}},{"toponym":"Temple Rybstan(e)","citations":[{"label":"1379 PT","year":1379}],"when":{"timespans":[{"start":{"in":"1379"},"end":{"in":"1379"}}]}},{"toponym":"Ribston, Rybston","citations":[{"label":"1535 VE","year":1535},{"label":"1540 PrHosp","year":1540}],"when":{"timespans":[{"start":{"in":"1535"},"end":{"in":"1535"}},{"start":{"in":"1540"},"end":{"in":"1540"}}]}}],"types":[{"identifier":"http://vocab.getty.edu/aat/300232418","label":"administrative division","sourceLabels":[{"label":"township","lang":"en"}]}],"geometry":{"type":"GeometryCollection","geometries":[{"type":"Point","coordinates":[-1.405248942,53.98039182],"citations":[{"label":"English Place-Name Society survey (DEEP coordinates)"}]},{"type":"Point","coordinates":[-1.39911,53.9851],"citations":[{"label":"Key to English Place-Names (KEPN), gazetteer record 14735"}]}]},"when":{"timespans":[{"start":{"in":"1086"},"end":{"in":"1540"}}]},"relations":[{"relationType":"gvp:broaderPartitive","relationTo":"https://w3id.org/whg-epns/34/000697","label":"within Hunsingore"}]}]}