{"@context":"https://raw.githubusercontent.com/LinkedPasts/linked-places-format/main/linkedplaces-context-v1.1.jsonld","type":"FeatureCollection","license":"Digitisation of English Placenames MADS data is licensed to Jisc by the English Place Names Society and released under a Creative Commons Attribution-NonCommercial 4.0 International License.","note":"LPF v1.3, lossy; derived from the PLATO record; plato_commit=ca0afadabec1e23a145c0b03df77e8f151f79832","features":[{"@id":"http://placenames.org.uk/id/placename/34/001065","type":"Feature","properties":{"title":"Kirk Deighton","ccodes":["GB"],"fclasses":["A","P"]},"names":[{"toponym":"Kirk Deighton","lang":"en","citations":[{"label":"English Place-Name Society survey, volume 34: West Riding of Yorkshire"}]}],"types":[{"identifier":"http://vocab.getty.edu/aat/300232418","label":"administrative division","sourceLabels":[{"label":"parish","lang":"en"}]}],"geometry":{"type":"GeometryCollection","geometries":[{"type":"Point","coordinates":[-1.38141,53.95349],"citations":[{"label":"GeoNames, gazetteer record geonames:7300763"}]},{"type":"Point","coordinates":[-1.405760517,53.94443869],"citations":[{"label":"English Place-Name Society survey (DEEP coordinates)"}]},{"type":"Point","coordinates":[-1.398077634979588,53.9488962589034],"citations":[{"label":"Unlock (EDINA) gazetteer, gazetteer record unlock:11187714"}]},{"type":"Point","coordinates":[-1.39962,53.9491],"citations":[{"label":"Key to English Place-Names (KEPN), gazetteer record 14737"}]}]},"links":[{"type":"closeMatch","identifier":"https://sws.geonames.org/7300763/"}],"relations":[{"relationType":"gvp:broaderPartitive","relationTo":"http://placenames.org.uk/id/placename/34/000003","label":"within Upper Claro Division"}]}]}