{"@context":"https://raw.githubusercontent.com/LinkedPasts/linked-places-format/main/linkedplaces-context-v1.1.jsonld","type":"FeatureCollection","license":"Digitisation of English Placenames MADS data is licensed to Jisc by the English Place Names Society and released under a Creative Commons Attribution-NonCommercial 4.0 International License.","note":"LPF v1.3, lossy; derived from the PLATO record; plato_commit=ca0afadabec1e23a145c0b03df77e8f151f79832","features":[{"@id":"http://placenames.org.uk/id/placename/34/001671","type":"Feature","properties":{"title":"Little Ribston","ccodes":["GB"],"fclasses":["A","P"]},"names":[{"toponym":"Little Ribston","lang":"en","citations":[{"label":"English Place-Name Society survey, volume 34: West Riding of Yorkshire"}]},{"toponym":"Ripestain, Ripesten","citations":[{"label":"1086 DB","year":1086}],"when":{"timespans":[{"start":{"in":"1086"},"end":{"in":"1086"}}]}},{"toponym":"Ribestein, Ribestain","citations":[{"label":"1214 Abbr","year":1214},{"label":"1217 YD","year":1217}],"when":{"timespans":[{"start":{"in":"1214"},"end":{"in":"1214"}},{"start":{"in":"1217"},"end":{"in":"1217"}}]}},{"toponym":"Parva Ribstayn","citations":[{"label":"13 Heal","year":1200}],"when":{"timespans":[{"start":{"earliest":"1200","latest":"1300"},"end":{"earliest":"1200","latest":"1300"}}]}},{"toponym":"Parva Ribbestan","citations":[{"label":"c. 1223 Percy","year":1213}],"when":{"timespans":[{"start":{"earliest":"1213","latest":"1233"},"end":{"earliest":"1213","latest":"1233"}}]}},{"toponym":"Parva Ribbestain","citations":[{"label":"1296 YD","year":1296}],"when":{"timespans":[{"start":{"in":"1296"},"end":{"in":"1296"}}]}},{"toponym":"Little Ribestayn","citations":[{"label":"1316 Pat","year":1316}],"when":{"timespans":[{"start":{"in":"1316"},"end":{"in":"1316"}}]}},{"toponym":"Parva Ribstan(e)","citations":[{"label":"1333 YD","year":1333},{"label":"1379 PT","year":1379}],"when":{"timespans":[{"start":{"in":"1333"},"end":{"in":"1333"}},{"start":{"in":"1379"},"end":{"in":"1379"}}]}},{"toponym":"Litil Ribston(e), Little Ribston(e)","citations":[{"label":"1459 YD","year":1459},{"label":"1510 YD","year":1510},{"label":"1622 FF","year":1622}],"when":{"timespans":[{"start":{"in":"1459"},"end":{"in":"1459"}},{"start":{"in":"1510"},"end":{"in":"1510"}},{"start":{"in":"1622"},"end":{"in":"1622"}}]}},{"toponym":"Litill Ribbiston","citations":[{"label":"1472 YD","year":1472}],"when":{"timespans":[{"start":{"in":"1472"},"end":{"in":"1472"}}]}}],"types":[{"identifier":"http://vocab.getty.edu/aat/300232418","label":"administrative division","sourceLabels":[{"label":"township","lang":"en"}]}],"geometry":{"type":"GeometryCollection","geometries":[{"type":"Point","coordinates":[-1.413,53.97424],"citations":[{"label":"GeoNames, gazetteer record geonames:2644265"}]},{"type":"Point","coordinates":[-1.420622814,53.97147803],"citations":[{"label":"English Place-Name Society survey (DEEP coordinates)"}]},{"type":"Point","coordinates":[-1.412936519413696,53.97593652868587],"citations":[{"label":"Unlock (EDINA) gazetteer, gazetteer record unlock:11196913"}]},{"type":"Point","coordinates":[-1.41448,53.9761],"citations":[{"label":"Key to English Place-Names (KEPN), gazetteer record 14743"}]}]},"when":{"timespans":[{"start":{"in":"1086"},"end":{"in":"1622"}}]},"links":[{"type":"closeMatch","identifier":"https://sws.geonames.org/2644265/"}],"relations":[{"relationType":"gvp:broaderPartitive","relationTo":"http://placenames.org.uk/id/placename/34/001337","label":"within Spofforth"}]}]}