{"@context":"https://raw.githubusercontent.com/LinkedPasts/linked-places-format/main/linkedplaces-context-v1.1.jsonld","type":"FeatureCollection","license":"Digitisation of English Placenames MADS data is licensed to Jisc by the English Place Names Society and released under a Creative Commons Attribution-NonCommercial 4.0 International License.","note":"LPF v1.3, lossy; derived from the PLATO record; plato_commit=ca0afadabec1e23a145c0b03df77e8f151f79832","features":[{"@id":"http://placenames.org.uk/id/placename/34/002805","type":"Feature","properties":{"title":"Dunkeswick","ccodes":["GB"],"fclasses":["A","P"]},"names":[{"toponym":"Dunkeswick","lang":"en","citations":[{"label":"English Place-Name Society survey, volume 34: West Riding of Yorkshire"}]},{"toponym":"Chesuic","citations":[{"label":"1086 DB","year":1086}],"when":{"timespans":[{"start":{"in":"1086"},"end":{"in":"1086"}}]}},{"toponym":"Kesewych, Kesewik, Kesewyk(e)","citations":[{"label":"1235 FF","year":1235},{"label":"1240 Percy","year":1240},{"label":"1276 RH","year":1276},{"label":"1289–1316, recurring BltComp","year":1289},{"label":"1289–1316, recurring Vill"},{"label":"1289 BltComp","year":1289},{"label":"1316 Vill","year":1316}],"when":{"timespans":[{"start":{"in":"1235"},"end":{"in":"1235"}},{"start":{"in":"1240"},"end":{"in":"1240"}},{"start":{"in":"1240"},"end":{"in":"1240"}},{"start":{"in":"1276"},"end":{"in":"1276"}},{"start":{"in":"1289"},"end":{"in":"1316"}},{"start":{"in":"1289"},"end":{"in":"1289"}},{"start":{"in":"1316"},"end":{"in":"1316"}}]}},{"toponym":"Dounkesewyk","citations":[{"label":"1550 FF","year":1550}],"when":{"timespans":[{"start":{"in":"1550"},"end":{"in":"1550"}}]}},{"toponym":"Dunkeswy(c)k(e), Dunkeswic(k)","citations":[{"label":"1135-50 YCh","year":1135},{"label":"1246 FF","year":1246},{"label":"1266–1615, recurring MinAcct","year":1266},{"label":"1266–1615, recurring FF"},{"label":"1266 MinAcct","year":1266},{"label":"1615 FF","year":1615}],"when":{"timespans":[{"start":{"earliest":"1135","latest":"1150"},"end":{"earliest":"1135","latest":"1150"}},{"start":{"in":"1246"},"end":{"in":"1246"}},{"start":{"in":"1266"},"end":{"in":"1615"}},{"start":{"in":"1266"},"end":{"in":"1266"}},{"start":{"in":"1615"},"end":{"in":"1615"}}]}},{"toponym":"Downkeswic(k)","citations":[{"label":"1524 YD","year":1524}],"when":{"timespans":[{"start":{"in":"1524"},"end":{"in":"1524"}}]}},{"toponym":"Keiswicke","citations":[{"label":"1577 Spoff","year":1577}],"when":{"timespans":[{"start":{"in":"1577"},"end":{"in":"1577"}}]}}],"types":[{"identifier":"http://vocab.getty.edu/aat/300232418","label":"administrative division","sourceLabels":[{"label":"township","lang":"en"}]}],"geometry":{"type":"GeometryCollection","geometries":[{"type":"Point","coordinates":[-1.54327985,53.90908461],"citations":[{"label":"English Place-Name Society survey (DEEP coordinates)"}]},{"type":"Point","coordinates":[-1.53561812463442,53.91355102652386],"citations":[{"label":"Unlock (EDINA) gazetteer, gazetteer record unlock:11134231"}]},{"type":"Point","coordinates":[-1.53715,53.9138],"citations":[{"label":"Key to English Place-Names (KEPN), gazetteer record 14751"}]}]},"when":{"timespans":[{"start":{"in":"1086"},"end":{"in":"1615"}}]},"relations":[{"relationType":"gvp:broaderPartitive","relationTo":"http://placenames.org.uk/id/placename/34/002804","label":"within Harewood"}]}]}