{"@context":"https://raw.githubusercontent.com/LinkedPasts/linked-places-format/main/linkedplaces-context-v1.1.jsonld","type":"FeatureCollection","license":"Digitisation of English Placenames MADS data is licensed to Jisc by the English Place Names Society and released under a Creative Commons Attribution-NonCommercial 4.0 International License.","note":"LPF v1.3, lossy; derived from the PLATO record; plato_commit=ca0afadabec1e23a145c0b03df77e8f151f79832","features":[{"@id":"https://w3id.org/whg-epns/34/003101","type":"Feature","properties":{"title":"Newall Clifton","ccodes":["GB"],"fclasses":["A","P"]},"names":[{"toponym":"Newall Clifton","lang":"en","citations":[{"label":"English Place-Name Society survey, volume 34: West Riding of Yorkshire"}]}],"types":[{"identifier":"http://vocab.getty.edu/aat/300232418","label":"administrative division","sourceLabels":[{"label":"township","lang":"en"}]}],"geometry":{"type":"GeometryCollection","geometries":[{"type":"Point","coordinates":[-1.710678745,53.91859348],"citations":[{"label":"English Place-Name Society survey (DEEP coordinates)"}]},{"type":"Point","coordinates":[-1.68787137862388,53.91404326728505],"citations":[{"label":"Unlock (EDINA) gazetteer, gazetteer record unlock:11229586"}]},{"type":"Point","coordinates":[-1.68938,53.9142],"citations":[{"label":"Key to English Place-Names (KEPN), gazetteer record 14755"}]}]},"relations":[{"relationType":"gvp:broaderPartitive","relationTo":"https://w3id.org/whg-epns/34/003100","label":"within Otley"}]}]}