{"@context":"https://raw.githubusercontent.com/LinkedPasts/linked-places-format/main/linkedplaces-context-v1.1.jsonld","type":"FeatureCollection","license":"Digitisation of English Placenames MADS data is licensed to Jisc by the English Place Names Society and released under a Creative Commons Attribution-NonCommercial 4.0 International License.","note":"LPF v1.3, lossy; derived from the PLATO record; plato_commit=ca0afadabec1e23a145c0b03df77e8f151f79832","features":[{"@id":"http://placenames.org.uk/id/placename/34/004374","type":"Feature","properties":{"title":"The Liberty of Ripon or Riponshire","ccodes":["GB"],"fclasses":["A"]},"names":[{"toponym":"The Liberty of Ripon or Riponshire","lang":"en","citations":[{"label":"English Place-Name Society survey, volume 34: West Riding of Yorkshire"}]},{"toponym":"Ripsire, Ripeshire","citations":[{"label":"1173 RegAlb","year":1173}],"when":{"timespans":[{"start":{"in":"1173"},"end":{"in":"1173"}}]}},{"toponym":"Ripschire","citations":[{"label":"1341 Rip","year":1341}],"when":{"timespans":[{"start":{"in":"1341"},"end":{"in":"1341"}}]}},{"toponym":"Riponshire","citations":[{"label":"1328 Hom","year":1328}],"when":{"timespans":[{"start":{"in":"1328"},"end":{"in":"1328"}}]}},{"toponym":"libertas de Ripon, libertas de Rypon","citations":[{"label":"1297 LS","year":1297},{"label":"1303 KF","year":1303},{"label":"1316 Vill","year":1316},{"label":"1428 FA","year":1428}],"when":{"timespans":[{"start":{"in":"1297"},"end":{"in":"1297"}},{"start":{"in":"1303"},"end":{"in":"1303"}},{"start":{"in":"1316"},"end":{"in":"1316"}},{"start":{"in":"1428"},"end":{"in":"1428"}}]}}],"types":[{"identifier":"http://vocab.getty.edu/aat/300232418","label":"administrative division","sourceLabels":[{"label":"liberty","lang":"en"}]}],"geometry":null,"when":{"timespans":[{"start":{"in":"1173"},"end":{"in":"1428"}}]},"relations":[{"relationType":"gvp:broaderPartitive","relationTo":"http://placenames.org.uk/id/placename/34/004348","label":"within Lower Claro Division"}]}]}