{"@context":"https://raw.githubusercontent.com/LinkedPasts/linked-places-format/main/linkedplaces-context-v1.1.jsonld","type":"FeatureCollection","license":"Digitisation of English Placenames MADS data is licensed to Jisc by the English Place Names Society and released under a Creative Commons Attribution-NonCommercial 4.0 International License.","note":"LPF v1.3, lossy; derived from the PLATO record; plato_commit=fa0d247ccc0263f8f19c8d7cdcd163df96935d1e","features":[{"@id":"https://w3id.org/whg-epns/34/004455","type":"Feature","properties":{"title":"Aldborough","ccodes":["GB"],"fclasses":["A","P"]},"names":[{"toponym":"Aldborough","lang":"en","citations":[{"label":"English Place-Name Society survey, volume 34: West Riding of Yorkshire"}]},{"toponym":"Burc, Burg(h)","citations":[{"label":"1086 DB","year":1086},{"label":"1100-8 RegAlb","year":1100},{"label":"1130 P","year":1130},{"label":"1156 RBE","year":1156},{"label":"1158-81 YCh","year":1158},{"label":"P","year":1159},{"label":"1159-1210 P","year":1159},{"label":"YCh","year":1175},{"label":"P"},{"label":"1175 YCh","year":1175},{"label":"1230 P","year":1230}],"when":{"timespans":[{"start":{"in":"1086"},"end":{"in":"1086"}},{"start":{"earliest":"1100","latest":"1108"},"end":{"earliest":"1100","latest":"1108"}},{"start":{"in":"1130"},"end":{"in":"1130"}},{"start":{"in":"1156"},"end":{"in":"1156"}},{"start":{"earliest":"1158","latest":"1181"},"end":{"earliest":"1158","latest":"1181"}},{"start":{"in":"1159"},"end":{"in":"1210"}},{"start":{"earliest":"1159","latest":"1210"},"end":{"earliest":"1159","latest":"1210"}},{"start":{"in":"1175"},"end":{"in":"1230"}},{"start":{"in":"1175"},"end":{"in":"1175"}},{"start":{"in":"1230"},"end":{"in":"1230"}}]}},{"toponym":"Aldeburg(h)","citations":[{"label":"1145 YCh","year":1145},{"label":"1155 YCh","year":1155},{"label":"1233 Fine","year":1233},{"label":"1276 RH","year":1276},{"label":"Ch","year":1310},{"label":"Star"},{"label":"1310 Ch","year":1310},{"label":"1532 Star","year":1532}],"when":{"timespans":[{"start":{"in":"1145"},"end":{"in":"1145"}},{"start":{"in":"1155"},"end":{"in":"1155"}},{"start":{"in":"1233"},"end":{"in":"1233"}},{"start":{"in":"1276"},"end":{"in":"1276"}},{"start":{"in":"1310"},"end":{"in":"1532"}},{"start":{"in":"1310"},"end":{"in":"1310"}},{"start":{"in":"1532"},"end":{"in":"1532"}}]}},{"toponym":"Aldebourgh'","citations":[{"label":"1372 MinAcct","year":1372}],"when":{"timespans":[{"start":{"in":"1372"},"end":{"in":"1372"}}]}},{"toponym":"Aldburgh(e)","citations":[{"label":"FountBurs","year":1457},{"label":"BM"},{"label":"1457 FountBurs","year":1457},{"label":"1638 BM","year":1638}],"when":{"timespans":[{"start":{"in":"1457"},"end":{"in":"1638"}},{"start":{"in":"1457"},"end":{"in":"1457"}},{"start":{"in":"1638"},"end":{"in":"1638"}}]}},{"toponym":"Aldbroughe","citations":[{"label":"1538 PRAld","year":1538}],"when":{"timespans":[{"start":{"in":"1538"},"end":{"in":"1538"}}]}},{"toponym":"Aldborough","citations":[{"label":"1554 YD","year":1554}],"when":{"timespans":[{"start":{"in":"1554"},"end":{"in":"1554"}}]}},{"toponym":"Alborowe","citations":[{"label":"1558 NCWills","year":1558}],"when":{"timespans":[{"start":{"in":"1558"},"end":{"in":"1558"}}]}},{"toponym":"Awdbrugh","citations":[{"label":"1598 FF","year":1598}],"when":{"timespans":[{"start":{"in":"1598"},"end":{"in":"1598"}}]}},{"toponym":"Awldebroughe","citations":[{"label":"1635 Comm","year":1635}],"when":{"timespans":[{"start":{"in":"1635"},"end":{"in":"1635"}}]}},{"toponym":"Vetus Burgus","citations":[{"label":"1203 FF","year":1203},{"label":"c. 1219 Fees","year":1209},{"label":"1229 Lib","year":1229},{"label":"1276 RH","year":1276},{"label":"1300 YI","year":1300}],"when":{"timespans":[{"start":{"in":"1203"},"end":{"in":"1203"}},{"start":{"earliest":"1209","latest":"1229"},"end":{"earliest":"1209","latest":"1229"}},{"start":{"in":"1229"},"end":{"in":"1229"}},{"start":{"in":"1276"},"end":{"in":"1276"}},{"start":{"in":"1300"},"end":{"in":"1300"}}]}}],"types":[{"identifier":"http://vocab.getty.edu/aat/300232418","label":"administrative division","sourceLabels":[{"label":"township","lang":"en"}]}],"geometry":{"type":"GeometryCollection","geometries":[{"type":"Point","coordinates":[-1.38393,54.09192],"citations":[{"label":"GeoNames, gazetteer record geonames:2657563"}]},{"type":"Point","coordinates":[-1.388418907,54.08817316],"citations":[{"label":"English Place-Name Society survey (DEEP coordinates)"}]},{"type":"Point","coordinates":[-1.380707520610449,54.09262946681134],"citations":[{"label":"Unlock (EDINA) gazetteer, gazetteer record unlock:11057941"}]},{"type":"Point","coordinates":[-1.38226,54.0928],"citations":[{"label":"Key to English Place-Names (KEPN), gazetteer record 14766"}]}]},"when":{"timespans":[{"start":{"in":"1086"},"end":{"in":"1638"}}]},"links":[{"type":"closeMatch","identifier":"https://sws.geonames.org/2657563/"}],"relations":[{"relationType":"gvp:broaderPartitive","relationTo":"https://w3id.org/whg-epns/34/004454","label":"within Aldborough"}]}]}