{"@context":"https://raw.githubusercontent.com/LinkedPasts/linked-places-format/main/linkedplaces-context-v1.1.jsonld","type":"FeatureCollection","license":"Digitisation of English Placenames MADS data is licensed to Jisc by the English Place Names Society and released under a Creative Commons Attribution-NonCommercial 4.0 International License.","note":"LPF v1.3, lossy; derived from the PLATO record; plato_commit=fa0d247ccc0263f8f19c8d7cdcd163df96935d1e","features":[{"@id":"https://w3id.org/whg-epns/34/005558","type":"Feature","properties":{"title":"Clint","ccodes":["GB"],"fclasses":["A","P"]},"names":[{"toponym":"Clint","lang":"en","citations":[{"label":"English Place-Name Society survey, volume 34: West Riding of Yorkshire"}]},{"toponym":"Clint(e), Clynt(e)","citations":[{"label":"13 Font","year":1200},{"label":"1208 ChR","year":1208},{"label":"1230 P","year":1230},{"label":"1279-81 QW","year":1279},{"label":"YI","year":1301},{"label":"PRFrn"},{"label":"1301 YI","year":1301},{"label":"1678 PRFrn","year":1678}],"when":{"timespans":[{"start":{"earliest":"1200","latest":"1300"},"end":{"earliest":"1200","latest":"1300"}},{"start":{"in":"1208"},"end":{"in":"1208"}},{"start":{"in":"1230"},"end":{"in":"1230"}},{"start":{"earliest":"1279","latest":"1281"},"end":{"earliest":"1279","latest":"1281"}},{"start":{"in":"1301"},"end":{"in":"1678"}},{"start":{"in":"1301"},"end":{"in":"1301"}},{"start":{"in":"1678"},"end":{"in":"1678"}}]}}],"types":[{"identifier":"http://vocab.getty.edu/aat/300232418","label":"administrative division","sourceLabels":[{"label":"township","lang":"en"}]}],"geometry":{"type":"GeometryCollection","geometries":[{"type":"Point","coordinates":[-1.618249376,54.03518972],"citations":[{"label":"English Place-Name Society survey (DEEP coordinates)"}]},{"type":"Point","coordinates":[-1.610656427995372,54.03067238283226],"citations":[{"label":"Unlock (EDINA) gazetteer, gazetteer record unlock:11109335"}]},{"type":"Point","coordinates":[-1.61218,54.0309],"citations":[{"label":"Key to English Place-Names (KEPN), gazetteer record 14783"}]}]},"when":{"timespans":[{"start":{"in":"1200"},"end":{"in":"1678"}}]},"relations":[{"relationType":"gvp:broaderPartitive","relationTo":"https://w3id.org/whg-epns/34/005557","label":"within Ripley"}]}]}