{"@context":"https://raw.githubusercontent.com/LinkedPasts/linked-places-format/main/linkedplaces-context-v1.1.jsonld","type":"FeatureCollection","license":"Digitisation of English Placenames MADS data is licensed to Jisc by the English Place Names Society and released under a Creative Commons Attribution-NonCommercial 4.0 International License.","note":"LPF v1.3, lossy; derived from the PLATO record; plato_commit=ca0afadabec1e23a145c0b03df77e8f151f79832","features":[{"@id":"http://placenames.org.uk/id/placename/34/005891","type":"Feature","properties":{"title":"Bilton","ccodes":["GB"],"fclasses":["A","P"]},"names":[{"toponym":"Bilton","lang":"en","citations":[{"label":"English Place-Name Society survey, volume 34: West Riding of Yorkshire"}]},{"toponym":"Billeton(e)","citations":[{"label":"1086 DB","year":1086}],"when":{"timespans":[{"start":{"in":"1086"},"end":{"in":"1086"}}]}},{"toponym":"Bileton(e), Byleton(e)","citations":[{"label":"1086 DB","year":1086},{"label":"1219 Fees","year":1219},{"label":"1255 Ch","year":1255}],"when":{"timespans":[{"start":{"in":"1086"},"end":{"in":"1086"}},{"start":{"in":"1219"},"end":{"in":"1219"}},{"start":{"in":"1255"},"end":{"in":"1255"}}]}},{"toponym":"Bilton(a), Bylton(a)","citations":[{"label":"1181-90 YCh","year":1181},{"label":"1291 For(TR)","year":1291},{"label":"1285–1771, recurring Ext","year":1285},{"label":"1285–1771, recurring M"},{"label":"c. 1295 Ext","year":1285},{"label":"1771 M","year":1771}],"when":{"timespans":[{"start":{"earliest":"1181","latest":"1190"},"end":{"earliest":"1181","latest":"1190"}},{"start":{"in":"1291"},"end":{"in":"1291"}},{"start":{"in":"1285"},"end":{"in":"1771"}},{"start":{"earliest":"1285","latest":"1305"},"end":{"earliest":"1285","latest":"1305"}},{"start":{"in":"1771"},"end":{"in":"1771"}}]}}],"types":[{"identifier":"http://vocab.getty.edu/aat/300232418","label":"administrative division","sourceLabels":[{"label":"township","lang":"en"}]}],"geometry":{"type":"GeometryCollection","geometries":[{"type":"Point","coordinates":[-1.526938414,54.00789887],"citations":[{"label":"English Place-Name Society survey (DEEP coordinates)"}]},{"type":"Point","coordinates":[-1.53451786318091,54.01242421397083],"citations":[{"label":"Unlock (EDINA) gazetteer, gazetteer record unlock:11077058"}]},{"type":"Point","coordinates":[-1.274203,53.944165],"citations":[{"label":"Key to English Place-Names (KEPN), gazetteer record 311"}]}]},"when":{"timespans":[{"start":{"in":"1086"},"end":{"in":"1771"}}]},"relations":[{"relationType":"gvp:broaderPartitive","relationTo":"http://placenames.org.uk/id/placename/34/005837","label":"within Knaresborough"}]}]}