{"@context":"https://raw.githubusercontent.com/LinkedPasts/linked-places-format/main/linkedplaces-context-v1.1.jsonld","type":"FeatureCollection","license":"Digitisation of English Placenames MADS data is licensed to Jisc by the English Place Names Society and released under a Creative Commons Attribution-NonCommercial 4.0 International License.","note":"LPF v1.3, lossy; derived from the PLATO record; plato_commit=fa0d247ccc0263f8f19c8d7cdcd163df96935d1e","features":[{"@id":"https://w3id.org/whg-epns/34/006088","type":"Feature","properties":{"title":"Harrogate, High Harrogate, Low Harrogate","ccodes":["GB"],"fclasses":["A","P"]},"names":[{"toponym":"Harrogate, High Harrogate, Low Harrogate","lang":"en","citations":[{"label":"English Place-Name Society survey, volume 34: West Riding of Yorkshire"}]},{"toponym":"Harwegate","citations":[{"label":"1332 Hrg","year":1332}],"when":{"timespans":[{"start":{"in":"1332"},"end":{"in":"1332"}},{"start":{"in":"1337"},"end":{"in":"1337"}}]}},{"toponym":"Harugate","citations":[{"label":"Hrg","year":1343},{"label":"1343-1460 Hrg","year":1343}],"when":{"timespans":[{"start":{"in":"1343"},"end":{"in":"1460"}},{"start":{"earliest":"1343","latest":"1460"},"end":{"earliest":"1343","latest":"1460"}}]}},{"toponym":"Harougat","citations":[{"label":"1333 Hrg","year":1333}],"when":{"timespans":[{"start":{"in":"1333"},"end":{"in":"1333"}}]}},{"toponym":"Harowgate","citations":[{"label":"1439 Test","year":1439},{"label":"1485 Hrg","year":1485},{"label":"1518 MinAcct","year":1518}],"when":{"timespans":[{"start":{"in":"1439"},"end":{"in":"1439"}},{"start":{"in":"1485"},"end":{"in":"1485"}},{"start":{"in":"1496"},"end":{"in":"1496"}},{"start":{"in":"1518"},"end":{"in":"1518"}}]}},{"toponym":"Harrowga(i)te, Harrowgayte","citations":[{"label":"1333 Hrg","year":1333},{"label":"1532 KnaresWill","year":1532},{"label":"YChant","year":1546},{"label":"M"},{"label":"1546 YChant","year":1546},{"label":"1695 M","year":1695}],"when":{"timespans":[{"start":{"in":"1333"},"end":{"in":"1333"}},{"start":{"in":"1532"},"end":{"in":"1532"}},{"start":{"in":"1546"},"end":{"in":"1695"}},{"start":{"in":"1546"},"end":{"in":"1546"}},{"start":{"in":"1695"},"end":{"in":"1695"}}]}},{"toponym":"Harrogate","citations":[{"label":"1512 KnaresWill","year":1512},{"label":"1554 YD","year":1554},{"label":"Hrg","year":1635},{"label":"PRAdel"},{"label":"1635 Hrg","year":1635},{"label":"1807 PRAdel","year":1807}],"when":{"timespans":[{"start":{"in":"1512"},"end":{"in":"1512"}},{"start":{"in":"1521"},"end":{"in":"1521"}},{"start":{"in":"1554"},"end":{"in":"1554"}},{"start":{"in":"1635"},"end":{"in":"1807"}},{"start":{"in":"1635"},"end":{"in":"1635"}},{"start":{"in":"1807"},"end":{"in":"1807"}}]}},{"toponym":"Harrogaite","citations":[{"label":"1545 TestLds","year":1545}],"when":{"timespans":[{"start":{"in":"1545"},"end":{"in":"1545"}}]}},{"toponym":"Low Harrogaite","citations":[{"label":"1770 EnclA","year":1770}],"when":{"timespans":[{"start":{"in":"1770"},"end":{"in":"1770"}}]}},{"toponym":"High Harrogaite","citations":[{"label":"1817 M","year":1817}],"when":{"timespans":[{"start":{"in":"1817"},"end":{"in":"1817"}}]}},{"toponym":"Harlowgate","citations":[{"label":"1518 MinAcct","year":1518}],"when":{"timespans":[{"start":{"in":"1518"},"end":{"in":"1518"}}]}},{"toponym":"Harlowgayte","citations":[{"label":"1558 KnaresWill","year":1558}],"when":{"timespans":[{"start":{"in":"1558"},"end":{"in":"1558"}}]}},{"toponym":"Harlogate, Harlogait","citations":[{"label":"KnaresWill","year":1522},{"label":"1522-75 KnaresWill","year":1522},{"label":"1531 MinAcct","year":1531},{"label":"1573 Hrg","year":1573}],"when":{"timespans":[{"start":{"in":"1522"},"end":{"in":"1575"}},{"start":{"earliest":"1522","latest":"1575"},"end":{"earliest":"1522","latest":"1575"}},{"start":{"in":"1531"},"end":{"in":"1531"}},{"start":{"in":"1573"},"end":{"in":"1573"}}]}},{"toponym":"Harrygate, Harrigate","citations":[{"label":"1556 NCWills","year":1556},{"label":"1617 Comm","year":1617}],"when":{"timespans":[{"start":{"in":"1556"},"end":{"in":"1556"}},{"start":{"in":"1617"},"end":{"in":"1617"}}]}},{"toponym":"Haragat","citations":[{"label":"1567 Visit","year":1567}],"when":{"timespans":[{"start":{"in":"1567"},"end":{"in":"1567"}}]}},{"toponym":"Hurrowgate","citations":[{"label":"1585 PRLds","year":1585}],"when":{"timespans":[{"start":{"in":"1585"},"end":{"in":"1585"}}]}},{"toponym":"Herrogate","citations":[{"label":"1663 Hrg","year":1663}],"when":{"timespans":[{"start":{"in":"1663"},"end":{"in":"1663"}}]}}],"types":[{"identifier":"http://vocab.getty.edu/aat/300232418","label":"administrative division","sourceLabels":[{"label":"township","lang":"en"}]}],"geometry":{"type":"GeometryCollection","geometries":[{"type":"Point","coordinates":[-1.5373,53.99078],"citations":[{"label":"GeoNames, gazetteer record geonames:2647428"}]},{"type":"Point","coordinates":[-1.542395116,53.9899811],"citations":[{"label":"English Place-Name Society survey (DEEP coordinates)"}]},{"type":"Point","coordinates":[-1.534718401212159,53.99444739327745],"citations":[{"label":"Unlock (EDINA) gazetteer, gazetteer record unlock:11166518"}]},{"type":"Point","coordinates":[-1.52079,54.0126],"citations":[{"label":"Key to English Place-Names (KEPN), gazetteer record 312"}]}]},"when":{"timespans":[{"start":{"in":"1332"},"end":{"in":"1817"}}]},"links":[{"type":"closeMatch","identifier":"https://sws.geonames.org/2647428/"}],"relations":[{"relationType":"gvp:broaderPartitive","relationTo":"https://w3id.org/whg-epns/34/005837","label":"within Knaresborough"}]}]}