{"@context":"https://raw.githubusercontent.com/LinkedPasts/linked-places-format/main/linkedplaces-context-v1.1.jsonld","type":"FeatureCollection","license":"Digitisation of English Placenames MADS data is licensed to Jisc by the English Place Names Society and released under a Creative Commons Attribution-NonCommercial 4.0 International License.","note":"LPF v1.3, lossy; derived from the PLATO record; plato_commit=ca0afadabec1e23a145c0b03df77e8f151f79832","features":[{"@id":"http://placenames.org.uk/id/placename/34/006007","type":"Feature","properties":{"title":"Brearton","ccodes":["GB"],"fclasses":["A","P"]},"names":[{"toponym":"Brearton","lang":"en","citations":[{"label":"English Place-Name Society survey, volume 34: West Riding of Yorkshire"}]},{"toponym":"Braretone, Baretone","citations":[{"label":"1086 DB","year":1086}],"when":{"timespans":[{"start":{"in":"1086"},"end":{"in":"1086"}}]}},{"toponym":"Brahertun","citations":[{"label":"1173-85 YCh","year":1173}],"when":{"timespans":[{"start":{"earliest":"1173","latest":"1185"},"end":{"earliest":"1173","latest":"1185"}}]}},{"toponym":"Brierton'","citations":[{"label":"1167 P","year":1167},{"label":"1200 Cur","year":1200}],"when":{"timespans":[{"start":{"in":"1167"},"end":{"in":"1167"}},{"start":{"in":"1200"},"end":{"in":"1200"}}]}},{"toponym":"Brerton","citations":[{"label":"1198 Fount","year":1198},{"label":"1200 Cur","year":1200},{"label":"1202–1415, recurring Ass","year":1202},{"label":"1202–1415, recurring Fabr"},{"label":"1202-8 Ass","year":1202},{"label":"1415 Fabr","year":1415}],"when":{"timespans":[{"start":{"in":"1198"},"end":{"in":"1198"}},{"start":{"in":"1200"},"end":{"in":"1200"}},{"start":{"in":"1202"},"end":{"in":"1415"}},{"start":{"earliest":"1202","latest":"1208"},"end":{"earliest":"1202","latest":"1208"}},{"start":{"in":"1415"},"end":{"in":"1415"}}]}},{"toponym":"Brereton","citations":[{"label":"1301 YI","year":1301},{"label":"1316 Vill","year":1316},{"label":"1364 FF","year":1364}],"when":{"timespans":[{"start":{"in":"1301"},"end":{"in":"1301"}},{"start":{"in":"1316"},"end":{"in":"1316"}},{"start":{"in":"1364"},"end":{"in":"1364"}}]}},{"toponym":"Brearton","citations":[{"label":"1597 FF","year":1597}],"when":{"timespans":[{"start":{"in":"1597"},"end":{"in":"1597"}}]}},{"toponym":"Breerton","citations":[{"label":"1644 PRFrn","year":1644}],"when":{"timespans":[{"start":{"in":"1644"},"end":{"in":"1644"}}]}}],"types":[{"identifier":"http://vocab.getty.edu/aat/300232418","label":"administrative division","sourceLabels":[{"label":"township","lang":"en"}]}],"geometry":{"type":"GeometryCollection","geometries":[{"type":"Point","coordinates":[-1.50829,54.04097],"citations":[{"label":"GeoNames, gazetteer record geonames:7302021"}]},{"type":"Point","coordinates":[-1.511363023,54.03480291],"citations":[{"label":"English Place-Name Society survey (DEEP coordinates)"}]},{"type":"Point","coordinates":[-1.503674701412151,54.03926717283956],"citations":[{"label":"Unlock (EDINA) gazetteer, gazetteer record unlock:11086178"}]},{"type":"Point","coordinates":[-1.5051,54.0485],"citations":[{"label":"Key to English Place-Names (KEPN), gazetteer record 14788"}]}]},"when":{"timespans":[{"start":{"in":"1086"},"end":{"in":"1644"}}]},"links":[{"type":"closeMatch","identifier":"https://sws.geonames.org/7302021/"}],"relations":[{"relationType":"gvp:broaderPartitive","relationTo":"http://placenames.org.uk/id/placename/34/005837","label":"within Knaresborough"}]}]}