{"@context":"https://raw.githubusercontent.com/LinkedPasts/linked-places-format/main/linkedplaces-context-v1.1.jsonld","type":"FeatureCollection","license":"Digitisation of English Placenames MADS data is licensed to Jisc by the English Place Names Society and released under a Creative Commons Attribution-NonCommercial 4.0 International License.","note":"LPF v1.3, lossy; derived from the PLATO record; plato_commit=ca0afadabec1e23a145c0b03df77e8f151f79832","features":[{"@id":"https://w3id.org/whg-epns/34/007866","type":"Feature","properties":{"title":"Bewerley","ccodes":["GB"],"fclasses":["A","P"]},"names":[{"toponym":"Bewerley","lang":"en","citations":[{"label":"English Place-Name Society survey, volume 34: West Riding of Yorkshire"}]},{"toponym":"Beurelie","citations":[{"label":"1086 DB","year":1086}],"when":{"timespans":[{"start":{"in":"1086"},"end":{"in":"1086"}}]}},{"toponym":"Beuerl(a)i, Beuerleia, Beuerlay, Beuerley","citations":[{"label":"c. 1142 Font","year":1132},{"label":"1166 P","year":1166},{"label":"c. 1190 Fount","year":1180},{"label":"1297 LS","year":1297},{"label":"1361–1553, recurring Rip","year":1361},{"label":"1361–1553, recurring FF"},{"label":"1361 Rip","year":1361},{"label":"1553 FF","year":1553}],"when":{"timespans":[{"start":{"earliest":"1132","latest":"1152"},"end":{"earliest":"1132","latest":"1152"}},{"start":{"in":"1166"},"end":{"in":"1166"}},{"start":{"earliest":"1180","latest":"1200"},"end":{"earliest":"1180","latest":"1200"}},{"start":{"in":"1297"},"end":{"in":"1297"}},{"start":{"in":"1361"},"end":{"in":"1553"}},{"start":{"in":"1361"},"end":{"in":"1361"}},{"start":{"in":"1553"},"end":{"in":"1553"}}]}},{"toponym":"Beuerley in Netherdall","citations":[{"label":"1597 FF","year":1597}],"when":{"timespans":[{"start":{"in":"1597"},"end":{"in":"1597"}}]}},{"toponym":"Beverlay in Niderdale","citations":[{"label":"1411 Pat","year":1411}],"when":{"timespans":[{"start":{"in":"1411"},"end":{"in":"1411"}}]}},{"toponym":"Bowerley","citations":[{"label":"1563 Arm","year":1563},{"label":"1569 WillY","year":1569}],"when":{"timespans":[{"start":{"in":"1563"},"end":{"in":"1563"}},{"start":{"in":"1569"},"end":{"in":"1569"}}]}},{"toponym":"Bewerley","citations":[{"label":"1575 WillY","year":1575},{"label":"1696 YAS Md","year":1696}],"when":{"timespans":[{"start":{"in":"1575"},"end":{"in":"1575"}},{"start":{"in":"1696"},"end":{"in":"1696"}}]}},{"toponym":"Bureley","citations":[{"label":"1577 Holinshed","year":1577}],"when":{"timespans":[{"start":{"in":"1577"},"end":{"in":"1577"}}]}},{"toponym":"Buerley","citations":[{"label":"1605 FF","year":1605},{"label":"1613 Yorke","year":1613}],"when":{"timespans":[{"start":{"in":"1605"},"end":{"in":"1605"}},{"start":{"in":"1613"},"end":{"in":"1613"}}]}}],"types":[{"identifier":"http://vocab.getty.edu/aat/300232418","label":"administrative division","sourceLabels":[{"label":"township","lang":"en"}]}],"geometry":{"type":"GeometryCollection","geometries":[{"type":"Point","coordinates":[-1.80302,54.07852],"citations":[{"label":"GeoNames, gazetteer record geonames:7291545"}]},{"type":"Point","coordinates":[-1.770749977,54.07153174],"citations":[{"label":"English Place-Name Society survey (DEEP coordinates)"}]},{"type":"Point","coordinates":[-1.763082721241862,54.07601257555047],"citations":[{"label":"Unlock (EDINA) gazetteer, gazetteer record unlock:11076384"}]},{"type":"Point","coordinates":[-1.76459,54.0762],"citations":[{"label":"Key to English Place-Names (KEPN), gazetteer record 313"}]}]},"when":{"timespans":[{"start":{"in":"1086"},"end":{"in":"1696"}}]},"links":[{"type":"closeMatch","identifier":"https://sws.geonames.org/7291545/"}],"relations":[{"relationType":"gvp:broaderPartitive","relationTo":"https://w3id.org/whg-epns/34/007604","label":"within Ripon"}]}]}