{"@context":"https://raw.githubusercontent.com/LinkedPasts/linked-places-format/main/linkedplaces-context-v1.1.jsonld","type":"FeatureCollection","license":"Digitisation of English Placenames MADS data is licensed to Jisc by the English Place Names Society and released under a Creative Commons Attribution-NonCommercial 4.0 International License.","note":"LPF v1.3, lossy; derived from the PLATO record; plato_commit=fa0d247ccc0263f8f19c8d7cdcd163df96935d1e","features":[{"@id":"https://w3id.org/whg-epns/34/008546","type":"Feature","properties":{"title":"Newby","ccodes":["GB"],"fclasses":["A","P"]},"names":[{"toponym":"Newby","lang":"en","citations":[{"label":"English Place-Name Society survey, volume 34: West Riding of Yorkshire"}]},{"toponym":"Neuby","citations":[{"label":"1170-80 YCh","year":1170},{"label":"12 Rip","year":1100},{"label":"13 Rip","year":1200},{"label":"FF","year":1231},{"label":"1231 FF","year":1231}],"when":{"timespans":[{"start":{"earliest":"1170","latest":"1180"},"end":{"earliest":"1170","latest":"1180"}},{"start":{"earliest":"1100","latest":"1200"},"end":{"earliest":"1100","latest":"1200"}},{"start":{"earliest":"1200","latest":"1300"},"end":{"earliest":"1200","latest":"1300"}},{"start":{"in":"1231"},"end":{"in":"1231"}},{"start":{"in":"1231"},"end":{"in":"1231"}}]}},{"toponym":"Neuby on Yore, Neuby super Yore","citations":[{"label":"1304 Ch","year":1304},{"label":"1444 YD","year":1444}],"when":{"timespans":[{"start":{"in":"1304"},"end":{"in":"1304"}},{"start":{"in":"1444"},"end":{"in":"1444"}}]}},{"toponym":"Neweby","citations":[{"label":"1166 P","year":1166}],"when":{"timespans":[{"start":{"in":"1166"},"end":{"in":"1166"}}]}},{"toponym":"Niweby","citations":[{"label":"1239 FF","year":1239}],"when":{"timespans":[{"start":{"in":"1239"},"end":{"in":"1239"}}]}},{"toponym":"Neu(w)eby","citations":[{"label":"1241 Ebor","year":1241}],"when":{"timespans":[{"start":{"in":"1241"},"end":{"in":"1241"}},{"start":{"in":"1300"},"end":{"in":"1300"}}]}},{"toponym":"Newby","citations":[{"label":"RipAct","year":1452},{"label":"PRRip"},{"label":"1452 RipAct","year":1452},{"label":"1579 PRRip","year":1579}],"when":{"timespans":[{"start":{"in":"1452"},"end":{"in":"1579"}},{"start":{"in":"1452"},"end":{"in":"1452"}},{"start":{"in":"1579"},"end":{"in":"1579"}}]}},{"toponym":"Newby super Yoore","citations":[{"label":"1481 RipAct","year":1481}],"when":{"timespans":[{"start":{"in":"1481"},"end":{"in":"1481"}}]}}],"types":[{"identifier":"http://vocab.getty.edu/aat/300232418","label":"administrative division","sourceLabels":[{"label":"township","lang":"en"}]}],"geometry":{"type":"GeometryCollection","geometries":[{"type":"Point","coordinates":[-1.464746908,54.09752558],"citations":[{"label":"English Place-Name Society survey (DEEP coordinates)"}]},{"type":"Point","coordinates":[-1.457041950890107,54.10198679757931],"citations":[{"label":"Unlock (EDINA) gazetteer, gazetteer record unlock:11229859"}]},{"type":"Point","coordinates":[-1.47388,54.1022],"citations":[{"label":"Key to English Place-Names (KEPN), gazetteer record 14808"}]}]},"when":{"timespans":[{"start":{"in":"1100"},"end":{"in":"1579"}}]},"relations":[{"relationType":"gvp:broaderPartitive","relationTo":"https://w3id.org/whg-epns/34/007604","label":"within Ripon"}]}]}