{"@context":"https://raw.githubusercontent.com/LinkedPasts/linked-places-format/main/linkedplaces-context-v1.1.jsonld","type":"FeatureCollection","license":"Digitisation of English Placenames MADS data is licensed to Jisc by the English Place Names Society and released under a Creative Commons Attribution-NonCommercial 4.0 International License.","note":"LPF v1.3, lossy; derived from the PLATO record; plato_commit=ca0afadabec1e23a145c0b03df77e8f151f79832","features":[{"@id":"http://placenames.org.uk/id/placename/34/010858","type":"Feature","properties":{"title":"Aldfield","ccodes":["GB"],"fclasses":["A","P"]},"names":[{"toponym":"Aldfield","lang":"en","citations":[{"label":"English Place-Name Society survey, volume 34: West Riding of Yorkshire"}]},{"toponym":"Aldefelt","citations":[{"label":"1086 DB","year":1086},{"label":"1251 Font","year":1251}],"when":{"timespans":[{"start":{"in":"1086"},"end":{"in":"1086"}},{"start":{"in":"1251"},"end":{"in":"1251"}}]}},{"toponym":"Aldefeld(e)","citations":[{"label":"1086 DB","year":1086},{"label":"1185 Templar","year":1185},{"label":"1198 Fount","year":1198},{"label":"1200–1300, recurring Font","year":1200},{"label":"13 Font","year":1200},{"label":"1267–1512, recurring Rip","year":1267},{"label":"1267–1512, recurring Fount"},{"label":"1267 Rip","year":1267},{"label":"1512 Fount","year":1512}],"when":{"timespans":[{"start":{"in":"1086"},"end":{"in":"1086"}},{"start":{"in":"1185"},"end":{"in":"1185"}},{"start":{"in":"1198"},"end":{"in":"1198"}},{"start":{"in":"1200"},"end":{"in":"1300"}},{"start":{"earliest":"1200","latest":"1300"},"end":{"earliest":"1200","latest":"1300"}},{"start":{"in":"1267"},"end":{"in":"1512"}},{"start":{"in":"1267"},"end":{"in":"1267"}},{"start":{"in":"1512"},"end":{"in":"1512"}}]}},{"toponym":"Aldefeud","citations":[{"label":"c. 1190 Fount","year":1180}],"when":{"timespans":[{"start":{"earliest":"1180","latest":"1200"},"end":{"earliest":"1180","latest":"1200"}}]}},{"toponym":"Haldefeld(e)","citations":[{"label":"1155-62 YCh","year":1155},{"label":"1226 FF","year":1226}],"when":{"timespans":[{"start":{"earliest":"1155","latest":"1162"},"end":{"earliest":"1155","latest":"1162"}},{"start":{"in":"1226"},"end":{"in":"1226"}}]}},{"toponym":"Aldfeld","citations":[{"label":"c. 1258 Rip","year":1248},{"label":"1285–1457, recurring KI","year":1285},{"label":"1285–1457, recurring FountBurs"},{"label":"1285 KI","year":1285},{"label":"1457 FountBurs","year":1457}],"when":{"timespans":[{"start":{"earliest":"1248","latest":"1268"},"end":{"earliest":"1248","latest":"1268"}},{"start":{"in":"1285"},"end":{"in":"1457"}},{"start":{"in":"1285"},"end":{"in":"1285"}},{"start":{"in":"1457"},"end":{"in":"1457"}}]}},{"toponym":"Awdfeild","citations":[{"label":"1587 PRRip","year":1587},{"label":"1622 FF","year":1622}],"when":{"timespans":[{"start":{"in":"1587"},"end":{"in":"1587"}},{"start":{"in":"1622"},"end":{"in":"1622"}}]}},{"toponym":"Audfeild(e)","citations":[{"label":"1597 FF","year":1597},{"label":"1609 Rip","year":1609}],"when":{"timespans":[{"start":{"in":"1597"},"end":{"in":"1597"}},{"start":{"in":"1609"},"end":{"in":"1609"}}]}}],"types":[{"identifier":"http://vocab.getty.edu/aat/300232418","label":"administrative division","sourceLabels":[{"label":"township","lang":"en"}]}],"geometry":{"type":"GeometryCollection","geometries":[{"type":"Point","coordinates":[-1.60604,54.12081],"citations":[{"label":"GeoNames, gazetteer record geonames:7291541"}]},{"type":"Point","coordinates":[-1.602207094,54.1160357],"citations":[{"label":"English Place-Name Society survey (DEEP coordinates)"}]},{"type":"Point","coordinates":[-1.594513451690772,54.12050572130746],"citations":[{"label":"Unlock (EDINA) gazetteer, gazetteer record unlock:11058092"}]},{"type":"Point","coordinates":[-1.59604,54.1207],"citations":[{"label":"Key to English Place-Names (KEPN), gazetteer record 14830"}]}]},"when":{"timespans":[{"start":{"in":"1086"},"end":{"in":"1622"}}]},"links":[{"type":"closeMatch","identifier":"https://sws.geonames.org/7291541/"}],"relations":[{"relationType":"gvp:broaderPartitive","relationTo":"http://placenames.org.uk/id/placename/34/007604","label":"within Ripon"}]}]}