{"@context":"https://raw.githubusercontent.com/LinkedPasts/linked-places-format/main/linkedplaces-context-v1.1.jsonld","type":"FeatureCollection","license":"Digitisation of English Placenames MADS data is licensed to Jisc by the English Place Names Society and released under a Creative Commons Attribution-NonCommercial 4.0 International License.","note":"LPF v1.3, lossy; derived from the PLATO record; plato_commit=ca0afadabec1e23a145c0b03df77e8f151f79832","features":[{"@id":"https://w3id.org/whg-epns/34/011902","type":"Feature","properties":{"title":"Kirkby Malzeard","ccodes":["GB"],"fclasses":["A","P"]},"names":[{"toponym":"Kirkby Malzeard","lang":"en","citations":[{"label":"English Place-Name Society survey, volume 34: West Riding of Yorkshire"}]},{"toponym":"Chirchebi","citations":[{"label":"1086 DB","year":1086}],"when":{"timespans":[{"start":{"in":"1086"},"end":{"in":"1086"}}]}},{"toponym":"Chirchaby","citations":[{"label":"1154-91 RegAlb","year":1154}],"when":{"timespans":[{"start":{"earliest":"1154","latest":"1191"},"end":{"earliest":"1154","latest":"1191"}}]}},{"toponym":"Kirkebi, Kyrkebi, Kyrkeby","citations":[{"label":"1101-9 RegAlb","year":1101},{"label":"c. 1190 Fount","year":1180},{"label":"1249 FF","year":1249},{"label":"1272–1493, recurring YI","year":1272},{"label":"1272–1493, recurring Ipm"},{"label":"1272 YI","year":1272},{"label":"1493 Ipm","year":1493}],"when":{"timespans":[{"start":{"earliest":"1101","latest":"1109"},"end":{"earliest":"1101","latest":"1109"}},{"start":{"earliest":"1180","latest":"1200"},"end":{"earliest":"1180","latest":"1200"}},{"start":{"in":"1249"},"end":{"in":"1249"}},{"start":{"in":"1272"},"end":{"in":"1493"}},{"start":{"in":"1272"},"end":{"in":"1272"}},{"start":{"in":"1493"},"end":{"in":"1493"}}]}},{"toponym":"Kirkby, Kyrkby","citations":[{"label":"1285 KI","year":1285},{"label":"1290 Abbr","year":1290},{"label":"1298–1547, recurring YI","year":1298},{"label":"1298–1547, recurring FF"},{"label":"1298 YI","year":1298},{"label":"1547 FF","year":1547}],"when":{"timespans":[{"start":{"in":"1285"},"end":{"in":"1285"}},{"start":{"in":"1290"},"end":{"in":"1290"}},{"start":{"in":"1298"},"end":{"in":"1547"}},{"start":{"in":"1298"},"end":{"in":"1298"}},{"start":{"in":"1547"},"end":{"in":"1547"}}]}},{"toponym":"-Malesard","citations":[{"label":"1101-9 RegAlb","year":1101},{"label":"1298 YI","year":1298},{"label":"1307 Ch","year":1307},{"label":"1378 Baild","year":1378}],"when":{"timespans":[{"start":{"earliest":"1101","latest":"1109"},"end":{"earliest":"1101","latest":"1109"}},{"start":{"in":"1298"},"end":{"in":"1298"}},{"start":{"in":"1307"},"end":{"in":"1307"}},{"start":{"in":"1378"},"end":{"in":"1378"}}]}},{"toponym":"-Malas(s)art","citations":[{"label":"1154-91 RegAlb","year":1154},{"label":"1198 Fount","year":1198},{"label":"1290 YI","year":1290},{"label":"1293–1376, recurring QW","year":1293},{"label":"1293–1376, recurring Ipm"},{"label":"1293 QW","year":1293},{"label":"1376 Ipm","year":1376}],"when":{"timespans":[{"start":{"earliest":"1154","latest":"1191"},"end":{"earliest":"1154","latest":"1191"}},{"start":{"in":"1198"},"end":{"in":"1198"}},{"start":{"in":"1290"},"end":{"in":"1290"}},{"start":{"in":"1293"},"end":{"in":"1376"}},{"start":{"in":"1293"},"end":{"in":"1293"}},{"start":{"in":"1376"},"end":{"in":"1376"}}]}},{"toponym":"-Males(s)art","citations":[{"label":"13 Font","year":1200},{"label":"1247–1415, recurring Ch","year":1247},{"label":"1247–1415, recurring Pat"},{"label":"1247 Ch","year":1247},{"label":"1415 Pat","year":1415}],"when":{"timespans":[{"start":{"earliest":"1200","latest":"1300"},"end":{"earliest":"1200","latest":"1300"}},{"start":{"in":"1247"},"end":{"in":"1415"}},{"start":{"in":"1247"},"end":{"in":"1247"}},{"start":{"in":"1415"},"end":{"in":"1415"}}]}},{"toponym":"-Malserd","citations":[{"label":"1284 YI","year":1284},{"label":"1303 KF","year":1303}],"when":{"timespans":[{"start":{"in":"1284"},"end":{"in":"1284"}},{"start":{"in":"1303"},"end":{"in":"1303"}}]}},{"toponym":"-Malsart","citations":[{"label":"1285 KI","year":1285},{"label":"1290 Abbr","year":1290},{"label":"1304 YI","year":1304}],"when":{"timespans":[{"start":{"in":"1285"},"end":{"in":"1285"}},{"start":{"in":"1290"},"end":{"in":"1290"}},{"start":{"in":"1300"},"end":{"in":"1300"}},{"start":{"in":"1304"},"end":{"in":"1304"}}]}},{"toponym":"-Malsard(e)","citations":[{"label":"1298 YI","year":1298},{"label":"1302–1302, recurring Ebor","year":1302},{"label":"1302 Ebor","year":1302}],"when":{"timespans":[{"start":{"in":"1298"},"end":{"in":"1298"}},{"start":{"in":"1302"},"end":{"in":"1302"}},{"start":{"in":"1302"},"end":{"in":"1302"}}]}},{"toponym":"-Mallysherd","citations":[{"label":"1405 Linds","year":1405}],"when":{"timespans":[{"start":{"in":"1405"},"end":{"in":"1405"}}]}},{"toponym":"-Malzarde","citations":[{"label":"1468 Fount","year":1468}],"when":{"timespans":[{"start":{"in":"1468"},"end":{"in":"1468"}}]}},{"toponym":"-Mallesherth","citations":[{"label":"1481 Fabr","year":1481}],"when":{"timespans":[{"start":{"in":"1481"},"end":{"in":"1481"}}]}},{"toponym":"-Malsargh","citations":[{"label":"1547 FF","year":1547}],"when":{"timespans":[{"start":{"in":"1547"},"end":{"in":"1547"}}]}}],"types":[{"identifier":"http://vocab.getty.edu/aat/300232418","label":"administrative division","sourceLabels":[{"label":"township","lang":"en"}]}],"geometry":{"type":"GeometryCollection","geometries":[{"type":"Point","coordinates":[-1.64633,54.16443],"citations":[{"label":"GeoNames, gazetteer record geonames:2645305"}]},{"type":"Point","coordinates":[-1.647724076,54.16112029],"citations":[{"label":"English Place-Name Society survey (DEEP coordinates)"}]},{"type":"Point","coordinates":[-1.64002695332679,54.16559319688216],"citations":[{"label":"Unlock (EDINA) gazetteer, gazetteer record unlock:11187856"}]},{"type":"Point","coordinates":[-1.64155,54.1658],"citations":[{"label":"Key to English Place-Names (KEPN), gazetteer record 14837"}]}]},"when":{"timespans":[{"start":{"in":"1086"},"end":{"in":"1547"}}]},"links":[{"type":"closeMatch","identifier":"https://sws.geonames.org/2645305/"}],"relations":[{"relationType":"gvp:broaderPartitive","relationTo":"https://w3id.org/whg-epns/34/011243","label":"within Kirkby Malzeard"}]}]}