{"@context":"https://raw.githubusercontent.com/LinkedPasts/linked-places-format/main/linkedplaces-context-v1.1.jsonld","type":"FeatureCollection","license":"Digitisation of English Placenames MADS data is licensed to Jisc by the English Place Names Society and released under a Creative Commons Attribution-NonCommercial 4.0 International License.","note":"LPF v1.3, lossy; derived from the PLATO record; plato_commit=ca0afadabec1e23a145c0b03df77e8f151f79832","features":[{"@id":"http://placenames.org.uk/id/placename/11/000549","type":"Feature","properties":{"title":"Newington","ccodes":["GB"],"fclasses":["A","P"]},"names":[{"toponym":"Newington","lang":"en","citations":[{"label":"English Place-Name Society survey, volume 11: Surrey"}]},{"toponym":"Neuton","citations":[{"label":"c. 1200 Fees","year":1190}],"when":{"timespans":[{"start":{"earliest":"1190","latest":"1210"},"end":{"earliest":"1190","latest":"1210"}}]}},{"toponym":"Niwetune","citations":[{"label":"1212 Fees","year":1212},{"label":"early 13th BM","year":1200}],"when":{"timespans":[{"start":{"in":"1212"},"end":{"in":"1212"}},{"start":{"earliest":"1200","latest":"1225"},"end":{"earliest":"1200","latest":"1225"}}]}},{"toponym":"Newetone","citations":[{"label":"1212-17 RBE","year":1212}],"when":{"timespans":[{"start":{"earliest":"1212","latest":"1217"},"end":{"earliest":"1212","latest":"1217"}}]}},{"toponym":"Newton","citations":[{"label":"1269 FF","year":1269}],"when":{"timespans":[{"start":{"in":"1269"},"end":{"in":"1269"}},{"start":{"in":"1377"},"end":{"in":"1377"}}]}},{"toponym":"Neuweton","citations":[{"label":"1276 FF","year":1276}],"when":{"timespans":[{"start":{"in":"1276"},"end":{"in":"1276"}}]}},{"toponym":"Niwentone","citations":[{"label":"13th AD","year":1200}],"when":{"timespans":[{"start":{"earliest":"1200","latest":"1300"},"end":{"earliest":"1200","latest":"1300"}}]}},{"toponym":"Newenton","citations":[{"label":"1258 FF","year":1258},{"label":"1263 Ass","year":1263}],"when":{"timespans":[{"start":{"in":"1258"},"end":{"in":"1258"}},{"start":{"in":"1263"},"end":{"in":"1263"}}]}},{"toponym":"Newenton juxta Suthwerk","citations":[{"label":"1272 Ass","year":1272},{"label":"1295 FF","year":1295}],"when":{"timespans":[{"start":{"in":"1272"},"end":{"in":"1272"}},{"start":{"in":"1295"},"end":{"in":"1295"}}]}},{"toponym":"pons de Newynton","citations":[{"label":"1351 Seld","year":1351}],"when":{"timespans":[{"start":{"in":"1351"},"end":{"in":"1351"}}]}},{"toponym":"Neuwyngton juxta Suthwerk","citations":[{"label":"1325 FF","year":1325}],"when":{"timespans":[{"start":{"in":"1325"},"end":{"in":"1325"}}]}},{"toponym":"Newington Butts","citations":[{"label":"1558 Lambeth ParReg","year":1558}],"when":{"timespans":[{"start":{"in":"1558"},"end":{"in":"1558"}}]}},{"toponym":"Newington al. Newington Butt","citations":[{"label":"1604 Recov","year":1604}],"when":{"timespans":[{"start":{"in":"1604"},"end":{"in":"1604"}}]}}],"types":[{"identifier":"http://vocab.getty.edu/aat/300232418","label":"administrative division","sourceLabels":[{"label":"township","lang":"en"}]}],"geometry":{"type":"GeometryCollection","geometries":[{"type":"Point","coordinates":[-0.09093219071132136,51.49840628214648],"citations":[{"label":"Unlock (EDINA) gazetteer, gazetteer record unlock:11230228"}]},{"type":"Point","coordinates":[-0.106926,51.4991],"citations":[{"label":"Key to English Place-Names (KEPN), gazetteer record 8250"}]}]},"when":{"timespans":[{"start":{"in":"1190"},"end":{"in":"1604"}}]},"relations":[{"relationType":"gvp:broaderPartitive","relationTo":"http://placenames.org.uk/id/placename/11/000548","label":"within Newington"}]}]}