{"@context":"https://raw.githubusercontent.com/LinkedPasts/linked-places-format/main/linkedplaces-context-v1.1.jsonld","type":"FeatureCollection","license":"Digitisation of English Placenames MADS data is licensed to Jisc by the English Place Names Society and released under a Creative Commons Attribution-NonCommercial 4.0 International License.","note":"LPF v1.3, lossy; derived from the PLATO record; plato_commit=fa0d247ccc0263f8f19c8d7cdcd163df96935d1e","features":[{"@id":"https://w3id.org/whg-epns/11/000500","type":"Feature","properties":{"title":"Merton","ccodes":["GB"],"fclasses":["A","P"]},"names":[{"toponym":"Merton","lang":"en","citations":[{"label":"English Place-Name Society survey, volume 11: Surrey"}]}],"types":[{"identifier":"http://vocab.getty.edu/aat/300232418","label":"administrative division","sourceLabels":[{"label":"parish","lang":"en"}]}],"geometry":{"type":"GeometryCollection","geometries":[{"type":"Point","coordinates":[-0.18919,51.4108],"citations":[{"label":"GeoNames, gazetteer record geonames:3333171"}]},{"type":"Point","coordinates":[-0.1952819496677886,51.41012303301549],"citations":[{"label":"Unlock (EDINA) gazetteer, gazetteer record unlock:11217532"}]},{"type":"Point","coordinates":[-0.196863,51.4106],"citations":[{"label":"Key to English Place-Names (KEPN), gazetteer record 8248"}]}]},"links":[{"type":"closeMatch","identifier":"https://sws.geonames.org/3333171/"}],"relations":[{"relationType":"gvp:broaderPartitive","relationTo":"https://w3id.org/whg-epns/11/000053","label":"within Brixton Hundred"}]}]}