{"@context":"https://raw.githubusercontent.com/LinkedPasts/linked-places-format/main/linkedplaces-context-v1.1.jsonld","type":"FeatureCollection","license":"Digitisation of English Placenames MADS data is licensed to Jisc by the English Place Names Society and released under a Creative Commons Attribution-NonCommercial 4.0 International License.","note":"LPF v1.3, lossy; derived from the PLATO record; plato_commit=ca0afadabec1e23a145c0b03df77e8f151f79832","features":[{"@id":"http://placenames.org.uk/id/placename/11/000988","type":"Feature","properties":{"title":"Addington","ccodes":["GB"],"fclasses":["A","P"]},"names":[{"toponym":"Addington","lang":"en","citations":[{"label":"English Place-Name Society survey, volume 11: Surrey"}]}],"types":[{"identifier":"http://vocab.getty.edu/aat/300232418","label":"administrative division","sourceLabels":[{"label":"parish","lang":"en"}]}],"geometry":{"type":"GeometryCollection","geometries":[{"type":"Point","coordinates":[-0.03333,51.35],"citations":[{"label":"GeoNames, gazetteer record geonames:2657678"}]},{"type":"Point","coordinates":[-0.03911737748951423,51.36264442785922],"citations":[{"label":"Unlock (EDINA) gazetteer, gazetteer record unlock:11056615"}]},{"type":"Point","coordinates":[-0.0410975,51.3542],"citations":[{"label":"Key to English Place-Names (KEPN), gazetteer record 8258"}]}]},"links":[{"type":"closeMatch","identifier":"https://sws.geonames.org/2657678/"}],"relations":[{"relationType":"gvp:broaderPartitive","relationTo":"http://placenames.org.uk/id/placename/11/000984","label":"within Wallington Hundred"}]}]}