{"@context":"https://raw.githubusercontent.com/LinkedPasts/linked-places-format/main/linkedplaces-context-v1.1.jsonld","type":"FeatureCollection","license":"Digitisation of English Placenames MADS data is licensed to Jisc by the English Place Names Society and released under a Creative Commons Attribution-NonCommercial 4.0 International License.","note":"LPF v1.3, lossy; derived from the PLATO record; plato_commit=ca0afadabec1e23a145c0b03df77e8f151f79832","features":[{"@id":"https://w3id.org/whg-epns/11/001692","type":"Feature","properties":{"title":"Ham","ccodes":["GB"],"fclasses":["A","P"]},"names":[{"toponym":"Ham","lang":"en","citations":[{"label":"English Place-Name Society survey, volume 11: Surrey"}]},{"toponym":"Hama","citations":[{"label":"c. 1150 Crawf","year":1140},{"label":"1170-4 P","year":1170}],"when":{"timespans":[{"start":{"earliest":"1140","latest":"1160"},"end":{"earliest":"1140","latest":"1160"}},{"start":{"earliest":"1170","latest":"1174"},"end":{"earliest":"1170","latest":"1174"}}]}},{"toponym":"Hamme","citations":[{"label":"1154–1154, recurring RBE","year":1154},{"label":"1154 RBE","year":1154}],"when":{"timespans":[{"start":{"in":"1154"},"end":{"in":"1154"}},{"start":{"in":"1154"},"end":{"in":"1154"}}]}},{"toponym":"Hamma","citations":[{"label":"1154-1600 unspecified sources","year":1154}],"when":{"timespans":[{"start":{"in":"1154"},"end":{"in":"1600"}}]}},{"toponym":"Hame","citations":[{"label":"1197 FF","year":1197}],"when":{"timespans":[{"start":{"in":"1197"},"end":{"in":"1197"}}]}},{"toponym":"Ham","citations":[{"label":"1532 Merton","year":1532}],"when":{"timespans":[{"start":{"in":"1532"},"end":{"in":"1532"}}]}},{"toponym":"Hammes","citations":[{"label":"1235 Fees","year":1235},{"label":"1383 IpmR","year":1383}],"when":{"timespans":[{"start":{"in":"1235"},"end":{"in":"1235"}},{"start":{"in":"1241"},"end":{"in":"1241"}},{"start":{"in":"1383"},"end":{"in":"1383"}}]}},{"toponym":"Hamme juxta Kyngeston","citations":[{"label":"1335 Ass","year":1335}],"when":{"timespans":[{"start":{"in":"1335"},"end":{"in":"1335"}}]}}],"types":[{"identifier":"http://vocab.getty.edu/aat/300232418","label":"administrative division","sourceLabels":[{"label":"township","lang":"en"}]}],"geometry":{"type":"GeometryCollection","geometries":[{"type":"Point","coordinates":[-0.30933,51.43619],"citations":[{"label":"GeoNames, gazetteer record geonames:6949212"}]},{"type":"Point","coordinates":[-0.3092730439836959,51.4388036798629],"citations":[{"label":"Unlock (EDINA) gazetteer, gazetteer record unlock:11164760"}]},{"type":"Point","coordinates":[-0.325223,51.4395],"citations":[{"label":"Key to English Place-Names (KEPN), gazetteer record 0147"}]}]},"when":{"timespans":[{"start":{"in":"1140"},"end":{"in":"1600"}}]},"links":[{"type":"closeMatch","identifier":"https://sws.geonames.org/6949212/"}],"relations":[{"relationType":"gvp:broaderPartitive","relationTo":"https://w3id.org/whg-epns/11/001691","label":"within Ham"}]}]}