{"@context":"https://raw.githubusercontent.com/LinkedPasts/linked-places-format/main/linkedplaces-context-v1.1.jsonld","type":"FeatureCollection","license":"Digitisation of English Placenames MADS data is licensed to Jisc by the English Place Names Society and released under a Creative Commons Attribution-NonCommercial 4.0 International License.","note":"LPF v1.3, lossy; derived from the PLATO record; plato_commit=ca0afadabec1e23a145c0b03df77e8f151f79832","features":[{"@id":"https://w3id.org/whg-epns/11/001761","type":"Feature","properties":{"title":"Kingston-on-Thames","ccodes":["GB"],"fclasses":["A","P"]},"names":[{"toponym":"Kingston-on-Thames","lang":"en","citations":[{"label":"English Place-Name Society survey, volume 11: Surrey"}]},{"toponym":"Cyninges tun","citations":[{"label":"838 BCS","year":838}],"when":{"timespans":[{"start":{"in":"0838"},"end":{"in":"0838"}}]}},{"toponym":"Cingestun","citations":[{"label":"838 BCS","year":838}],"when":{"timespans":[{"start":{"in":"0838"},"end":{"in":"0838"}}]}},{"toponym":"Cingestune, Cyngestune","citations":[{"label":"924 ASC","year":924}],"when":{"timespans":[{"start":{"in":"0924"},"end":{"in":"0924"}}]}},{"toponym":"Cyningestune","citations":[{"label":"979 ASC","year":979}],"when":{"timespans":[{"start":{"in":"0979"},"end":{"in":"0979"}}]}},{"toponym":"Cingestune","citations":[{"label":"979 ASC","year":979}],"when":{"timespans":[{"start":{"in":"0979"},"end":{"in":"0979"}}]}},{"toponym":"Chingestune","citations":[{"label":"1086 DB","year":1086}],"when":{"timespans":[{"start":{"in":"1086"},"end":{"in":"1086"}}]}},{"toponym":"Kingeston, Kyngeston","citations":[{"label":"1164–1506, recurring P","year":1164},{"label":"1164–1506, recurring FF"},{"label":"1164 P","year":1164},{"label":"1506 FF","year":1506}],"when":{"timespans":[{"start":{"in":"1164"},"end":{"in":"1506"}},{"start":{"in":"1164"},"end":{"in":"1164"}},{"start":{"in":"1506"},"end":{"in":"1506"}}]}},{"toponym":"Kinkeston","citations":[{"label":"1200 Cur","year":1200}],"when":{"timespans":[{"start":{"in":"1200"},"end":{"in":"1200"}}]}},{"toponym":"Gingeston","citations":[{"label":"1229 FF","year":1229}],"when":{"timespans":[{"start":{"in":"1229"},"end":{"in":"1229"}}]}},{"toponym":"Kyngeston super, juxta, Tamisiam","citations":[{"label":"1321 FF","year":1321}],"when":{"timespans":[{"start":{"in":"1321"},"end":{"in":"1321"}}]}},{"toponym":"Kingestowne upon Thames","citations":[{"label":"1589 AD","year":1589}],"when":{"timespans":[{"start":{"in":"1589"},"end":{"in":"1589"}}]}},{"toponym":"Kynsen super Thames","citations":[{"label":"1514 FF","year":1514}],"when":{"timespans":[{"start":{"in":"1514"},"end":{"in":"1514"}}]}}],"types":[{"identifier":"http://vocab.getty.edu/aat/300232418","label":"administrative division","sourceLabels":[{"label":"township","lang":"en"}]}],"geometry":{"type":"Point","coordinates":[-0.297464,51.4121],"citations":[{"label":"Key to English Place-Names (KEPN), gazetteer record 8275"}]},"when":{"timespans":[{"start":{"in":"0838"},"end":{"in":"1589"}}]},"relations":[{"relationType":"gvp:broaderPartitive","relationTo":"https://w3id.org/whg-epns/11/001760","label":"within Kingston-on-Thames"}]}]}