{"@context":"https://raw.githubusercontent.com/LinkedPasts/linked-places-format/main/linkedplaces-context-v1.1.jsonld","type":"FeatureCollection","license":"Digitisation of English Placenames MADS data is licensed to Jisc by the English Place Names Society and released under a Creative Commons Attribution-NonCommercial 4.0 International License.","note":"LPF v1.3, lossy; derived from the PLATO record; plato_commit=fa0d247ccc0263f8f19c8d7cdcd163df96935d1e","features":[{"@id":"https://w3id.org/whg-epns/11/002440","type":"Feature","properties":{"title":"Kingswood","ccodes":["GB"],"fclasses":["A","P"]},"names":[{"toponym":"Kingswood","lang":"en","citations":[{"label":"English Place-Name Society survey, volume 11: Surrey"}]},{"toponym":"Kingeswode","citations":[{"label":"1177-86 Merton","year":1177},{"label":"1212 Fees","year":1212},{"label":"1225 Ass","year":1225}],"when":{"timespans":[{"start":{"earliest":"1177","latest":"1186"},"end":{"earliest":"1177","latest":"1186"}},{"start":{"in":"1212"},"end":{"in":"1212"}},{"start":{"in":"1225"},"end":{"in":"1225"}}]}},{"toponym":"Kingeswude","citations":[{"label":"1194 P","year":1194},{"label":"1201 FF","year":1201}],"when":{"timespans":[{"start":{"in":"1194"},"end":{"in":"1194"}},{"start":{"in":"1201"},"end":{"in":"1201"}},{"start":{"in":"1209"},"end":{"in":"1209"}}]}}],"types":[{"identifier":"http://vocab.getty.edu/aat/300232418","label":"administrative division","sourceLabels":[{"label":"township","lang":"en"}]}],"geometry":{"type":"GeometryCollection","geometries":[{"type":"Point","coordinates":[-0.20891,51.29327],"citations":[{"label":"GeoNames, gazetteer record geonames:2645419"}]},{"type":"Point","coordinates":[-0.214204305011942,51.2934949134872],"citations":[{"label":"Unlock (EDINA) gazetteer, gazetteer record unlock:11187274"}]},{"type":"Point","coordinates":[-0.216127,51.285],"citations":[{"label":"Key to English Place-Names (KEPN), gazetteer record 8288"}]}]},"when":{"timespans":[{"start":{"in":"1177"},"end":{"in":"1225"}}]},"links":[{"type":"closeMatch","identifier":"https://sws.geonames.org/2645419/"}],"relations":[{"relationType":"gvp:broaderPartitive","relationTo":"https://w3id.org/whg-epns/11/002439","label":"within Kingswood"}]}]}