{"@context":"https://raw.githubusercontent.com/LinkedPasts/linked-places-format/main/linkedplaces-context-v1.1.jsonld","type":"FeatureCollection","license":"Digitisation of English Placenames MADS data is licensed to Jisc by the English Place Names Society and released under a Creative Commons Attribution-NonCommercial 4.0 International License.","note":"LPF v1.3, lossy; derived from the PLATO record; plato_commit=ca0afadabec1e23a145c0b03df77e8f151f79832","features":[{"@id":"http://placenames.org.uk/id/placename/11/003705","type":"Feature","properties":{"title":"Chobham","ccodes":["GB"],"fclasses":["A","P"]},"names":[{"toponym":"Chobham","lang":"en","citations":[{"label":"English Place-Name Society survey, volume 11: Surrey"}]},{"toponym":"Chebeham","citations":[{"label":"675 BCS","year":675},{"label":"933 BCS","year":933},{"label":"1272 Ass","year":1272},{"label":"c. 1270 Winton","year":1260}],"when":{"timespans":[{"start":{"in":"0675"},"end":{"in":"0675"}},{"start":{"in":"0933"},"end":{"in":"0933"}},{"start":{"in":"1272"},"end":{"in":"1272"}},{"start":{"earliest":"1260","latest":"1280"},"end":{"earliest":"1260","latest":"1280"}}]}},{"toponym":"Chabbeham","citations":[{"label":"675 BCS","year":675},{"label":"1062 KCD","year":1062},{"label":"1220 StOsmund","year":1220},{"label":"1286 AD","year":1286}],"when":{"timespans":[{"start":{"in":"0675"},"end":{"in":"0675"}},{"start":{"in":"1062"},"end":{"in":"1062"}},{"start":{"in":"1220"},"end":{"in":"1220"}},{"start":{"in":"1286"},"end":{"in":"1286"}}]}},{"toponym":"Chabbenham","citations":[{"label":"1235 Ass","year":1235}],"when":{"timespans":[{"start":{"in":"1235"},"end":{"in":"1235"}}]}},{"toponym":"Chabeham","citations":[{"label":"967 BCS","year":967},{"label":"1100-29 Chertsey","year":1100},{"label":"1228-39 Ch","year":1228},{"label":"t. Hy 3 For","year":1216},{"label":"1254 Ipm","year":1254},{"label":"1291 Tax","year":1291},{"label":"1432 Chertsey","year":1432}],"when":{"timespans":[{"start":{"in":"0967"},"end":{"in":"0967"}},{"start":{"earliest":"1100","latest":"1129"},"end":{"earliest":"1100","latest":"1129"}},{"start":{"earliest":"1228","latest":"1239"},"end":{"earliest":"1228","latest":"1239"}},{"start":{"earliest":"1216","latest":"1272"},"end":{"earliest":"1216","latest":"1272"}},{"start":{"in":"1254"},"end":{"in":"1254"}},{"start":{"in":"1291"},"end":{"in":"1291"}},{"start":{"in":"1432"},"end":{"in":"1432"}}]}},{"toponym":"Chabham","citations":[{"label":"1218 FF","year":1218},{"label":"1362 BPR","year":1362},{"label":"1635 BM","year":1635}],"when":{"timespans":[{"start":{"in":"1218"},"end":{"in":"1218"}},{"start":{"in":"1362"},"end":{"in":"1362"}},{"start":{"in":"1635"},"end":{"in":"1635"}}]}},{"toponym":"Cebbeham","citations":[{"label":"c. 1060 KCD","year":1050}],"when":{"timespans":[{"start":{"earliest":"1050","latest":"1070"},"end":{"earliest":"1050","latest":"1070"}}]}},{"toponym":"Cebeham","citations":[{"label":"1086 DB","year":1086}],"when":{"timespans":[{"start":{"in":"1086"},"end":{"in":"1086"}}]}},{"toponym":"Cabbeham","citations":[{"label":"1155-8 Ch","year":1155}],"when":{"timespans":[{"start":{"earliest":"1155","latest":"1158"},"end":{"earliest":"1155","latest":"1158"}}]}},{"toponym":"Cabeham","citations":[{"label":"1351 SR","year":1351}],"when":{"timespans":[{"start":{"in":"1351"},"end":{"in":"1351"}}]}},{"toponym":"Chobham","citations":[{"label":"1241 Ass","year":1241}],"when":{"timespans":[{"start":{"in":"1241"},"end":{"in":"1241"}}]}},{"toponym":"Chobeham","citations":[{"label":"1255 Ass","year":1255},{"label":"1432 Chertsey","year":1432}],"when":{"timespans":[{"start":{"in":"1255"},"end":{"in":"1255"}},{"start":{"in":"1432"},"end":{"in":"1432"}}]}},{"toponym":"Chobbham","citations":[{"label":"1557 FF","year":1557}],"when":{"timespans":[{"start":{"in":"1557"},"end":{"in":"1557"}}]}},{"toponym":"Chabham al. Chobham","citations":[{"label":"1580 FF","year":1580}],"when":{"timespans":[{"start":{"in":"1580"},"end":{"in":"1580"}}]}},{"toponym":"Chobham al. Chabham","citations":[{"label":"1701 Recov","year":1701}],"when":{"timespans":[{"start":{"in":"1701"},"end":{"in":"1701"}}]}},{"toponym":"Chaveham","citations":[{"label":"1324 Pat","year":1324}],"when":{"timespans":[{"start":{"in":"1324"},"end":{"in":"1324"}}]}},{"toponym":"Chapham","citations":[{"label":"1563 FF","year":1563}],"when":{"timespans":[{"start":{"in":"1563"},"end":{"in":"1563"}}]}},{"toponym":"Chabbam","citations":[{"label":"1624 BM","year":1624}],"when":{"timespans":[{"start":{"in":"1624"},"end":{"in":"1624"}}]}}],"types":[{"identifier":"http://vocab.getty.edu/aat/300232418","label":"administrative division","sourceLabels":[{"label":"township","lang":"en"}]}],"geometry":{"type":"GeometryCollection","geometries":[{"type":"Point","coordinates":[-0.60459,51.34584],"citations":[{"label":"GeoNames, gazetteer record geonames:2653109"}]},{"type":"Point","coordinates":[-0.5999762656801417,51.34371041451483],"citations":[{"label":"Unlock (EDINA) gazetteer, gazetteer record unlock:11106741"}]},{"type":"Point","coordinates":[-0.601508,51.3442],"citations":[{"label":"Key to English Place-Names (KEPN), gazetteer record 8306"}]}]},"when":{"timespans":[{"start":{"in":"0675"},"end":{"in":"1701"}}]},"links":[{"type":"closeMatch","identifier":"https://sws.geonames.org/2653109/"}],"relations":[{"relationType":"gvp:broaderPartitive","relationTo":"http://placenames.org.uk/id/placename/11/003704","label":"within Chobham"}]}]}