{"@context":"https://raw.githubusercontent.com/LinkedPasts/linked-places-format/main/linkedplaces-context-v1.1.jsonld","type":"FeatureCollection","license":"Digitisation of English Placenames MADS data is licensed to Jisc by the English Place Names Society and released under a Creative Commons Attribution-NonCommercial 4.0 International License.","note":"LPF v1.3, lossy; derived from the PLATO record; plato_commit=ca0afadabec1e23a145c0b03df77e8f151f79832","features":[{"@id":"https://w3id.org/whg-epns/11/005119","type":"Feature","properties":{"title":"Wisley","ccodes":["GB"],"fclasses":["A","P"]},"names":[{"toponym":"Wisley","lang":"en","citations":[{"label":"English Place-Name Society survey, volume 11: Surrey"}]}],"types":[{"identifier":"http://vocab.getty.edu/aat/300232418","label":"administrative division","sourceLabels":[{"label":"parish","lang":"en"}]}],"geometry":{"type":"GeometryCollection","geometries":[{"type":"Point","coordinates":[-0.47649,51.3227],"citations":[{"label":"GeoNames, gazetteer record geonames:2633763"}]},{"type":"Point","coordinates":[-0.4713887737079533,51.3241158775071],"citations":[{"label":"Unlock (EDINA) gazetteer, gazetteer record unlock:11324468"}]},{"type":"Point","coordinates":[-0.472935,51.3246],"citations":[{"label":"Key to English Place-Names (KEPN), gazetteer record 8324"}]}]},"links":[{"type":"closeMatch","identifier":"https://sws.geonames.org/2633763/"}],"relations":[{"relationType":"gvp:broaderPartitive","relationTo":"https://w3id.org/whg-epns/11/004406","label":"within Woking Hundred"}]}]}