{"@context":"https://raw.githubusercontent.com/LinkedPasts/linked-places-format/main/linkedplaces-context-v1.1.jsonld","type":"FeatureCollection","license":"Digitisation of English Placenames MADS data is licensed to Jisc by the English Place Names Society and released under a Creative Commons Attribution-NonCommercial 4.0 International License.","note":"LPF v1.3, lossy; derived from the PLATO record; plato_commit=fa0d247ccc0263f8f19c8d7cdcd163df96935d1e","features":[{"@id":"https://w3id.org/whg-epns/11/006635","type":"Feature","properties":{"title":"Hambledon","ccodes":["GB"],"fclasses":["A","P"]},"names":[{"toponym":"Hambledon","lang":"en","citations":[{"label":"English Place-Name Society survey, volume 11: Surrey"}]}],"types":[{"identifier":"http://vocab.getty.edu/aat/300232418","label":"administrative division","sourceLabels":[{"label":"parish","lang":"en"}]}],"geometry":{"type":"GeometryCollection","geometries":[{"type":"Point","coordinates":[-0.63266,51.13224],"citations":[{"label":"GeoNames, gazetteer record geonames:2647581"}]},{"type":"Point","coordinates":[-0.6205306493223249,51.13710449095029],"citations":[{"label":"Unlock (EDINA) gazetteer, gazetteer record unlock:11164881"}]},{"type":"Point","coordinates":[-0.622052,51.1376],"citations":[{"label":"Key to English Place-Names (KEPN), gazetteer record 8336"}]}]},"links":[{"type":"closeMatch","identifier":"https://sws.geonames.org/2647581/"}],"relations":[{"relationType":"gvp:broaderPartitive","relationTo":"https://w3id.org/whg-epns/11/006040","label":"within Godalming Hundred"}]}]}