{"@context":"https://raw.githubusercontent.com/LinkedPasts/linked-places-format/main/linkedplaces-context-v1.1.jsonld","type":"FeatureCollection","license":"Digitisation of English Placenames MADS data is licensed to Jisc by the English Place Names Society and released under a Creative Commons Attribution-NonCommercial 4.0 International License.","note":"LPF v1.3, lossy; derived from the PLATO record; plato_commit=ca0afadabec1e23a145c0b03df77e8f151f79832","features":[{"@id":"http://placenames.org.uk/id/placename/11/007266","type":"Feature","properties":{"title":"Alfold","ccodes":["GB"],"fclasses":["A","P"]},"names":[{"toponym":"Alfold","lang":"en","citations":[{"label":"English Place-Name Society survey, volume 11: Surrey"}]},{"toponym":"Alfold","citations":[{"label":"1227 Cl","year":1227}],"when":{"timespans":[{"start":{"in":"1227"},"end":{"in":"1227"}}]}},{"toponym":"Alfaude","citations":[{"label":"1229 FF","year":1229},{"label":"c. 1270 Winton","year":1260}],"when":{"timespans":[{"start":{"in":"1229"},"end":{"in":"1229"}},{"start":{"earliest":"1260","latest":"1280"},"end":{"earliest":"1260","latest":"1280"}}]}},{"toponym":"Alfalde","citations":[{"label":"1291 Tax","year":1291}],"when":{"timespans":[{"start":{"in":"1291"},"end":{"in":"1291"}}]}},{"toponym":"Alefaude","citations":[{"label":"1263 Ass","year":1263},{"label":"1316 Winton","year":1316}],"when":{"timespans":[{"start":{"in":"1263"},"end":{"in":"1263"}},{"start":{"in":"1316"},"end":{"in":"1316"}}]}},{"toponym":"Eldefolde","citations":[{"label":"1257 FF","year":1257}],"when":{"timespans":[{"start":{"in":"1257"},"end":{"in":"1257"}}]}},{"toponym":"Altfaud","citations":[{"label":"1263 Ass","year":1263}],"when":{"timespans":[{"start":{"in":"1263"},"end":{"in":"1263"}}]}},{"toponym":"Altfold","citations":[{"label":"1297 Ipm","year":1297}],"when":{"timespans":[{"start":{"in":"1297"},"end":{"in":"1297"}}]}},{"toponym":"Aldefold","citations":[{"label":"1279 Ass","year":1279},{"label":"1304 Winton","year":1304},{"label":"1313 Ass","year":1313}],"when":{"timespans":[{"start":{"in":"1279"},"end":{"in":"1279"}},{"start":{"in":"1304"},"end":{"in":"1304"}},{"start":{"in":"1313"},"end":{"in":"1313"}}]}},{"toponym":"Aldefalde","citations":[{"label":"1309 Cl","year":1309}],"when":{"timespans":[{"start":{"in":"1309"},"end":{"in":"1309"}}]}},{"toponym":"Aldefeld","citations":[{"label":"1314 Ipm","year":1314}],"when":{"timespans":[{"start":{"in":"1314"},"end":{"in":"1314"}}]}},{"toponym":"Aldfold","citations":[{"label":"1313 FF","year":1313},{"label":"1332 Ipm","year":1332},{"label":"1495 FF","year":1495}],"when":{"timespans":[{"start":{"in":"1313"},"end":{"in":"1313"}},{"start":{"in":"1332"},"end":{"in":"1332"}},{"start":{"in":"1495"},"end":{"in":"1495"}}]}},{"toponym":"Alfold(e)","citations":[{"label":"1279 Ass","year":1279},{"label":"1499 FF","year":1499}],"when":{"timespans":[{"start":{"in":"1279"},"end":{"in":"1279"}},{"start":{"in":"1499"},"end":{"in":"1499"}}]}},{"toponym":"Allfolde","citations":[{"label":"1570 FF","year":1570}],"when":{"timespans":[{"start":{"in":"1570"},"end":{"in":"1570"}}]}},{"toponym":"Affolde","citations":[{"label":"1586 SR","year":1586}],"when":{"timespans":[{"start":{"in":"1586"},"end":{"in":"1586"}}]}},{"toponym":"Awfold","citations":[{"label":"1601 FF","year":1601},{"label":"1664 SR","year":1664}],"when":{"timespans":[{"start":{"in":"1601"},"end":{"in":"1601"}},{"start":{"in":"1664"},"end":{"in":"1664"}}]}}],"types":[{"identifier":"http://vocab.getty.edu/aat/300232418","label":"administrative division","sourceLabels":[{"label":"township","lang":"en"}]}],"geometry":{"type":"GeometryCollection","geometries":[{"type":"Point","coordinates":[-0.51773,51.0949],"citations":[{"label":"GeoNames, gazetteer record geonames:2657512"}]},{"type":"Point","coordinates":[-0.5216483553947743,51.09992129379334],"citations":[{"label":"Unlock (EDINA) gazetteer, gazetteer record unlock:11058201"}]},{"type":"Point","coordinates":[-0.52318,51.1005],"citations":[{"label":"Key to English Place-Names (KEPN), gazetteer record 8343"}]}]},"when":{"timespans":[{"start":{"in":"1227"},"end":{"in":"1664"}}]},"links":[{"type":"closeMatch","identifier":"https://sws.geonames.org/2657512/"}],"relations":[{"relationType":"gvp:broaderPartitive","relationTo":"http://placenames.org.uk/id/placename/11/007265","label":"within Alfold"}]}]}