{"@context":"https://raw.githubusercontent.com/LinkedPasts/linked-places-format/main/linkedplaces-context-v1.1.jsonld","type":"FeatureCollection","license":"Digitisation of English Placenames MADS data is licensed to Jisc by the English Place Names Society and released under a Creative Commons Attribution-NonCommercial 4.0 International License.","note":"LPF v1.3, lossy; derived from the PLATO record; plato_commit=fa0d247ccc0263f8f19c8d7cdcd163df96935d1e","features":[{"@id":"https://w3id.org/whg-epns/11/008051","type":"Feature","properties":{"title":"St Martha's","ccodes":["GB"],"fclasses":["A","P"]},"names":[{"toponym":"St Martha's","lang":"en","citations":[{"label":"English Place-Name Society survey, volume 11: Surrey"}]},{"toponym":"ecclesia S. Marthe","citations":[{"label":"1224 Bracton","year":1224}],"when":{"timespans":[{"start":{"in":"1224"},"end":{"in":"1224"}}]}},{"toponym":"ecclesia de Sancta Martha","citations":[{"label":"c. 1270 Winton","year":1260}],"when":{"timespans":[{"start":{"earliest":"1260","latest":"1280"},"end":{"earliest":"1260","latest":"1280"}}]}},{"toponym":"ecclesiam Sce Marthe","citations":[{"label":"1291 Tax","year":1291}],"when":{"timespans":[{"start":{"in":"1291"},"end":{"in":"1291"}}]}},{"toponym":"ecclesie de Sancta Martha","citations":[{"label":"1428 FA","year":1428}],"when":{"timespans":[{"start":{"in":"1428"},"end":{"in":"1428"}}]}},{"toponym":"Saint Marthe isshe","citations":[{"label":"1463 AddCh","year":1463}],"when":{"timespans":[{"start":{"in":"1463"},"end":{"in":"1463"}}]}},{"toponym":"ochia Ste Marthe","citations":[{"label":"1524 SR","year":1524}],"when":{"timespans":[{"start":{"in":"1524"},"end":{"in":"1524"}}]}},{"toponym":"Martirhill","citations":[{"label":"1487 Ipm","year":1487}],"when":{"timespans":[{"start":{"in":"1487"},"end":{"in":"1487"}}]}},{"toponym":"Martyrhill","citations":[{"label":"1535 VE","year":1535}],"when":{"timespans":[{"start":{"in":"1535"},"end":{"in":"1535"}}]}},{"toponym":"Marterhill","citations":[{"label":"1541 Dugd","year":1541},{"label":"t. Eliz Musters","year":1558},{"label":"1576 Moulton","year":1576},{"label":"1602 Recov","year":1602}],"when":{"timespans":[{"start":{"in":"1541"},"end":{"in":"1541"}},{"start":{"earliest":"1558","latest":"1603"},"end":{"earliest":"1558","latest":"1603"}},{"start":{"in":"1576"},"end":{"in":"1576"}},{"start":{"in":"1602"},"end":{"in":"1602"}}]}},{"toponym":"Marterhyll","citations":[{"label":"t. Hy 8 MinAcct","year":1509}],"when":{"timespans":[{"start":{"earliest":"1509","latest":"1547"},"end":{"earliest":"1509","latest":"1547"}}]}},{"toponym":"Seynt Martres","citations":[{"label":"1540 FF","year":1540}],"when":{"timespans":[{"start":{"in":"1540"},"end":{"in":"1540"}}]}},{"toponym":"Marthahill","citations":[{"label":"1551 Pat","year":1551}],"when":{"timespans":[{"start":{"in":"1551"},"end":{"in":"1551"}}]}},{"toponym":"Martha uppon the Hill","citations":[{"label":"1593 SAC","year":1593}],"when":{"timespans":[{"start":{"in":"1593"},"end":{"in":"1593"}}]}},{"toponym":"Martha on the Hill","citations":[{"label":"1629 SR","year":1629}],"when":{"timespans":[{"start":{"in":"1629"},"end":{"in":"1629"}}]}},{"toponym":"St Martha upon the hill","citations":[{"label":"1653 Recov","year":1653}],"when":{"timespans":[{"start":{"in":"1653"},"end":{"in":"1653"}}]}},{"toponym":"Martha on ye Hill","citations":[{"label":"1664 SR","year":1664}],"when":{"timespans":[{"start":{"in":"1664"},"end":{"in":"1664"}}]}}],"types":[{"identifier":"http://vocab.getty.edu/aat/300232418","label":"administrative division","sourceLabels":[{"label":"township","lang":"en"}]}],"geometry":{"type":"GeometryCollection","geometries":[{"type":"Point","coordinates":[-0.5319363826192868,51.22596212138384],"citations":[{"label":"Unlock (EDINA) gazetteer, gazetteer record unlock:11276729"}]},{"type":"Point","coordinates":[-0.533757,51.2175],"citations":[{"label":"Key to English Place-Names (KEPN), gazetteer record 8349"}]}]},"when":{"timespans":[{"start":{"in":"1224"},"end":{"in":"1664"}}]},"relations":[{"relationType":"gvp:broaderPartitive","relationTo":"https://w3id.org/whg-epns/11/008050","label":"within St Martha's"}]}]}