{"@context":"https://raw.githubusercontent.com/LinkedPasts/linked-places-format/main/linkedplaces-context-v1.1.jsonld","type":"FeatureCollection","license":"Digitisation of English Placenames MADS data is licensed to Jisc by the English Place Names Society and released under a Creative Commons Attribution-NonCommercial 4.0 International License.","note":"LPF v1.3, lossy; derived from the PLATO record; plato_commit=ca0afadabec1e23a145c0b03df77e8f151f79832","features":[{"@id":"https://w3id.org/whg-epns/11/010259","type":"Feature","properties":{"title":"Blechingley","ccodes":["GB"],"fclasses":["A","P"]},"names":[{"toponym":"Blechingley","lang":"en","citations":[{"label":"English Place-Name Society survey, volume 11: Surrey"}]},{"toponym":"Blachingelei","citations":[{"label":"1086 DB","year":1086}],"when":{"timespans":[{"start":{"in":"1086"},"end":{"in":"1086"}}]}},{"toponym":"Blachingeleha","citations":[{"label":"12th Lewes","year":1100},{"label":"c. 1145 France","year":1135}],"when":{"timespans":[{"start":{"earliest":"1100","latest":"1200"},"end":{"earliest":"1100","latest":"1200"}},{"start":{"earliest":"1135","latest":"1155"},"end":{"earliest":"1135","latest":"1155"}}]}},{"toponym":"Blachingele","citations":[{"label":"c. 1180 AD","year":1170}],"when":{"timespans":[{"start":{"earliest":"1170","latest":"1190"},"end":{"earliest":"1170","latest":"1190"}}]}},{"toponym":"Blachingeleg","citations":[{"label":"1251 FF","year":1251},{"label":"1272 Ass","year":1272}],"when":{"timespans":[{"start":{"in":"1251"},"end":{"in":"1251"}},{"start":{"in":"1272"},"end":{"in":"1272"}}]}},{"toponym":"Blachingeleye","citations":[{"label":"1307 FF","year":1307}],"when":{"timespans":[{"start":{"in":"1307"},"end":{"in":"1307"}}]}},{"toponym":"Blackinglegh","citations":[{"label":"1277 Pat","year":1277}],"when":{"timespans":[{"start":{"in":"1277"},"end":{"in":"1277"}}]}},{"toponym":"Blackingleye","citations":[{"label":"1279 Ass","year":1279}],"when":{"timespans":[{"start":{"in":"1279"},"end":{"in":"1279"}}]}},{"toponym":"Blacchingelegh","citations":[{"label":"1296 Ipm","year":1296}],"when":{"timespans":[{"start":{"in":"1296"},"end":{"in":"1296"}}]}},{"toponym":"Blachinglegh","citations":[{"label":"1301 Pat","year":1301}],"when":{"timespans":[{"start":{"in":"1301"},"end":{"in":"1301"}}]}},{"toponym":"Blacchyngleghe","citations":[{"label":"1409 Ass","year":1409}],"when":{"timespans":[{"start":{"in":"1409"},"end":{"in":"1409"}}]}},{"toponym":"Blecchingeleg'","citations":[{"label":"1195–1327, recurring P","year":1195},{"label":"1195–1327, recurring Ipm"},{"label":"1195 P","year":1195},{"label":"1327 Ipm","year":1327}],"when":{"timespans":[{"start":{"in":"1195"},"end":{"in":"1327"}},{"start":{"in":"1195"},"end":{"in":"1195"}},{"start":{"in":"1327"},"end":{"in":"1327"}}]}},{"toponym":"Blechingeleg', Blecchyngeleg'","citations":[{"label":"1195-1327 unspecified sources","year":1195}],"when":{"timespans":[{"start":{"in":"1195"},"end":{"in":"1327"}}]}},{"toponym":"Blecingelee","citations":[{"label":"1212 Fees","year":1212},{"label":"1275 Ipm","year":1275}],"when":{"timespans":[{"start":{"in":"1212"},"end":{"in":"1212"}},{"start":{"in":"1275"},"end":{"in":"1275"}}]}},{"toponym":"Blescingele","citations":[{"label":"1225 Ass","year":1225},{"label":"1235 Fees","year":1235}],"when":{"timespans":[{"start":{"in":"1225"},"end":{"in":"1225"}},{"start":{"in":"1235"},"end":{"in":"1235"}}]}},{"toponym":"Blescingeleie","citations":[{"label":"1241 Ass","year":1241}],"when":{"timespans":[{"start":{"in":"1241"},"end":{"in":"1241"}}]}},{"toponym":"Blessinglee","citations":[{"label":"late 13th BM","year":1275}],"when":{"timespans":[{"start":{"earliest":"1275","latest":"1300"},"end":{"earliest":"1275","latest":"1300"}}]}},{"toponym":"Blesingeleg","citations":[{"label":"1270 Ass","year":1270}],"when":{"timespans":[{"start":{"in":"1270"},"end":{"in":"1270"}}]}},{"toponym":"Blescengelege","citations":[{"label":"1283-90 Ch","year":1283}],"when":{"timespans":[{"start":{"earliest":"1283","latest":"1290"},"end":{"earliest":"1283","latest":"1290"}}]}},{"toponym":"Blesyngeleye","citations":[{"label":"1320 Pat","year":1320}],"when":{"timespans":[{"start":{"in":"1320"},"end":{"in":"1320"}}]}},{"toponym":"Blecchyng Lee","citations":[{"label":"1480-3 ECP","year":1480}],"when":{"timespans":[{"start":{"earliest":"1480","latest":"1483"},"end":{"earliest":"1480","latest":"1483"}}]}},{"toponym":"Blechynglye","citations":[{"label":"1546 LP","year":1546}],"when":{"timespans":[{"start":{"in":"1546"},"end":{"in":"1546"}}]}}],"types":[{"identifier":"http://vocab.getty.edu/aat/300232418","label":"administrative division","sourceLabels":[{"label":"township","lang":"en"}]}],"geometry":{"type":"Point","coordinates":[-0.103328,51.2383],"citations":[{"label":"Key to English Place-Names (KEPN), gazetteer record 0149"}]},"when":{"timespans":[{"start":{"in":"1086"},"end":{"in":"1546"}}]},"relations":[{"relationType":"gvp:broaderPartitive","relationTo":"https://w3id.org/whg-epns/11/010258","label":"within Blechingley"}]}]}