{"@context":"https://raw.githubusercontent.com/LinkedPasts/linked-places-format/main/linkedplaces-context-v1.1.jsonld","type":"FeatureCollection","license":"Digitisation of English Placenames MADS data is licensed to Jisc by the English Place Names Society and released under a Creative Commons Attribution-NonCommercial 4.0 International License.","note":"LPF v1.3, lossy; derived from the PLATO record; plato_commit=ca0afadabec1e23a145c0b03df77e8f151f79832","features":[{"@id":"http://placenames.org.uk/id/placename/11/010762","type":"Feature","properties":{"title":"Horne","ccodes":["GB"],"fclasses":["A","P"]},"names":[{"toponym":"Horne","lang":"en","citations":[{"label":"English Place-Name Society survey, volume 11: Surrey"}]}],"types":[{"identifier":"http://vocab.getty.edu/aat/300232418","label":"administrative division","sourceLabels":[{"label":"parish","lang":"en"}]}],"geometry":{"type":"GeometryCollection","geometries":[{"type":"Point","coordinates":[-0.08823,51.18316],"citations":[{"label":"GeoNames, gazetteer record geonames:2646589"}]},{"type":"Point","coordinates":[-0.08965915321156287,51.18360087308765],"citations":[{"label":"Unlock (EDINA) gazetteer, gazetteer record unlock:11179379"}]},{"type":"Point","coordinates":[-0.0912429,51.1842],"citations":[{"label":"Key to English Place-Names (KEPN), gazetteer record 8374"}]}]},"links":[{"type":"closeMatch","identifier":"https://sws.geonames.org/2646589/"}],"relations":[{"relationType":"gvp:broaderPartitive","relationTo":"http://placenames.org.uk/id/placename/11/010248","label":"within Tandridge Hundred"}]}]}