{"@context":"https://raw.githubusercontent.com/LinkedPasts/linked-places-format/main/linkedplaces-context-v1.1.jsonld","type":"FeatureCollection","license":"Digitisation of English Placenames MADS data is licensed to Jisc by the English Place Names Society and released under a Creative Commons Attribution-NonCommercial 4.0 International License.","note":"LPF v1.3, lossy; derived from the PLATO record; plato_commit=ca0afadabec1e23a145c0b03df77e8f151f79832","features":[{"@id":"http://placenames.org.uk/id/placename/43/000002","type":"Feature","properties":{"title":"Westmorland Barony","ccodes":["GB"],"fclasses":["A"]},"names":[{"toponym":"Westmorland Barony","lang":"en","citations":[{"label":"English Place-Name Society survey, volume 43: Westmorland"}]},{"toponym":"Westmeringland","citations":[{"label":"1175-84 Kend","year":1175}],"when":{"timespans":[{"start":{"earliest":"1175","latest":"1184"},"end":{"earliest":"1175","latest":"1184"}}]}},{"toponym":"Westmeri(e)land(a)","citations":[{"label":"1190 CartAnt","year":1190},{"label":"1198 Kend","year":1198},{"label":"1224 Cur","year":1224},{"label":"1283 NthCh","year":1283}],"when":{"timespans":[{"start":{"in":"1190"},"end":{"in":"1190"}},{"start":{"in":"1198"},"end":{"in":"1198"}},{"start":{"in":"1224"},"end":{"in":"1224"}},{"start":{"in":"1283"},"end":{"in":"1283"}}]}},{"toponym":"baronia de-","citations":[{"label":"1236 Fees","year":1236}],"when":{"timespans":[{"start":{"in":"1236"},"end":{"in":"1236"}}]}},{"toponym":"Westmerland","citations":[{"label":"1310 Ipm","year":1310}],"when":{"timespans":[{"start":{"in":"1310"},"end":{"in":"1310"}}]}},{"toponym":"wardam de Westmorland","citations":[{"label":"1380 TestKarl","year":1380}],"when":{"timespans":[{"start":{"in":"1380"},"end":{"in":"1380"}}]}},{"toponym":"baronia Westmerlondie","citations":[{"label":"1402 FA","year":1402}],"when":{"timespans":[{"start":{"in":"1402"},"end":{"in":"1402"}}]}},{"toponym":"the Bottom(e) of Westmorland","citations":[{"label":"1602 NWm","year":1602},{"label":"1663–1761, recurring Dep","year":1663},{"label":"1663–1761, recurring CW"},{"label":"1663 Dep","year":1663},{"label":"1761 CW","year":1761}],"when":{"timespans":[{"start":{"in":"1602"},"end":{"in":"1602"}},{"start":{"in":"1663"},"end":{"in":"1761"}},{"start":{"in":"1663"},"end":{"in":"1663"}},{"start":{"in":"1761"},"end":{"in":"1761"}}]}},{"toponym":"the Bottom","citations":[{"label":"1776 Kend","year":1776}],"when":{"timespans":[{"start":{"in":"1776"},"end":{"in":"1776"}}]}},{"toponym":"divisas de Westmeringland","citations":[{"label":"1175-84 Kend","year":1175}],"when":{"timespans":[{"start":{"earliest":"1175","latest":"1184"},"end":{"earliest":"1175","latest":"1184"}}]}},{"toponym":"comitatus de Appelby","citations":[{"label":"1219 Fees","year":1219}],"when":{"timespans":[{"start":{"in":"1219"},"end":{"in":"1219"}}]}},{"toponym":"Middle Ward","citations":[{"label":"1602 Kend","year":1602}],"when":{"timespans":[{"start":{"in":"1602"},"end":{"in":"1602"}}]}},{"toponym":"decano de Westmorlande","citations":[{"label":"13 Whitby","year":1200}],"when":{"timespans":[{"start":{"earliest":"1200","latest":"1300"},"end":{"earliest":"1200","latest":"1300"}}]}},{"toponym":"-Westmer(i)land(a)","citations":[{"label":"c. 1233 MdMb","year":1223},{"label":"1240-87 CW","year":1240}],"when":{"timespans":[{"start":{"earliest":"1223","latest":"1243"},"end":{"earliest":"1223","latest":"1243"}},{"start":{"earliest":"1240","latest":"1287"},"end":{"earliest":"1240","latest":"1287"}}]}},{"toponym":"decanatu(m) Westmerie","citations":[{"label":"1295 Carliol","year":1295}],"when":{"timespans":[{"start":{"in":"1295"},"end":{"in":"1295"}}]}},{"toponym":"-Westmorlandie","citations":[{"label":"1362 TestKarl","year":1362}],"when":{"timespans":[{"start":{"in":"1362"},"end":{"in":"1362"}}]}}],"types":[{"identifier":"http://vocab.getty.edu/aat/300232418","label":"administrative division","sourceLabels":[{"label":"division","lang":"en"}]}],"geometry":null,"when":{"timespans":[{"start":{"in":"1175"},"end":{"in":"1776"}}]},"relations":[{"relationType":"gvp:broaderPartitive","relationTo":"http://placenames.org.uk/id/placename/43/000001","label":"within Westmorland"}]}]}