{"@context":"https://raw.githubusercontent.com/LinkedPasts/linked-places-format/main/linkedplaces-context-v1.1.jsonld","type":"FeatureCollection","license":"Digitisation of English Placenames MADS data is licensed to Jisc by the English Place Names Society and released under a Creative Commons Attribution-NonCommercial 4.0 International License.","note":"LPF v1.3, lossy; derived from the PLATO record; plato_commit=ca0afadabec1e23a145c0b03df77e8f151f79832","features":[{"@id":"https://w3id.org/whg-epns/43/002487","type":"Feature","properties":{"title":"Great & Little Asby","ccodes":["GB"],"fclasses":["A","P"]},"names":[{"toponym":"Great & Little Asby","lang":"en","citations":[{"label":"English Place-Name Society survey, volume 43: Westmorland"}]},{"toponym":"Ascabio","citations":[{"label":"12 CW","year":1100}],"when":{"timespans":[{"start":{"earliest":"1100","latest":"1200"},"end":{"earliest":"1100","latest":"1200"}}]}},{"toponym":"Ascaby","citations":[{"label":"1292 QW","year":1292}],"when":{"timespans":[{"start":{"in":"1292"},"end":{"in":"1292"}}]}},{"toponym":"Aschaby","citations":[{"label":"1158-66 YCh","year":1158}],"when":{"timespans":[{"start":{"earliest":"1158","latest":"1166"},"end":{"earliest":"1158","latest":"1166"}}]}},{"toponym":"Ascheby","citations":[{"label":"1190 Lowth","year":1190}],"when":{"timespans":[{"start":{"in":"1190"},"end":{"in":"1190"}}]}},{"toponym":"Askebi, Askeby","citations":[{"label":"12 Musg","year":1100},{"label":"c. 1150 Lowth","year":1140},{"label":"1199 P","year":1199},{"label":"1202 FF","year":1202},{"label":"1202 P","year":1202},{"label":"1212 HMC","year":1212},{"label":"1232-5 Weth","year":1232},{"label":"1242 P","year":1242},{"label":"1246 Knipe","year":1246},{"label":"1247 Ch","year":1247},{"label":"1247 P","year":1247},{"label":"1256–1471, recurring Ass","year":1256},{"label":"1256–1471, recurring Rent"},{"label":"1256 Ass","year":1256},{"label":"Hy 6 Rent","year":1422}],"when":{"timespans":[{"start":{"earliest":"1100","latest":"1200"},"end":{"earliest":"1100","latest":"1200"}},{"start":{"earliest":"1140","latest":"1160"},"end":{"earliest":"1140","latest":"1160"}},{"start":{"earliest":"1150","latest":"1170"},"end":{"earliest":"1150","latest":"1170"}},{"start":{"in":"1199"},"end":{"in":"1199"}},{"start":{"in":"1202"},"end":{"in":"1202"}},{"start":{"in":"1202"},"end":{"in":"1202"}},{"start":{"in":"1212"},"end":{"in":"1212"}},{"start":{"earliest":"1232","latest":"1235"},"end":{"earliest":"1232","latest":"1235"}},{"start":{"in":"1242"},"end":{"in":"1242"}},{"start":{"in":"1246"},"end":{"in":"1246"}},{"start":{"in":"1247"},"end":{"in":"1247"}},{"start":{"in":"1247"},"end":{"in":"1247"}},{"start":{"in":"1256"},"end":{"in":"1471"}},{"start":{"in":"1256"},"end":{"in":"1256"}},{"start":{"earliest":"1422","latest":"1471"},"end":{"earliest":"1422","latest":"1471"}}]}},{"toponym":"magna-","citations":[{"label":"a. 1216 Lowth","year":1166},{"label":"1279 Ass","year":1279},{"label":"1292–1415, recurring QW","year":1292},{"label":"1292–1415, recurring NWm"},{"label":"1292 QW","year":1292},{"label":"1415 NWm","year":1415}],"when":{"timespans":[{"start":{"earliest":"1166","latest":"1216"},"end":{"earliest":"1166","latest":"1216"}},{"start":{"in":"1279"},"end":{"in":"1279"}},{"start":{"in":"1292"},"end":{"in":"1415"}},{"start":{"in":"1292"},"end":{"in":"1292"}},{"start":{"in":"1415"},"end":{"in":"1415"}}]}},{"toponym":"parvo-, parva-","citations":[{"label":"1185 Lowth","year":1185},{"label":"1278 Ass","year":1278},{"label":"1292–1415, recurring QW","year":1292},{"label":"1292–1415, recurring NWm"},{"label":"1292 QW","year":1292},{"label":"1415 NWm","year":1415}],"when":{"timespans":[{"start":{"in":"1185"},"end":{"in":"1185"}},{"start":{"in":"1278"},"end":{"in":"1278"}},{"start":{"in":"1292"},"end":{"in":"1415"}},{"start":{"in":"1292"},"end":{"in":"1292"}},{"start":{"in":"1415"},"end":{"in":"1415"}}]}},{"toponym":"-Cot(t)esford(e), -forth","citations":[{"label":"1286 NB","year":1286},{"label":"1345 Cl","year":1345},{"label":"1363 Ipm","year":1363},{"label":"1392 Cl","year":1392}],"when":{"timespans":[{"start":{"in":"1286"},"end":{"in":"1286"}},{"start":{"in":"1345"},"end":{"in":"1345"}},{"start":{"in":"1363"},"end":{"in":"1363"}},{"start":{"in":"1392"},"end":{"in":"1392"}}]}},{"toponym":"Eskebi","citations":[{"label":"c. 1216 Lowth","year":1206}],"when":{"timespans":[{"start":{"earliest":"1206","latest":"1226"},"end":{"earliest":"1206","latest":"1226"}}]}},{"toponym":"Haskeby","citations":[{"label":"1252 Lowth","year":1252}],"when":{"timespans":[{"start":{"in":"1252"},"end":{"in":"1252"}}]}},{"toponym":"Aishoby","citations":[{"label":"1317 Pap","year":1317}],"when":{"timespans":[{"start":{"in":"1317"},"end":{"in":"1317"}}]}},{"toponym":"Askby","citations":[{"label":"1362 Leng","year":1362},{"label":"1370 Hom","year":1370}],"when":{"timespans":[{"start":{"in":"1362"},"end":{"in":"1362"}},{"start":{"in":"1370"},"end":{"in":"1370"}}]}},{"toponym":"Asseby(e)","citations":[{"label":"1407 Brm","year":1407}],"when":{"timespans":[{"start":{"in":"1407"},"end":{"in":"1407"}}]}},{"toponym":"Asseby(e) Cottesford","citations":[{"label":"1504-15 ECP","year":1504}],"when":{"timespans":[{"start":{"earliest":"1504","latest":"1515"},"end":{"earliest":"1504","latest":"1515"}}]}},{"toponym":"Myckell Asseby(e), Mikill Asseby(e)","citations":[{"label":"1547 Rent","year":1547},{"label":"1564 CW","year":1564}],"when":{"timespans":[{"start":{"in":"1547"},"end":{"in":"1547"}},{"start":{"in":"1564"},"end":{"in":"1564"}}]}},{"toponym":"Little Asseby(e)","citations":[{"label":"1564 CW","year":1564}],"when":{"timespans":[{"start":{"in":"1564"},"end":{"in":"1564"}}]}},{"toponym":"Greate Asseby(e)","citations":[{"label":"1589 Hothf","year":1589}],"when":{"timespans":[{"start":{"in":"1589"},"end":{"in":"1589"}}]}},{"toponym":"Asby","citations":[{"label":"1630 Dep","year":1630},{"label":"1703 NicVisit","year":1703}],"when":{"timespans":[{"start":{"in":"1630"},"end":{"in":"1630"}},{"start":{"in":"1703"},"end":{"in":"1703"}}]}},{"toponym":"Magna Asby","citations":[{"label":"1540 DRH","year":1540}],"when":{"timespans":[{"start":{"in":"1540"},"end":{"in":"1540"}}]}},{"toponym":"Lit(t)le Asby","citations":[{"label":"1428 Fine","year":1428},{"label":"1567 Hothf","year":1567}],"when":{"timespans":[{"start":{"in":"1428"},"end":{"in":"1428"}},{"start":{"in":"1567"},"end":{"in":"1567"}}]}},{"toponym":"Asby Cotesfurthe","citations":[{"label":"1561 Hothf","year":1561}],"when":{"timespans":[{"start":{"in":"1561"},"end":{"in":"1561"}}]}},{"toponym":"Asby Cotsforth","citations":[{"label":"1776 PR","year":1776}],"when":{"timespans":[{"start":{"in":"1776"},"end":{"in":"1776"}},{"start":{"in":"1792"},"end":{"in":"1792"}}]}},{"toponym":"Great Assby(e)","citations":[{"label":"1696 PR(Blt)","year":1696}],"when":{"timespans":[{"start":{"in":"1696"},"end":{"in":"1696"}}]}},{"toponym":"Little Assby(e)","citations":[{"label":"1711 PR","year":1711}],"when":{"timespans":[{"start":{"in":"1711"},"end":{"in":"1711"}}]}},{"toponym":"Assby(e) Cotsforth","citations":[{"label":"1724 PR","year":1724}],"when":{"timespans":[{"start":{"in":"1724"},"end":{"in":"1724"}}]}}],"types":[{"identifier":"http://vocab.getty.edu/aat/300232418","label":"administrative division","sourceLabels":[{"label":"township","lang":"en"}]}],"geometry":{"type":"GeometryCollection","geometries":[{"type":"Point","coordinates":[-2.48775,54.4889],"citations":[{"label":"English Place-Name Society survey (DEEP coordinates)"}]},{"type":"Point","coordinates":[-2.48775,54.4889],"citations":[{"label":"Key to English Place-Names (KEPN), gazetteer record 5138"}]}]},"when":{"timespans":[{"start":{"in":"1100"},"end":{"in":"1792"}}]},"relations":[{"relationType":"gvp:broaderPartitive","relationTo":"https://w3id.org/whg-epns/43/002486","label":"within Asby"}]}]}