{"@context":"https://raw.githubusercontent.com/LinkedPasts/linked-places-format/main/linkedplaces-context-v1.1.jsonld","type":"FeatureCollection","license":"Digitisation of English Placenames MADS data is licensed to Jisc by the English Place Names Society and released under a Creative Commons Attribution-NonCommercial 4.0 International License.","note":"LPF v1.3, lossy; derived from the PLATO record; plato_commit=ca0afadabec1e23a145c0b03df77e8f151f79832","features":[{"@id":"https://w3id.org/whg-epns/43/006920","type":"Feature","properties":{"title":"Great Strickland","ccodes":["GB"],"fclasses":["A","P"]},"names":[{"toponym":"Great Strickland","lang":"en","citations":[{"label":"English Place-Name Society survey, volume 43: Westmorland"}]},{"toponym":"Stircland(a), Stirk(e)land(a), Styrkeland(a), -lond","citations":[{"label":"1193 P","year":1193},{"label":"e. 13 CW","year":1200},{"label":"1208 FF","year":1208},{"label":"1234-6 Weth","year":1234},{"label":"1246 Abbr","year":1246},{"label":"1247–1401, recurring P","year":1247},{"label":"1247–1401, recurring Cl"},{"label":"1247 P","year":1247},{"label":"1401 Cl","year":1401}],"when":{"timespans":[{"start":{"in":"1193"},"end":{"in":"1193"}},{"start":{"in":"1197"},"end":{"in":"1197"}},{"start":{"earliest":"1200","latest":"1225"},"end":{"earliest":"1200","latest":"1225"}},{"start":{"in":"1208"},"end":{"in":"1208"}},{"start":{"earliest":"1234","latest":"1236"},"end":{"earliest":"1234","latest":"1236"}},{"start":{"in":"1246"},"end":{"in":"1246"}},{"start":{"in":"1247"},"end":{"in":"1401"}},{"start":{"in":"1247"},"end":{"in":"1247"}},{"start":{"in":"1401"},"end":{"in":"1401"}}]}},{"toponym":"Magna-","citations":[{"label":"1292 Weth","year":1292},{"label":"1366 Pat","year":1366},{"label":"1383 Pedw","year":1383}],"when":{"timespans":[{"start":{"in":"1292"},"end":{"in":"1292"}},{"start":{"in":"1366"},"end":{"in":"1366"}},{"start":{"in":"1383"},"end":{"in":"1383"}}]}},{"toponym":"-laund(e)","citations":[{"label":"1256 Ass","year":1256}],"when":{"timespans":[{"start":{"in":"1256"},"end":{"in":"1256"}}]}},{"toponym":"Magna","citations":[{"label":"1279 Ass","year":1279},{"label":"1292 QW","year":1292}],"when":{"timespans":[{"start":{"in":"1279"},"end":{"in":"1279"}},{"start":{"in":"1292"},"end":{"in":"1292"}}]}},{"toponym":"magna Sterkelangd","citations":[{"label":"1278 Ass","year":1278}],"when":{"timespans":[{"start":{"in":"1278"},"end":{"in":"1278"}}]}},{"toponym":"Magna Stri(c)kland","citations":[{"label":"1540 DRH","year":1540}],"when":{"timespans":[{"start":{"in":"1540"},"end":{"in":"1540"}}]}},{"toponym":"Mikell Striklond","citations":[{"label":"1546 Rent","year":1546}],"when":{"timespans":[{"start":{"in":"1546"},"end":{"in":"1546"}}]}},{"toponym":"Gret Strickland(e), Greate Strickland(e)","citations":[{"label":"1580 PR","year":1580}],"when":{"timespans":[{"start":{"in":"1580"},"end":{"in":"1580"}},{"start":{"in":"1643"},"end":{"in":"1643"}}]}}],"types":[{"identifier":"http://vocab.getty.edu/aat/300232418","label":"administrative division","sourceLabels":[{"label":"township","lang":"en"}]}],"geometry":{"type":"GeometryCollection","geometries":[{"type":"Point","coordinates":[-2.67431,54.5688],"citations":[{"label":"English Place-Name Society survey (DEEP coordinates)"}]},{"type":"Point","coordinates":[-2.67431,54.5688],"citations":[{"label":"Key to English Place-Names (KEPN), gazetteer record 0038"}]}]},"when":{"timespans":[{"start":{"in":"1193"},"end":{"in":"1643"}}]},"relations":[{"relationType":"gvp:broaderPartitive","relationTo":"https://w3id.org/whg-epns/43/006402","label":"within Morland"}]}]}