{"@context":"https://raw.githubusercontent.com/LinkedPasts/linked-places-format/main/linkedplaces-context-v1.1.jsonld","type":"FeatureCollection","license":"Digitisation of English Placenames MADS data is licensed to Jisc by the English Place Names Society and released under a Creative Commons Attribution-NonCommercial 4.0 International License.","note":"LPF v1.3, lossy; derived from the PLATO record; plato_commit=ca0afadabec1e23a145c0b03df77e8f151f79832","features":[{"@id":"https://w3id.org/whg-epns/43/007035","type":"Feature","properties":{"title":"Little Strickland","ccodes":["GB"],"fclasses":["A","P"]},"names":[{"toponym":"Little Strickland","lang":"en","citations":[{"label":"English Place-Name Society survey, volume 43: Westmorland"}]},{"toponym":"Stirk(e)land, Styrk(e)land","citations":[{"label":"1231 MdMb","year":1231},{"label":"1241 MdMb","year":1241},{"label":"1256–1401, recurring Ass","year":1256},{"label":"1256–1401, recurring Cl"},{"label":"1256 Ass","year":1256},{"label":"1401 Cl","year":1401}],"when":{"timespans":[{"start":{"in":"1231"},"end":{"in":"1231"}},{"start":{"in":"1241"},"end":{"in":"1241"}},{"start":{"in":"1256"},"end":{"in":"1401"}},{"start":{"in":"1256"},"end":{"in":"1256"}},{"start":{"in":"1401"},"end":{"in":"1401"}}]}},{"toponym":"parva-","citations":[{"label":"c. 1233 MdMb","year":1223},{"label":"1279–1415, recurring Ass","year":1279},{"label":"1279–1415, recurring NWm"},{"label":"1279 Ass","year":1279},{"label":"1415 NWm","year":1415}],"when":{"timespans":[{"start":{"earliest":"1223","latest":"1243"},"end":{"earliest":"1223","latest":"1243"}},{"start":{"in":"1279"},"end":{"in":"1415"}},{"start":{"in":"1279"},"end":{"in":"1279"}},{"start":{"in":"1415"},"end":{"in":"1415"}}]}},{"toponym":"Stri(c)kland, Strykland","citations":[{"label":"1370 Ipm","year":1370},{"label":"1395 Pat","year":1395}],"when":{"timespans":[{"start":{"in":"1370"},"end":{"in":"1370"}},{"start":{"in":"1395"},"end":{"in":"1395"}}]}},{"toponym":"Li-, Lyt(y)le-","citations":[{"label":"1527 Wyb","year":1527},{"label":"1589 Dep","year":1589},{"label":"1600 PR(Mrl)","year":1600}],"when":{"timespans":[{"start":{"in":"1527"},"end":{"in":"1527"}},{"start":{"in":"1589"},"end":{"in":"1589"}},{"start":{"in":"1600"},"end":{"in":"1600"}}]}},{"toponym":"Lit(t)el-","citations":[{"label":"1632 PR(Mrl)","year":1632}],"when":{"timespans":[{"start":{"in":"1632"},"end":{"in":"1632"}}]}}],"types":[{"identifier":"http://vocab.getty.edu/aat/300232418","label":"administrative division","sourceLabels":[{"label":"township","lang":"en"}]}],"geometry":{"type":"GeometryCollection","geometries":[{"type":"Point","coordinates":[-2.67414,54.56738],"citations":[{"label":"GeoNames, gazetteer record geonames:2644240"}]},{"type":"Point","coordinates":[-2.67431,54.5688],"citations":[{"label":"English Place-Name Society survey (DEEP coordinates)"}]},{"type":"Point","coordinates":[-2.672894698481911,54.56872769173955],"citations":[{"label":"Unlock (EDINA) gazetteer, gazetteer record unlock:11197030"}]},{"type":"Point","coordinates":[-2.67431,54.5688],"citations":[{"label":"Key to English Place-Names (KEPN), gazetteer record 5164"}]}]},"when":{"timespans":[{"start":{"in":"1223"},"end":{"in":"1632"}}]},"links":[{"type":"closeMatch","identifier":"https://sws.geonames.org/2644240/"}],"relations":[{"relationType":"gvp:broaderPartitive","relationTo":"https://w3id.org/whg-epns/43/006402","label":"within Morland"}]}]}