{"@context":"https://raw.githubusercontent.com/LinkedPasts/linked-places-format/main/linkedplaces-context-v1.1.jsonld","type":"FeatureCollection","license":"Digitisation of English Placenames MADS data is licensed to Jisc by the English Place Names Society and released under a Creative Commons Attribution-NonCommercial 4.0 International License.","note":"LPF v1.3, lossy; derived from the PLATO record; plato_commit=ca0afadabec1e23a145c0b03df77e8f151f79832","features":[{"@id":"https://w3id.org/whg-epns/43/008734","type":"Feature","properties":{"title":"Bampton","ccodes":["GB"],"fclasses":["A","P"]},"names":[{"toponym":"Bampton","lang":"en","citations":[{"label":"English Place-Name Society survey, volume 43: Westmorland"}]}],"types":[{"identifier":"http://vocab.getty.edu/aat/300232418","label":"administrative division","sourceLabels":[{"label":"parish","lang":"en"}]}],"geometry":{"type":"GeometryCollection","geometries":[{"type":"Point","coordinates":[-2.75963,54.55753],"citations":[{"label":"GeoNames, gazetteer record geonames:2656420"}]},{"type":"Point","coordinates":[-2.75147,54.5594],"citations":[{"label":"English Place-Name Society survey (DEEP coordinates)"}]},{"type":"Point","coordinates":[-2.75006695239094,54.55928585398094],"citations":[{"label":"Unlock (EDINA) gazetteer, gazetteer record unlock:11068932"}]},{"type":"Point","coordinates":[-2.75147,54.5594],"citations":[{"label":"Key to English Place-Names (KEPN), gazetteer record 5170"}]}]},"links":[{"type":"closeMatch","identifier":"https://sws.geonames.org/2656420/"}],"relations":[{"relationType":"gvp:broaderPartitive","relationTo":"https://w3id.org/whg-epns/43/005969","label":"within West Ward"}]}]}