{"@context":"https://raw.githubusercontent.com/LinkedPasts/linked-places-format/main/linkedplaces-context-v1.1.jsonld","type":"FeatureCollection","license":"Digitisation of English Placenames MADS data is licensed to Jisc by the English Place Names Society and released under a Creative Commons Attribution-NonCommercial 4.0 International License.","note":"LPF v1.3, lossy; derived from the PLATO record; plato_commit=fa0d247ccc0263f8f19c8d7cdcd163df96935d1e","features":[{"@id":"https://w3id.org/whg-epns/43/010009","type":"Feature","properties":{"title":"Martindale","ccodes":["GB"],"fclasses":["A","P"]},"names":[{"toponym":"Martindale","lang":"en","citations":[{"label":"English Place-Name Society survey, volume 43: Westmorland"}]},{"toponym":"Martindale, Martyndale","citations":[{"label":"1220-47 Lowth","year":1220},{"label":"1247 Ipm","year":1247},{"label":"1279 Ass","year":1279},{"label":"1291 Ipm","year":1291},{"label":"1292 Ass","year":1292},{"label":"Fine","year":1360},{"label":"M"},{"label":"1360 Fine","year":1360},{"label":"1823 M","year":1823}],"when":{"timespans":[{"start":{"earliest":"1220","latest":"1247"},"end":{"earliest":"1220","latest":"1247"}},{"start":{"in":"1247"},"end":{"in":"1247"}},{"start":{"in":"1279"},"end":{"in":"1279"}},{"start":{"in":"1291"},"end":{"in":"1291"}},{"start":{"in":"1292"},"end":{"in":"1292"}},{"start":{"in":"1360"},"end":{"in":"1823"}},{"start":{"in":"1360"},"end":{"in":"1360"}},{"start":{"in":"1823"},"end":{"in":"1823"}}]}},{"toponym":"-dall(e)","citations":[{"label":"1468 Hothf","year":1468},{"label":"1573 Comm","year":1573}],"when":{"timespans":[{"start":{"in":"1468"},"end":{"in":"1468"}},{"start":{"in":"1573"},"end":{"in":"1573"}}]}},{"toponym":"Martendale, Martendall","citations":[{"label":"1278 Lowth","year":1278},{"label":"1363 Ipm","year":1363},{"label":"1608 PR(K)","year":1608}],"when":{"timespans":[{"start":{"in":"1278"},"end":{"in":"1278"}},{"start":{"in":"1363"},"end":{"in":"1363"}},{"start":{"in":"1608"},"end":{"in":"1608"}}]}},{"toponym":"Martingdale","citations":[{"label":"1584 Lease","year":1584},{"label":"1609 Comm","year":1609}],"when":{"timespans":[{"start":{"in":"1584"},"end":{"in":"1584"}},{"start":{"in":"1609"},"end":{"in":"1609"}}]}}],"types":[{"identifier":"http://vocab.getty.edu/aat/300232418","label":"administrative division","sourceLabels":[{"label":"township","lang":"en"}]}],"geometry":{"type":"GeometryCollection","geometries":[{"type":"Point","coordinates":[-2.88593,54.54243],"citations":[{"label":"GeoNames, gazetteer record geonames:7300150"}]},{"type":"Point","coordinates":[-2.87536,54.5676],"citations":[{"label":"English Place-Name Society survey (DEEP coordinates)"}]},{"type":"Point","coordinates":[-2.87396668995169,54.56744258375056],"citations":[{"label":"Unlock (EDINA) gazetteer, gazetteer record unlock:11214349"}]},{"type":"Point","coordinates":[-2.87536,54.5676],"citations":[{"label":"Key to English Place-Names (KEPN), gazetteer record 5174"}]}]},"when":{"timespans":[{"start":{"in":"1220"},"end":{"in":"1823"}}]},"links":[{"type":"closeMatch","identifier":"https://sws.geonames.org/7300150/"}],"relations":[{"relationType":"gvp:broaderPartitive","relationTo":"https://w3id.org/whg-epns/43/009462","label":"within Barton"}]}]}