{"@context":"https://raw.githubusercontent.com/LinkedPasts/linked-places-format/main/linkedplaces-context-v1.1.jsonld","type":"FeatureCollection","license":"Digitisation of English Placenames MADS data is licensed to Jisc by the English Place Names Society and released under a Creative Commons Attribution-NonCommercial 4.0 International License.","note":"LPF v1.3, lossy; derived from the PLATO record; plato_commit=fa0d247ccc0263f8f19c8d7cdcd163df96935d1e","features":[{"@id":"https://w3id.org/whg-epns/55/000372","type":"Feature","properties":{"title":"Baswich or Berkswich","ccodes":["GB"],"fclasses":["A","P"]},"names":[{"toponym":"Baswich or Berkswich","lang":"en","citations":[{"label":"English Place-Name Society survey, volume 55: Staffordshire"}]},{"toponym":"Bercheswic, Berchesuuic","citations":[{"label":"1086 DB","year":1086}],"when":{"timespans":[{"start":{"in":"1086"},"end":{"in":"1086"}}]}},{"toponym":"Berchlewich","citations":[{"label":"1151 MRA","year":1151}],"when":{"timespans":[{"start":{"in":"1151"},"end":{"in":"1151"}}]}},{"toponym":"Bercleswich, Bercleswych","citations":[{"label":"1174 StThomas","year":1174},{"label":"1176 MRA","year":1176},{"label":"1196 P","year":1196}],"when":{"timespans":[{"start":{"in":"1174"},"end":{"in":"1174"}},{"start":{"in":"1176"},"end":{"in":"1176"}},{"start":{"in":"1196"},"end":{"in":"1196"}},{"start":{"in":"1196"},"end":{"in":"1196"}}]}},{"toponym":"Bercleswiz, Bercleswyz","citations":[{"label":"1241 MRA","year":1241}],"when":{"timespans":[{"start":{"in":"1241"},"end":{"in":"1241"}}]}},{"toponym":"Bercleswyk","citations":[{"label":"c. 1291 Tax","year":1281}],"when":{"timespans":[{"start":{"earliest":"1281","latest":"1301"},"end":{"earliest":"1281","latest":"1301"}}]}},{"toponym":"Berteleswych","citations":[{"label":"1293 QW","year":1293}],"when":{"timespans":[{"start":{"in":"1293"},"end":{"in":"1293"}}]}},{"toponym":"Bertelewyk","citations":[{"label":"1377 AngleseyCh","year":1377}],"when":{"timespans":[{"start":{"in":"1377"},"end":{"in":"1377"}}]}},{"toponym":"Bertelewyz","citations":[{"label":"1293 QW","year":1293}],"when":{"timespans":[{"start":{"in":"1293"},"end":{"in":"1293"}}]}},{"toponym":"Berkewic","citations":[{"label":"1259 MRA","year":1259},{"label":"1259 Ch","year":1259}],"when":{"timespans":[{"start":{"in":"1259"},"end":{"in":"1259"}},{"start":{"in":"1259"},"end":{"in":"1259"}}]}},{"toponym":"Berkewyz","citations":[{"label":"1293 Ass","year":1293}],"when":{"timespans":[{"start":{"in":"1293"},"end":{"in":"1293"}}]}},{"toponym":"Berkeswych(e), Berkeswich(e)","citations":[{"label":"1314 Banco","year":1314},{"label":"1259 MRA","year":1259},{"label":"Pat","year":1340},{"label":"Pat"},{"label":"1340 Pat","year":1340},{"label":"1503 Pat","year":1503},{"label":"Ipm","year":1363},{"label":"AngleseyCh"},{"label":"1363 Ipm","year":1363},{"label":"1539 AngleseyCh","year":1539},{"label":"1584 Comm","year":1584}],"when":{"timespans":[{"start":{"in":"1314"},"end":{"in":"1314"}},{"start":{"in":"1341"},"end":{"in":"1341"}},{"start":{"in":"1259"},"end":{"in":"1259"}},{"start":{"in":"1340"},"end":{"in":"1503"}},{"start":{"in":"1340"},"end":{"in":"1340"}},{"start":{"in":"1503"},"end":{"in":"1503"}},{"start":{"in":"1363"},"end":{"in":"1539"}},{"start":{"in":"1363"},"end":{"in":"1363"}},{"start":{"in":"1539"},"end":{"in":"1539"}},{"start":{"in":"1584"},"end":{"in":"1584"}}]}},{"toponym":"Berkyswych(e), Berkiswych(e), Berkiswich(e)","citations":[{"label":"Ct","year":1360},{"label":"VE"},{"label":"1360 Ct","year":1360},{"label":"1535 VE","year":1535},{"label":"16th Rental","year":1500}],"when":{"timespans":[{"start":{"in":"1360"},"end":{"in":"1535"}},{"start":{"in":"1360"},"end":{"in":"1360"}},{"start":{"in":"1535"},"end":{"in":"1535"}},{"start":{"earliest":"1500","latest":"1600"},"end":{"earliest":"1500","latest":"1600"}}]}},{"toponym":"Berkswich","citations":[{"label":"1259 AngleseyCh","year":1259},{"label":"1820 Greenwood","year":1820}],"when":{"timespans":[{"start":{"in":"1259"},"end":{"in":"1259"}},{"start":{"in":"1820"},"end":{"in":"1820"}}]}},{"toponym":"Barkeswich(e), Barkeswych(e)","citations":[{"label":"1547 Pat","year":1547},{"label":"FF","year":1554},{"label":"FF"},{"label":"1554 FF","year":1554},{"label":"1622 FF","year":1622},{"label":"1576 Wills","year":1576}],"when":{"timespans":[{"start":{"in":"1547"},"end":{"in":"1547"}},{"start":{"in":"1554"},"end":{"in":"1622"}},{"start":{"in":"1554"},"end":{"in":"1554"}},{"start":{"in":"1622"},"end":{"in":"1622"}},{"start":{"in":"1576"},"end":{"in":"1576"}}]}},{"toponym":"Barkysweche","citations":[{"label":"1552 InventChGds","year":1552}],"when":{"timespans":[{"start":{"in":"1552"},"end":{"in":"1552"}}]}},{"toponym":"Barkeswiche als Baswiche","citations":[{"label":"FF","year":1565},{"label":"FF"},{"label":"1565 FF","year":1565},{"label":"1567 FF","year":1567}],"when":{"timespans":[{"start":{"in":"1565"},"end":{"in":"1567"}},{"start":{"in":"1565"},"end":{"in":"1565"}},{"start":{"in":"1567"},"end":{"in":"1567"}}]}},{"toponym":"Barkeswick","citations":[{"label":"1569 Pat","year":1569}],"when":{"timespans":[{"start":{"in":"1569"},"end":{"in":"1569"}}]}},{"toponym":"Barkwich","citations":[{"label":"1547 AngleseyCh","year":1547}],"when":{"timespans":[{"start":{"in":"1547"},"end":{"in":"1547"}}]}},{"toponym":"Baswycke","citations":[{"label":"1559 Pat","year":1559}],"when":{"timespans":[{"start":{"in":"1559"},"end":{"in":"1559"}}]}},{"toponym":"Baswick or Berswick","citations":[{"label":"1604 PurSurv","year":1604}],"when":{"timespans":[{"start":{"in":"1604"},"end":{"in":"1604"}}]}},{"toponym":"Baswiche als Berkeswiche","citations":[{"label":"1617 FF","year":1617}],"when":{"timespans":[{"start":{"in":"1617"},"end":{"in":"1617"}}]}},{"toponym":"Beswiche","citations":[{"label":"1595 Comm","year":1595}],"when":{"timespans":[{"start":{"in":"1595"},"end":{"in":"1595"}}]}},{"toponym":"Bersewych","citations":[{"label":"1475 Banco","year":1475}],"when":{"timespans":[{"start":{"in":"1475"},"end":{"in":"1475"}}]}},{"toponym":"Baswich","citations":[{"label":"Speed","year":1610},{"label":"O"},{"label":"1610 Speed","year":1610},{"label":"1836 O","year":1836}],"when":{"timespans":[{"start":{"in":"1610"},"end":{"in":"1836"}},{"start":{"in":"1610"},"end":{"in":"1610"}},{"start":{"in":"1836"},"end":{"in":"1836"}}]}}],"types":[{"identifier":"http://vocab.getty.edu/aat/300232418","label":"administrative division","sourceLabels":[{"label":"township","lang":"en"}]}],"geometry":{"type":"GeometryCollection","geometries":[{"type":"Point","coordinates":[-2.074130318,52.77722797],"citations":[{"label":"English Place-Name Society survey (DEEP coordinates)"}]},{"type":"Point","coordinates":[-2.085833,52.796944],"citations":[{"label":"Key to English Place-Names (KEPN), gazetteer record 471"}]}]},"when":{"timespans":[{"start":{"in":"1086"},"end":{"in":"1836"}}]},"relations":[{"relationType":"gvp:broaderPartitive","relationTo":"https://w3id.org/whg-epns/55/000026","label":"within Baswich or Berkswich"}]}]}