{"@context":"https://raw.githubusercontent.com/LinkedPasts/linked-places-format/main/linkedplaces-context-v1.1.jsonld","type":"FeatureCollection","license":"Digitisation of English Placenames MADS data is licensed to Jisc by the English Place Names Society and released under a Creative Commons Attribution-NonCommercial 4.0 International License.","note":"LPF v1.3, lossy; derived from the PLATO record; plato_commit=fa0d247ccc0263f8f19c8d7cdcd163df96935d1e","features":[{"@id":"https://w3id.org/whg-epns/55/002255","type":"Feature","properties":{"title":"Cannock","ccodes":["GB"],"fclasses":["A","P"]},"names":[{"toponym":"Cannock","lang":"en","citations":[{"label":"English Place-Name Society survey, volume 55: Staffordshire"}]},{"toponym":"Chenet","citations":[{"label":"1086 DB","year":1086}],"when":{"timespans":[{"start":{"in":"1086"},"end":{"in":"1086"}}]}},{"toponym":"Chenot","citations":[{"label":"1162 P","year":1162}],"when":{"timespans":[{"start":{"in":"1162"},"end":{"in":"1162"}},{"start":{"in":"1173"},"end":{"in":"1173"}}]}},{"toponym":"Cancia","citations":[{"label":"1155 StCart","year":1155}],"when":{"timespans":[{"start":{"in":"1155"},"end":{"in":"1155"}}]}},{"toponym":"Canet","citations":[{"label":"1203 Ass","year":1203}],"when":{"timespans":[{"start":{"in":"1203"},"end":{"in":"1203"}}]}},{"toponym":"Can(n)oc, Can(n)ok(e), Kan(n)oc, Kan(n)ok(e)","citations":[{"label":"c. 1135-40 StCart","year":1135},{"label":"1153 to 1272 MRA","year":1153},{"label":"1198 Fees","year":1198},{"label":"1199 MemR","year":1199},{"label":"1195 P","year":1195},{"label":"1212-17 RBE","year":1212},{"label":"1222 to 1407 Pat","year":1222},{"label":"1234 to 1260 Cl","year":1234},{"label":"Ch","year":1230},{"label":"Ch"},{"label":"1230 Ch","year":1230},{"label":"1368 Ch","year":1368},{"label":"1256 Misc","year":1256},{"label":"1271 For","year":1271},{"label":"1317 CoramR","year":1317},{"label":"SR","year":1332},{"label":"FA"},{"label":"1332 SR","year":1332},{"label":"1428 FA","year":1428}],"when":{"timespans":[{"start":{"earliest":"1135","latest":"1140"},"end":{"earliest":"1135","latest":"1140"}},{"start":{"earliest":"1153","latest":"1272"},"end":{"earliest":"1153","latest":"1272"}},{"start":{"in":"1198"},"end":{"in":"1198"}},{"start":{"in":"1212"},"end":{"in":"1212"}},{"start":{"in":"1236"},"end":{"in":"1236"}},{"start":{"in":"1199"},"end":{"in":"1199"}},{"start":{"in":"1231"},"end":{"in":"1231"}},{"start":{"in":"1195"},"end":{"in":"1195"}},{"start":{"in":"1230"},"end":{"in":"1230"}},{"start":{"earliest":"1212","latest":"1217"},"end":{"earliest":"1212","latest":"1217"}},{"start":{"earliest":"1222","latest":"1407"},"end":{"earliest":"1222","latest":"1407"}},{"start":{"earliest":"1234","latest":"1260"},"end":{"earliest":"1234","latest":"1260"}},{"start":{"in":"1230"},"end":{"in":"1368"}},{"start":{"in":"1230"},"end":{"in":"1230"}},{"start":{"in":"1368"},"end":{"in":"1368"}},{"start":{"in":"1256"},"end":{"in":"1256"}},{"start":{"in":"1298"},"end":{"in":"1298"}},{"start":{"in":"1271"},"end":{"in":"1271"}},{"start":{"in":"1317"},"end":{"in":"1317"}},{"start":{"in":"1332"},"end":{"in":"1428"}},{"start":{"in":"1332"},"end":{"in":"1332"}},{"start":{"in":"1428"},"end":{"in":"1428"}}]}},{"toponym":"Can(n)ock(e), Kannock(e)","citations":[{"label":"1151 MRA","year":1151},{"label":"1228 Lib","year":1228},{"label":"1230 Ch","year":1230},{"label":"c. 1255 RH","year":1245},{"label":"Ipm","year":1293},{"label":"Ct"},{"label":"1293 Ipm","year":1293},{"label":"1610 Ct","year":1610}],"when":{"timespans":[{"start":{"in":"1151"},"end":{"in":"1151"}},{"start":{"in":"1285"},"end":{"in":"1285"}},{"start":{"in":"1292"},"end":{"in":"1292"}},{"start":{"in":"1228"},"end":{"in":"1228"}},{"start":{"in":"1237"},"end":{"in":"1237"}},{"start":{"in":"1230"},"end":{"in":"1230"}},{"start":{"earliest":"1245","latest":"1265"},"end":{"earliest":"1245","latest":"1265"}},{"start":{"in":"1293"},"end":{"in":"1610"}},{"start":{"in":"1293"},"end":{"in":"1293"}},{"start":{"in":"1610"},"end":{"in":"1610"}}]}},{"toponym":"Gan(n)ok, Gan(n)oc","citations":[{"label":"1245 BM","year":1245},{"label":"1262 Lib","year":1262}],"when":{"timespans":[{"start":{"in":"1245"},"end":{"in":"1245"}},{"start":{"in":"1262"},"end":{"in":"1262"}}]}},{"toponym":"Gannok vel Kannok","citations":[{"label":"1221 ClR","year":1221}],"when":{"timespans":[{"start":{"in":"1221"},"end":{"in":"1221"}}]}},{"toponym":"Chnoc","citations":[{"label":"1130 P","year":1130}],"when":{"timespans":[{"start":{"in":"1130"},"end":{"in":"1130"}}]}},{"toponym":"Chnot","citations":[{"label":"1170 P","year":1170}],"when":{"timespans":[{"start":{"in":"1170"},"end":{"in":"1170"}}]}},{"toponym":"Cnot","citations":[{"label":"P","year":1156},{"label":"P"},{"label":"1156 P","year":1156},{"label":"1196 P","year":1196}],"when":{"timespans":[{"start":{"in":"1156"},"end":{"in":"1196"}},{"start":{"in":"1156"},"end":{"in":"1156"}},{"start":{"in":"1196"},"end":{"in":"1196"}}]}},{"toponym":"Knot","citations":[{"label":"1166 P","year":1166}],"when":{"timespans":[{"start":{"in":"1166"},"end":{"in":"1166"}}]}},{"toponym":"Canot","citations":[{"label":"1157 to 1215 P","year":1157}],"when":{"timespans":[{"start":{"earliest":"1157","latest":"1215"},"end":{"earliest":"1157","latest":"1215"}}]}},{"toponym":"Kanot","citations":[{"label":"1187 P","year":1187}],"when":{"timespans":[{"start":{"in":"1187"},"end":{"in":"1187"}}]}},{"toponym":"le Cank(e)","citations":[{"label":"1403 Cl","year":1403},{"label":"1415 CoramR","year":1415},{"label":"1432 Banco","year":1432},{"label":"1518-29 ECP","year":1518},{"label":"1610 Speed","year":1610}],"when":{"timespans":[{"start":{"in":"1403"},"end":{"in":"1403"}},{"start":{"in":"1415"},"end":{"in":"1415"}},{"start":{"in":"1432"},"end":{"in":"1432"}},{"start":{"in":"1479"},"end":{"in":"1479"}},{"start":{"earliest":"1518","latest":"1529"},"end":{"earliest":"1518","latest":"1529"}},{"start":{"in":"1610"},"end":{"in":"1610"}}]}},{"toponym":"Cannock als Canck","citations":[{"label":"1493 Ipm","year":1493},{"label":"1584 Comm","year":1584}],"when":{"timespans":[{"start":{"in":"1493"},"end":{"in":"1493"}},{"start":{"in":"1584"},"end":{"in":"1584"}}]}},{"toponym":"Cannock vulg' Cank","citations":[{"label":"1686 Plot","year":1686}],"when":{"timespans":[{"start":{"in":"1686"},"end":{"in":"1686"}}]}},{"toponym":"Cannock","citations":[{"label":"Morden","year":1695},{"label":"O"},{"label":"1695 Morden","year":1695},{"label":"1834 O","year":1834}],"when":{"timespans":[{"start":{"in":"1695"},"end":{"in":"1834"}},{"start":{"in":"1695"},"end":{"in":"1695"}},{"start":{"in":"1834"},"end":{"in":"1834"}}]}},{"toponym":"the vill of Kannokebire","citations":[{"label":"Ed I AngleseyCh","year":1272}],"when":{"timespans":[{"start":{"earliest":"1272","latest":"1307"},"end":{"earliest":"1272","latest":"1307"}}]}},{"toponym":"Cankbur'","citations":[{"label":"1293 QW","year":1293}],"when":{"timespans":[{"start":{"in":"1293"},"end":{"in":"1293"}}]}},{"toponym":"Kankbury","citations":[{"label":"1352 Banco","year":1352}],"when":{"timespans":[{"start":{"in":"1352"},"end":{"in":"1352"}}]}},{"toponym":"Canocbir', Kanocbir', Kanocbur'","citations":[{"label":"1259 Ch","year":1259},{"label":"c. 1291 Tax","year":1281}],"when":{"timespans":[{"start":{"in":"1259"},"end":{"in":"1259"}},{"start":{"earliest":"1281","latest":"1301"},"end":{"earliest":"1281","latest":"1301"}}]}},{"toponym":"Kan(n)ocbury, Can(n)o(c)k(e)bury, Can(n)o(c)k(e)buri","citations":[{"label":"1259 MRA","year":1259},{"label":"1286 For","year":1286},{"label":"1290 Ch","year":1290},{"label":"1293 QW","year":1293},{"label":"1316 FA","year":1316},{"label":"Ass","year":1333},{"label":"Banco"},{"label":"1333 Ass","year":1333},{"label":"1360 Banco","year":1360}],"when":{"timespans":[{"start":{"in":"1259"},"end":{"in":"1259"}},{"start":{"in":"1286"},"end":{"in":"1286"}},{"start":{"in":"1290"},"end":{"in":"1290"}},{"start":{"in":"1293"},"end":{"in":"1293"}},{"start":{"in":"1316"},"end":{"in":"1316"}},{"start":{"in":"1333"},"end":{"in":"1360"}},{"start":{"in":"1333"},"end":{"in":"1333"}},{"start":{"in":"1360"},"end":{"in":"1360"}}]}}],"types":[{"identifier":"http://vocab.getty.edu/aat/300232418","label":"administrative division","sourceLabels":[{"label":"township","lang":"en"}]}],"geometry":{"type":"GeometryCollection","geometries":[{"type":"Point","coordinates":[-2.03085,52.69045],"citations":[{"label":"GeoNames, gazetteer record geonames:2653883"}]},{"type":"Point","coordinates":[-2.029592418,52.68913934],"citations":[{"label":"English Place-Name Society survey (DEEP coordinates)"}]},{"type":"Point","coordinates":[-2.02219568824815,52.69183916168822],"citations":[{"label":"Unlock (EDINA) gazetteer, gazetteer record unlock:11097662"}]},{"type":"Point","coordinates":[-2.02362,52.6922],"citations":[{"label":"Key to English Place-Names (KEPN), gazetteer record 9756"}]}]},"when":{"timespans":[{"start":{"in":"1086"},"end":{"in":"1834"}}]},"links":[{"type":"closeMatch","identifier":"https://sws.geonames.org/2653883/"}],"relations":[{"relationType":"gvp:broaderPartitive","relationTo":"https://w3id.org/whg-epns/55/002254","label":"within Cannock"}]}]}