{"@context":"https://raw.githubusercontent.com/LinkedPasts/linked-places-format/main/linkedplaces-context-v1.1.jsonld","type":"FeatureCollection","license":"Digitisation of English Placenames MADS data is licensed to Jisc by the English Place Names Society and released under a Creative Commons Attribution-NonCommercial 4.0 International License.","note":"LPF v1.3, lossy; derived from the PLATO record; plato_commit=ca0afadabec1e23a145c0b03df77e8f151f79832","features":[{"@id":"http://placenames.org.uk/id/placename/55/003061","type":"Feature","properties":{"title":"Huntington","ccodes":["GB"],"fclasses":["A","P"]},"names":[{"toponym":"Huntington","lang":"en","citations":[{"label":"English Place-Name Society survey, volume 55: Staffordshire"}]},{"toponym":"Estendone","citations":[{"label":"1086 DB","year":1086}],"when":{"timespans":[{"start":{"in":"1086"},"end":{"in":"1086"}}]}},{"toponym":"Huntendon'","citations":[{"label":"1167 P","year":1167},{"label":"1198 Fees","year":1198}],"when":{"timespans":[{"start":{"in":"1167"},"end":{"in":"1167"}},{"start":{"in":"1198"},"end":{"in":"1198"}},{"start":{"in":"1236"},"end":{"in":"1236"}}]}},{"toponym":"Huntendona","citations":[{"label":"1205 P","year":1205}],"when":{"timespans":[{"start":{"in":"1205"},"end":{"in":"1205"}}]}},{"toponym":"Huntenden'","citations":[{"label":"1250 Fees","year":1250}],"when":{"timespans":[{"start":{"in":"1250"},"end":{"in":"1250"}}]}},{"toponym":"Hontindon","citations":[{"label":"1271 For","year":1271}],"when":{"timespans":[{"start":{"in":"1271"},"end":{"in":"1271"}}]}},{"toponym":"Huntindun'","citations":[{"label":"1250 Fees","year":1250}],"when":{"timespans":[{"start":{"in":"1250"},"end":{"in":"1250"}}]}},{"toponym":"Huntindon', Huntyndon'","citations":[{"label":"c. 1255 RH","year":1245},{"label":"1271 For","year":1271},{"label":"1272 MRA","year":1272},{"label":"1290 Ch","year":1290},{"label":"1300 to 1378 Banco","year":1300},{"label":"1302 to 1382 Ipm","year":1302},{"label":"1304 Ass","year":1304},{"label":"1319 Ct","year":1319},{"label":"1327 SR","year":1327},{"label":"1322–1354, recurring Pat","year":1322},{"label":"1322–1354, recurring Rental"},{"label":"1354 Pat","year":1354},{"label":"1322 Rental","year":1322},{"label":"1441 Hatherton","year":1441}],"when":{"timespans":[{"start":{"earliest":"1245","latest":"1265"},"end":{"earliest":"1245","latest":"1265"}},{"start":{"in":"1271"},"end":{"in":"1271"}},{"start":{"in":"1272"},"end":{"in":"1272"}},{"start":{"in":"1290"},"end":{"in":"1290"}},{"start":{"earliest":"1300","latest":"1378"},"end":{"earliest":"1300","latest":"1378"}},{"start":{"earliest":"1302","latest":"1382"},"end":{"earliest":"1302","latest":"1382"}},{"start":{"in":"1304"},"end":{"in":"1304"}},{"start":{"in":"1333"},"end":{"in":"1333"}},{"start":{"in":"1360"},"end":{"in":"1360"}},{"start":{"in":"1319"},"end":{"in":"1319"}},{"start":{"in":"1327"},"end":{"in":"1327"}},{"start":{"in":"1332"},"end":{"in":"1332"}},{"start":{"in":"1322"},"end":{"in":"1354"}},{"start":{"in":"1354"},"end":{"in":"1354"}},{"start":{"in":"1322"},"end":{"in":"1322"}},{"start":{"in":"1441"},"end":{"in":"1441"}}]}},{"toponym":"the hay of Huntindon","citations":[{"label":"1290 Ch","year":1290}],"when":{"timespans":[{"start":{"in":"1290"},"end":{"in":"1290"}}]}},{"toponym":"Huntedon","citations":[{"label":"1203 Ass","year":1203},{"label":"1264 IpmR","year":1264},{"label":"1294 Banco","year":1294}],"when":{"timespans":[{"start":{"in":"1203"},"end":{"in":"1203"}},{"start":{"in":"1247"},"end":{"in":"1247"}},{"start":{"in":"1264"},"end":{"in":"1264"}},{"start":{"in":"1294"},"end":{"in":"1294"}}]}},{"toponym":"Huntydon","citations":[{"label":"1395 FF","year":1395}],"when":{"timespans":[{"start":{"in":"1395"},"end":{"in":"1395"}}]}},{"toponym":"Huntigeton","citations":[{"label":"1623 Ct","year":1623}],"when":{"timespans":[{"start":{"in":"1623"},"end":{"in":"1623"}}]}},{"toponym":"Huntyngdon, Huntingdon","citations":[{"label":"1262 For","year":1262},{"label":"1272 MRA","year":1272},{"label":"1307 to 1366 Banco","year":1307},{"label":"1333 FF","year":1333},{"label":"1340 Ct","year":1340},{"label":"1363 Fine","year":1363},{"label":"1379 to 1456 Ipm","year":1379}],"when":{"timespans":[{"start":{"in":"1262"},"end":{"in":"1262"}},{"start":{"in":"1272"},"end":{"in":"1272"}},{"start":{"earliest":"1307","latest":"1366"},"end":{"earliest":"1307","latest":"1366"}},{"start":{"in":"1333"},"end":{"in":"1333"}},{"start":{"in":"1340"},"end":{"in":"1340"}},{"start":{"in":"1365"},"end":{"in":"1365"}},{"start":{"in":"1607"},"end":{"in":"1607"}},{"start":{"in":"1363"},"end":{"in":"1363"}},{"start":{"in":"1380"},"end":{"in":"1380"}},{"start":{"earliest":"1379","latest":"1456"},"end":{"earliest":"1379","latest":"1456"}}]}},{"toponym":"Hontyngdon","citations":[{"label":"1379 Hatherton","year":1379}],"when":{"timespans":[{"start":{"in":"1379"},"end":{"in":"1379"}}]}},{"toponym":"Huntyngdoun","citations":[{"label":"1403 Cl","year":1403}],"when":{"timespans":[{"start":{"in":"1403"},"end":{"in":"1403"}}]}},{"toponym":"Huntyngton","citations":[{"label":"1444–1578, recurring FF","year":1444},{"label":"1444–1578, recurring FF"},{"label":"1444 FF","year":1444},{"label":"1578 FF","year":1578},{"label":"1481 CoramR","year":1481},{"label":"1502 Ipm","year":1502},{"label":"1523 Ct","year":1523},{"label":"1571 Pat","year":1571}],"when":{"timespans":[{"start":{"in":"1444"},"end":{"in":"1578"}},{"start":{"in":"1444"},"end":{"in":"1444"}},{"start":{"in":"1578"},"end":{"in":"1578"}},{"start":{"in":"1481"},"end":{"in":"1481"}},{"start":{"in":"1502"},"end":{"in":"1502"}},{"start":{"in":"1523"},"end":{"in":"1523"}},{"start":{"in":"1568"},"end":{"in":"1568"}},{"start":{"in":"1610"},"end":{"in":"1610"}},{"start":{"in":"1571"},"end":{"in":"1571"}}]}},{"toponym":"Hontingeton","citations":[{"label":"1578 Survey","year":1578}],"when":{"timespans":[{"start":{"in":"1578"},"end":{"in":"1578"}}]}},{"toponym":"Huntington","citations":[{"label":"1548–1583, recurring Survey","year":1548},{"label":"1548–1583, recurring Ct"},{"label":"1548 Survey","year":1548},{"label":"1583 Ct","year":1583},{"label":"1695–1834, recurring Morden","year":1695},{"label":"1695–1834, recurring O"},{"label":"1695 Morden","year":1695},{"label":"1834 O","year":1834}],"when":{"timespans":[{"start":{"in":"1548"},"end":{"in":"1583"}},{"start":{"in":"1548"},"end":{"in":"1548"}},{"start":{"in":"1583"},"end":{"in":"1583"}},{"start":{"in":"1695"},"end":{"in":"1834"}},{"start":{"in":"1695"},"end":{"in":"1695"}},{"start":{"in":"1834"},"end":{"in":"1834"}}]}},{"toponym":"Huntington als Ramshorne","citations":[{"label":"1616 Hatherton","year":1616}],"when":{"timespans":[{"start":{"in":"1616"},"end":{"in":"1616"}}]}}],"types":[{"identifier":"http://vocab.getty.edu/aat/300232418","label":"administrative division","sourceLabels":[{"label":"township","lang":"en"}]}],"geometry":{"type":"GeometryCollection","geometries":[{"type":"Point","coordinates":[-2.04459,52.71838],"citations":[{"label":"GeoNames, gazetteer record geonames:7297251"}]},{"type":"Point","coordinates":[-2.04441417,52.71430859],"citations":[{"label":"English Place-Name Society survey (DEEP coordinates)"}]},{"type":"Point","coordinates":[-2.037008016918225,52.70981681238714],"citations":[{"label":"Unlock (EDINA) gazetteer, gazetteer record unlock:11181382"}]},{"type":"Point","coordinates":[-2.03843,52.7192],"citations":[{"label":"Key to English Place-Names (KEPN), gazetteer record 10013"}]}]},"when":{"timespans":[{"start":{"in":"1086"},"end":{"in":"1834"}}]},"links":[{"type":"closeMatch","identifier":"https://sws.geonames.org/7297251/"}],"relations":[{"relationType":"gvp:broaderPartitive","relationTo":"http://placenames.org.uk/id/placename/55/002254","label":"within Cannock"}]}]}