{"@context":"https://raw.githubusercontent.com/LinkedPasts/linked-places-format/main/linkedplaces-context-v1.1.jsonld","type":"FeatureCollection","license":"Digitisation of English Placenames MADS data is licensed to Jisc by the English Place Names Society and released under a Creative Commons Attribution-NonCommercial 4.0 International License.","note":"LPF v1.3, lossy; derived from the PLATO record; plato_commit=ca0afadabec1e23a145c0b03df77e8f151f79832","features":[{"@id":"https://w3id.org/whg-epns/55/005526","type":"Feature","properties":{"title":"Rugeley","ccodes":["GB"],"fclasses":["A","P"]},"names":[{"toponym":"Rugeley","lang":"en","citations":[{"label":"English Place-Name Society survey, volume 55: Staffordshire"}]},{"toponym":"Rugelie","citations":[{"label":"1086 DB","year":1086}],"when":{"timespans":[{"start":{"in":"1086"},"end":{"in":"1086"}}]}},{"toponym":"Rug(g)elega","citations":[{"label":"1155 RBE","year":1155},{"label":"1156 to 1196 P","year":1156},{"label":"1244–1291, recurring Cl","year":1244},{"label":"1244–1291, recurring MRA"},{"label":"1244 Cl","year":1244},{"label":"1291 MRA","year":1291}],"when":{"timespans":[{"start":{"in":"1155"},"end":{"in":"1155"}},{"start":{"earliest":"1156","latest":"1196"},"end":{"earliest":"1156","latest":"1196"}},{"start":{"in":"1244"},"end":{"in":"1291"}},{"start":{"in":"1244"},"end":{"in":"1244"}},{"start":{"in":"1291"},"end":{"in":"1291"}}]}},{"toponym":"Ruggeleia","citations":[{"label":"1197–1215, recurring P","year":1197},{"label":"1197–1215, recurring P"},{"label":"1197 P","year":1197},{"label":"1215 P","year":1215}],"when":{"timespans":[{"start":{"in":"1197"},"end":{"in":"1215"}},{"start":{"in":"1197"},"end":{"in":"1197"}},{"start":{"in":"1215"},"end":{"in":"1215"}}]}},{"toponym":"Rug(g)elea","citations":[{"label":"1192 MRA","year":1192},{"label":"1196–1345, recurring P","year":1196},{"label":"1196–1345, recurring Ch"},{"label":"1196 P","year":1196},{"label":"1345 Ch","year":1345}],"when":{"timespans":[{"start":{"in":"1192"},"end":{"in":"1192"}},{"start":{"in":"1196"},"end":{"in":"1345"}},{"start":{"in":"1196"},"end":{"in":"1196"}},{"start":{"in":"1345"},"end":{"in":"1345"}}]}},{"toponym":"Rugelege","citations":[{"label":"1216 MRA","year":1216}],"when":{"timespans":[{"start":{"in":"1216"},"end":{"in":"1216"}}]}},{"toponym":"Rogelea","citations":[{"label":"1195-98 MRA","year":1195}],"when":{"timespans":[{"start":{"earliest":"1195","latest":"1198"},"end":{"earliest":"1195","latest":"1198"}}]}},{"toponym":"Ruggeleya","citations":[{"label":"c. 1291 Tax","year":1281}],"when":{"timespans":[{"start":{"earliest":"1281","latest":"1301"},"end":{"earliest":"1281","latest":"1301"}}]}},{"toponym":"Ruggel'","citations":[{"label":"1189 MRA","year":1189},{"label":"1224 ClR","year":1224},{"label":"1259–1293, recurring Ch","year":1259},{"label":"1259–1293, recurring QW"},{"label":"1259 Ch","year":1259},{"label":"1293 QW","year":1293}],"when":{"timespans":[{"start":{"in":"1189"},"end":{"in":"1189"}},{"start":{"in":"1224"},"end":{"in":"1224"}},{"start":{"in":"1259"},"end":{"in":"1293"}},{"start":{"in":"1259"},"end":{"in":"1259"}},{"start":{"in":"1293"},"end":{"in":"1293"}}]}},{"toponym":"Rug(g)eleh'","citations":[{"label":"1227 Ass","year":1227}],"when":{"timespans":[{"start":{"in":"1227"},"end":{"in":"1227"}}]}},{"toponym":"Rug(g)leg'","citations":[{"label":"1198 Fees","year":1198},{"label":"1231 MemR","year":1231},{"label":"1276 MRA","year":1276}],"when":{"timespans":[{"start":{"in":"1198"},"end":{"in":"1198"}},{"start":{"in":"1236"},"end":{"in":"1236"}},{"start":{"in":"1231"},"end":{"in":"1231"}},{"start":{"in":"1276"},"end":{"in":"1276"}}]}},{"toponym":"Rug(g)elegh","citations":[{"label":"1225 CoramR","year":1225},{"label":"1230–1340, recurring Ch","year":1230},{"label":"1230–1340, recurring NI"},{"label":"1230 Ch","year":1230},{"label":"1340 NI","year":1340}],"when":{"timespans":[{"start":{"in":"1225"},"end":{"in":"1225"}},{"start":{"in":"1230"},"end":{"in":"1340"}},{"start":{"in":"1230"},"end":{"in":"1230"}},{"start":{"in":"1340"},"end":{"in":"1340"}}]}},{"toponym":"Rug(g)ele(e)","citations":[{"label":"1189 to 1276 MRA","year":1189},{"label":"1218 Add","year":1218},{"label":"c. 1230 DbCh","year":1220},{"label":"1290 Ch","year":1290},{"label":"1293 QW","year":1293},{"label":"1316–1347, recurring FA","year":1316},{"label":"1316–1347, recurring AngleseyCh"},{"label":"1316 FA","year":1316},{"label":"1347 AngleseyCh","year":1347}],"when":{"timespans":[{"start":{"earliest":"1189","latest":"1276"},"end":{"earliest":"1189","latest":"1276"}},{"start":{"in":"1218"},"end":{"in":"1218"}},{"start":{"earliest":"1220","latest":"1240"},"end":{"earliest":"1220","latest":"1240"}},{"start":{"in":"1290"},"end":{"in":"1290"}},{"start":{"in":"1293"},"end":{"in":"1293"}},{"start":{"in":"1316"},"end":{"in":"1347"}},{"start":{"in":"1316"},"end":{"in":"1316"}},{"start":{"in":"1347"},"end":{"in":"1347"}}]}},{"toponym":"Ruggeley(e)","citations":[{"label":"1199 to 1347 FF","year":1199},{"label":"1286 For","year":1286},{"label":"1301–1482, recurring CoramR","year":1301},{"label":"1301–1482, recurring Banco"},{"label":"1301 CoramR","year":1301},{"label":"1482 Banco","year":1482},{"label":"1327 SR","year":1327},{"label":"1338–1551, recurring Pat","year":1338},{"label":"1338–1551, recurring Ipm"},{"label":"1338 Pat","year":1338},{"label":"1551 Ipm","year":1551},{"label":"15th ECP","year":1400}],"when":{"timespans":[{"start":{"earliest":"1199","latest":"1347"},"end":{"earliest":"1199","latest":"1347"}},{"start":{"in":"1286"},"end":{"in":"1286"}},{"start":{"in":"1301"},"end":{"in":"1482"}},{"start":{"in":"1301"},"end":{"in":"1301"}},{"start":{"in":"1482"},"end":{"in":"1482"}},{"start":{"in":"1327"},"end":{"in":"1327"}},{"start":{"in":"1332"},"end":{"in":"1332"}},{"start":{"in":"1338"},"end":{"in":"1551"}},{"start":{"in":"1338"},"end":{"in":"1338"}},{"start":{"in":"1551"},"end":{"in":"1551"}},{"start":{"earliest":"1400","latest":"1500"},"end":{"earliest":"1400","latest":"1500"}}]}},{"toponym":"Riggele","citations":[{"label":"1311 Pat","year":1311}],"when":{"timespans":[{"start":{"in":"1311"},"end":{"in":"1311"}}]}},{"toponym":"Ryg(g)eley","citations":[{"label":"1389–1478, recurring Pat","year":1389},{"label":"1389–1478, recurring Rental"},{"label":"1389–1478, recurring CoramR"},{"label":"1389 Pat","year":1389},{"label":"1478 Rental","year":1478},{"label":"1478 CoramR","year":1478},{"label":"1540 BM","year":1540}],"when":{"timespans":[{"start":{"in":"1389"},"end":{"in":"1478"}},{"start":{"in":"1389"},"end":{"in":"1389"}},{"start":{"in":"1478"},"end":{"in":"1478"}},{"start":{"in":"1478"},"end":{"in":"1478"}},{"start":{"in":"1540"},"end":{"in":"1540"}}]}},{"toponym":"Riggelegh","citations":[{"label":"1379 Pat","year":1379}],"when":{"timespans":[{"start":{"in":"1379"},"end":{"in":"1379"}}]}},{"toponym":"Rigeley","citations":[{"label":"1307 GDR","year":1307},{"label":"1394–1562, recurring Pat","year":1394},{"label":"1394–1562, recurring Pat"},{"label":"1394 Pat","year":1394},{"label":"1562 Pat","year":1562}],"when":{"timespans":[{"start":{"in":"1307"},"end":{"in":"1307"}},{"start":{"in":"1394"},"end":{"in":"1562"}},{"start":{"in":"1394"},"end":{"in":"1394"}},{"start":{"in":"1562"},"end":{"in":"1562"}}]}},{"toponym":"Rydg(e)ley, Ridg(e)ley","citations":[{"label":"Eliz ChancP","year":1558},{"label":"1562 to 1624 FF","year":1562},{"label":"1571 Pat","year":1571},{"label":"1588 Ct","year":1588},{"label":"1612–1643, recurring BM","year":1612},{"label":"1612–1643, recurring StComm"},{"label":"1612 BM","year":1612},{"label":"1643 StComm","year":1643}],"when":{"timespans":[{"start":{"earliest":"1558","latest":"1603"},"end":{"earliest":"1558","latest":"1603"}},{"start":{"earliest":"1562","latest":"1624"},"end":{"earliest":"1562","latest":"1624"}},{"start":{"in":"1571"},"end":{"in":"1571"}},{"start":{"in":"1588"},"end":{"in":"1588"}},{"start":{"in":"1612"},"end":{"in":"1643"}},{"start":{"in":"1612"},"end":{"in":"1612"}},{"start":{"in":"1643"},"end":{"in":"1643"}}]}},{"toponym":"Rid(d)g(e)ley als Rug(e)ley","citations":[{"label":"1570 Survey","year":1570},{"label":"1584 Comm","year":1584},{"label":"1618 FF","year":1618}],"when":{"timespans":[{"start":{"in":"1570"},"end":{"in":"1570"}},{"start":{"in":"1584"},"end":{"in":"1584"}},{"start":{"in":"1618"},"end":{"in":"1618"}}]}},{"toponym":"Riddesley","citations":[{"label":"1577 Saxton","year":1577}],"when":{"timespans":[{"start":{"in":"1577"},"end":{"in":"1577"}}]}},{"toponym":"Rugeley","citations":[{"label":"1306–1834, recurring Ipm","year":1306},{"label":"1306–1834, recurring O"},{"label":"1306 Ipm","year":1306},{"label":"1834 O","year":1834}],"when":{"timespans":[{"start":{"in":"1306"},"end":{"in":"1834"}},{"start":{"in":"1306"},"end":{"in":"1306"}},{"start":{"in":"1500"},"end":{"in":"1500"}},{"start":{"in":"1834"},"end":{"in":"1834"}}]}}],"types":[{"identifier":"http://vocab.getty.edu/aat/300232418","label":"administrative division","sourceLabels":[{"label":"township","lang":"en"}]}],"geometry":{"type":"GeometryCollection","geometries":[{"type":"Point","coordinates":[-1.94683,52.75844],"citations":[{"label":"GeoNames, gazetteer record geonames:7297876"}]},{"type":"Point","coordinates":[-1.940732365,52.7502646],"citations":[{"label":"English Place-Name Society survey (DEEP coordinates)"}]},{"type":"Point","coordinates":[-1.93330330040742,52.76374755619872],"citations":[{"label":"Unlock (EDINA) gazetteer, gazetteer record unlock:11275210"}]},{"type":"Point","coordinates":[-1.93474,52.7641],"citations":[{"label":"Key to English Place-Names (KEPN), gazetteer record 9857"}]}]},"when":{"timespans":[{"start":{"in":"1086"},"end":{"in":"1834"}}]},"links":[{"type":"closeMatch","identifier":"https://sws.geonames.org/7297876/"}],"relations":[{"relationType":"gvp:broaderPartitive","relationTo":"https://w3id.org/whg-epns/55/005525","label":"within Rugeley"}]}]}