{"@context":"https://raw.githubusercontent.com/LinkedPasts/linked-places-format/main/linkedplaces-context-v1.1.jsonld","type":"FeatureCollection","license":"Digitisation of English Placenames MADS data is licensed to Jisc by the English Place Names Society and released under a Creative Commons Attribution-NonCommercial 4.0 International License.","note":"LPF v1.3, lossy; derived from the PLATO record; plato_commit=ca0afadabec1e23a145c0b03df77e8f151f79832","features":[{"@id":"https://w3id.org/whg-epns/55/006039","type":"Feature","properties":{"title":"Shareshill","ccodes":["GB"],"fclasses":["A","P"]},"names":[{"toponym":"Shareshill","lang":"en","citations":[{"label":"English Place-Name Society survey, volume 55: Staffordshire"}]}],"types":[{"identifier":"http://vocab.getty.edu/aat/300232418","label":"administrative division","sourceLabels":[{"label":"parish","lang":"en"}]}],"geometry":{"type":"GeometryCollection","geometries":[{"type":"Point","coordinates":[-2.08141,52.65602],"citations":[{"label":"GeoNames, gazetteer record geonames:2638126"}]},{"type":"Point","coordinates":[-2.088700702,52.65134882],"citations":[{"label":"English Place-Name Society survey (DEEP coordinates)"}]},{"type":"Point","coordinates":[-2.081317349542105,52.655850482037],"citations":[{"label":"Unlock (EDINA) gazetteer, gazetteer record unlock:11281571"}]},{"type":"Point","coordinates":[-2.08273,52.6562],"citations":[{"label":"Key to English Place-Names (KEPN), gazetteer record 9863"}]}]},"links":[{"type":"closeMatch","identifier":"https://sws.geonames.org/2638126/"}],"relations":[{"relationType":"gvp:broaderPartitive","relationTo":"https://w3id.org/whg-epns/55/000025","label":"within East Cuttlestone"}]}]}