{"@context":"https://raw.githubusercontent.com/LinkedPasts/linked-places-format/main/linkedplaces-context-v1.1.jsonld","type":"FeatureCollection","license":"Digitisation of English Placenames MADS data is licensed to Jisc by the English Place Names Society and released under a Creative Commons Attribution-NonCommercial 4.0 International License.","note":"LPF v1.3, lossy; derived from the PLATO record; plato_commit=ca0afadabec1e23a145c0b03df77e8f151f79832","features":[{"@id":"http://placenames.org.uk/id/placename/55/008143","type":"Feature","properties":{"title":"Forton","ccodes":["GB"],"fclasses":["A","P"]},"names":[{"toponym":"Forton","lang":"en","citations":[{"label":"English Place-Name Society survey, volume 55: Staffordshire"}]},{"toponym":"Forton","citations":[{"label":"1198 Fees","year":1198},{"label":"1200 CartAnt","year":1200},{"label":"1274 Ass","year":1274},{"label":"1291 Ipm","year":1291},{"label":"c. 1291 Tax","year":1281},{"label":"1293 QW","year":1293},{"label":"1301 Banco","year":1301},{"label":"1304 Cl","year":1304},{"label":"1323–1569, recurring Pat","year":1323},{"label":"1323–1569, recurring Pat"},{"label":"1323 Pat","year":1323},{"label":"1569 Pat","year":1569},{"label":"1327–1496, recurring SR","year":1327},{"label":"1327–1496, recurring FF"},{"label":"1327 SR","year":1327},{"label":"1496 FF","year":1496},{"label":"1563 Harl","year":1563},{"label":"1577–1833, recurring Saxton","year":1577},{"label":"1577–1833, recurring O"},{"label":"1577 Saxton","year":1577},{"label":"1833 O","year":1833}],"when":{"timespans":[{"start":{"in":"1198"},"end":{"in":"1198"}},{"start":{"in":"1200"},"end":{"in":"1200"}},{"start":{"in":"1274"},"end":{"in":"1274"}},{"start":{"in":"1307"},"end":{"in":"1307"}},{"start":{"in":"1291"},"end":{"in":"1291"}},{"start":{"earliest":"1281","latest":"1301"},"end":{"earliest":"1281","latest":"1301"}},{"start":{"in":"1293"},"end":{"in":"1293"}},{"start":{"in":"1301"},"end":{"in":"1301"}},{"start":{"in":"1304"},"end":{"in":"1304"}},{"start":{"in":"1323"},"end":{"in":"1569"}},{"start":{"in":"1323"},"end":{"in":"1323"}},{"start":{"in":"1569"},"end":{"in":"1569"}},{"start":{"in":"1327"},"end":{"in":"1496"}},{"start":{"in":"1327"},"end":{"in":"1327"}},{"start":{"in":"1496"},"end":{"in":"1496"}},{"start":{"in":"1563"},"end":{"in":"1563"}},{"start":{"in":"1577"},"end":{"in":"1833"}},{"start":{"in":"1577"},"end":{"in":"1577"}},{"start":{"in":"1833"},"end":{"in":"1833"}}]}},{"toponym":"Fortone","citations":[{"label":"1292–1425, recurring Ipm","year":1292},{"label":"1292–1425, recurring AD"},{"label":"1292 Ipm","year":1292},{"label":"1425 AD","year":1425}],"when":{"timespans":[{"start":{"in":"1292"},"end":{"in":"1425"}},{"start":{"in":"1292"},"end":{"in":"1292"}},{"start":{"in":"1425"},"end":{"in":"1425"}}]}},{"toponym":"Fauton","citations":[{"label":"1610 Speed","year":1610}],"when":{"timespans":[{"start":{"in":"1610"},"end":{"in":"1610"}}]}}],"types":[{"identifier":"http://vocab.getty.edu/aat/300232418","label":"administrative division","sourceLabels":[{"label":"township","lang":"en"}]}],"geometry":{"type":"GeometryCollection","geometries":[{"type":"Point","coordinates":[-2.36667,52.78333],"citations":[{"label":"GeoNames, gazetteer record geonames:2649173"}]},{"type":"Point","coordinates":[-2.370723925,52.78566259],"citations":[{"label":"English Place-Name Society survey (DEEP coordinates)"}]},{"type":"Point","coordinates":[-2.363347164421118,52.79018172881792],"citations":[{"label":"Unlock (EDINA) gazetteer, gazetteer record unlock:11146963"}]},{"type":"Point","coordinates":[-2.36473,52.7905],"citations":[{"label":"Key to English Place-Names (KEPN), gazetteer record 9789"}]}]},"when":{"timespans":[{"start":{"in":"1198"},"end":{"in":"1833"}}]},"links":[{"type":"closeMatch","identifier":"https://sws.geonames.org/2649173/"}],"relations":[{"relationType":"gvp:broaderPartitive","relationTo":"http://placenames.org.uk/id/placename/55/008142","label":"within Forton"}]}]}