{"@context":"https://raw.githubusercontent.com/LinkedPasts/linked-places-format/main/linkedplaces-context-v1.1.jsonld","type":"FeatureCollection","license":"Digitisation of English Placenames MADS data is licensed to Jisc by the English Place Names Society and released under a Creative Commons Attribution-NonCommercial 4.0 International License.","note":"LPF v1.3, lossy; derived from the PLATO record; plato_commit=ca0afadabec1e23a145c0b03df77e8f151f79832","features":[{"@id":"https://w3id.org/whg-epns/55/009543","type":"Feature","properties":{"title":"Lapley","ccodes":["GB"],"fclasses":["A","P"]},"names":[{"toponym":"Lapley","lang":"en","citations":[{"label":"English Place-Name Society survey, volume 55: Staffordshire"}]},{"toponym":"Lappeley(e)","citations":[{"label":"1061 Dugd","year":1061},{"label":"1061 Sawyer","year":1061},{"label":"1291 Tax","year":1291},{"label":"1292 Ch","year":1292},{"label":"1293 QW","year":1293},{"label":"1294 to 1415 Pat","year":1294},{"label":"1294 to 1254 Ipm","year":1254},{"label":"1316 FA","year":1316},{"label":"1327 SR","year":1327},{"label":"1337 AD","year":1337},{"label":"1338–1395, recurring Misc","year":1338},{"label":"1338–1395, recurring Pap"},{"label":"1338 Misc","year":1338},{"label":"1395 Pap","year":1395},{"label":"1413–1526, recurring Fine","year":1413},{"label":"1413–1526, recurring StarCh"},{"label":"1413 Fine","year":1413},{"label":"1526 StarCh","year":1526}],"when":{"timespans":[{"start":{"in":"1061"},"end":{"in":"1061"}},{"start":{"in":"1061"},"end":{"in":"1061"}},{"start":{"in":"1291"},"end":{"in":"1291"}},{"start":{"in":"1292"},"end":{"in":"1292"}},{"start":{"in":"1293"},"end":{"in":"1293"}},{"start":{"earliest":"1294","latest":"1415"},"end":{"earliest":"1294","latest":"1415"}},{"start":{"earliest":"1254","latest":"1294"},"end":{"earliest":"1254","latest":"1294"}},{"start":{"in":"1316"},"end":{"in":"1316"}},{"start":{"in":"1327"},"end":{"in":"1327"}},{"start":{"in":"1332"},"end":{"in":"1332"}},{"start":{"in":"1337"},"end":{"in":"1337"}},{"start":{"in":"1338"},"end":{"in":"1395"}},{"start":{"in":"1338"},"end":{"in":"1338"}},{"start":{"in":"1395"},"end":{"in":"1395"}},{"start":{"in":"1413"},"end":{"in":"1526"}},{"start":{"in":"1413"},"end":{"in":"1413"}},{"start":{"in":"1526"},"end":{"in":"1526"}}]}},{"toponym":"Lappeleg'","citations":[{"label":"1236 Fees","year":1236}],"when":{"timespans":[{"start":{"in":"1236"},"end":{"in":"1236"}}]}},{"toponym":"Lappelay","citations":[{"label":"1242 Fees","year":1242}],"when":{"timespans":[{"start":{"in":"1242"},"end":{"in":"1242"}}]}},{"toponym":"Lappelegh","citations":[{"label":"1288 Fine","year":1288}],"when":{"timespans":[{"start":{"in":"1288"},"end":{"in":"1288"}}]}},{"toponym":"Lappoleye","citations":[{"label":"c. 1255 RH","year":1245}],"when":{"timespans":[{"start":{"earliest":"1245","latest":"1265"},"end":{"earliest":"1245","latest":"1265"}}]}},{"toponym":"Lepelie","citations":[{"label":"1086 DB","year":1086}],"when":{"timespans":[{"start":{"in":"1086"},"end":{"in":"1086"}}]}},{"toponym":"Lap(p)eleia","citations":[{"label":"1130–1207, recurring P","year":1130},{"label":"1130–1207, recurring P"},{"label":"1130 P","year":1130},{"label":"1207 P","year":1207}],"when":{"timespans":[{"start":{"in":"1130"},"end":{"in":"1207"}},{"start":{"in":"1130"},"end":{"in":"1130"}},{"start":{"in":"1207"},"end":{"in":"1207"}}]}},{"toponym":"Lappele","citations":[{"label":"1262 Ipm","year":1262},{"label":"1265 MRA","year":1265},{"label":"1272–1386, recurring Misc","year":1272},{"label":"1272–1386, recurring Cl"},{"label":"1272 Misc","year":1272},{"label":"1386 Cl","year":1386}],"when":{"timespans":[{"start":{"in":"1262"},"end":{"in":"1262"}},{"start":{"in":"1265"},"end":{"in":"1265"}},{"start":{"in":"1272"},"end":{"in":"1386"}},{"start":{"in":"1272"},"end":{"in":"1272"}},{"start":{"in":"1386"},"end":{"in":"1386"}}]}},{"toponym":"Leppeley","citations":[{"label":"1270 Ass","year":1270}],"when":{"timespans":[{"start":{"in":"1270"},"end":{"in":"1270"}}]}},{"toponym":"Lapleye","citations":[{"label":"1577 Add","year":1577}],"when":{"timespans":[{"start":{"in":"1577"},"end":{"in":"1577"}}]}},{"toponym":"Lapley","citations":[{"label":"1263 Ipm","year":1263},{"label":"1282 Var","year":1282},{"label":"1403–1570, recurring Fine","year":1403},{"label":"1403–1570, recurring Pat"},{"label":"1403 Fine","year":1403},{"label":"1570 Pat","year":1570},{"label":"1834 O","year":1834}],"when":{"timespans":[{"start":{"in":"1263"},"end":{"in":"1263"}},{"start":{"in":"1282"},"end":{"in":"1282"}},{"start":{"in":"1403"},"end":{"in":"1570"}},{"start":{"in":"1403"},"end":{"in":"1403"}},{"start":{"in":"1570"},"end":{"in":"1570"}},{"start":{"in":"1834"},"end":{"in":"1834"}}]}}],"types":[{"identifier":"http://vocab.getty.edu/aat/300232418","label":"administrative division","sourceLabels":[{"label":"township","lang":"en"}]}],"geometry":{"type":"GeometryCollection","geometries":[{"type":"Point","coordinates":[-2.18775,52.71413],"citations":[{"label":"GeoNames, gazetteer record geonames:2644870"}]},{"type":"Point","coordinates":[-2.192421287,52.70517012],"citations":[{"label":"English Place-Name Society survey (DEEP coordinates)"}]},{"type":"Point","coordinates":[-2.185039580067421,52.7096782111739],"citations":[{"label":"Unlock (EDINA) gazetteer, gazetteer record unlock:11191940"}]},{"type":"Point","coordinates":[-2.18644,52.71],"citations":[{"label":"Key to English Place-Names (KEPN), gazetteer record 9820"}]}]},"when":{"timespans":[{"start":{"in":"1061"},"end":{"in":"1834"}}]},"links":[{"type":"closeMatch","identifier":"https://sws.geonames.org/2644870/"}],"relations":[{"relationType":"gvp:broaderPartitive","relationTo":"https://w3id.org/whg-epns/55/009542","label":"within Lapley cum Wheaton Aston"}]}]}