{"@context":"https://raw.githubusercontent.com/LinkedPasts/linked-places-format/main/linkedplaces-context-v1.1.jsonld","type":"FeatureCollection","license":"Digitisation of English Placenames MADS data is licensed to Jisc by the English Place Names Society and released under a Creative Commons Attribution-NonCommercial 4.0 International License.","note":"LPF v1.3, lossy; derived from the PLATO record; plato_commit=fa0d247ccc0263f8f19c8d7cdcd163df96935d1e","features":[{"@id":"https://w3id.org/whg-epns/28/002798","type":"Feature","properties":{"title":"Brimington","ccodes":["GB"],"fclasses":["A","P"]},"names":[{"toponym":"Brimington","lang":"en","citations":[{"label":"English Place-Name Society survey, volume 28: Derbyshire"}]},{"toponym":"Brimintune","citations":[{"label":"1086 DB","year":1086}],"when":{"timespans":[{"start":{"in":"1086"},"end":{"in":"1086"}}]}},{"toponym":"Briminton'","citations":[{"label":"1199 Memo","year":1199},{"label":"c. 1200 RegAnt","year":1190},{"label":"P","year":1207},{"label":"RegAnt"},{"label":"1207 P","year":1207},{"label":"c. 1288 RegAnt","year":1278}],"when":{"timespans":[{"start":{"in":"1199"},"end":{"in":"1199"}},{"start":{"earliest":"1190","latest":"1210"},"end":{"earliest":"1190","latest":"1210"}},{"start":{"in":"1207"},"end":{"in":"1298"}},{"start":{"in":"1207"},"end":{"in":"1207"}},{"start":{"earliest":"1278","latest":"1298"},"end":{"earliest":"1278","latest":"1298"}}]}},{"toponym":"Brimenton(e)","citations":[{"label":"1200 P","year":1200},{"label":"e. 13th DbCh","year":1200},{"label":"1230 FF","year":1230},{"label":"1247 RegAnt","year":1247}],"when":{"timespans":[{"start":{"in":"1200"},"end":{"in":"1200"}},{"start":{"in":"1203"},"end":{"in":"1203"}},{"start":{"in":"1204"},"end":{"in":"1204"}},{"start":{"earliest":"1200","latest":"1225"},"end":{"earliest":"1200","latest":"1225"}},{"start":{"in":"1230"},"end":{"in":"1230"}},{"start":{"in":"1247"},"end":{"in":"1247"}},{"start":{"earliest":"1241","latest":"1261"},"end":{"earliest":"1241","latest":"1261"}},{"start":{"earliest":"1243","latest":"1263"},"end":{"earliest":"1243","latest":"1263"}}]}},{"toponym":"Brimington(e), Brimyngton(e)","citations":[{"label":"1219 RegAnt","year":1219},{"label":"1269 FF","year":1269},{"label":"HarlCh","year":1272},{"label":"Ed 1 HarlCh","year":1272}],"when":{"timespans":[{"start":{"in":"1219"},"end":{"in":"1219"}},{"start":{"in":"1268"},"end":{"in":"1268"}},{"start":{"in":"1269"},"end":{"in":"1269"}},{"start":{"in":"1272"},"end":{"in":"1307"}},{"start":{"earliest":"1272","latest":"1307"},"end":{"earliest":"1272","latest":"1307"}}]}},{"toponym":"Brimton'","citations":[{"label":"1200 P","year":1200},{"label":"1243 RegAnt","year":1243}],"when":{"timespans":[{"start":{"in":"1200"},"end":{"in":"1200"}},{"start":{"in":"1243"},"end":{"in":"1243"}}]}},{"toponym":"Brimeton","citations":[{"label":"1201 P","year":1201},{"label":"1239 RegAnt","year":1239}],"when":{"timespans":[{"start":{"in":"1201"},"end":{"in":"1201"}},{"start":{"in":"1239"},"end":{"in":"1239"}}]}},{"toponym":"Brimitone","citations":[{"label":"1236 FF","year":1236},{"label":"Ed 1 WollCh","year":1272}],"when":{"timespans":[{"start":{"in":"1236"},"end":{"in":"1236"}},{"start":{"earliest":"1272","latest":"1307"},"end":{"earliest":"1272","latest":"1307"}}]}},{"toponym":"Bryminton, Brymynton","citations":[{"label":"c. 1272 RegAnt","year":1262},{"label":"1321 FF","year":1321}],"when":{"timespans":[{"start":{"earliest":"1262","latest":"1282"},"end":{"earliest":"1262","latest":"1282"}},{"start":{"in":"1321"},"end":{"in":"1321"}}]}},{"toponym":"Brymington(e), Brymyngton(e)","citations":[{"label":"c. 1272 RegAnt","year":1262},{"label":"1306 Ass","year":1306},{"label":"1319 FF","year":1319},{"label":"1320 Pat","year":1320}],"when":{"timespans":[{"start":{"earliest":"1262","latest":"1282"},"end":{"earliest":"1262","latest":"1282"}},{"start":{"in":"1306"},"end":{"in":"1306"}},{"start":{"in":"1319"},"end":{"in":"1319"}},{"start":{"in":"1320"},"end":{"in":"1320"}},{"start":{"earliest":"1500","latest":"1600"},"end":{"earliest":"1500","latest":"1600"}}]}},{"toponym":"Bremiton'","citations":[{"label":"1197 P","year":1197}],"when":{"timespans":[{"start":{"in":"1197"},"end":{"in":"1197"}},{"start":{"in":"1198"},"end":{"in":"1198"}}]}},{"toponym":"Bremintone","citations":[{"label":"1220 FF","year":1220}],"when":{"timespans":[{"start":{"in":"1220"},"end":{"in":"1220"}}]}},{"toponym":"Bremington(e), Bremyngton(e)","citations":[{"label":"1290 Trials","year":1290},{"label":"1324 DbCh","year":1324},{"label":"1393 Pat","year":1393},{"label":"1502 HardCh","year":1502}],"when":{"timespans":[{"start":{"in":"1290"},"end":{"in":"1290"}},{"start":{"in":"1324"},"end":{"in":"1324"}},{"start":{"in":"1339"},"end":{"in":"1339"}},{"start":{"in":"1344"},"end":{"in":"1344"}},{"start":{"in":"1393"},"end":{"in":"1393"}},{"start":{"in":"1397"},"end":{"in":"1397"}},{"start":{"in":"1502"},"end":{"in":"1502"}}]}},{"toponym":"Bremertona","citations":[{"label":"1179 P","year":1179}],"when":{"timespans":[{"start":{"in":"1179"},"end":{"in":"1179"}}]}},{"toponym":"Brumton","citations":[{"label":"1175 ChancR","year":1175}],"when":{"timespans":[{"start":{"in":"1175"},"end":{"in":"1175"}}]}},{"toponym":"Brumingeton'","citations":[{"label":"1183 P","year":1183}],"when":{"timespans":[{"start":{"in":"1183"},"end":{"in":"1183"}}]}},{"toponym":"Brumiton","citations":[{"label":"1204 ChR","year":1204},{"label":"1215 PatR","year":1215},{"label":"1219 RegAnt","year":1219}],"when":{"timespans":[{"start":{"in":"1204"},"end":{"in":"1204"}},{"start":{"in":"1215"},"end":{"in":"1215"}},{"start":{"in":"1219"},"end":{"in":"1219"}}]}},{"toponym":"Bruminton","citations":[{"label":"1215 ChR","year":1215}],"when":{"timespans":[{"start":{"in":"1215"},"end":{"in":"1215"}}]}},{"toponym":"Brumenton'","citations":[{"label":"1234 RegAnt","year":1234}],"when":{"timespans":[{"start":{"in":"1234"},"end":{"in":"1234"}}]}},{"toponym":"Brininton","citations":[{"label":"1175 P","year":1175}],"when":{"timespans":[{"start":{"in":"1175"},"end":{"in":"1175"}}]}},{"toponym":"Brinneton","citations":[{"label":"1239 RegAnt","year":1239}],"when":{"timespans":[{"start":{"in":"1239"},"end":{"in":"1239"}}]}},{"toponym":"Brinington","citations":[{"label":"1317 Hall viii","year":1317},{"label":"1354 Portland","year":1354}],"when":{"timespans":[{"start":{"in":"1317"},"end":{"in":"1317"}},{"start":{"in":"1354"},"end":{"in":"1354"}}]}},{"toponym":"Brynington","citations":[{"label":"1283 Abbr","year":1283}],"when":{"timespans":[{"start":{"in":"1283"},"end":{"in":"1283"}}]}},{"toponym":"Brunintone","citations":[{"label":"1240 FF","year":1240}],"when":{"timespans":[{"start":{"in":"1240"},"end":{"in":"1240"}}]}}],"types":[{"identifier":"http://vocab.getty.edu/aat/300232418","label":"administrative division","sourceLabels":[{"label":"township","lang":"en"}]}],"geometry":{"type":"GeometryCollection","geometries":[{"type":"Point","coordinates":[-1.39338,53.25741],"citations":[{"label":"GeoNames, gazetteer record geonames:2654698"}]},{"type":"Point","coordinates":[-1.39284809246942,53.25668164636357],"citations":[{"label":"Unlock (EDINA) gazetteer, gazetteer record unlock:11087334"}]},{"type":"Point","coordinates":[-1.39436,53.257],"citations":[{"label":"Key to English Place-Names (KEPN), gazetteer record 3293"}]}]},"when":{"timespans":[{"start":{"in":"1086"},"end":{"in":"1600"}}]},"links":[{"type":"closeMatch","identifier":"https://sws.geonames.org/2654698/"}],"relations":[{"relationType":"gvp:broaderPartitive","relationTo":"https://w3id.org/whg-epns/28/002797","label":"within Brimington"}]}]}