{"@context":"https://raw.githubusercontent.com/LinkedPasts/linked-places-format/main/linkedplaces-context-v1.1.jsonld","type":"FeatureCollection","license":"Digitisation of English Placenames MADS data is licensed to Jisc by the English Place Names Society and released under a Creative Commons Attribution-NonCommercial 4.0 International License.","note":"LPF v1.3, lossy; derived from the PLATO record; plato_commit=ca0afadabec1e23a145c0b03df77e8f151f79832","features":[{"@id":"https://w3id.org/whg-epns/28/004772","type":"Feature","properties":{"title":"Glapwell","ccodes":["GB"],"fclasses":["A","P"]},"names":[{"toponym":"Glapwell","lang":"en","citations":[{"label":"English Place-Name Society survey, volume 28: Derbyshire"}]}],"types":[{"identifier":"http://vocab.getty.edu/aat/300232418","label":"administrative division","sourceLabels":[{"label":"parish","lang":"en"}]}],"geometry":{"type":"GeometryCollection","geometries":[{"type":"Point","coordinates":[-1.28334,53.18917],"citations":[{"label":"GeoNames, gazetteer record geonames:8224210"}]},{"type":"Point","coordinates":[-1.28895956332771,53.19317682575824],"citations":[{"label":"Unlock (EDINA) gazetteer, gazetteer record unlock:11153220"}]},{"type":"Point","coordinates":[-1.29049,53.1935],"citations":[{"label":"Key to English Place-Names (KEPN), gazetteer record 3304"}]}]},"links":[{"type":"closeMatch","identifier":"https://sws.geonames.org/8224210/"}],"relations":[{"relationType":"gvp:broaderPartitive","relationTo":"https://w3id.org/whg-epns/28/000002","label":"within Scarsdale Hundred"}]}]}