{"@context":"https://raw.githubusercontent.com/LinkedPasts/linked-places-format/main/linkedplaces-context-v1.1.jsonld","type":"FeatureCollection","license":"Digitisation of English Placenames MADS data is licensed to Jisc by the English Place Names Society and released under a Creative Commons Attribution-NonCommercial 4.0 International License.","note":"LPF v1.3, lossy; derived from the PLATO record; plato_commit=ca0afadabec1e23a145c0b03df77e8f151f79832","features":[{"@id":"http://placenames.org.uk/id/placename/28/007567","type":"Feature","properties":{"title":"Shirebrook","ccodes":["GB"],"fclasses":["A","P"]},"names":[{"toponym":"Shirebrook","lang":"en","citations":[{"label":"English Place-Name Society survey, volume 28: Derbyshire"}]},{"toponym":"Scirebroc","citations":[{"label":"1202 FF","year":1202}],"when":{"timespans":[{"start":{"in":"1202"},"end":{"in":"1202"}}]}},{"toponym":"Scirebrokes","citations":[{"label":"1316 Ch","year":1316}],"when":{"timespans":[{"start":{"in":"1316"},"end":{"in":"1316"}}]}},{"toponym":"Schir(e)brok(e)","citations":[{"label":"Hy 3 Darley","year":1216},{"label":"1281 Ass","year":1281},{"label":"1272–1405, recurring DbCh","year":1272},{"label":"1272–1405, recurring WollCh"},{"label":"Ed 1 DbCh","year":1272},{"label":"1405 WollCh","year":1405}],"when":{"timespans":[{"start":{"earliest":"1216","latest":"1272"},"end":{"earliest":"1216","latest":"1272"}},{"start":{"in":"1281"},"end":{"in":"1281"}},{"start":{"in":"1272"},"end":{"in":"1405"}},{"start":{"earliest":"1272","latest":"1307"},"end":{"earliest":"1272","latest":"1307"}},{"start":{"in":"1405"},"end":{"in":"1405"}}]}},{"toponym":"Shir(e)broc, Shyr(e)broc, Shyr(e)brok(e)","citations":[{"label":"1236 FF","year":1236},{"label":"1269 Ass","year":1269},{"label":"1304–1304, recurring FF","year":1304},{"label":"1304 FF","year":1304}],"when":{"timespans":[{"start":{"in":"1236"},"end":{"in":"1236"}},{"start":{"in":"1269"},"end":{"in":"1269"}},{"start":{"in":"1304"},"end":{"in":"1304"}},{"start":{"in":"1304"},"end":{"in":"1304"}}]}},{"toponym":"S(c)her(e)brok(e)","citations":[{"label":"1488 Derby","year":1488},{"label":"1563 FMS","year":1563},{"label":"1577 DbA","year":1577}],"when":{"timespans":[{"start":{"in":"1488"},"end":{"in":"1488"}},{"start":{"in":"1563"},"end":{"in":"1563"}},{"start":{"in":"1577"},"end":{"in":"1577"}}]}},{"toponym":"S(c)her(e)brooke","citations":[{"label":"1535 DbA","year":1535}],"when":{"timespans":[{"start":{"in":"1535"},"end":{"in":"1535"}}]}},{"toponym":"S(c)her(e)brouke","citations":[{"label":"1549 DbA","year":1549}],"when":{"timespans":[{"start":{"in":"1549"},"end":{"in":"1549"}}]}},{"toponym":"Syrbroc","citations":[{"label":"1273 Ipm","year":1273}],"when":{"timespans":[{"start":{"in":"1273"},"end":{"in":"1273"}}]}}],"types":[{"identifier":"http://vocab.getty.edu/aat/300232418","label":"administrative division","sourceLabels":[{"label":"township","lang":"en"}]}],"geometry":{"type":"GeometryCollection","geometries":[{"type":"Point","coordinates":[-1.21336,53.20333],"citations":[{"label":"GeoNames, gazetteer record geonames:2637941"}]},{"type":"Point","coordinates":[-1.213956113753398,53.20169578275293],"citations":[{"label":"Unlock (EDINA) gazetteer, gazetteer record unlock:11283028"}]},{"type":"Point","coordinates":[-1.21549,53.202],"citations":[{"label":"Key to English Place-Names (KEPN), gazetteer record 3319"}]}]},"when":{"timespans":[{"start":{"in":"1202"},"end":{"in":"1577"}}]},"links":[{"type":"closeMatch","identifier":"https://sws.geonames.org/2637941/"}],"relations":[{"relationType":"gvp:broaderPartitive","relationTo":"http://placenames.org.uk/id/placename/28/007566","label":"within Shirebrook"}]}]}