{"@context":"https://raw.githubusercontent.com/LinkedPasts/linked-places-format/main/linkedplaces-context-v1.1.jsonld","type":"FeatureCollection","license":"Digitisation of English Placenames MADS data is licensed to Jisc by the English Place Names Society and released under a Creative Commons Attribution-NonCommercial 4.0 International License.","note":"LPF v1.3, lossy; derived from the PLATO record; plato_commit=ca0afadabec1e23a145c0b03df77e8f151f79832","features":[{"@id":"https://w3id.org/whg-epns/28/008363","type":"Feature","properties":{"title":"Sutton Scarsdale","ccodes":["GB"],"fclasses":["A","P"]},"names":[{"toponym":"Sutton Scarsdale","lang":"en","citations":[{"label":"English Place-Name Society survey, volume 28: Derbyshire"}]},{"toponym":"Sudtun(e)","citations":[{"label":"1086 DB","year":1086}],"when":{"timespans":[{"start":{"in":"1086"},"end":{"in":"1086"}}]}},{"toponym":"Sudton' et in Dal'","citations":[{"label":"1203 Cur","year":1203}],"when":{"timespans":[{"start":{"in":"1203"},"end":{"in":"1203"}}]}},{"toponym":"Suttun","citations":[{"label":"c. 1160 BMFac","year":1150}],"when":{"timespans":[{"start":{"earliest":"1150","latest":"1170"},"end":{"earliest":"1150","latest":"1170"}}]}},{"toponym":"Sutton(e)","citations":[{"label":"1226 FF","year":1226},{"label":"1269–1269, recurring Ass","year":1269},{"label":"1269 Ass","year":1269}],"when":{"timespans":[{"start":{"in":"1226"},"end":{"in":"1226"}},{"start":{"in":"1236"},"end":{"in":"1236"}},{"start":{"in":"1269"},"end":{"in":"1269"}},{"start":{"in":"1269"},"end":{"in":"1269"}}]}},{"toponym":"Sutton(e) in Scarsdale","citations":[{"label":"1541 DbA","year":1541}],"when":{"timespans":[{"start":{"in":"1541"},"end":{"in":"1541"}}]}},{"toponym":"Sutton(e) in Dal, Sutton(e) in Dall(e), Sutton(e) in la Dale, Sutton(e) in le Dall(e), Sutton(e) en Dal(e), Sutton(e) en le Dale","citations":[{"label":"1243 Fees","year":1243},{"label":"1247 Ipm","year":1247},{"label":"1284–1286, recurring FA","year":1284},{"label":"1284-6 FA","year":1284}],"when":{"timespans":[{"start":{"in":"1243"},"end":{"in":"1243"}},{"start":{"in":"1247"},"end":{"in":"1247"}},{"start":{"in":"1284"},"end":{"in":"1286"}},{"start":{"earliest":"1284","latest":"1286"},"end":{"earliest":"1284","latest":"1286"}}]}},{"toponym":"Sutton(e) in the Dale","citations":[{"label":"1596 Cai","year":1596}],"when":{"timespans":[{"start":{"in":"1596"},"end":{"in":"1596"}}]}},{"toponym":"Sutton(e) de Dalgh","citations":[{"label":"1431 Fine","year":1431}],"when":{"timespans":[{"start":{"in":"1431"},"end":{"in":"1431"}}]}}],"types":[{"identifier":"http://vocab.getty.edu/aat/300232418","label":"administrative division","sourceLabels":[{"label":"township","lang":"en"}]}],"geometry":{"type":"Point","coordinates":[-1.33455,53.2477],"citations":[{"label":"Key to English Place-Names (KEPN), gazetteer record 3323"}]},"when":{"timespans":[{"start":{"in":"1086"},"end":{"in":"1596"}}]},"relations":[{"relationType":"gvp:broaderPartitive","relationTo":"https://w3id.org/whg-epns/28/008362","label":"within Sutton cum Duckmanton"}]}]}