{"@context":"https://raw.githubusercontent.com/LinkedPasts/linked-places-format/main/linkedplaces-context-v1.1.jsonld","type":"FeatureCollection","license":"Digitisation of English Placenames MADS data is licensed to Jisc by the English Place Names Society and released under a Creative Commons Attribution-NonCommercial 4.0 International License.","note":"LPF v1.3, lossy; derived from the PLATO record; plato_commit=ca0afadabec1e23a145c0b03df77e8f151f79832","features":[{"@id":"https://w3id.org/whg-epns/28/008973","type":"Feature","properties":{"title":"Tupton","ccodes":["GB"],"fclasses":["A","P"]},"names":[{"toponym":"Tupton","lang":"en","citations":[{"label":"English Place-Name Society survey, volume 28: Derbyshire"}]}],"types":[{"identifier":"http://vocab.getty.edu/aat/300232418","label":"administrative division","sourceLabels":[{"label":"parish","lang":"en"}]}],"geometry":{"type":"GeometryCollection","geometries":[{"type":"Point","coordinates":[-1.40581,53.18712],"citations":[{"label":"GeoNames, gazetteer record geonames:7294865"}]},{"type":"Point","coordinates":[-1.40882971022279,53.18484179203128],"citations":[{"label":"Unlock (EDINA) gazetteer, gazetteer record unlock:11307023"}]},{"type":"Point","coordinates":[-1.41034,53.1851],"citations":[{"label":"Key to English Place-Names (KEPN), gazetteer record 15954"}]}]},"links":[{"type":"closeMatch","identifier":"https://sws.geonames.org/7294865/"}],"relations":[{"relationType":"gvp:broaderPartitive","relationTo":"https://w3id.org/whg-epns/28/000002","label":"within Scarsdale Hundred"}]}]}