{"@context":"https://raw.githubusercontent.com/LinkedPasts/linked-places-format/main/linkedplaces-context-v1.1.jsonld","type":"FeatureCollection","license":"Digitisation of English Placenames MADS data is licensed to Jisc by the English Place Names Society and released under a Creative Commons Attribution-NonCommercial 4.0 International License.","note":"LPF v1.3, lossy; derived from the PLATO record; plato_commit=fa0d247ccc0263f8f19c8d7cdcd163df96935d1e","features":[{"@id":"https://w3id.org/whg-epns/28/009190","type":"Feature","properties":{"title":"Walton","ccodes":["GB"],"fclasses":["A","P"]},"names":[{"toponym":"Walton","lang":"en","citations":[{"label":"English Place-Name Society survey, volume 28: Derbyshire"}]},{"toponym":"Waletune","citations":[{"label":"1086 DB","year":1086}],"when":{"timespans":[{"start":{"in":"1086"},"end":{"in":"1086"}}]}},{"toponym":"Waletona, Waleton(e)","citations":[{"label":"1183 P","year":1183},{"label":"c. 1200 RegAnt","year":1190},{"label":"1208 FF","year":1208},{"label":"RegAnt","year":1224},{"label":"1224 RegAnt","year":1224}],"when":{"timespans":[{"start":{"in":"1183"},"end":{"in":"1183"}},{"start":{"earliest":"1190","latest":"1210"},"end":{"earliest":"1190","latest":"1210"}},{"start":{"in":"1208"},"end":{"in":"1208"}},{"start":{"in":"1224"},"end":{"in":"1224"}},{"start":{"in":"1224"},"end":{"in":"1224"}}]}},{"toponym":"Waleton(e) iuxta Cestrefeld","citations":[{"label":"1323 Ass","year":1323}],"when":{"timespans":[{"start":{"in":"1323"},"end":{"in":"1323"}}]}},{"toponym":"Valeton","citations":[{"label":"1276 RH","year":1276}],"when":{"timespans":[{"start":{"in":"1276"},"end":{"in":"1276"}}]}},{"toponym":"Walenthone, Walenthona","citations":[{"label":"1101-8 RegLich","year":1101},{"label":"a. 1108 Dugd","year":1058}],"when":{"timespans":[{"start":{"earliest":"1101","latest":"1108"},"end":{"earliest":"1101","latest":"1108"}},{"start":{"earliest":"1058","latest":"1108"},"end":{"earliest":"1058","latest":"1108"}}]}},{"toponym":"Walletona","citations":[{"label":"e. 13th RegAnt","year":1200}],"when":{"timespans":[{"start":{"earliest":"1200","latest":"1225"},"end":{"earliest":"1200","latest":"1225"}}]}},{"toponym":"Walton(e)","citations":[{"label":"1243 Fees","year":1243},{"label":"1249 Ipm","year":1249},{"label":"c. 1272 RegAnt","year":1262},{"label":"Ipm","year":1278},{"label":"1278 Ipm","year":1278}],"when":{"timespans":[{"start":{"in":"1243"},"end":{"in":"1243"}},{"start":{"in":"1249"},"end":{"in":"1249"}},{"start":{"earliest":"1262","latest":"1282"},"end":{"earliest":"1262","latest":"1282"}},{"start":{"in":"1278"},"end":{"in":"1278"}},{"start":{"in":"1278"},"end":{"in":"1278"}}]}}],"types":[{"identifier":"http://vocab.getty.edu/aat/300232418","label":"administrative division","sourceLabels":[{"label":"township","lang":"en"}]}],"geometry":{"type":"Point","coordinates":[-1.45478,53.2213],"citations":[{"label":"Key to English Place-Names (KEPN), gazetteer record 3328"}]},"when":{"timespans":[{"start":{"in":"1058"},"end":{"in":"1323"}}]},"relations":[{"relationType":"gvp:broaderPartitive","relationTo":"https://w3id.org/whg-epns/28/009189","label":"within Walton"}]}]}