{"@context":"https://raw.githubusercontent.com/LinkedPasts/linked-places-format/main/linkedplaces-context-v1.1.jsonld","type":"FeatureCollection","license":"Digitisation of English Placenames MADS data is licensed to Jisc by the English Place Names Society and released under a Creative Commons Attribution-NonCommercial 4.0 International License.","note":"LPF v1.3, lossy; derived from the PLATO record; plato_commit=ca0afadabec1e23a145c0b03df77e8f151f79832","features":[{"@id":"http://placenames.org.uk/id/placename/28/010651","type":"Feature","properties":{"title":"Fenny Bentley","ccodes":["GB"],"fclasses":["A","P"]},"names":[{"toponym":"Fenny Bentley","lang":"en","citations":[{"label":"English Place-Name Society survey, volume 28: Derbyshire"}]},{"toponym":"Benedlege","citations":[{"label":"1086 DB","year":1086}],"when":{"timespans":[{"start":{"in":"1086"},"end":{"in":"1086"}}]}},{"toponym":"Benedleg'","citations":[{"label":"c. 1220 RegAnt","year":1210}],"when":{"timespans":[{"start":{"earliest":"1210","latest":"1230"},"end":{"earliest":"1210","latest":"1230"}}]}},{"toponym":"Benetlea, Benetlegh, Benetley","citations":[{"label":"1175 P","year":1175},{"label":"1241 RegLich","year":1241},{"label":"1241 RegAnt","year":1241},{"label":"1260 DbA","year":1260}],"when":{"timespans":[{"start":{"in":"1175"},"end":{"in":"1175"}},{"start":{"in":"1241"},"end":{"in":"1241"}},{"start":{"in":"1241"},"end":{"in":"1241"}},{"start":{"in":"1260"},"end":{"in":"1260"}}]}},{"toponym":"Benethlega","citations":[{"label":"1245 BurtCh","year":1245}],"when":{"timespans":[{"start":{"in":"1245"},"end":{"in":"1245"}}]}},{"toponym":"Bent(e)leg(h), Bent(e)le, Bent(e)ley(e)","citations":[{"label":"1251 ChR","year":1251},{"label":"1265 FF","year":1265},{"label":"1279 CartDec","year":1279},{"label":"1291–1291, recurring Tax","year":1291},{"label":"1291 Tax","year":1291}],"when":{"timespans":[{"start":{"in":"1251"},"end":{"in":"1251"}},{"start":{"in":"1265"},"end":{"in":"1265"}},{"start":{"in":"1279"},"end":{"in":"1279"}},{"start":{"in":"1291"},"end":{"in":"1291"}},{"start":{"in":"1291"},"end":{"in":"1291"}}]}},{"toponym":"Beintleg","citations":[{"label":"1251 Ch","year":1251}],"when":{"timespans":[{"start":{"in":"1251"},"end":{"in":"1251"}}]}},{"toponym":"Fennibent(e)ley(e), Fennybent(e)ley(e), Fennybent(e)lee","citations":[{"label":"1271 Ass","year":1271},{"label":"1281 FF","year":1281},{"label":"1294 DbA","year":1294},{"label":"1304–1310, recurring FF","year":1304},{"label":"1304 FF","year":1304}],"when":{"timespans":[{"start":{"in":"1271"},"end":{"in":"1271"}},{"start":{"in":"1281"},"end":{"in":"1281"}},{"start":{"in":"1294"},"end":{"in":"1294"}},{"start":{"in":"1304"},"end":{"in":"1310"}},{"start":{"in":"1304"},"end":{"in":"1304"}},{"start":{"in":"1307"},"end":{"in":"1307"}},{"start":{"in":"1310"},"end":{"in":"1310"}}]}},{"toponym":"Fennibenetlegh","citations":[{"label":"1272 FF","year":1272}],"when":{"timespans":[{"start":{"in":"1272"},"end":{"in":"1272"}}]}},{"toponym":"Fynny Benteley","citations":[{"label":"1439 Bemrose","year":1439}],"when":{"timespans":[{"start":{"in":"1439"},"end":{"in":"1439"}}]}}],"types":[{"identifier":"http://vocab.getty.edu/aat/300232418","label":"administrative division","sourceLabels":[{"label":"township","lang":"en"}]}],"geometry":{"type":"GeometryCollection","geometries":[{"type":"Point","coordinates":[-1.73312,53.04924],"citations":[{"label":"GeoNames, gazetteer record geonames:7297587"}]},{"type":"Point","coordinates":[-1.73890129687026,53.05117134356443],"citations":[{"label":"Unlock (EDINA) gazetteer, gazetteer record unlock:11143154"}]},{"type":"Point","coordinates":[-1.74037,53.0515],"citations":[{"label":"Key to English Place-Names (KEPN), gazetteer record 3339"}]}]},"when":{"timespans":[{"start":{"in":"1086"},"end":{"in":"1439"}}]},"links":[{"type":"closeMatch","identifier":"https://sws.geonames.org/7297587/"}],"relations":[{"relationType":"gvp:broaderPartitive","relationTo":"http://placenames.org.uk/id/placename/28/010650","label":"within Fenny Bentley"}]}]}