{"@context":"https://raw.githubusercontent.com/LinkedPasts/linked-places-format/main/linkedplaces-context-v1.1.jsonld","type":"FeatureCollection","license":"Digitisation of English Placenames MADS data is licensed to Jisc by the English Place Names Society and released under a Creative Commons Attribution-NonCommercial 4.0 International License.","note":"LPF v1.3, lossy; derived from the PLATO record; plato_commit=ca0afadabec1e23a145c0b03df77e8f151f79832","features":[{"@id":"http://placenames.org.uk/id/placename/28/011408","type":"Feature","properties":{"title":"Callow","ccodes":["GB"],"fclasses":["A","P"]},"names":[{"toponym":"Callow","lang":"en","citations":[{"label":"English Place-Name Society survey, volume 28: Derbyshire"}]}],"types":[{"identifier":"http://vocab.getty.edu/aat/300232418","label":"administrative division","sourceLabels":[{"label":"parish","lang":"en"}]}],"geometry":{"type":"GeometryCollection","geometries":[{"type":"Point","coordinates":[-1.60184,53.06624],"citations":[{"label":"GeoNames, gazetteer record geonames:7298136"}]},{"type":"Point","coordinates":[-1.604542564841881,53.05979083103522],"citations":[{"label":"Unlock (EDINA) gazetteer, gazetteer record unlock:11096791"}]},{"type":"Point","coordinates":[-1.59111,53.06],"citations":[{"label":"Key to English Place-Names (KEPN), gazetteer record 3343"}]}]},"links":[{"type":"closeMatch","identifier":"https://sws.geonames.org/7298136/"}],"relations":[{"relationType":"gvp:broaderPartitive","relationTo":"http://placenames.org.uk/id/placename/28/010418","label":"within Wirksworth Hundred"}]}]}