{"@context":"https://raw.githubusercontent.com/LinkedPasts/linked-places-format/main/linkedplaces-context-v1.1.jsonld","type":"FeatureCollection","license":"Digitisation of English Placenames MADS data is licensed to Jisc by the English Place Names Society and released under a Creative Commons Attribution-NonCommercial 4.0 International License.","note":"LPF v1.3, lossy; derived from the PLATO record; plato_commit=ca0afadabec1e23a145c0b03df77e8f151f79832","features":[{"@id":"https://w3id.org/whg-epns/28/012204","type":"Feature","properties":{"title":"Hartington","ccodes":["GB"],"fclasses":["A","P"]},"names":[{"toponym":"Hartington","lang":"en","citations":[{"label":"English Place-Name Society survey, volume 28: Derbyshire"}]},{"toponym":"Hortedun","citations":[{"label":"1086 DB","year":1086}],"when":{"timespans":[{"start":{"in":"1086"},"end":{"in":"1086"}}]}},{"toponym":"Hurtendun","citations":[{"label":"1203 Ch","year":1203}],"when":{"timespans":[{"start":{"in":"1203"},"end":{"in":"1203"}}]}},{"toponym":"Hertendone","citations":[{"label":"e. 13th AddCh","year":1200}],"when":{"timespans":[{"start":{"earliest":"1200","latest":"1225"},"end":{"earliest":"1200","latest":"1225"}}]}},{"toponym":"Hertendone iuxta Cotes","citations":[{"label":"1247 AddCh","year":1247},{"label":"1281 Ass","year":1281}],"when":{"timespans":[{"start":{"in":"1247"},"end":{"in":"1247"}},{"start":{"in":"1281"},"end":{"in":"1281"}}]}},{"toponym":"Hertindon(e), Hertyndon(e), -don(e)","citations":[{"label":"1231 Tutbury","year":1231},{"label":"1251 Ch","year":1251},{"label":"1252 FF","year":1252},{"label":"1269–1372, recurring Ass","year":1269},{"label":"1269–1372, recurring Gaunt"},{"label":"1269 Ass","year":1269},{"label":"1372 Gaunt","year":1372}],"when":{"timespans":[{"start":{"in":"1231"},"end":{"in":"1231"}},{"start":{"in":"1251"},"end":{"in":"1251"}},{"start":{"in":"1252"},"end":{"in":"1252"}},{"start":{"in":"1269"},"end":{"in":"1372"}},{"start":{"in":"1269"},"end":{"in":"1269"}},{"start":{"in":"1372"},"end":{"in":"1372"}}]}},{"toponym":"Herting-, Hertyng-, -don(e), -doun","citations":[{"label":"1244 FF","year":1244},{"label":"1269 Ass","year":1269},{"label":"1274–1431, recurring Rydeware","year":1274},{"label":"1274–1431, recurring FA"},{"label":"1274 Rydeware","year":1274},{"label":"1431 FA","year":1431}],"when":{"timespans":[{"start":{"in":"1244"},"end":{"in":"1244"}},{"start":{"in":"1269"},"end":{"in":"1269"}},{"start":{"in":"1274"},"end":{"in":"1431"}},{"start":{"in":"1274"},"end":{"in":"1274"}},{"start":{"in":"1431"},"end":{"in":"1431"}}]}},{"toponym":"Hertenton","citations":[{"label":"1254 Misc","year":1254}],"when":{"timespans":[{"start":{"in":"1254"},"end":{"in":"1254"}}]}},{"toponym":"Hertington, Hertyngton, -ton","citations":[{"label":"1306 Ass","year":1306},{"label":"1380–1559, recurring Gaunt","year":1380},{"label":"1380–1559, recurring Lanc"},{"label":"1380 Gaunt","year":1380},{"label":"1559 Lanc","year":1559}],"when":{"timespans":[{"start":{"in":"1306"},"end":{"in":"1306"}},{"start":{"in":"1380"},"end":{"in":"1559"}},{"start":{"in":"1380"},"end":{"in":"1380"}},{"start":{"in":"1559"},"end":{"in":"1559"}}]}},{"toponym":"Hurtyngton","citations":[{"label":"1379 Fine","year":1379}],"when":{"timespans":[{"start":{"in":"1379"},"end":{"in":"1379"}}]}},{"toponym":"Hartington, Hartyngton, -ton","citations":[{"label":"1541–1564, recurring Lanc","year":1541},{"label":"1541 Lanc","year":1541}],"when":{"timespans":[{"start":{"in":"1541"},"end":{"in":"1564"}},{"start":{"in":"1541"},"end":{"in":"1541"}},{"start":{"in":"1556"},"end":{"in":"1556"}},{"start":{"in":"1564"},"end":{"in":"1564"}}]}}],"types":[{"identifier":"http://vocab.getty.edu/aat/300232418","label":"administrative division","sourceLabels":[{"label":"township","lang":"en"}]}],"geometry":{"type":"GeometryCollection","geometries":[{"type":"Point","coordinates":[-1.81017,53.14147],"citations":[{"label":"GeoNames, gazetteer record geonames:2647404"}]},{"type":"Point","coordinates":[-1.813111250961565,53.14121192476148],"citations":[{"label":"Unlock (EDINA) gazetteer, gazetteer record unlock:11166730"}]},{"type":"Point","coordinates":[-1.81457,53.1415],"citations":[{"label":"Key to English Place-Names (KEPN), gazetteer record 3349"}]}]},"when":{"timespans":[{"start":{"in":"1086"},"end":{"in":"1564"}}]},"links":[{"type":"closeMatch","identifier":"https://sws.geonames.org/2647404/"}],"relations":[{"relationType":"gvp:broaderPartitive","relationTo":"https://w3id.org/whg-epns/28/012203","label":"within Hartington"}]}]}