{"@context":"https://raw.githubusercontent.com/LinkedPasts/linked-places-format/main/linkedplaces-context-v1.1.jsonld","type":"FeatureCollection","license":"Digitisation of English Placenames MADS data is licensed to Jisc by the English Place Names Society and released under a Creative Commons Attribution-NonCommercial 4.0 International License.","note":"LPF v1.3, lossy; derived from the PLATO record; plato_commit=ca0afadabec1e23a145c0b03df77e8f151f79832","features":[{"@id":"https://w3id.org/whg-epns/28/013615","type":"Feature","properties":{"title":"Kniveton","ccodes":["GB"],"fclasses":["A","P"]},"names":[{"toponym":"Kniveton","lang":"en","citations":[{"label":"English Place-Name Society survey, volume 28: Derbyshire"}]},{"toponym":"Cheniuetun","citations":[{"label":"1086 DB","year":1086}],"when":{"timespans":[{"start":{"in":"1086"},"end":{"in":"1086"}}]}},{"toponym":"Cniueton(e), Kniueton(e), Knyueton(e), Kniveton(e), Knyveton(e)","citations":[{"label":"1169 P","year":1169},{"label":"1195-1208 RegAnt","year":1195},{"label":"1196 ChancR","year":1196},{"label":"1197 P","year":1197},{"label":"1229 DbA","year":1229},{"label":"1241 RegLich","year":1241},{"label":"1241 RegAnt","year":1241}],"when":{"timespans":[{"start":{"in":"1169"},"end":{"in":"1169"}},{"start":{"in":"1170"},"end":{"in":"1170"}},{"start":{"in":"1195"},"end":{"in":"1195"}},{"start":{"earliest":"1195","latest":"1208"},"end":{"earliest":"1195","latest":"1208"}},{"start":{"in":"1196"},"end":{"in":"1196"}},{"start":{"in":"1197"},"end":{"in":"1197"}},{"start":{"in":"1229"},"end":{"in":"1229"}},{"start":{"in":"1241"},"end":{"in":"1241"}},{"start":{"in":"1241"},"end":{"in":"1241"}}]}},{"toponym":"Knyveton(e) als Kneton","citations":[{"label":"1572 FF","year":1572}],"when":{"timespans":[{"start":{"in":"1572"},"end":{"in":"1572"}}]}},{"toponym":"Kin(n)eton(e)","citations":[{"label":"1212 FF","year":1212},{"label":"13th DbA","year":1200},{"label":"1308 Cl","year":1308}],"when":{"timespans":[{"start":{"in":"1212"},"end":{"in":"1212"}},{"start":{"in":"1232"},"end":{"in":"1232"}},{"start":{"earliest":"1200","latest":"1300"},"end":{"earliest":"1200","latest":"1300"}},{"start":{"in":"1308"},"end":{"in":"1308"}}]}},{"toponym":"Kneveton, Kneueton","citations":[{"label":"1290 Ch","year":1290},{"label":"1315–1384, recurring BelCh","year":1315},{"label":"1315–1384, recurring DbCh"},{"label":"1315 BelCh","year":1315},{"label":"1384 DbCh","year":1384}],"when":{"timespans":[{"start":{"in":"1290"},"end":{"in":"1290"}},{"start":{"in":"1307"},"end":{"in":"1307"}},{"start":{"in":"1315"},"end":{"in":"1384"}},{"start":{"in":"1315"},"end":{"in":"1315"}},{"start":{"in":"1384"},"end":{"in":"1384"}}]}},{"toponym":"Knefton","citations":[{"label":"1362 Derby","year":1362}],"when":{"timespans":[{"start":{"in":"1362"},"end":{"in":"1362"}}]}},{"toponym":"Knyuenton","citations":[{"label":"1411 DbCh","year":1411}],"when":{"timespans":[{"start":{"in":"1411"},"end":{"in":"1411"}}]}},{"toponym":"Knyvyngtone","citations":[{"label":"1441 Visit","year":1441}],"when":{"timespans":[{"start":{"in":"1441"},"end":{"in":"1441"}}]}},{"toponym":"Knyfynton","citations":[{"label":"1610 Speed","year":1610}],"when":{"timespans":[{"start":{"in":"1610"},"end":{"in":"1610"}}]}},{"toponym":"Knyfton","citations":[{"label":"1452 Cl","year":1452}],"when":{"timespans":[{"start":{"in":"1452"},"end":{"in":"1452"}}]}},{"toponym":"Knifton","citations":[{"label":"1734 Poll","year":1734}],"when":{"timespans":[{"start":{"in":"1734"},"end":{"in":"1734"}}]}},{"toponym":"Kneighton","citations":[{"label":"1729 ParReg Brailsford","year":1729}],"when":{"timespans":[{"start":{"in":"1729"},"end":{"in":"1729"}}]}}],"types":[{"identifier":"http://vocab.getty.edu/aat/300232418","label":"administrative division","sourceLabels":[{"label":"township","lang":"en"}]}],"geometry":{"type":"GeometryCollection","geometries":[{"type":"Point","coordinates":[-1.69023,53.04945],"citations":[{"label":"GeoNames, gazetteer record geonames:2645149"}]},{"type":"Point","coordinates":[-1.694142165269635,53.05106470272599],"citations":[{"label":"Unlock (EDINA) gazetteer, gazetteer record unlock:11188805"}]},{"type":"Point","coordinates":[-1.69561,53.0514],"citations":[{"label":"Key to English Place-Names (KEPN), gazetteer record 3354"}]}]},"when":{"timespans":[{"start":{"in":"1086"},"end":{"in":"1734"}}]},"links":[{"type":"closeMatch","identifier":"https://sws.geonames.org/2645149/"}],"relations":[{"relationType":"gvp:broaderPartitive","relationTo":"https://w3id.org/whg-epns/28/013614","label":"within Kniveton"}]}]}