{"@context":"https://raw.githubusercontent.com/LinkedPasts/linked-places-format/main/linkedplaces-context-v1.1.jsonld","type":"FeatureCollection","license":"Digitisation of English Placenames MADS data is licensed to Jisc by the English Place Names Society and released under a Creative Commons Attribution-NonCommercial 4.0 International License.","note":"LPF v1.3, lossy; derived from the PLATO record; plato_commit=ca0afadabec1e23a145c0b03df77e8f151f79832","features":[{"@id":"https://w3id.org/whg-epns/28/014560","type":"Feature","properties":{"title":"Middleton","ccodes":["GB"],"fclasses":["A","P"]},"names":[{"toponym":"Middleton","lang":"en","citations":[{"label":"English Place-Name Society survey, volume 28: Derbyshire"}]},{"toponym":"Middeltune","citations":[{"label":"1086 DB","year":1086}],"when":{"timespans":[{"start":{"in":"1086"},"end":{"in":"1086"}}]}},{"toponym":"Mid(d)elton(e), Myd(d)elton(e), Myd(d)ilton(e), Myd(d)ulton(e), -ton(e)","citations":[{"label":"1210 Cur","year":1210},{"label":"c. 1225 AddCh","year":1215},{"label":"1236–1243, recurring Fees","year":1236},{"label":"1236 Fees","year":1236}],"when":{"timespans":[{"start":{"in":"1210"},"end":{"in":"1210"}},{"start":{"earliest":"1215","latest":"1235"},"end":{"earliest":"1215","latest":"1235"}},{"start":{"in":"1236"},"end":{"in":"1243"}},{"start":{"in":"1236"},"end":{"in":"1236"}},{"start":{"in":"1243"},"end":{"in":"1243"}}]}},{"toponym":"Myd(d)ulton(e) iuxta Yolgreue","citations":[{"label":"1332 Middleton","year":1332}],"when":{"timespans":[{"start":{"in":"1332"},"end":{"in":"1332"}}]}},{"toponym":"Medilton","citations":[{"label":"1462 DbCh","year":1462}],"when":{"timespans":[{"start":{"in":"1462"},"end":{"in":"1462"}}]}}],"types":[{"identifier":"http://vocab.getty.edu/aat/300232418","label":"administrative division","sourceLabels":[{"label":"township","lang":"en"}]}],"geometry":{"type":"GeometryCollection","geometries":[{"type":"Point","coordinates":[-1.71667,53.16667],"citations":[{"label":"GeoNames, gazetteer record geonames:2642594"}]},{"type":"Point","coordinates":[-1.70987,53.1503],"citations":[{"label":"Key to English Place-Names (KEPN), gazetteer record 3359"}]}]},"when":{"timespans":[{"start":{"in":"1086"},"end":{"in":"1462"}}]},"links":[{"type":"closeMatch","identifier":"https://sws.geonames.org/2642594/"}],"relations":[{"relationType":"gvp:broaderPartitive","relationTo":"https://w3id.org/whg-epns/28/014559","label":"within Middleton and Smerrill"}]}]}