{"@context":"https://raw.githubusercontent.com/LinkedPasts/linked-places-format/main/linkedplaces-context-v1.1.jsonld","type":"FeatureCollection","license":"Digitisation of English Placenames MADS data is licensed to Jisc by the English Place Names Society and released under a Creative Commons Attribution-NonCommercial 4.0 International License.","note":"LPF v1.3, lossy; derived from the PLATO record; plato_commit=fa0d247ccc0263f8f19c8d7cdcd163df96935d1e","features":[{"@id":"https://w3id.org/whg-epns/28/016575","type":"Feature","properties":{"title":"Alvaston","ccodes":["GB"],"fclasses":["A","P"]},"names":[{"toponym":"Alvaston","lang":"en","citations":[{"label":"English Place-Name Society survey, volume 28: Derbyshire"}]},{"toponym":"(æt) Alewaldestune","citations":[{"label":"c. 1002 ASWills","year":992}],"when":{"timespans":[{"start":{"earliest":"0992","latest":"1012"},"end":{"earliest":"0992","latest":"1012"}}]}},{"toponym":"Aluualdestona","citations":[{"label":"Hy 2 AddCh","year":1154}],"when":{"timespans":[{"start":{"earliest":"1154","latest":"1189"},"end":{"earliest":"1154","latest":"1189"}}]}},{"toponym":"Al(e)waldeston(e), Al(e)waldiston(e), -ton(e)","citations":[{"label":"Hy 2 Darley","year":1154},{"label":"1208 Cur","year":1208},{"label":"FF","year":1219},{"label":"Ipm"},{"label":"1219 FF","year":1219},{"label":"1330 Ipm","year":1330}],"when":{"timespans":[{"start":{"earliest":"1154","latest":"1189"},"end":{"earliest":"1154","latest":"1189"}},{"start":{"in":"1208"},"end":{"in":"1208"}},{"start":{"in":"1219"},"end":{"in":"1330"}},{"start":{"in":"1219"},"end":{"in":"1219"}},{"start":{"in":"1330"},"end":{"in":"1330"}}]}},{"toponym":"Athelwaldeston","citations":[{"label":"c. 1002 BurtReg","year":992}],"when":{"timespans":[{"start":{"earliest":"0992","latest":"1012"},"end":{"earliest":"0992","latest":"1012"}}]}},{"toponym":"Alewoldestune","citations":[{"label":"1086 DB","year":1086}],"when":{"timespans":[{"start":{"in":"1086"},"end":{"in":"1086"}}]}},{"toponym":"Al(e)woldeston(e), Al(e)woldiston(e), -ton(e)","citations":[{"label":"Hy 2 Darley","year":1154},{"label":"e. 13th Dale","year":1200},{"label":"1214 Darley","year":1214},{"label":"StLK","year":1227},{"label":"Dale"},{"label":"1227 StLK","year":1227},{"label":"1300 Dale","year":1300}],"when":{"timespans":[{"start":{"earliest":"1154","latest":"1189"},"end":{"earliest":"1154","latest":"1189"}},{"start":{"earliest":"1200","latest":"1225"},"end":{"earliest":"1200","latest":"1225"}},{"start":{"in":"1214"},"end":{"in":"1214"}},{"start":{"in":"1227"},"end":{"in":"1300"}},{"start":{"in":"1227"},"end":{"in":"1227"}},{"start":{"in":"1300"},"end":{"in":"1300"}}]}},{"toponym":"Alvadeston","citations":[{"label":"1236 Fees","year":1236}],"when":{"timespans":[{"start":{"in":"1236"},"end":{"in":"1236"}}]}},{"toponym":"Alwodeston","citations":[{"label":"1251 Ch","year":1251}],"when":{"timespans":[{"start":{"in":"1251"},"end":{"in":"1251"}}]}},{"toponym":"Al(e)waston(e)","citations":[{"label":"c. 1250 Dale","year":1240},{"label":"1257 Darley","year":1257},{"label":"1272 Ass","year":1272},{"label":"Darley","year":1280},{"label":"DKR"},{"label":"1280 Darley","year":1280},{"label":"1546 DKR","year":1546}],"when":{"timespans":[{"start":{"earliest":"1240","latest":"1260"},"end":{"earliest":"1240","latest":"1260"}},{"start":{"in":"1257"},"end":{"in":"1257"}},{"start":{"in":"1272"},"end":{"in":"1272"}},{"start":{"in":"1280"},"end":{"in":"1546"}},{"start":{"in":"1280"},"end":{"in":"1280"}},{"start":{"in":"1546"},"end":{"in":"1546"}}]}},{"toponym":"Halwaston","citations":[{"label":"1284-6 FA","year":1284}],"when":{"timespans":[{"start":{"earliest":"1284","latest":"1286"},"end":{"earliest":"1284","latest":"1286"}}]}},{"toponym":"Alewaxtone","citations":[{"label":"1281 Ass","year":1281}],"when":{"timespans":[{"start":{"in":"1281"},"end":{"in":"1281"}}]}},{"toponym":"Alweston","citations":[{"label":"1388 Cl","year":1388}],"when":{"timespans":[{"start":{"in":"1388"},"end":{"in":"1388"}}]}},{"toponym":"Alwoston","citations":[{"label":"1431 Fine","year":1431}],"when":{"timespans":[{"start":{"in":"1431"},"end":{"in":"1431"}}]}},{"toponym":"Alvaston","citations":[{"label":"1572 AddCh","year":1572},{"label":"DbA","year":1577},{"label":"1577 DbA","year":1577}],"when":{"timespans":[{"start":{"in":"1572"},"end":{"in":"1572"}},{"start":{"in":"1574"},"end":{"in":"1574"}},{"start":{"in":"1577"},"end":{"in":"1577"}},{"start":{"in":"1577"},"end":{"in":"1577"}}]}}],"types":[{"identifier":"http://vocab.getty.edu/aat/300232418","label":"administrative division","sourceLabels":[{"label":"township","lang":"en"}]}],"geometry":{"type":"GeometryCollection","geometries":[{"type":"Point","coordinates":[-1.42239,52.89176],"citations":[{"label":"GeoNames, gazetteer record geonames:8378603"}]},{"type":"Point","coordinates":[-1.427618193285469,52.89724452556212],"citations":[{"label":"Unlock (EDINA) gazetteer, gazetteer record unlock:11061521"}]},{"type":"Point","coordinates":[-1.42912,52.8976],"citations":[{"label":"Key to English Place-Names (KEPN), gazetteer record 3370"}]}]},"when":{"timespans":[{"start":{"in":"0992"},"end":{"in":"1577"}}]},"links":[{"type":"closeMatch","identifier":"https://sws.geonames.org/8378603/"}],"relations":[{"relationType":"gvp:broaderPartitive","relationTo":"https://w3id.org/whg-epns/28/016574","label":"within Alvaston and Boulton"}]}]}