{"@context":"https://raw.githubusercontent.com/LinkedPasts/linked-places-format/main/linkedplaces-context-v1.1.jsonld","type":"FeatureCollection","license":"Digitisation of English Placenames MADS data is licensed to Jisc by the English Place Names Society and released under a Creative Commons Attribution-NonCommercial 4.0 International License.","note":"LPF v1.3, lossy; derived from the PLATO record; plato_commit=ca0afadabec1e23a145c0b03df77e8f151f79832","features":[{"@id":"http://placenames.org.uk/id/placename/28/017897","type":"Feature","properties":{"title":"Denby","ccodes":["GB"],"fclasses":["A","P"]},"names":[{"toponym":"Denby","lang":"en","citations":[{"label":"English Place-Name Society survey, volume 28: Derbyshire"}]},{"toponym":"Denebi","citations":[{"label":"1086 DB","year":1086}],"when":{"timespans":[{"start":{"in":"1086"},"end":{"in":"1086"}}]}},{"toponym":"Deneby(e)","citations":[{"label":"1234 Fees","year":1234},{"label":"1237 Darley","year":1237},{"label":"1243 Fees","year":1243},{"label":"1266–1395, recurring Darley","year":1266},{"label":"1266–1395, recurring Pat"},{"label":"1266 Darley","year":1266},{"label":"1395 Pat","year":1395}],"when":{"timespans":[{"start":{"in":"1234"},"end":{"in":"1234"}},{"start":{"in":"1237"},"end":{"in":"1237"}},{"start":{"earliest":"1230","latest":"1250"},"end":{"earliest":"1230","latest":"1250"}},{"start":{"in":"1243"},"end":{"in":"1243"}},{"start":{"in":"1266"},"end":{"in":"1395"}},{"start":{"in":"1266"},"end":{"in":"1266"}},{"start":{"in":"1395"},"end":{"in":"1395"}}]}},{"toponym":"Denneby","citations":[{"label":"1236 Fees","year":1236}],"when":{"timespans":[{"start":{"in":"1236"},"end":{"in":"1236"}}]}},{"toponym":"Denby(e)","citations":[{"label":"1308 Pat","year":1308},{"label":"1330 Ass","year":1330},{"label":"1394–1394, recurring Cl","year":1394},{"label":"1394 Cl","year":1394}],"when":{"timespans":[{"start":{"in":"1308"},"end":{"in":"1308"}},{"start":{"in":"1314"},"end":{"in":"1314"}},{"start":{"in":"1330"},"end":{"in":"1330"}},{"start":{"in":"1394"},"end":{"in":"1394"}},{"start":{"in":"1394"},"end":{"in":"1394"}}]}}],"types":[{"identifier":"http://vocab.getty.edu/aat/300232418","label":"administrative division","sourceLabels":[{"label":"township","lang":"en"}]}],"geometry":{"type":"GeometryCollection","geometries":[{"type":"Point","coordinates":[-1.41004,53.01394],"citations":[{"label":"GeoNames, gazetteer record geonames:2651383"}]},{"type":"Point","coordinates":[-1.426072979903296,53.01411240556754],"citations":[{"label":"Unlock (EDINA) gazetteer, gazetteer record unlock:11128562"}]},{"type":"Point","coordinates":[-1.41267,53.0144],"citations":[{"label":"Key to English Place-Names (KEPN), gazetteer record 3380"}]}]},"when":{"timespans":[{"start":{"in":"1086"},"end":{"in":"1395"}}]},"links":[{"type":"closeMatch","identifier":"https://sws.geonames.org/2651383/"}],"relations":[{"relationType":"gvp:broaderPartitive","relationTo":"http://placenames.org.uk/id/placename/28/017896","label":"within Denby"}]}]}