{"@context":"https://raw.githubusercontent.com/LinkedPasts/linked-places-format/main/linkedplaces-context-v1.1.jsonld","type":"FeatureCollection","license":"Digitisation of English Placenames MADS data is licensed to Jisc by the English Place Names Society and released under a Creative Commons Attribution-NonCommercial 4.0 International License.","note":"LPF v1.3, lossy; derived from the PLATO record; plato_commit=ca0afadabec1e23a145c0b03df77e8f151f79832","features":[{"@id":"http://placenames.org.uk/id/placename/28/017896","type":"Feature","properties":{"title":"Denby","ccodes":["GB"],"fclasses":["A","P"]},"names":[{"toponym":"Denby","lang":"en","citations":[{"label":"English Place-Name Society survey, volume 28: Derbyshire"}]}],"types":[{"identifier":"http://vocab.getty.edu/aat/300232418","label":"administrative division","sourceLabels":[{"label":"parish","lang":"en"}]}],"geometry":{"type":"GeometryCollection","geometries":[{"type":"Point","coordinates":[-1.41004,53.01394],"citations":[{"label":"GeoNames, gazetteer record geonames:2651383"}]},{"type":"Point","coordinates":[-1.426072979903296,53.01411240556754],"citations":[{"label":"Unlock (EDINA) gazetteer, gazetteer record unlock:11128562"}]},{"type":"Point","coordinates":[-1.41267,53.0144],"citations":[{"label":"Key to English Place-Names (KEPN), gazetteer record 3380"}]}]},"links":[{"type":"closeMatch","identifier":"https://sws.geonames.org/2651383/"}],"relations":[{"relationType":"gvp:broaderPartitive","relationTo":"http://placenames.org.uk/id/placename/28/016439","label":"within Morleyston and Litchurch"}]}]}