{"@context":"https://raw.githubusercontent.com/LinkedPasts/linked-places-format/main/linkedplaces-context-v1.1.jsonld","type":"FeatureCollection","license":"Digitisation of English Placenames MADS data is licensed to Jisc by the English Place Names Society and released under a Creative Commons Attribution-NonCommercial 4.0 International License.","note":"LPF v1.3, lossy; derived from the PLATO record; plato_commit=ca0afadabec1e23a145c0b03df77e8f151f79832","features":[{"@id":"https://w3id.org/whg-epns/28/018712","type":"Feature","properties":{"title":"Egginton","ccodes":["GB"],"fclasses":["A","P"]},"names":[{"toponym":"Egginton","lang":"en","citations":[{"label":"English Place-Name Society survey, volume 28: Derbyshire"}]},{"toponym":"(æt) Ecgintune","citations":[{"label":"1012 Peniarth","year":1012}],"when":{"timespans":[{"start":{"in":"1012"},"end":{"in":"1012"}}]}},{"toponym":"Ecginton","citations":[{"label":"1265 Misc","year":1265}],"when":{"timespans":[{"start":{"in":"1265"},"end":{"in":"1265"}}]}},{"toponym":"Eghintune","citations":[{"label":"1086 DB","year":1086}],"when":{"timespans":[{"start":{"in":"1086"},"end":{"in":"1086"}}]}},{"toponym":"Heg(g)inton","citations":[{"label":"c. 1141 Tutbury","year":1131},{"label":"1272 Ipm","year":1272},{"label":"1328 Banco","year":1328}],"when":{"timespans":[{"start":{"earliest":"1131","latest":"1151"},"end":{"earliest":"1131","latest":"1151"}},{"start":{"in":"1272"},"end":{"in":"1272"}},{"start":{"in":"1328"},"end":{"in":"1328"}}]}},{"toponym":"Hegentona","citations":[{"label":"1141 France","year":1141}],"when":{"timespans":[{"start":{"in":"1141"},"end":{"in":"1141"}}]}},{"toponym":"Eg(g)inton(e), Eg(g)ynton(e), -ton(e)","citations":[{"label":"e. 13th Dale","year":1200},{"label":"1228 Cl","year":1228},{"label":"1240 FF","year":1240},{"label":"1243 Fees","year":1243}],"when":{"timespans":[{"start":{"earliest":"1200","latest":"1225"},"end":{"earliest":"1200","latest":"1225"}},{"start":{"in":"1228"},"end":{"in":"1228"}},{"start":{"in":"1240"},"end":{"in":"1240"}},{"start":{"in":"1243"},"end":{"in":"1243"}}]}},{"toponym":"Egg-, Eg(g)ynton(e) super le Heth","citations":[{"label":"1442 FF","year":1442}],"when":{"timespans":[{"start":{"in":"1442"},"end":{"in":"1442"}}]}},{"toponym":"Eg(g)enton(a)","citations":[{"label":"1207 P","year":1207},{"label":"1208-15 RegAnt","year":1208},{"label":"1243 Fees","year":1243},{"label":"1255 BurtAn","year":1255},{"label":"Hy 3 WollCh","year":1216},{"label":"1524 Woll","year":1524}],"when":{"timespans":[{"start":{"in":"1207"},"end":{"in":"1207"}},{"start":{"earliest":"1208","latest":"1215"},"end":{"earliest":"1208","latest":"1215"}},{"start":{"in":"1243"},"end":{"in":"1243"}},{"start":{"in":"1255"},"end":{"in":"1255"}},{"start":{"in":"1256"},"end":{"in":"1256"}},{"start":{"earliest":"1216","latest":"1272"},"end":{"earliest":"1216","latest":"1272"}},{"start":{"in":"1524"},"end":{"in":"1524"}}]}},{"toponym":"Ekentone","citations":[{"label":"1219 FF","year":1219}],"when":{"timespans":[{"start":{"in":"1219"},"end":{"in":"1219"}}]}},{"toponym":"Eg(g)indon'","citations":[{"label":"1221-30 Fees","year":1221},{"label":"1284-6 FA","year":1284}],"when":{"timespans":[{"start":{"earliest":"1221","latest":"1230"},"end":{"earliest":"1221","latest":"1230"}},{"start":{"earliest":"1284","latest":"1286"},"end":{"earliest":"1284","latest":"1286"}}]}},{"toponym":"Ekyngton","citations":[{"label":"1234 EveryCh","year":1234},{"label":"1428 FA","year":1428}],"when":{"timespans":[{"start":{"in":"1234"},"end":{"in":"1234"}},{"start":{"in":"1428"},"end":{"in":"1428"}}]}},{"toponym":"Ekynton(e)","citations":[{"label":"1302 FA","year":1302},{"label":"1309 FF","year":1309},{"label":"1330 Ass","year":1330},{"label":"1346 FA","year":1346}],"when":{"timespans":[{"start":{"in":"1302"},"end":{"in":"1302"}},{"start":{"in":"1309"},"end":{"in":"1309"}},{"start":{"in":"1330"},"end":{"in":"1330"}},{"start":{"in":"1346"},"end":{"in":"1346"}}]}},{"toponym":"Eg(g)ington(e), Eg(g)yngton(e), -ton(e)","citations":[{"label":"1303 FF","year":1303},{"label":"1306 Ass","year":1306},{"label":"1340 Burton","year":1340},{"label":"1422–1586, recurring EveryCh","year":1422},{"label":"1422–1586, recurring Lanc"},{"label":"1422 EveryCh","year":1422},{"label":"1586 Lanc","year":1586}],"when":{"timespans":[{"start":{"in":"1303"},"end":{"in":"1303"}},{"start":{"in":"1306"},"end":{"in":"1306"}},{"start":{"in":"1340"},"end":{"in":"1340"}},{"start":{"in":"1422"},"end":{"in":"1586"}},{"start":{"in":"1422"},"end":{"in":"1422"}},{"start":{"in":"1586"},"end":{"in":"1586"}}]}}],"types":[{"identifier":"http://vocab.getty.edu/aat/300232418","label":"administrative division","sourceLabels":[{"label":"township","lang":"en"}]}],"geometry":{"type":"GeometryCollection","geometries":[{"type":"Point","coordinates":[-1.60452,52.85027],"citations":[{"label":"GeoNames, gazetteer record geonames:2650191"}]},{"type":"Point","coordinates":[-1.606424402078058,52.85301915784527],"citations":[{"label":"Unlock (EDINA) gazetteer, gazetteer record unlock:11138246"}]},{"type":"Point","coordinates":[-1.6079,52.8534],"citations":[{"label":"Key to English Place-Names (KEPN), gazetteer record 3385"}]}]},"when":{"timespans":[{"start":{"in":"1012"},"end":{"in":"1586"}}]},"links":[{"type":"closeMatch","identifier":"https://sws.geonames.org/2650191/"}],"relations":[{"relationType":"gvp:broaderPartitive","relationTo":"https://w3id.org/whg-epns/28/018711","label":"within Egginton"}]}]}