{"@context":"https://raw.githubusercontent.com/LinkedPasts/linked-places-format/main/linkedplaces-context-v1.1.jsonld","type":"FeatureCollection","license":"Digitisation of English Placenames MADS data is licensed to Jisc by the English Place Names Society and released under a Creative Commons Attribution-NonCommercial 4.0 International License.","note":"LPF v1.3, lossy; derived from the PLATO record; plato_commit=ca0afadabec1e23a145c0b03df77e8f151f79832","features":[{"@id":"http://placenames.org.uk/id/placename/28/019911","type":"Feature","properties":{"title":"Kirk Langley","ccodes":["GB"],"fclasses":["A","P"]},"names":[{"toponym":"Kirk Langley","lang":"en","citations":[{"label":"English Place-Name Society survey, volume 28: Derbyshire"}]},{"toponym":"Langelei","citations":[{"label":"1086 DB","year":1086}],"when":{"timespans":[{"start":{"in":"1086"},"end":{"in":"1086"}}]}},{"toponym":"Langeleya, Langeleye, Langeleg', Langelee, Langel'","citations":[{"label":"1230 Cl","year":1230},{"label":"1230 Ch","year":1230},{"label":"1236–1236, recurring Fees","year":1236},{"label":"1236 Fees","year":1236}],"when":{"timespans":[{"start":{"in":"1230"},"end":{"in":"1230"}},{"start":{"in":"1230"},"end":{"in":"1230"}},{"start":{"in":"1233"},"end":{"in":"1233"}},{"start":{"in":"1236"},"end":{"in":"1236"}},{"start":{"in":"1236"},"end":{"in":"1236"}}]}},{"toponym":"Langley","citations":[{"label":"1502 DbCh","year":1502}],"when":{"timespans":[{"start":{"in":"1502"},"end":{"in":"1502"}}]}},{"toponym":"Long(e)le, Long(e)ley(e), Long(e)legh","citations":[{"label":"1264 Misc","year":1264},{"label":"1291 Tax","year":1291},{"label":"1301–1452, recurring Ipm","year":1301},{"label":"1301–1452, recurring Cl"},{"label":"1301 Ipm","year":1301},{"label":"1452 Cl","year":1452}],"when":{"timespans":[{"start":{"in":"1264"},"end":{"in":"1264"}},{"start":{"in":"1291"},"end":{"in":"1291"}},{"start":{"in":"1301"},"end":{"in":"1452"}},{"start":{"in":"1301"},"end":{"in":"1301"}},{"start":{"in":"1452"},"end":{"in":"1452"}}]}},{"toponym":"Lonkeleg'","citations":[{"label":"1236 Fees","year":1236}],"when":{"timespans":[{"start":{"in":"1236"},"end":{"in":"1236"}}]}},{"toponym":"Kyrk(e)lang(e)le, Kirk(e)lang(e)le, Kirk(e)lang(e)ley(e)","citations":[{"label":"1281 Ass","year":1281},{"label":"1302 FA","year":1302},{"label":"1326 Pat","year":1326},{"label":"1330 Ass","year":1330},{"label":"1337–1337, recurring Ch","year":1337},{"label":"1337 Ch","year":1337}],"when":{"timespans":[{"start":{"in":"1281"},"end":{"in":"1281"}},{"start":{"in":"1302"},"end":{"in":"1302"}},{"start":{"in":"1326"},"end":{"in":"1326"}},{"start":{"in":"1330"},"end":{"in":"1330"}},{"start":{"in":"1337"},"end":{"in":"1337"}},{"start":{"in":"1337"},"end":{"in":"1337"}}]}},{"toponym":"Kyrk(e)long(e)le, Kirk(e)long(e)le, Kirk(e)long(e)ley(e)","citations":[{"label":"1269 Ass","year":1269},{"label":"1284-6 FA","year":1284},{"label":"1297 Pat","year":1297},{"label":"1303 WollCh","year":1303},{"label":"1306 Ass","year":1306},{"label":"1308–1462, recurring WollCh","year":1308},{"label":"1308–1462, recurring Woll"},{"label":"1308 WollCh","year":1308},{"label":"1462 Woll","year":1462}],"when":{"timespans":[{"start":{"in":"1269"},"end":{"in":"1269"}},{"start":{"earliest":"1284","latest":"1286"},"end":{"earliest":"1284","latest":"1286"}},{"start":{"in":"1297"},"end":{"in":"1297"}},{"start":{"in":"1303"},"end":{"in":"1303"}},{"start":{"in":"1306"},"end":{"in":"1306"}},{"start":{"in":"1308"},"end":{"in":"1462"}},{"start":{"in":"1308"},"end":{"in":"1308"}},{"start":{"in":"1462"},"end":{"in":"1462"}}]}},{"toponym":"Chyrchelangele, Chyrchelangeley","citations":[{"label":"1269 Ass","year":1269}],"when":{"timespans":[{"start":{"in":"1269"},"end":{"in":"1269"}},{"start":{"in":"1330"},"end":{"in":"1330"}}]}},{"toponym":"Chirchelong(e)ley(e), Churchelong(e)ley(e)","citations":[{"label":"1272 Ipm","year":1272},{"label":"1291 Pap","year":1291},{"label":"1330 Ass","year":1330},{"label":"1440 Kerry","year":1440}],"when":{"timespans":[{"start":{"in":"1272"},"end":{"in":"1272"}},{"start":{"in":"1291"},"end":{"in":"1291"}},{"start":{"in":"1330"},"end":{"in":"1330"}},{"start":{"in":"1440"},"end":{"in":"1440"}}]}}],"types":[{"identifier":"http://vocab.getty.edu/aat/300232418","label":"administrative division","sourceLabels":[{"label":"township","lang":"en"}]}],"geometry":{"type":"GeometryCollection","geometries":[{"type":"Point","coordinates":[-1.57254,52.94597],"citations":[{"label":"GeoNames, gazetteer record geonames:2645256"}]},{"type":"Point","coordinates":[-1.5758445509344,52.94281827958593],"citations":[{"label":"Unlock (EDINA) gazetteer, gazetteer record unlock:11187742"}]},{"type":"Point","coordinates":[-1.57733,52.9431],"citations":[{"label":"Key to English Place-Names (KEPN), gazetteer record 3396"}]}]},"when":{"timespans":[{"start":{"in":"1086"},"end":{"in":"1502"}}]},"links":[{"type":"closeMatch","identifier":"https://sws.geonames.org/2645256/"}],"relations":[{"relationType":"gvp:broaderPartitive","relationTo":"http://placenames.org.uk/id/placename/28/019910","label":"within Kirk Langley"}]}]}