{"@context":"https://raw.githubusercontent.com/LinkedPasts/linked-places-format/main/linkedplaces-context-v1.1.jsonld","type":"FeatureCollection","license":"Digitisation of English Placenames MADS data is licensed to Jisc by the English Place Names Society and released under a Creative Commons Attribution-NonCommercial 4.0 International License.","note":"LPF v1.3, lossy; derived from the PLATO record; plato_commit=fa0d247ccc0263f8f19c8d7cdcd163df96935d1e","features":[{"@id":"https://w3id.org/whg-epns/28/022297","type":"Feature","properties":{"title":"Weston upon Trent","ccodes":["GB"],"fclasses":["A","P"]},"names":[{"toponym":"Weston upon Trent","lang":"en","citations":[{"label":"English Place-Name Society survey, volume 28: Derbyshire"}]},{"toponym":"(into) Westune, Westun","citations":[{"label":"1009 SaltCh","year":1009}],"when":{"timespans":[{"start":{"in":"1009"},"end":{"in":"1009"}}]}},{"toponym":"Westune, Weston(e), Westona","citations":[{"label":"1086 DB","year":1086},{"label":"late 11th Werb","year":1075},{"label":"Ch","year":1250},{"label":"1250 Ch","year":1250}],"when":{"timespans":[{"start":{"in":"1086"},"end":{"in":"1086"}},{"start":{"earliest":"1075","latest":"1100"},"end":{"earliest":"1075","latest":"1100"}},{"start":{"earliest":"1140","latest":"1160"},"end":{"earliest":"1140","latest":"1160"}},{"start":{"earliest":"1154","latest":"1189"},"end":{"earliest":"1154","latest":"1189"}},{"start":{"earliest":"1200","latest":"1225"},"end":{"earliest":"1200","latest":"1225"}},{"start":{"in":"1225"},"end":{"in":"1225"}},{"start":{"in":"1250"},"end":{"in":"1250"}},{"start":{"in":"1250"},"end":{"in":"1250"}}]}},{"toponym":"Westona super Trent","citations":[{"label":"1281 Ass","year":1281},{"label":"1349 Pat","year":1349},{"label":"Cl","year":1388},{"label":"1388 Cl","year":1388}],"when":{"timespans":[{"start":{"in":"1281"},"end":{"in":"1281"}},{"start":{"in":"1330"},"end":{"in":"1330"}},{"start":{"in":"1349"},"end":{"in":"1349"}},{"start":{"in":"1388"},"end":{"in":"1388"}},{"start":{"in":"1388"},"end":{"in":"1388"}}]}}],"types":[{"identifier":"http://vocab.getty.edu/aat/300232418","label":"administrative division","sourceLabels":[{"label":"township","lang":"en"}]}],"geometry":{"type":"GeometryCollection","geometries":[{"type":"Point","coordinates":[-1.40119,52.84835],"citations":[{"label":"GeoNames, gazetteer record geonames:2634302"}]},{"type":"Point","coordinates":[-1.40001,52.8525],"citations":[{"label":"Key to English Place-Names (KEPN), gazetteer record 3417"}]}]},"when":{"timespans":[{"start":{"in":"1009"},"end":{"in":"1388"}}]},"links":[{"type":"closeMatch","identifier":"https://sws.geonames.org/2634302/"}],"relations":[{"relationType":"gvp:broaderPartitive","relationTo":"https://w3id.org/whg-epns/28/022296","label":"within Weston upon Trent"}]}]}