{"@context":"https://raw.githubusercontent.com/LinkedPasts/linked-places-format/main/linkedplaces-context-v1.1.jsonld","type":"FeatureCollection","license":"Digitisation of English Placenames MADS data is licensed to Jisc by the English Place Names Society and released under a Creative Commons Attribution-NonCommercial 4.0 International License.","note":"LPF v1.3, lossy; derived from the PLATO record; plato_commit=ca0afadabec1e23a145c0b03df77e8f151f79832","features":[{"@id":"http://placenames.org.uk/id/placename/28/022370","type":"Feature","properties":{"title":"Willington","ccodes":["GB"],"fclasses":["A","P"]},"names":[{"toponym":"Willington","lang":"en","citations":[{"label":"English Place-Name Society survey, volume 28: Derbyshire"}]}],"types":[{"identifier":"http://vocab.getty.edu/aat/300232418","label":"administrative division","sourceLabels":[{"label":"parish","lang":"en"}]}],"geometry":{"type":"GeometryCollection","geometries":[{"type":"Point","coordinates":[-1.56332,52.85203],"citations":[{"label":"GeoNames, gazetteer record geonames:2633897"}]},{"type":"Point","coordinates":[-1.56187002274362,52.85286312287339],"citations":[{"label":"Unlock (EDINA) gazetteer, gazetteer record unlock:11323160"}]},{"type":"Point","coordinates":[-1.56335,52.8532],"citations":[{"label":"Key to English Place-Names (KEPN), gazetteer record 3418"}]}]},"links":[{"type":"closeMatch","identifier":"https://sws.geonames.org/2633897/"}],"relations":[{"relationType":"gvp:broaderPartitive","relationTo":"http://placenames.org.uk/id/placename/28/016439","label":"within Morleyston and Litchurch"}]}]}