{"@context":"https://raw.githubusercontent.com/LinkedPasts/linked-places-format/main/linkedplaces-context-v1.1.jsonld","type":"FeatureCollection","license":"Digitisation of English Placenames MADS data is licensed to Jisc by the English Place Names Society and released under a Creative Commons Attribution-NonCommercial 4.0 International License.","note":"LPF v1.3, lossy; derived from the PLATO record; plato_commit=ca0afadabec1e23a145c0b03df77e8f151f79832","features":[{"@id":"http://placenames.org.uk/id/placename/28/022371","type":"Feature","properties":{"title":"Willington","ccodes":["GB"],"fclasses":["A","P"]},"names":[{"toponym":"Willington","lang":"en","citations":[{"label":"English Place-Name Society survey, volume 28: Derbyshire"}]},{"toponym":"Willetune","citations":[{"label":"1086 DB","year":1086}],"when":{"timespans":[{"start":{"in":"1086"},"end":{"in":"1086"}}]}},{"toponym":"Wil(l)intun(e), Wil(l)inton(a), Wyl(l)intun(e), Wyl(l)inton(a), Wyl(l)yntun(e), Wyl(l)ynton(a)","citations":[{"label":"c. 1100 BurtCh","year":1090},{"label":"1129-53 Burton","year":1129},{"label":"1178 P","year":1178},{"label":"c. 1180 Okeover","year":1170},{"label":"1188 P","year":1188},{"label":"1154–1610, recurring StoweCh","year":1154},{"label":"1154–1610, recurring Speed"},{"label":"Hy 2 StoweCh","year":1154},{"label":"1610 Speed","year":1610}],"when":{"timespans":[{"start":{"earliest":"1090","latest":"1110"},"end":{"earliest":"1090","latest":"1110"}},{"start":{"earliest":"1129","latest":"1153"},"end":{"earliest":"1129","latest":"1153"}},{"start":{"in":"1178"},"end":{"in":"1178"}},{"start":{"earliest":"1170","latest":"1190"},"end":{"earliest":"1170","latest":"1190"}},{"start":{"in":"1188"},"end":{"in":"1188"}},{"start":{"in":"1154"},"end":{"in":"1610"}},{"start":{"earliest":"1154","latest":"1189"},"end":{"earliest":"1154","latest":"1189"}},{"start":{"in":"1610"},"end":{"in":"1610"}}]}},{"toponym":"Wilenton(a)","citations":[{"label":"1114 BurtCh","year":1114},{"label":"1188–1272, recurring StoweCh","year":1188},{"label":"1188–1272, recurring StoweCh"},{"label":"1188-97 StoweCh","year":1188},{"label":"Hy 3 StoweCh","year":1216}],"when":{"timespans":[{"start":{"in":"1114"},"end":{"in":"1114"}},{"start":{"earliest":"1160","latest":"1175"},"end":{"earliest":"1160","latest":"1175"}},{"start":{"in":"1185"},"end":{"in":"1185"}},{"start":{"in":"1188"},"end":{"in":"1188"}},{"start":{"in":"1188"},"end":{"in":"1272"}},{"start":{"earliest":"1188","latest":"1197"},"end":{"earliest":"1188","latest":"1197"}},{"start":{"earliest":"1216","latest":"1272"},"end":{"earliest":"1216","latest":"1272"}}]}},{"toponym":"Wil(l)ington(e), Wyl(l)ington(e), Wyl(l)yngton(e)","citations":[{"label":"1198 Cur","year":1198},{"label":"1220 FF","year":1220},{"label":"1252 StoweCh","year":1252},{"label":"1269–1269, recurring Ass","year":1269},{"label":"1269 Ass","year":1269}],"when":{"timespans":[{"start":{"in":"1198"},"end":{"in":"1198"}},{"start":{"in":"1220"},"end":{"in":"1220"}},{"start":{"in":"1226"},"end":{"in":"1226"}},{"start":{"in":"1234"},"end":{"in":"1234"}},{"start":{"in":"1252"},"end":{"in":"1252"}},{"start":{"in":"1252"},"end":{"in":"1252"}},{"start":{"in":"1269"},"end":{"in":"1269"}},{"start":{"in":"1269"},"end":{"in":"1269"}}]}},{"toponym":"Wiliton', Wyliton'","citations":[{"label":"1201 ChancR","year":1201},{"label":"1231 Memo","year":1231}],"when":{"timespans":[{"start":{"in":"1201"},"end":{"in":"1201"}},{"start":{"in":"1230"},"end":{"in":"1230"}},{"start":{"in":"1231"},"end":{"in":"1231"}}]}},{"toponym":"Wylghton","citations":[{"label":"1325 Ipm","year":1325}],"when":{"timespans":[{"start":{"in":"1325"},"end":{"in":"1325"}}]}},{"toponym":"Welynton","citations":[{"label":"1390 Pat","year":1390}],"when":{"timespans":[{"start":{"in":"1390"},"end":{"in":"1390"}}]}},{"toponym":"Wellington","citations":[{"label":"1577 DbA","year":1577}],"when":{"timespans":[{"start":{"in":"1577"},"end":{"in":"1577"}}]}}],"types":[{"identifier":"http://vocab.getty.edu/aat/300232418","label":"administrative division","sourceLabels":[{"label":"township","lang":"en"}]}],"geometry":{"type":"GeometryCollection","geometries":[{"type":"Point","coordinates":[-1.56332,52.85203],"citations":[{"label":"GeoNames, gazetteer record geonames:2633897"}]},{"type":"Point","coordinates":[-1.56187002274362,52.85286312287339],"citations":[{"label":"Unlock (EDINA) gazetteer, gazetteer record unlock:11323160"}]},{"type":"Point","coordinates":[-1.56335,52.8532],"citations":[{"label":"Key to English Place-Names (KEPN), gazetteer record 3418"}]}]},"when":{"timespans":[{"start":{"in":"1086"},"end":{"in":"1610"}}]},"links":[{"type":"closeMatch","identifier":"https://sws.geonames.org/2633897/"}],"relations":[{"relationType":"gvp:broaderPartitive","relationTo":"http://placenames.org.uk/id/placename/28/022370","label":"within Willington"}]}]}