{"@context":"https://raw.githubusercontent.com/LinkedPasts/linked-places-format/main/linkedplaces-context-v1.1.jsonld","type":"FeatureCollection","license":"Digitisation of English Placenames MADS data is licensed to Jisc by the English Place Names Society and released under a Creative Commons Attribution-NonCommercial 4.0 International License.","note":"LPF v1.3, lossy; derived from the PLATO record; plato_commit=fa0d247ccc0263f8f19c8d7cdcd163df96935d1e","features":[{"@id":"https://w3id.org/whg-epns/52/000051","type":"Feature","properties":{"title":"Rowbarrow Hundred","ccodes":["GB"],"fclasses":["A"]},"names":[{"toponym":"Rowbarrow Hundred","lang":"en","citations":[{"label":"English Place-Name Society survey, volume 52: Dorset"}]},{"toponym":"Aileveswode hundret","citations":[{"label":"c. 1086 GeldR","year":1076}],"when":{"timespans":[{"start":{"earliest":"1076","latest":"1096"},"end":{"earliest":"1076","latest":"1096"}}]}},{"toponym":"Hundret Porbiche","citations":[{"label":"1086 DB","year":1086}],"when":{"timespans":[{"start":{"in":"1086"},"end":{"in":"1086"}}]}},{"toponym":"Rugebergahundredum","citations":[{"label":"1183 P","year":1183}],"when":{"timespans":[{"start":{"in":"1183"},"end":{"in":"1183"}}]}},{"toponym":"Rugeberg'","citations":[{"label":"1198 P","year":1198}],"when":{"timespans":[{"start":{"in":"1198"},"end":{"in":"1198"}}]}},{"toponym":"Ruggebergahundredum","citations":[{"label":"1184 P","year":1184}],"when":{"timespans":[{"start":{"in":"1184"},"end":{"in":"1184"}}]}},{"toponym":"Ruggebergh","citations":[{"label":"1244 Ass","year":1244}],"when":{"timespans":[{"start":{"in":"1244"},"end":{"in":"1244"}}]}},{"toponym":"Ruberge(hundredum)","citations":[{"label":"1195 P","year":1195}],"when":{"timespans":[{"start":{"in":"1195"},"end":{"in":"1195"}},{"start":{"in":"1199"},"end":{"in":"1199"}}]}},{"toponym":"Ruber'","citations":[{"label":"1275 RH","year":1275}],"when":{"timespans":[{"start":{"in":"1275"},"end":{"in":"1275"}}]}},{"toponym":"Rubergh'","citations":[{"label":"1288 Ass","year":1288},{"label":"1379 MinAcct","year":1379}],"when":{"timespans":[{"start":{"in":"1288"},"end":{"in":"1288"}},{"start":{"in":"1379"},"end":{"in":"1379"}}]}},{"toponym":"Ruebergh(e)","citations":[{"label":"1265 Misc","year":1265},{"label":"1280 Ass","year":1280}],"when":{"timespans":[{"start":{"in":"1265"},"end":{"in":"1265"}},{"start":{"in":"1280"},"end":{"in":"1280"}}]}},{"toponym":"Rugheberg'","citations":[{"label":"1244 Ass","year":1244}],"when":{"timespans":[{"start":{"in":"1244"},"end":{"in":"1244"}}]}},{"toponym":"Rubergh(e)","citations":[{"label":"1268 Ass","year":1268},{"label":"1303 FA","year":1303},{"label":"1342 Pat","year":1342}],"when":{"timespans":[{"start":{"in":"1268"},"end":{"in":"1268"}},{"start":{"in":"1303"},"end":{"in":"1303"}},{"start":{"in":"1342"},"end":{"in":"1342"}}]}},{"toponym":"Ruburgh","citations":[{"label":"1289 Orig","year":1289},{"label":"1290 Fine","year":1290},{"label":"1290 Pat","year":1290}],"when":{"timespans":[{"start":{"in":"1289"},"end":{"in":"1289"}},{"start":{"in":"1290"},"end":{"in":"1290"}},{"start":{"in":"1290"},"end":{"in":"1290"}}]}},{"toponym":"Rowgh'borough","citations":[{"label":"MiltRoll"}]},{"toponym":"Roughburgh","citations":[{"label":"1461 Pat","year":1461}],"when":{"timespans":[{"start":{"in":"1461"},"end":{"in":"1461"}}]}},{"toponym":"Rughborowe","citations":[{"label":"1509 BrEll","year":1509}],"when":{"timespans":[{"start":{"in":"1509"},"end":{"in":"1509"}}]}},{"toponym":"Rougeberghe","citations":[{"label":"1244 Ass","year":1244}],"when":{"timespans":[{"start":{"in":"1244"},"end":{"in":"1244"}}]}},{"toponym":"Rogborwe","citations":[{"label":"1268 Ass","year":1268}],"when":{"timespans":[{"start":{"in":"1268"},"end":{"in":"1268"}}]}},{"toponym":"Rogeberwe","citations":[{"label":"1280 Ass","year":1280}],"when":{"timespans":[{"start":{"in":"1280"},"end":{"in":"1280"}}]}},{"toponym":"Rou(e)burh","citations":[{"label":"1268 Ass","year":1268}],"when":{"timespans":[{"start":{"in":"1268"},"end":{"in":"1268"}}]}},{"toponym":"Rou(e)berue, Rou(e)berewe","citations":[{"label":"1280 Ass","year":1280}],"when":{"timespans":[{"start":{"in":"1280"},"end":{"in":"1280"}}]}},{"toponym":"Rou(e)bergh","citations":[{"label":"1288 Ass","year":1288},{"label":"Ipm","year":1307},{"label":"Cl"},{"label":"1307 Ipm","year":1307},{"label":"1425 Cl","year":1425}],"when":{"timespans":[{"start":{"in":"1288"},"end":{"in":"1288"}},{"start":{"in":"1307"},"end":{"in":"1425"}},{"start":{"in":"1307"},"end":{"in":"1307"}},{"start":{"in":"1425"},"end":{"in":"1425"}}]}},{"toponym":"Rou(e)b(u)rgh","citations":[{"label":"1346 FA","year":1346}],"when":{"timespans":[{"start":{"in":"1346"},"end":{"in":"1346"}}]}},{"toponym":"Rou(e)berg","citations":[{"label":"1399 Ipm","year":1399}],"when":{"timespans":[{"start":{"in":"1399"},"end":{"in":"1399"}}]}},{"toponym":"Rou(e)bargh","citations":[{"label":"1425 IpmR","year":1425},{"label":"1428 FA","year":1428}],"when":{"timespans":[{"start":{"in":"1425"},"end":{"in":"1425"}},{"start":{"in":"1428"},"end":{"in":"1428"}}]}},{"toponym":"Rou(e)borgh","citations":[{"label":"1431 FA","year":1431}],"when":{"timespans":[{"start":{"in":"1431"},"end":{"in":"1431"}}]}},{"toponym":"Row(e)berge, Row(e)berwe","citations":[{"label":"1278 QW","year":1278}],"when":{"timespans":[{"start":{"in":"1278"},"end":{"in":"1278"}}]}},{"toponym":"Row(e)berue","citations":[{"label":"1280 Ass","year":1280}],"when":{"timespans":[{"start":{"in":"1280"},"end":{"in":"1280"}}]}},{"toponym":"Row(e)bergh(e)","citations":[{"label":"1288 Ass","year":1288},{"label":"1412 FA","year":1412}],"when":{"timespans":[{"start":{"in":"1288"},"end":{"in":"1288"}},{"start":{"in":"1412"},"end":{"in":"1412"}}]}},{"toponym":"Row(e)borowe","citations":[{"label":"1492 Pat","year":1492}],"when":{"timespans":[{"start":{"in":"1492"},"end":{"in":"1492"}}]}},{"toponym":"Row(e)barrowge","citations":[{"label":"1546 Ct","year":1546}],"when":{"timespans":[{"start":{"in":"1546"},"end":{"in":"1546"}}]}},{"toponym":"Row(e)burgh","citations":[{"label":"1548 Pat","year":1548}],"when":{"timespans":[{"start":{"in":"1548"},"end":{"in":"1548"}}]}},{"toponym":"Row(e)boroughe","citations":[{"label":"1550 Pat","year":1550}],"when":{"timespans":[{"start":{"in":"1550"},"end":{"in":"1550"}}]}},{"toponym":"Rouweberu(w)e","citations":[{"label":"1280 Ass","year":1280}],"when":{"timespans":[{"start":{"in":"1280"},"end":{"in":"1280"}}]}},{"toponym":"Ruweberyce","citations":[{"label":"1296 Ipm","year":1296}],"when":{"timespans":[{"start":{"in":"1296"},"end":{"in":"1296"}}]}},{"toponym":"Robergh","citations":[{"label":"1346 FA","year":1346}],"when":{"timespans":[{"start":{"in":"1346"},"end":{"in":"1346"}}]}},{"toponym":"Robargh","citations":[{"label":"1428 FA","year":1428}],"when":{"timespans":[{"start":{"in":"1428"},"end":{"in":"1428"}}]}},{"toponym":"Routheber","citations":[{"label":"1280 Ass","year":1280}],"when":{"timespans":[{"start":{"in":"1280"},"end":{"in":"1280"}}]}},{"toponym":"Rouzberwe","citations":[{"label":"1303 FA","year":1303}],"when":{"timespans":[{"start":{"in":"1303"},"end":{"in":"1303"}}]}},{"toponym":"Rousebergh","citations":[{"label":"1316 FA","year":1316}],"when":{"timespans":[{"start":{"in":"1316"},"end":{"in":"1316"}}]}}],"types":[{"identifier":"http://vocab.getty.edu/aat/300232418","label":"administrative division","sourceLabels":[{"label":"hundred / wapentake","lang":"en"}]}],"geometry":null,"when":{"timespans":[{"start":{"in":"1076"},"end":{"in":"1550"}}]},"relations":[{"relationType":"gvp:broaderPartitive","relationTo":"https://w3id.org/whg-epns/52/000001","label":"within Dorset"}]}]}