{"@context":"https://raw.githubusercontent.com/LinkedPasts/linked-places-format/main/linkedplaces-context-v1.1.jsonld","type":"FeatureCollection","license":"Digitisation of English Placenames MADS data is licensed to Jisc by the English Place Names Society and released under a Creative Commons Attribution-NonCommercial 4.0 International License.","note":"LPF v1.3, lossy; derived from the PLATO record; plato_commit=fa0d247ccc0263f8f19c8d7cdcd163df96935d1e","features":[{"@id":"https://w3id.org/whg-epns/52/003249","type":"Feature","properties":{"title":"Kimmeridge","ccodes":["GB"],"fclasses":["A","P"]},"names":[{"toponym":"Kimmeridge","lang":"en","citations":[{"label":"English Place-Name Society survey, volume 52: Dorset"}]}],"types":[{"identifier":"http://vocab.getty.edu/aat/300232418","label":"administrative division","sourceLabels":[{"label":"parish","lang":"en"}]}],"geometry":{"type":"GeometryCollection","geometries":[{"type":"Point","coordinates":[-2.11939,50.61812],"citations":[{"label":"GeoNames, gazetteer record geonames:2645534"}]},{"type":"Point","coordinates":[-2.117333522,50.61726403],"citations":[{"label":"English Place-Name Society survey (DEEP coordinates)"}]},{"type":"Point","coordinates":[-2.120153989084098,50.61456343148627],"citations":[{"label":"Unlock (EDINA) gazetteer, gazetteer record unlock:11186527"}]},{"type":"Point","coordinates":[-2.12149,50.6152],"citations":[{"label":"Key to English Place-Names (KEPN), gazetteer record 11519"}]}]},"links":[{"type":"closeMatch","identifier":"https://sws.geonames.org/2645534/"}],"relations":[{"relationType":"gvp:broaderPartitive","relationTo":"https://w3id.org/whg-epns/52/002682","label":"within Hasler Hundred"}]}]}