{"@context":"https://raw.githubusercontent.com/LinkedPasts/linked-places-format/main/linkedplaces-context-v1.1.jsonld","type":"FeatureCollection","license":"Digitisation of English Placenames MADS data is licensed to Jisc by the English Place Names Society and released under a Creative Commons Attribution-NonCommercial 4.0 International License.","note":"LPF v1.3, lossy; derived from the PLATO record; plato_commit=ca0afadabec1e23a145c0b03df77e8f151f79832","features":[{"@id":"https://w3id.org/whg-epns/52/004129","type":"Feature","properties":{"title":"Tyneham","ccodes":["GB"],"fclasses":["A","P"]},"names":[{"toponym":"Tyneham","lang":"en","citations":[{"label":"English Place-Name Society survey, volume 52: Dorset"}]},{"toponym":"Tigeham","citations":[{"label":"1086 DB","year":1086},{"label":"1185 P","year":1185}],"when":{"timespans":[{"start":{"in":"1086"},"end":{"in":"1086"}},{"start":{"in":"1185"},"end":{"in":"1185"}}]}},{"toponym":"Tiham","citations":[{"label":"1194 P","year":1194},{"label":"1244 Ass","year":1244}],"when":{"timespans":[{"start":{"in":"1194"},"end":{"in":"1194"}},{"start":{"in":"1244"},"end":{"in":"1244"}}]}},{"toponym":"Tigenham","citations":[{"label":"14 Mansel","year":1300}],"when":{"timespans":[{"start":{"earliest":"1300","latest":"1400"},"end":{"earliest":"1300","latest":"1400"}}]}},{"toponym":"Tingeham","citations":[{"label":"1086 DB","year":1086}],"when":{"timespans":[{"start":{"in":"1086"},"end":{"in":"1086"}}]}},{"toponym":"Estingham","citations":[{"label":"1288 Ass","year":1288}],"when":{"timespans":[{"start":{"in":"1288"},"end":{"in":"1288"}}]}},{"toponym":"Estangham, Westangham","citations":[{"label":"1288 Ass","year":1288}],"when":{"timespans":[{"start":{"in":"1288"},"end":{"in":"1288"}}]}},{"toponym":"Westingham","citations":[{"label":"1550 DCMDeed","year":1550}],"when":{"timespans":[{"start":{"in":"1550"},"end":{"in":"1550"}}]}},{"toponym":"Tyn(h)am","citations":[{"label":"1244 Ass","year":1244},{"label":"1280 Ass","year":1280},{"label":"1280 Ch","year":1280},{"label":"1285 FA","year":1285},{"label":"1291 Tax","year":1291},{"label":"1316–1464, recurring FA","year":1316},{"label":"1316–1464, recurring Weld1"},{"label":"1316 FA","year":1316},{"label":"1464 Weld1","year":1464}],"when":{"timespans":[{"start":{"in":"1244"},"end":{"in":"1244"}},{"start":{"in":"1280"},"end":{"in":"1280"}},{"start":{"in":"1244"},"end":{"in":"1244"}},{"start":{"in":"1280"},"end":{"in":"1280"}},{"start":{"in":"1244"},"end":{"in":"1244"}},{"start":{"in":"1285"},"end":{"in":"1285"}},{"start":{"in":"1291"},"end":{"in":"1291"}},{"start":{"in":"1316"},"end":{"in":"1464"}},{"start":{"in":"1316"},"end":{"in":"1316"}},{"start":{"in":"1464"},"end":{"in":"1464"}}]}},{"toponym":"Es(t)tyn(h)am, Wes(t)tyn(h)am","citations":[{"label":"1280 Ass","year":1280},{"label":"1285–1545, recurring FA","year":1285},{"label":"1285–1545, recurring Ct"},{"label":"1285 FA","year":1285},{"label":"1545 Ct","year":1545}],"when":{"timespans":[{"start":{"in":"1280"},"end":{"in":"1280"}},{"start":{"in":"1285"},"end":{"in":"1545"}},{"start":{"in":"1285"},"end":{"in":"1285"}},{"start":{"in":"1545"},"end":{"in":"1545"}}]}},{"toponym":"Es(t)tin(h)am","citations":[{"label":"1285 FA","year":1285},{"label":"1288 Ass","year":1288}],"when":{"timespans":[{"start":{"in":"1285"},"end":{"in":"1285"}},{"start":{"in":"1288"},"end":{"in":"1288"}}]}},{"toponym":"Churchetinam, Cherestinam","citations":[{"label":"1285 FA","year":1285}],"when":{"timespans":[{"start":{"in":"1285"},"end":{"in":"1285"}}]}},{"toponym":"Westinham","citations":[{"label":"1288 Ass","year":1288}],"when":{"timespans":[{"start":{"in":"1288"},"end":{"in":"1288"}}]}},{"toponym":"Wesynham","citations":[{"label":"1332 SR","year":1332}],"when":{"timespans":[{"start":{"in":"1332"},"end":{"in":"1332"}}]}},{"toponym":"Westnam als. Westinham","citations":[{"label":"1555 DCMDeed","year":1555}],"when":{"timespans":[{"start":{"in":"1555"},"end":{"in":"1555"}}]}},{"toponym":"Thenham","citations":[{"label":"1280 Ass","year":1280}],"when":{"timespans":[{"start":{"in":"1280"},"end":{"in":"1280"}}]}},{"toponym":"Estthynham, Westthynham","citations":[{"label":"1306 FF","year":1306}],"when":{"timespans":[{"start":{"in":"1306"},"end":{"in":"1306"}}]}},{"toponym":"Teynham","citations":[{"label":"1328 Banco","year":1328}],"when":{"timespans":[{"start":{"in":"1328"},"end":{"in":"1328"}}]}},{"toponym":"Weste(y)n(e)ham","citations":[{"label":"1523 DCMDeed","year":1523},{"label":"1537 Hutch3","year":1537}],"when":{"timespans":[{"start":{"in":"1523"},"end":{"in":"1523"}},{"start":{"in":"1537"},"end":{"in":"1537"}}]}},{"toponym":"Tyneham","citations":[{"label":"1445 DCMDeed","year":1445}],"when":{"timespans":[{"start":{"in":"1445"},"end":{"in":"1445"}}]}},{"toponym":"West Tyneham","citations":[{"label":"1445 DCMDeed","year":1445},{"label":"1546 Ct","year":1546},{"label":"1774 Hutch1","year":1774}],"when":{"timespans":[{"start":{"in":"1445"},"end":{"in":"1445"}},{"start":{"in":"1546"},"end":{"in":"1546"}},{"start":{"in":"1774"},"end":{"in":"1774"}}]}},{"toponym":"Est Tyneham","citations":[{"label":"1546 Ct","year":1546}],"when":{"timespans":[{"start":{"in":"1546"},"end":{"in":"1546"}}]}},{"toponym":"East Tyneham","citations":[{"label":"1774 Hutch1","year":1774}],"when":{"timespans":[{"start":{"in":"1774"},"end":{"in":"1774"}}]}},{"toponym":"South Tyn(e)ham","citations":[{"label":"1638 Hutch3","year":1638},{"label":"1774 Hutch1","year":1774}],"when":{"timespans":[{"start":{"in":"1638"},"end":{"in":"1638"}},{"start":{"in":"1774"},"end":{"in":"1774"}}]}},{"toponym":"Great Tyneham, Little Tyneham","citations":[{"label":"1774 Hutch1","year":1774}],"when":{"timespans":[{"start":{"in":"1774"},"end":{"in":"1774"}}]}}],"types":[{"identifier":"http://vocab.getty.edu/aat/300232418","label":"administrative division","sourceLabels":[{"label":"township","lang":"en"}]}],"geometry":{"type":"GeometryCollection","geometries":[{"type":"Point","coordinates":[-2.16845,50.62255],"citations":[{"label":"GeoNames, gazetteer record geonames:2635271"}]},{"type":"Point","coordinates":[-2.166830413,50.62259999],"citations":[{"label":"English Place-Name Society survey (DEEP coordinates)"}]},{"type":"Point","coordinates":[-2.162592126997414,50.62350581307754],"citations":[{"label":"Unlock (EDINA) gazetteer, gazetteer record unlock:11308426"}]},{"type":"Point","coordinates":[-2.16392,50.6241],"citations":[{"label":"Key to English Place-Names (KEPN), gazetteer record 11521"}]}]},"when":{"timespans":[{"start":{"in":"1086"},"end":{"in":"1774"}}]},"links":[{"type":"closeMatch","identifier":"https://sws.geonames.org/2635271/"}],"relations":[{"relationType":"gvp:broaderPartitive","relationTo":"https://w3id.org/whg-epns/52/004128","label":"within Tyneham"}]}]}