{"@context":"https://raw.githubusercontent.com/LinkedPasts/linked-places-format/main/linkedplaces-context-v1.1.jsonld","type":"FeatureCollection","license":"Digitisation of English Placenames MADS data is licensed to Jisc by the English Place Names Society and released under a Creative Commons Attribution-NonCommercial 4.0 International License.","note":"LPF v1.3, lossy; derived from the PLATO record; plato_commit=ca0afadabec1e23a145c0b03df77e8f151f79832","features":[{"@id":"https://w3id.org/whg-epns/52/005606","type":"Feature","properties":{"title":"West Lulworth","ccodes":["GB"],"fclasses":["A","P"]},"names":[{"toponym":"West Lulworth","lang":"en","citations":[{"label":"English Place-Name Society survey, volume 52: Dorset"}]}],"types":[{"identifier":"http://vocab.getty.edu/aat/300232418","label":"administrative division","sourceLabels":[{"label":"parish","lang":"en"}]}],"geometry":{"type":"GeometryCollection","geometries":[{"type":"Point","coordinates":[-2.24679,50.62614],"citations":[{"label":"GeoNames, gazetteer record geonames:2634353"}]},{"type":"Point","coordinates":[-2.247431473,50.62515488],"citations":[{"label":"English Place-Name Society survey (DEEP coordinates)"}]},{"type":"Point","coordinates":[-2.247422103502957,50.62335656165165],"citations":[{"label":"Unlock (EDINA) gazetteer, gazetteer record unlock:11317273"}]},{"type":"Point","coordinates":[-2.19227,50.642],"citations":[{"label":"Key to English Place-Names (KEPN), gazetteer record 11668"}]}]},"links":[{"type":"closeMatch","identifier":"https://sws.geonames.org/2634353/"}],"relations":[{"relationType":"gvp:broaderPartitive","relationTo":"https://w3id.org/whg-epns/52/004377","label":"within Winfrith Hundred"}]}]}