{"@context":"https://raw.githubusercontent.com/LinkedPasts/linked-places-format/main/linkedplaces-context-v1.1.jsonld","type":"FeatureCollection","license":"Digitisation of English Placenames MADS data is licensed to Jisc by the English Place Names Society and released under a Creative Commons Attribution-NonCommercial 4.0 International License.","note":"LPF v1.3, lossy; derived from the PLATO record; plato_commit=ca0afadabec1e23a145c0b03df77e8f151f79832","features":[{"@id":"https://w3id.org/whg-epns/52/007554","type":"Feature","properties":{"title":"Warmwell","ccodes":["GB"],"fclasses":["A","P"]},"names":[{"toponym":"Warmwell","lang":"en","citations":[{"label":"English Place-Name Society survey, volume 52: Dorset"}]},{"toponym":"Warm(e)welle, Warmemoille","citations":[{"label":"1086 DB","year":1086}],"when":{"timespans":[{"start":{"in":"1086"},"end":{"in":"1086"}}]}},{"toponym":"Warmewella","citations":[{"label":"1086 Exon","year":1086}],"when":{"timespans":[{"start":{"in":"1086"},"end":{"in":"1086"}}]}},{"toponym":"Werm(e)well(e)","citations":[{"label":"1152-58 MontC","year":1152},{"label":"1205 FF","year":1205},{"label":"1209 P","year":1209},{"label":"1210 P","year":1210},{"label":"1210 Cur","year":1210},{"label":"1214 Cur","year":1214},{"label":"1217 FF","year":1217},{"label":"1236 FF","year":1236},{"label":"1244–1353, recurring Ass","year":1244},{"label":"1244–1353, recurring Midd"},{"label":"1244 Ass","year":1244},{"label":"1353 Midd","year":1353},{"label":"1518 Ampthill","year":1518}],"when":{"timespans":[{"start":{"earliest":"1152","latest":"1158"},"end":{"earliest":"1152","latest":"1158"}},{"start":{"in":"1205"},"end":{"in":"1205"}},{"start":{"in":"1209"},"end":{"in":"1209"}},{"start":{"in":"1210"},"end":{"in":"1210"}},{"start":{"in":"1209"},"end":{"in":"1209"}},{"start":{"in":"1210"},"end":{"in":"1210"}},{"start":{"in":"1209"},"end":{"in":"1209"}},{"start":{"in":"1214"},"end":{"in":"1214"}},{"start":{"in":"1215"},"end":{"in":"1215"}},{"start":{"in":"1217"},"end":{"in":"1217"}},{"start":{"in":"1236"},"end":{"in":"1236"}},{"start":{"in":"1244"},"end":{"in":"1353"}},{"start":{"in":"1244"},"end":{"in":"1244"}},{"start":{"in":"1353"},"end":{"in":"1353"}},{"start":{"in":"1518"},"end":{"in":"1518"}}]}},{"toponym":"Werm(e)wull(e)","citations":[{"label":"c. 1165 MontC","year":1155},{"label":"1242-3 Fees","year":1242}],"when":{"timespans":[{"start":{"earliest":"1155","latest":"1175"},"end":{"earliest":"1155","latest":"1175"}},{"start":{"earliest":"1242","latest":"1243"},"end":{"earliest":"1242","latest":"1243"}}]}},{"toponym":"Werm(e)wel","citations":[{"label":"1244 Ass","year":1244}],"when":{"timespans":[{"start":{"in":"1244"},"end":{"in":"1244"}}]}},{"toponym":"Werm(e)vill","citations":[{"label":"1271 Ch","year":1271}],"when":{"timespans":[{"start":{"in":"1271"},"end":{"in":"1271"}}]}},{"toponym":"Werm(e)wl","citations":[{"label":"1291 Tax","year":1291}],"when":{"timespans":[{"start":{"in":"1291"},"end":{"in":"1291"}}]}},{"toponym":"Werm(e)wolle","citations":[{"label":"1293 Ilch","year":1293},{"label":"e14 Wim","year":1300},{"label":"1303 FA","year":1303},{"label":"m14 Hutch3","year":1325}],"when":{"timespans":[{"start":{"in":"1293"},"end":{"in":"1293"}},{"start":{"earliest":"1300","latest":"1325"},"end":{"earliest":"1300","latest":"1325"}},{"start":{"in":"1303"},"end":{"in":"1303"}},{"start":{"earliest":"1325","latest":"1375"},"end":{"earliest":"1325","latest":"1375"}}]}},{"toponym":"Warm(e)well(e)","citations":[{"label":"1166 RBE","year":1166},{"label":"1203 Cur","year":1203},{"label":"1244–1244, recurring Ass","year":1244},{"label":"1244 Ass","year":1244}],"when":{"timespans":[{"start":{"in":"1166"},"end":{"in":"1166"}},{"start":{"in":"1203"},"end":{"in":"1203"}},{"start":{"in":"1204"},"end":{"in":"1204"}},{"start":{"in":"1210"},"end":{"in":"1210"}},{"start":{"in":"1212"},"end":{"in":"1212"}},{"start":{"in":"1214"},"end":{"in":"1214"}},{"start":{"in":"1244"},"end":{"in":"1244"}},{"start":{"in":"1244"},"end":{"in":"1244"}}]}},{"toponym":"Warm(e)wule","citations":[{"label":"1201 FF","year":1201}],"when":{"timespans":[{"start":{"in":"1201"},"end":{"in":"1201"}}]}},{"toponym":"Warm(e)wulla","citations":[{"label":"Hy 1 AddCh","year":1100}],"when":{"timespans":[{"start":{"earliest":"1100","latest":"1135"},"end":{"earliest":"1100","latest":"1135"}}]}},{"toponym":"Warm(e)woll","citations":[{"label":"1311 Weld1","year":1311},{"label":"1346 FA","year":1346}],"when":{"timespans":[{"start":{"in":"1311"},"end":{"in":"1311"}},{"start":{"in":"1346"},"end":{"in":"1346"}}]}},{"toponym":"Warm(e)wull","citations":[{"label":"1340 NI","year":1340}],"when":{"timespans":[{"start":{"in":"1340"},"end":{"in":"1340"}}]}},{"toponym":"Warm(e)wel","citations":[{"label":"1389 Weld1","year":1389}],"when":{"timespans":[{"start":{"in":"1389"},"end":{"in":"1389"}}]}},{"toponym":"Warm(e)wyll","citations":[{"label":"1405 Weld1","year":1405}],"when":{"timespans":[{"start":{"in":"1405"},"end":{"in":"1405"}}]}},{"toponym":"Warm(e)will","citations":[{"label":"1437 FF","year":1437}],"when":{"timespans":[{"start":{"in":"1437"},"end":{"in":"1437"}}]}},{"toponym":"Weremew(e)ll(e)","citations":[{"label":"13 Weld1","year":1200},{"label":"1244 Ass","year":1244}],"when":{"timespans":[{"start":{"earliest":"1200","latest":"1300"},"end":{"earliest":"1200","latest":"1300"}},{"start":{"in":"1244"},"end":{"in":"1244"}}]}},{"toponym":"Wermell","citations":[{"label":"1244 Ass","year":1244},{"label":"1288 Ass","year":1288}],"when":{"timespans":[{"start":{"in":"1244"},"end":{"in":"1244"}},{"start":{"in":"1288"},"end":{"in":"1288"}}]}},{"toponym":"Wearmwlle","citations":[{"label":"Hy 3 Cerne","year":1216}],"when":{"timespans":[{"start":{"earliest":"1216","latest":"1272"},"end":{"earliest":"1216","latest":"1272"}}]}},{"toponym":"Warwell","citations":[{"label":"1412 Weld1","year":1412}],"when":{"timespans":[{"start":{"in":"1412"},"end":{"in":"1412"}}]}},{"toponym":"Warmell","citations":[{"label":"1440 Weld1","year":1440},{"label":"1510 Ampthill","year":1510},{"label":"1682 Weld1","year":1682}],"when":{"timespans":[{"start":{"in":"1440"},"end":{"in":"1440"}},{"start":{"in":"1471"},"end":{"in":"1471"}},{"start":{"in":"1510"},"end":{"in":"1510"}},{"start":{"in":"1682"},"end":{"in":"1682"}}]}},{"toponym":"Warmull","citations":[{"label":"1575 Saxton","year":1575}],"when":{"timespans":[{"start":{"in":"1575"},"end":{"in":"1575"}}]}},{"toponym":"Wermeswyll","citations":[{"label":"1498 Ampthill","year":1498}],"when":{"timespans":[{"start":{"in":"1498"},"end":{"in":"1498"}}]}}],"types":[{"identifier":"http://vocab.getty.edu/aat/300232418","label":"administrative division","sourceLabels":[{"label":"township","lang":"en"}]}],"geometry":{"type":"GeometryCollection","geometries":[{"type":"Point","coordinates":[-2.36174,50.67487],"citations":[{"label":"GeoNames, gazetteer record geonames:7298424"}]},{"type":"Point","coordinates":[-2.349576998,50.67166123],"citations":[{"label":"English Place-Name Society survey (DEEP coordinates)"}]},{"type":"Point","coordinates":[-2.346720069467684,50.66807269003669],"citations":[{"label":"Unlock (EDINA) gazetteer, gazetteer record unlock:11313491"}]},{"type":"Point","coordinates":[-2.34803,50.6687],"citations":[{"label":"Key to English Place-Names (KEPN), gazetteer record 11674"}]}]},"when":{"timespans":[{"start":{"in":"1086"},"end":{"in":"1682"}}]},"links":[{"type":"closeMatch","identifier":"https://sws.geonames.org/7298424/"}],"relations":[{"relationType":"gvp:broaderPartitive","relationTo":"https://w3id.org/whg-epns/52/007553","label":"within Warmwell"}]}]}