{"@context":"https://raw.githubusercontent.com/LinkedPasts/linked-places-format/main/linkedplaces-context-v1.1.jsonld","type":"FeatureCollection","license":"Digitisation of English Placenames MADS data is licensed to Jisc by the English Place Names Society and released under a Creative Commons Attribution-NonCommercial 4.0 International License.","note":"LPF v1.3, lossy; derived from the PLATO record; plato_commit=ca0afadabec1e23a145c0b03df77e8f151f79832","features":[{"@id":"https://w3id.org/whg-epns/52/007753","type":"Feature","properties":{"title":"Watercombe","ccodes":["GB"],"fclasses":["A","P"]},"names":[{"toponym":"Watercombe","lang":"en","citations":[{"label":"English Place-Name Society survey, volume 52: Dorset"}]},{"toponym":"Watrecome","citations":[{"label":"1086 DB","year":1086}],"when":{"timespans":[{"start":{"in":"1086"},"end":{"in":"1086"}}]}},{"toponym":"Watrecoma","citations":[{"label":"1086 Exon","year":1086}],"when":{"timespans":[{"start":{"in":"1086"},"end":{"in":"1086"}}]}},{"toponym":"Watrecumbe","citations":[{"label":"1299 Cl","year":1299}],"when":{"timespans":[{"start":{"in":"1299"},"end":{"in":"1299"}}]}},{"toponym":"Watercumb(e)","citations":[{"label":"Hy 1 AddCh","year":1100},{"label":"c. 1165 MontC","year":1155},{"label":"1204 Cur","year":1204},{"label":"1204 FF","year":1204},{"label":"1242-3 Fees","year":1242},{"label":"1244 Ass","year":1244},{"label":"1269 Ch","year":1269},{"label":"1275 Cl","year":1275},{"label":"1280 Ass","year":1280},{"label":"1285 FA","year":1285}],"when":{"timespans":[{"start":{"earliest":"1100","latest":"1135"},"end":{"earliest":"1100","latest":"1135"}},{"start":{"earliest":"1155","latest":"1175"},"end":{"earliest":"1155","latest":"1175"}},{"start":{"in":"1204"},"end":{"in":"1204"}},{"start":{"in":"1204"},"end":{"in":"1204"}},{"start":{"earliest":"1242","latest":"1243"},"end":{"earliest":"1242","latest":"1243"}},{"start":{"in":"1244"},"end":{"in":"1244"}},{"start":{"in":"1269"},"end":{"in":"1269"}},{"start":{"in":"1275"},"end":{"in":"1275"}},{"start":{"in":"1280"},"end":{"in":"1280"}},{"start":{"in":"1285"},"end":{"in":"1285"}}]}},{"toponym":"Watercumba","citations":[{"label":"Hy 1 AddCh","year":1100}],"when":{"timespans":[{"start":{"earliest":"1100","latest":"1135"},"end":{"earliest":"1100","latest":"1135"}}]}},{"toponym":"Watercombe","citations":[{"label":"Hy 1 AddCh","year":1100},{"label":"1263 Ipm","year":1263},{"label":"1327 SR","year":1327},{"label":"1332 SR","year":1332},{"label":"1368–1368, recurring Fine","year":1368},{"label":"1368 Fine","year":1368}],"when":{"timespans":[{"start":{"earliest":"1100","latest":"1135"},"end":{"earliest":"1100","latest":"1135"}},{"start":{"in":"1263"},"end":{"in":"1263"}},{"start":{"in":"1327"},"end":{"in":"1327"}},{"start":{"in":"1332"},"end":{"in":"1332"}},{"start":{"in":"1368"},"end":{"in":"1368"}},{"start":{"in":"1368"},"end":{"in":"1368"}}]}},{"toponym":"Watercoumbe","citations":[{"label":"1264 MiltRoll","year":1264},{"label":"1340 NI","year":1340}],"when":{"timespans":[{"start":{"in":"1264"},"end":{"in":"1264"}},{"start":{"in":"1340"},"end":{"in":"1340"}}]}},{"toponym":"Watercome","citations":[{"label":"1280 FF","year":1280},{"label":"1337 Ass","year":1337}],"when":{"timespans":[{"start":{"in":"1280"},"end":{"in":"1280"}},{"start":{"in":"1337"},"end":{"in":"1337"}}]}},{"toponym":"Watercum","citations":[{"label":"1288 Ass","year":1288}],"when":{"timespans":[{"start":{"in":"1288"},"end":{"in":"1288"}}]}},{"toponym":"Watercumme","citations":[{"label":"1323 Pat","year":1323}],"when":{"timespans":[{"start":{"in":"1323"},"end":{"in":"1323"}}]}}],"types":[{"identifier":"http://vocab.getty.edu/aat/300232418","label":"administrative division","sourceLabels":[{"label":"township","lang":"en"}]}],"geometry":{"type":"GeometryCollection","geometries":[{"type":"Point","coordinates":[-2.343843678,50.66178508],"citations":[{"label":"English Place-Name Society survey (DEEP coordinates)"}]},{"type":"Point","coordinates":[-2.346653846552166,50.65907905606475],"citations":[{"label":"Unlock (EDINA) gazetteer, gazetteer record unlock:11314271"}]},{"type":"Point","coordinates":[-2.34796,50.6597],"citations":[{"label":"Key to English Place-Names (KEPN), gazetteer record 11675"}]}]},"when":{"timespans":[{"start":{"in":"1086"},"end":{"in":"1368"}}]},"relations":[{"relationType":"gvp:broaderPartitive","relationTo":"https://w3id.org/whg-epns/52/007752","label":"within Watercombe"}]}]}