{"@context":"https://raw.githubusercontent.com/LinkedPasts/linked-places-format/main/linkedplaces-context-v1.1.jsonld","type":"FeatureCollection","license":"Digitisation of English Placenames MADS data is licensed to Jisc by the English Place Names Society and released under a Creative Commons Attribution-NonCommercial 4.0 International License.","note":"LPF v1.3, lossy; derived from the PLATO record; plato_commit=fa0d247ccc0263f8f19c8d7cdcd163df96935d1e","features":[{"@id":"https://w3id.org/whg-epns/52/012134","type":"Feature","properties":{"title":"Whitcombe","ccodes":["GB"],"fclasses":["A","P"]},"names":[{"toponym":"Whitcombe","lang":"en","citations":[{"label":"English Place-Name Society survey, volume 52: Dorset"}]},{"toponym":"(at) Widecome","citations":[{"label":"843 BCS","year":843}],"when":{"timespans":[{"start":{"in":"0843"},"end":{"in":"0843"}}]}},{"toponym":"Wydecombe","citations":[{"label":"843 BCS","year":843}],"when":{"timespans":[{"start":{"in":"0843"},"end":{"in":"0843"}}]}},{"toponym":"Widecome","citations":[{"label":"1086 DB","year":1086}],"when":{"timespans":[{"start":{"in":"1086"},"end":{"in":"1086"}}]}},{"toponym":"Widecoma","citations":[{"label":"1086 Exon","year":1086}],"when":{"timespans":[{"start":{"in":"1086"},"end":{"in":"1086"}}]}},{"toponym":"Widecumb(e)","citations":[{"label":"1198 P","year":1198},{"label":"1212 Fees","year":1212},{"label":"1288 Ass","year":1288}],"when":{"timespans":[{"start":{"in":"1198"},"end":{"in":"1198"}},{"start":{"in":"1212"},"end":{"in":"1212"}},{"start":{"in":"1288"},"end":{"in":"1288"}}]}},{"toponym":"Widecume","citations":[{"label":"1285 FA","year":1285}],"when":{"timespans":[{"start":{"in":"1285"},"end":{"in":"1285"}}]}},{"toponym":"Widecombe","citations":[{"label":"1310 Inq aqd","year":1310},{"label":"1461 Ct","year":1461},{"label":"1487 Weld1","year":1487}],"when":{"timespans":[{"start":{"in":"1310"},"end":{"in":"1310"}},{"start":{"in":"1461"},"end":{"in":"1461"}},{"start":{"in":"1487"},"end":{"in":"1487"}}]}},{"toponym":"Widecoumb","citations":[{"label":"1339 Cl","year":1339}],"when":{"timespans":[{"start":{"in":"1339"},"end":{"in":"1339"}}]}},{"toponym":"Wydek(o)umbe","citations":[{"label":"1280 Ass","year":1280}],"when":{"timespans":[{"start":{"in":"1280"},"end":{"in":"1280"}}]}},{"toponym":"Wydecume","citations":[{"label":"1285 FA","year":1285}],"when":{"timespans":[{"start":{"in":"1285"},"end":{"in":"1285"}}]}},{"toponym":"Wydecumb(e)","citations":[{"label":"1288 Ass","year":1288},{"label":"1291 Tax","year":1291},{"label":"1421 DorR","year":1421}],"when":{"timespans":[{"start":{"in":"1288"},"end":{"in":"1288"}},{"start":{"in":"1291"},"end":{"in":"1291"}},{"start":{"in":"1421"},"end":{"in":"1421"}}]}},{"toponym":"Wydecomb(e)","citations":[{"label":"Pat","year":1311},{"label":"Weld1"},{"label":"1311 Pat","year":1311},{"label":"1487 Weld1","year":1487}],"when":{"timespans":[{"start":{"in":"1311"},"end":{"in":"1487"}},{"start":{"in":"1311"},"end":{"in":"1311"}},{"start":{"in":"1487"},"end":{"in":"1487"}}]}},{"toponym":"Widicumbe","citations":[{"label":"1212 P","year":1212}],"when":{"timespans":[{"start":{"in":"1212"},"end":{"in":"1212"}}]}},{"toponym":"Whydecumbe","citations":[{"label":"1288 Ass","year":1288}],"when":{"timespans":[{"start":{"in":"1288"},"end":{"in":"1288"}}]}},{"toponym":"Wytecombe","citations":[{"label":"1291 Tax","year":1291},{"label":"1428 FA","year":1428}],"when":{"timespans":[{"start":{"in":"1291"},"end":{"in":"1291"}},{"start":{"in":"1428"},"end":{"in":"1428"}}]}},{"toponym":"Wytcombe, Witcombe","citations":[{"label":"Fine","year":1460},{"label":"Weld1"},{"label":"1460 Fine","year":1460},{"label":"1682 Weld1","year":1682}],"when":{"timespans":[{"start":{"in":"1460"},"end":{"in":"1682"}},{"start":{"in":"1460"},"end":{"in":"1460"}},{"start":{"in":"1682"},"end":{"in":"1682"}}]}},{"toponym":"Wattcomb(e), Wettecomb(e), Vettecomb(e)","citations":[{"label":"1460 Ct","year":1460}],"when":{"timespans":[{"start":{"in":"1460"},"end":{"in":"1460"}}]}},{"toponym":"Wettcombe","citations":[{"label":"1461 Ct","year":1461}],"when":{"timespans":[{"start":{"in":"1461"},"end":{"in":"1461"}}]}},{"toponym":"Wydcombe","citations":[{"label":"1461 Ct","year":1461},{"label":"1559 DCMCt","year":1559}],"when":{"timespans":[{"start":{"in":"1461"},"end":{"in":"1461"}},{"start":{"in":"1559"},"end":{"in":"1559"}}]}},{"toponym":"Widcombe","citations":[{"label":"1486 Weld1","year":1486}],"when":{"timespans":[{"start":{"in":"1486"},"end":{"in":"1486"}}]}},{"toponym":"Whitcombe","citations":[{"label":"1573 DCMCt","year":1573},{"label":"1795 Boswell","year":1795}],"when":{"timespans":[{"start":{"in":"1573"},"end":{"in":"1573"}},{"start":{"in":"1795"},"end":{"in":"1795"}}]}}],"types":[{"identifier":"http://vocab.getty.edu/aat/300232418","label":"administrative division","sourceLabels":[{"label":"township","lang":"en"}]}],"geometry":{"type":"GeometryCollection","geometries":[{"type":"Point","coordinates":[-2.4,50.68333],"citations":[{"label":"GeoNames, gazetteer record geonames:2634122"}]},{"type":"Point","coordinates":[-2.400702368,50.69218245],"citations":[{"label":"English Place-Name Society survey (DEEP coordinates)"}]},{"type":"Point","coordinates":[-2.403557375148834,50.69487120164479],"citations":[{"label":"Unlock (EDINA) gazetteer, gazetteer record unlock:11320222"}]},{"type":"Point","coordinates":[-2.40478,50.6865],"citations":[{"label":"Key to English Place-Names (KEPN), gazetteer record 11494"}]}]},"when":{"timespans":[{"start":{"in":"0843"},"end":{"in":"1795"}}]},"links":[{"type":"closeMatch","identifier":"https://sws.geonames.org/2634122/"}],"relations":[{"relationType":"gvp:broaderPartitive","relationTo":"https://w3id.org/whg-epns/52/012133","label":"within Whitcombe"}]}]}