{"@context":"https://raw.githubusercontent.com/LinkedPasts/linked-places-format/main/linkedplaces-context-v1.1.jsonld","type":"FeatureCollection","license":"Digitisation of English Placenames MADS data is licensed to Jisc by the English Place Names Society and released under a Creative Commons Attribution-NonCommercial 4.0 International License.","note":"LPF v1.3, lossy; derived from the PLATO record; plato_commit=ca0afadabec1e23a145c0b03df77e8f151f79832","features":[{"@id":"https://w3id.org/whg-epns/52/012371","type":"Feature","properties":{"title":"Winterborne Herringston","ccodes":["GB"],"fclasses":["A","P"]},"names":[{"toponym":"Winterborne Herringston","lang":"en","citations":[{"label":"English Place-Name Society survey, volume 52: Dorset"}]}],"types":[{"identifier":"http://vocab.getty.edu/aat/300232418","label":"administrative division","sourceLabels":[{"label":"parish","lang":"en"}]}],"geometry":{"type":"GeometryCollection","geometries":[{"type":"Point","coordinates":[-2.43876,50.68917],"citations":[{"label":"GeoNames, gazetteer record geonames:7293442"}]},{"type":"Point","coordinates":[-2.438913993,50.69024608],"citations":[{"label":"English Place-Name Society survey (DEEP coordinates)"}]},{"type":"Point","coordinates":[-2.446035791366329,50.69471641427516],"citations":[{"label":"Unlock (EDINA) gazetteer, gazetteer record unlock:11324256"}]},{"type":"Point","coordinates":[-2.44734,50.6953],"citations":[{"label":"Key to English Place-Names (KEPN), gazetteer record 11496"}]}]},"links":[{"type":"closeMatch","identifier":"https://sws.geonames.org/7293442/"}],"relations":[{"relationType":"gvp:broaderPartitive","relationTo":"https://w3id.org/whg-epns/52/008880","label":"within Culliford Tree Hundred"}]}]}