{"@context":"https://raw.githubusercontent.com/LinkedPasts/linked-places-format/main/linkedplaces-context-v1.1.jsonld","type":"FeatureCollection","license":"Digitisation of English Placenames MADS data is licensed to Jisc by the English Place Names Society and released under a Creative Commons Attribution-NonCommercial 4.0 International License.","note":"LPF v1.3, lossy; derived from the PLATO record; plato_commit=ca0afadabec1e23a145c0b03df77e8f151f79832","features":[{"@id":"http://placenames.org.uk/id/placename/52/012731","type":"Feature","properties":{"title":"Bere Regis Hundred","ccodes":["GB"],"fclasses":["A"]},"names":[{"toponym":"Bere Regis Hundred","lang":"en","citations":[{"label":"English Place-Name Society survey, volume 52: Dorset"}]},{"toponym":"Bere hundret","citations":[{"label":"c. 1086 GeldR","year":1076}],"when":{"timespans":[{"start":{"earliest":"1076","latest":"1096"},"end":{"earliest":"1076","latest":"1096"}}]}},{"toponym":"Berahdr'","citations":[{"label":"1170 P","year":1170}],"when":{"timespans":[{"start":{"in":"1170"},"end":{"in":"1170"}},{"start":{"in":"1180"},"end":{"in":"1180"}}]}},{"toponym":"uthundredum de Bera","citations":[{"label":"1180 P","year":1180}],"when":{"timespans":[{"start":{"in":"1180"},"end":{"in":"1180"}}]}},{"toponym":"Hundredum de Bere","citations":[{"label":"1230 P","year":1230},{"label":"1244 Ass","year":1244},{"label":"1244 Fees","year":1244},{"label":"1249 Ipm","year":1249},{"label":"1265 Misc","year":1265},{"label":"1268–1316, recurring Ass","year":1268},{"label":"1268–1316, recurring FA"},{"label":"1268 Ass","year":1268},{"label":"1316 FA","year":1316}],"when":{"timespans":[{"start":{"in":"1230"},"end":{"in":"1230"}},{"start":{"in":"1244"},"end":{"in":"1244"}},{"start":{"in":"1244"},"end":{"in":"1244"}},{"start":{"in":"1249"},"end":{"in":"1249"}},{"start":{"in":"1265"},"end":{"in":"1265"}},{"start":{"in":"1268"},"end":{"in":"1316"}},{"start":{"in":"1268"},"end":{"in":"1268"}},{"start":{"in":"1316"},"end":{"in":"1316"}}]}},{"toponym":"(Hundr' de) Beere","citations":[{"label":"1258 For","year":1258},{"label":"1428 FA","year":1428}],"when":{"timespans":[{"start":{"in":"1258"},"end":{"in":"1258"}},{"start":{"in":"1428"},"end":{"in":"1428"}}]}},{"toponym":"Dimidium Hundredum de Bere","citations":[{"label":"1280 Ass","year":1280}],"when":{"timespans":[{"start":{"in":"1280"},"end":{"in":"1280"}},{"start":{"in":"1288"},"end":{"in":"1288"}}]}},{"toponym":"Ber'","citations":[{"label":"1303 FA","year":1303}],"when":{"timespans":[{"start":{"in":"1303"},"end":{"in":"1303"}}]}},{"toponym":"(Hundr' de) Byre","citations":[{"label":"1327 SR","year":1327},{"label":"1332 SR","year":1332},{"label":"1346–1476, recurring FA","year":1346},{"label":"1346–1476, recurring Cl"},{"label":"1346 FA","year":1346},{"label":"1476 Cl","year":1476}],"when":{"timespans":[{"start":{"in":"1327"},"end":{"in":"1327"}},{"start":{"in":"1332"},"end":{"in":"1332"}},{"start":{"in":"1346"},"end":{"in":"1476"}},{"start":{"in":"1346"},"end":{"in":"1346"}},{"start":{"in":"1476"},"end":{"in":"1476"}}]}},{"toponym":"Byre maner' et hundred'","citations":[{"label":"1362 Ipm","year":1362}],"when":{"timespans":[{"start":{"in":"1362"},"end":{"in":"1362"}}]}},{"toponym":"hd of Bere Regis","citations":[{"label":"1542 LP","year":1542}],"when":{"timespans":[{"start":{"in":"1542"},"end":{"in":"1542"}}]}}],"types":[{"identifier":"http://vocab.getty.edu/aat/300232418","label":"administrative division","sourceLabels":[{"label":"hundred / wapentake","lang":"en"}]}],"geometry":null,"when":{"timespans":[{"start":{"in":"1076"},"end":{"in":"1542"}}]},"relations":[{"relationType":"gvp:broaderPartitive","relationTo":"http://placenames.org.uk/id/placename/52/000001","label":"within Dorset"}]}]}