{"@context":"https://raw.githubusercontent.com/LinkedPasts/linked-places-format/main/linkedplaces-context-v1.1.jsonld","type":"FeatureCollection","license":"Digitisation of English Placenames MADS data is licensed to Jisc by the English Place Names Society and released under a Creative Commons Attribution-NonCommercial 4.0 International License.","note":"LPF v1.3, lossy; derived from the PLATO record; plato_commit=ca0afadabec1e23a145c0b03df77e8f151f79832","features":[{"@id":"http://placenames.org.uk/id/placename/52/016318","type":"Feature","properties":{"title":"Bradford Peverell","ccodes":["GB"],"fclasses":["A","P"]},"names":[{"toponym":"Bradford Peverell","lang":"en","citations":[{"label":"English Place-Name Society survey, volume 52: Dorset"}]}],"types":[{"identifier":"http://vocab.getty.edu/aat/300232418","label":"administrative division","sourceLabels":[{"label":"parish","lang":"en"}]}],"geometry":{"type":"GeometryCollection","geometries":[{"type":"Point","coordinates":[-2.49125,50.72845],"citations":[{"label":"GeoNames, gazetteer record geonames:7291272"}]},{"type":"Point","coordinates":[-2.4832752,50.73593891],"citations":[{"label":"English Place-Name Society survey (DEEP coordinates)"}]},{"type":"Point","coordinates":[-2.48888786315919,50.7305197318302],"citations":[{"label":"Unlock (EDINA) gazetteer, gazetteer record unlock:11084836"}]},{"type":"Point","coordinates":[-2.49018,50.7311],"citations":[{"label":"Key to English Place-Names (KEPN), gazetteer record 11609"}]}]},"links":[{"type":"closeMatch","identifier":"https://sws.geonames.org/7291272/"}],"relations":[{"relationType":"gvp:broaderPartitive","relationTo":"http://placenames.org.uk/id/placename/52/016302","label":"within St George Hundred"}]}]}