{"@context":"https://raw.githubusercontent.com/LinkedPasts/linked-places-format/main/linkedplaces-context-v1.1.jsonld","type":"FeatureCollection","license":"Digitisation of English Placenames MADS data is licensed to Jisc by the English Place Names Society and released under a Creative Commons Attribution-NonCommercial 4.0 International License.","note":"LPF v1.3, lossy; derived from the PLATO record; plato_commit=fa0d247ccc0263f8f19c8d7cdcd163df96935d1e","features":[{"@id":"https://w3id.org/whg-epns/52/016302","type":"Feature","properties":{"title":"St George Hundred","ccodes":["GB"],"fclasses":["A"]},"names":[{"toponym":"St George Hundred","lang":"en","citations":[{"label":"English Place-Name Society survey, volume 52: Dorset"}]},{"toponym":"Dorecestre hundret","citations":[{"label":"c. 1086 GeldR","year":1076}],"when":{"timespans":[{"start":{"earliest":"1076","latest":"1096"},"end":{"earliest":"1076","latest":"1096"}}]}},{"toponym":"hundredum Sancti Georgii de Dorecestria","citations":[{"label":"1166 RBE","year":1166}],"when":{"timespans":[{"start":{"in":"1166"},"end":{"in":"1166"}}]}},{"toponym":"(hundredum) Sancti Georgii","citations":[{"label":"P","year":1185},{"label":"FA"},{"label":"1185 P","year":1185},{"label":"1428 FA","year":1428}],"when":{"timespans":[{"start":{"in":"1185"},"end":{"in":"1428"}},{"start":{"in":"1185"},"end":{"in":"1185"}},{"start":{"in":"1428"},"end":{"in":"1428"}}]}},{"toponym":"(hundredum) Sancti Georgi","citations":[{"label":"1244 Ass","year":1244}],"when":{"timespans":[{"start":{"in":"1244"},"end":{"in":"1244"}}]}},{"toponym":"(hundredum de) Sancto Georgio","citations":[{"label":"1212 Fees","year":1212},{"label":"1244 Ass","year":1244}],"when":{"timespans":[{"start":{"in":"1212"},"end":{"in":"1212"}},{"start":{"in":"1219"},"end":{"in":"1219"}},{"start":{"in":"1244"},"end":{"in":"1244"}}]}},{"toponym":"(hundredum de) Sancto Jeorgio","citations":[{"label":"1227 Fees","year":1227}],"when":{"timespans":[{"start":{"in":"1227"},"end":{"in":"1227"}}]}},{"toponym":"Sancti Gregorii","citations":[{"label":"1272 Cl","year":1272}],"when":{"timespans":[{"start":{"in":"1272"},"end":{"in":"1272"}}]}},{"toponym":"hd of Seynt George","citations":[{"label":"1329 Ipm","year":1329}],"when":{"timespans":[{"start":{"in":"1329"},"end":{"in":"1329"}}]}},{"toponym":"Hundredum de Seint Georg","citations":[{"label":"1346 FA","year":1346}],"when":{"timespans":[{"start":{"in":"1346"},"end":{"in":"1346"}}]}},{"toponym":"hundr' de George","citations":[{"label":"1462 MinAcct","year":1462}],"when":{"timespans":[{"start":{"in":"1462"},"end":{"in":"1462"}}]}},{"toponym":"George hd","citations":[{"label":"1539 LP","year":1539}],"when":{"timespans":[{"start":{"in":"1539"},"end":{"in":"1539"}}]}},{"toponym":"hundred of (the) Georg(e)","citations":[{"label":"1617 Add","year":1617},{"label":"1653 ParlSurv","year":1653},{"label":"1664 HTax","year":1664}],"when":{"timespans":[{"start":{"in":"1617"},"end":{"in":"1617"}},{"start":{"in":"1653"},"end":{"in":"1653"}},{"start":{"in":"1664"},"end":{"in":"1664"}}]}}],"types":[{"identifier":"http://vocab.getty.edu/aat/300232418","label":"administrative division","sourceLabels":[{"label":"hundred / wapentake","lang":"en"}]}],"geometry":null,"when":{"timespans":[{"start":{"in":"1076"},"end":{"in":"1664"}}]},"relations":[{"relationType":"gvp:broaderPartitive","relationTo":"https://w3id.org/whg-epns/52/000001","label":"within Dorset"}]}]}