{"@context":"https://raw.githubusercontent.com/LinkedPasts/linked-places-format/main/linkedplaces-context-v1.1.jsonld","type":"FeatureCollection","license":"Digitisation of English Placenames MADS data is licensed to Jisc by the English Place Names Society and released under a Creative Commons Attribution-NonCommercial 4.0 International License.","note":"LPF v1.3, lossy; derived from the PLATO record; plato_commit=ca0afadabec1e23a145c0b03df77e8f151f79832","features":[{"@id":"http://placenames.org.uk/id/placename/82/000368","type":"Feature","properties":{"title":"Fenemere","ccodes":["GB"],"fclasses":["A","P"]},"names":[{"toponym":"Fenemere","lang":"en","citations":[{"label":"English Place-Name Society survey, volume 82: Shropshire"}]},{"toponym":"Finemer","citations":[{"label":"1086 DB","year":1086}],"when":{"timespans":[{"start":{"in":"1086"},"end":{"in":"1086"}}]}},{"toponym":"Finemera","citations":[{"label":"1121 SAC","year":1121}],"when":{"timespans":[{"start":{"in":"1121"},"end":{"in":"1121"}}]}},{"toponym":"Fynymer","citations":[{"label":"Hy 8 RentSur","year":1509}],"when":{"timespans":[{"start":{"earliest":"1509","latest":"1547"},"end":{"earliest":"1509","latest":"1547"}}]}},{"toponym":"Fenemere","citations":[{"label":"1255-6 Ass","year":1255}],"when":{"timespans":[{"start":{"earliest":"1255","latest":"1256"},"end":{"earliest":"1255","latest":"1256"}}]}},{"toponym":"Fenemoore","citations":[{"label":"1672 HTR","year":1672}],"when":{"timespans":[{"start":{"in":"1672"},"end":{"in":"1672"}}]}},{"toponym":"Fennymare","citations":[{"label":"1255-6 Ass","year":1255}],"when":{"timespans":[{"start":{"earliest":"1255","latest":"1256"},"end":{"earliest":"1255","latest":"1256"}}]}},{"toponym":"Fennimare","citations":[{"label":"1271-2 Ass","year":1271}],"when":{"timespans":[{"start":{"earliest":"1271","latest":"1272"},"end":{"earliest":"1271","latest":"1272"}}]}},{"toponym":"Fenymare","citations":[{"label":"1291-2 Ass","year":1291}],"when":{"timespans":[{"start":{"earliest":"1291","latest":"1292"},"end":{"earliest":"1291","latest":"1292"}}]}},{"toponym":"Fenymere","citations":[{"label":"1361 Ipm","year":1361}],"when":{"timespans":[{"start":{"in":"1361"},"end":{"in":"1361"}}]}},{"toponym":"Fenymer","citations":[{"label":"1362 Cl","year":1362}],"when":{"timespans":[{"start":{"in":"1362"},"end":{"in":"1362"}}]}},{"toponym":"Fennimeare","citations":[{"label":"1655 SAC","year":1655}],"when":{"timespans":[{"start":{"in":"1655"},"end":{"in":"1655"}}]}},{"toponym":"Fennyngmer'","citations":[{"label":"1305-6 Ass","year":1305}],"when":{"timespans":[{"start":{"earliest":"1305","latest":"1306"},"end":{"earliest":"1305","latest":"1306"}}]}},{"toponym":"Venimere","citations":[{"label":"1342 HAC","year":1342}],"when":{"timespans":[{"start":{"in":"1342"},"end":{"in":"1342"}}]}}],"types":[{"identifier":"http://vocab.getty.edu/aat/300232418","label":"administrative division","sourceLabels":[{"label":"township","lang":"en"}]}],"geometry":{"type":"GeometryCollection","geometries":[{"type":"Point","coordinates":[-2.823309622,52.80136704],"citations":[{"label":"English Place-Name Society survey (DEEP coordinates)"}]},{"type":"Point","coordinates":[-2.82322498316637,52.79687327827456],"citations":[{"label":"Unlock (EDINA) gazetteer, gazetteer record unlock:11143108"}]}]},"when":{"timespans":[{"start":{"in":"1086"},"end":{"in":"1672"}}]},"relations":[{"relationType":"gvp:broaderPartitive","relationTo":"http://placenames.org.uk/id/placename/82/000003","label":"within Baschurch"}]}]}