{"@context":"https://raw.githubusercontent.com/LinkedPasts/linked-places-format/main/linkedplaces-context-v1.1.jsonld","type":"FeatureCollection","license":"Digitisation of English Placenames MADS data is licensed to Jisc by the English Place Names Society and released under a Creative Commons Attribution-NonCommercial 4.0 International License.","note":"LPF v1.3, lossy; derived from the PLATO record; plato_commit=fa0d247ccc0263f8f19c8d7cdcd163df96935d1e","features":[{"@id":"https://w3id.org/whg-epns/82/001410","type":"Feature","properties":{"title":"Kenwick, Stockett and Whattall","ccodes":["GB"],"fclasses":["A","P"]},"names":[{"toponym":"Kenwick, Stockett and Whattall","lang":"en","citations":[{"label":"English Place-Name Society survey, volume 82: Shropshire"}]}],"types":[{"identifier":"http://vocab.getty.edu/aat/300232418","label":"administrative division","sourceLabels":[{"label":"township","lang":"en"}]}],"geometry":{"type":"GeometryCollection","geometries":[{"type":"Point","coordinates":[-2.860221236,52.86763672],"citations":[{"label":"English Place-Name Society survey (DEEP coordinates)"}]},{"type":"Point","coordinates":[-2.854297065872966,52.86857960451866],"citations":[{"label":"Unlock (EDINA) gazetteer, gazetteer record unlock:11185330"}]}]},"relations":[{"relationType":"gvp:broaderPartitive","relationTo":"https://w3id.org/whg-epns/82/001062","label":"within Cockshutt"}]}]}