{"@context":"https://raw.githubusercontent.com/LinkedPasts/linked-places-format/main/linkedplaces-context-v1.1.jsonld","type":"FeatureCollection","license":"Digitisation of English Placenames MADS data is licensed to Jisc by the English Place Names Society and released under a Creative Commons Attribution-NonCommercial 4.0 International License.","note":"LPF v1.3, lossy; derived from the PLATO record; plato_commit=ca0afadabec1e23a145c0b03df77e8f151f79832","features":[{"@id":"http://placenames.org.uk/id/placename/82/002642","type":"Feature","properties":{"title":"Ellesmere","ccodes":["GB"],"fclasses":["A","P"]},"names":[{"toponym":"Ellesmere","lang":"en","citations":[{"label":"English Place-Name Society survey, volume 82: Shropshire"}]}],"types":[{"identifier":"http://vocab.getty.edu/aat/300232418","label":"administrative division","sourceLabels":[{"label":"township","lang":"en"}]}],"geometry":{"type":"GeometryCollection","geometries":[{"type":"Point","coordinates":[-2.88333,52.91667],"citations":[{"label":"GeoNames, gazetteer record geonames:2650097"}]},{"type":"Point","coordinates":[-2.895220894,52.90783611],"citations":[{"label":"English Place-Name Society survey (DEEP coordinates)"}]},{"type":"Point","coordinates":[-2.899607303218101,52.90420777737297],"citations":[{"label":"Unlock (EDINA) gazetteer, gazetteer record unlock:11139352"}]},{"type":"Point","coordinates":[-2.90093,52.9045],"citations":[{"label":"Key to English Place-Names (KEPN), gazetteer record 13435"}]}]},"links":[{"type":"closeMatch","identifier":"https://sws.geonames.org/2650097/"}],"relations":[{"relationType":"gvp:broaderPartitive","relationTo":"http://placenames.org.uk/id/placename/82/001833","label":"within Ellesmere"}]}]}