{"@context":"https://raw.githubusercontent.com/LinkedPasts/linked-places-format/main/linkedplaces-context-v1.1.jsonld","type":"FeatureCollection","license":"Digitisation of English Placenames MADS data is licensed to Jisc by the English Place Names Society and released under a Creative Commons Attribution-NonCommercial 4.0 International License.","note":"LPF v1.3, lossy; derived from the PLATO record; plato_commit=ca0afadabec1e23a145c0b03df77e8f151f79832","features":[{"@id":"http://placenames.org.uk/id/placename/82/004831","type":"Feature","properties":{"title":"Hordley","ccodes":["GB"],"fclasses":["A","P"]},"names":[{"toponym":"Hordley","lang":"en","citations":[{"label":"English Place-Name Society survey, volume 82: Shropshire"}]},{"toponym":"Hordelei","citations":[{"label":"1086–1535, recurring DB","year":1086},{"label":"1086–1535, recurring VE"},{"label":"1086 DB","year":1086},{"label":"1535 VE","year":1535}],"when":{"timespans":[{"start":{"in":"1086"},"end":{"in":"1535"}},{"start":{"in":"1086"},"end":{"in":"1086"}},{"start":{"in":"1535"},"end":{"in":"1535"}}]}},{"toponym":"Hordeleia, Hordeleg, Hordeleg(h)', Hordelee, Hordeley(e)","citations":[{"label":"1086-1535 unspecified sources","year":1086}],"when":{"timespans":[{"start":{"in":"1086"},"end":{"in":"1535"}}]}},{"toponym":"Hordileg'","citations":[{"label":"1197-1203 HAC","year":1197}],"when":{"timespans":[{"start":{"earliest":"1197","latest":"1203"},"end":{"earliest":"1197","latest":"1203"}}]}},{"toponym":"Hordylee","citations":[{"label":"1271-2 Ass","year":1271}],"when":{"timespans":[{"start":{"earliest":"1271","latest":"1272"},"end":{"earliest":"1271","latest":"1272"}}]}},{"toponym":"Hordyleye","citations":[{"label":"1306-7 Ass","year":1306}],"when":{"timespans":[{"start":{"earliest":"1306","latest":"1307"},"end":{"earliest":"1306","latest":"1307"}}]}},{"toponym":"Hordileye","citations":[{"label":"c.1307 APW","year":1297}],"when":{"timespans":[{"start":{"earliest":"1297","latest":"1317"},"end":{"earliest":"1297","latest":"1317"}}]}},{"toponym":"Horderle, Hordesleg'","citations":[{"label":"1271-2 Ass","year":1271}],"when":{"timespans":[{"start":{"earliest":"1271","latest":"1272"},"end":{"earliest":"1271","latest":"1272"}}]}},{"toponym":"Hordley","citations":[{"label":"1577 Saxton","year":1577}],"when":{"timespans":[{"start":{"in":"1577"},"end":{"in":"1577"}}]}}],"types":[{"identifier":"http://vocab.getty.edu/aat/300232418","label":"administrative division","sourceLabels":[{"label":"township","lang":"en"}]}],"geometry":{"type":"GeometryCollection","geometries":[{"type":"Point","coordinates":[-2.92215,52.87112],"citations":[{"label":"GeoNames, gazetteer record geonames:2646609"}]},{"type":"Point","coordinates":[-2.918231665,52.87079862],"citations":[{"label":"English Place-Name Society survey (DEEP coordinates)"}]},{"type":"Point","coordinates":[-2.913718450485856,52.86813726966791],"citations":[{"label":"Unlock (EDINA) gazetteer, gazetteer record unlock:11179269"}]},{"type":"Point","coordinates":[-2.91504,52.8685],"citations":[{"label":"Key to English Place-Names (KEPN), gazetteer record 13488"}]}]},"when":{"timespans":[{"start":{"in":"1086"},"end":{"in":"1577"}}]},"links":[{"type":"closeMatch","identifier":"https://sws.geonames.org/2646609/"}],"relations":[{"relationType":"gvp:broaderPartitive","relationTo":"http://placenames.org.uk/id/placename/82/004674","label":"within Hordley"}]}]}