{"@context":"https://raw.githubusercontent.com/LinkedPasts/linked-places-format/main/linkedplaces-context-v1.1.jsonld","type":"FeatureCollection","license":"Digitisation of English Placenames MADS data is licensed to Jisc by the English Place Names Society and released under a Creative Commons Attribution-NonCommercial 4.0 International License.","note":"LPF v1.3, lossy; derived from the PLATO record; plato_commit=ca0afadabec1e23a145c0b03df77e8f151f79832","features":[{"@id":"http://placenames.org.uk/id/placename/82/010434","type":"Feature","properties":{"title":"Marchamley","ccodes":["GB"],"fclasses":["A","P"]},"names":[{"toponym":"Marchamley","lang":"en","citations":[{"label":"English Place-Name Society survey, volume 82: Shropshire"}]},{"toponym":"Marcemeslei","citations":[{"label":"1086 DB","year":1086}],"when":{"timespans":[{"start":{"in":"1086"},"end":{"in":"1086"}}]}},{"toponym":"Merchemeslege","citations":[{"label":"1185 P","year":1185}],"when":{"timespans":[{"start":{"in":"1185"},"end":{"in":"1185"}}]}},{"toponym":"Merchemeslega, Merchemelesga","citations":[{"label":"c.1190-4 HAC","year":1190}],"when":{"timespans":[{"start":{"earliest":"1190","latest":"1194"},"end":{"earliest":"1190","latest":"1194"}}]}},{"toponym":"Marcemeleg'","citations":[{"label":"1206 Cur","year":1206}],"when":{"timespans":[{"start":{"in":"1206"},"end":{"in":"1206"}}]}},{"toponym":"Marchemeleg","citations":[{"label":"1227 Ch","year":1227},{"label":"1278 Ipm","year":1278}],"when":{"timespans":[{"start":{"in":"1227"},"end":{"in":"1227"}},{"start":{"in":"1278"},"end":{"in":"1278"}}]}},{"toponym":"Marchemeleg'","citations":[{"label":"1271-2 Ass","year":1271}],"when":{"timespans":[{"start":{"earliest":"1271","latest":"1272"},"end":{"earliest":"1271","latest":"1272"}}]}},{"toponym":"Marchemnlegh","citations":[{"label":"1271-2 Ass","year":1271}],"when":{"timespans":[{"start":{"earliest":"1271","latest":"1272"},"end":{"earliest":"1271","latest":"1272"}}]}},{"toponym":"Marchamlegh","citations":[{"label":"1229 Ch","year":1229}],"when":{"timespans":[{"start":{"in":"1229"},"end":{"in":"1229"}}]}},{"toponym":"Marchumleg'","citations":[{"label":"1242–1796, recurring Fees","year":1242},{"label":"1242–1796, recurring SBL"},{"label":"1242 Fees","year":1242},{"label":"1796 SBL","year":1796}],"when":{"timespans":[{"start":{"in":"1242"},"end":{"in":"1796"}},{"start":{"in":"1242"},"end":{"in":"1242"}},{"start":{"in":"1796"},"end":{"in":"1796"}}]}},{"toponym":"Marchumlegh, Marchumle(g), Marchumley(e), Marchumleie","citations":[{"label":"1242-1796 unspecified sources","year":1242}],"when":{"timespans":[{"start":{"in":"1242"},"end":{"in":"1796"}}]}},{"toponym":"Marchumeleg","citations":[{"label":"1252 Ch","year":1252}],"when":{"timespans":[{"start":{"in":"1252"},"end":{"in":"1252"}}]}},{"toponym":"Marchameleg'","citations":[{"label":"1255-6 Ass","year":1255}],"when":{"timespans":[{"start":{"earliest":"1255","latest":"1256"},"end":{"earliest":"1255","latest":"1256"}}]}},{"toponym":"Marchomelegh'","citations":[{"label":"1271-2 Ass","year":1271}],"when":{"timespans":[{"start":{"earliest":"1271","latest":"1272"},"end":{"earliest":"1271","latest":"1272"}}]}},{"toponym":"Marchomley","citations":[{"label":"1307–1672, recurring HAC","year":1307},{"label":"1307–1672, recurring HTR"},{"label":"1307 HAC","year":1307},{"label":"1672 HTR","year":1672}],"when":{"timespans":[{"start":{"in":"1307"},"end":{"in":"1672"}},{"start":{"in":"1307"},"end":{"in":"1307"}},{"start":{"in":"1672"},"end":{"in":"1672"}}]}},{"toponym":"Marchamleye","citations":[{"label":"1316 FA","year":1316},{"label":"c.1320 AD","year":1310}],"when":{"timespans":[{"start":{"in":"1316"},"end":{"in":"1316"}},{"start":{"earliest":"1310","latest":"1330"},"end":{"earliest":"1310","latest":"1330"}}]}},{"toponym":"Marchamley","citations":[{"label":"1374–1374, recurring AD","year":1374},{"label":"1374 AD","year":1374}],"when":{"timespans":[{"start":{"in":"1374"},"end":{"in":"1374"}},{"start":{"in":"1374"},"end":{"in":"1374"}}]}},{"toponym":"Marchumelegh","citations":[{"label":"1378 Pat","year":1378}],"when":{"timespans":[{"start":{"in":"1378"},"end":{"in":"1378"}}]}},{"toponym":"Merchimeleg'","citations":[{"label":"c.1230-40 HAC","year":1230}],"when":{"timespans":[{"start":{"earliest":"1230","latest":"1240"},"end":{"earliest":"1230","latest":"1240"}}]}},{"toponym":"Merchomleg'","citations":[{"label":"1242 Fees","year":1242}],"when":{"timespans":[{"start":{"in":"1242"},"end":{"in":"1242"}}]}},{"toponym":"Merchomel', Merchamel","citations":[{"label":"1255-6 Ass","year":1255}],"when":{"timespans":[{"start":{"earliest":"1255","latest":"1256"},"end":{"earliest":"1255","latest":"1256"}}]}},{"toponym":"Merchumleg'","citations":[{"label":"1276 Ipm","year":1276}],"when":{"timespans":[{"start":{"in":"1276"},"end":{"in":"1276"}}]}},{"toponym":"Marchimleg","citations":[{"label":"1255 RH","year":1255}],"when":{"timespans":[{"start":{"in":"1255"},"end":{"in":"1255"}}]}},{"toponym":"Marchimlega","citations":[{"label":"1256 HAC","year":1256}],"when":{"timespans":[{"start":{"in":"1256"},"end":{"in":"1256"}}]}},{"toponym":"Marchimleye","citations":[{"label":"1318 Cl","year":1318}],"when":{"timespans":[{"start":{"in":"1318"},"end":{"in":"1318"}}]}},{"toponym":"Marchunley","citations":[{"label":"1283 Ipm","year":1283},{"label":"1397 InqMisc","year":1397}],"when":{"timespans":[{"start":{"in":"1283"},"end":{"in":"1283"}},{"start":{"in":"1397"},"end":{"in":"1397"}}]}},{"toponym":"Marchunlegh'","citations":[{"label":"1291-2 Ass","year":1291}],"when":{"timespans":[{"start":{"earliest":"1291","latest":"1292"},"end":{"earliest":"1291","latest":"1292"}}]}},{"toponym":"Marchunle","citations":[{"label":"1324 Fine","year":1324}],"when":{"timespans":[{"start":{"in":"1324"},"end":{"in":"1324"}}]}},{"toponym":"Marhamlee","citations":[{"label":"1291-2 Ass","year":1291}],"when":{"timespans":[{"start":{"earliest":"1291","latest":"1292"},"end":{"earliest":"1291","latest":"1292"}}]}},{"toponym":"Marshomley","citations":[{"label":"1695 Morden","year":1695}],"when":{"timespans":[{"start":{"in":"1695"},"end":{"in":"1695"}}]}}],"types":[{"identifier":"http://vocab.getty.edu/aat/300232418","label":"administrative division","sourceLabels":[{"label":"township","lang":"en"}]}],"geometry":{"type":"GeometryCollection","geometries":[{"type":"Point","coordinates":[-2.60067,52.8615],"citations":[{"label":"GeoNames, gazetteer record geonames:2643069"}]},{"type":"Point","coordinates":[-2.598657724,52.86205088],"citations":[{"label":"English Place-Name Society survey (DEEP coordinates)"}]},{"type":"Point","coordinates":[-2.601616296007222,52.8611379179662],"citations":[{"label":"Unlock (EDINA) gazetteer, gazetteer record unlock:11213483"}]}]},"when":{"timespans":[{"start":{"in":"1086"},"end":{"in":"1796"}}]},"links":[{"type":"closeMatch","identifier":"https://sws.geonames.org/2643069/"}],"relations":[{"relationType":"gvp:broaderPartitive","relationTo":"http://placenames.org.uk/id/placename/82/009832","label":"within Hodnet"}]}]}