{"@context":"https://raw.githubusercontent.com/LinkedPasts/linked-places-format/main/linkedplaces-context-v1.1.jsonld","type":"FeatureCollection","license":"Digitisation of English Placenames MADS data is licensed to Jisc by the English Place Names Society and released under a Creative Commons Attribution-NonCommercial 4.0 International License.","note":"LPF v1.3, lossy; derived from the PLATO record; plato_commit=ca0afadabec1e23a145c0b03df77e8f151f79832","features":[{"@id":"https://w3id.org/whg-epns/82/012750","type":"Feature","properties":{"title":"Shavington","ccodes":["GB"],"fclasses":["A","P"]},"names":[{"toponym":"Shavington","lang":"en","citations":[{"label":"English Place-Name Society survey, volume 82: Shropshire"}]},{"toponym":"Savintune","citations":[{"label":"1086 DB","year":1086}],"when":{"timespans":[{"start":{"in":"1086"},"end":{"in":"1086"}}]}},{"toponym":"Savinton'","citations":[{"label":"1219 SAC","year":1219},{"label":"1284-92 HAC","year":1284}],"when":{"timespans":[{"start":{"in":"1219"},"end":{"in":"1219"}},{"start":{"earliest":"1284","latest":"1292"},"end":{"earliest":"1284","latest":"1292"}}]}},{"toponym":"Savigton'","citations":[{"label":"1230 P","year":1230}],"when":{"timespans":[{"start":{"in":"1230"},"end":{"in":"1230"}}]}},{"toponym":"Shauenton, Schauinton","citations":[{"label":"1255-6 Ass","year":1255}],"when":{"timespans":[{"start":{"earliest":"1255","latest":"1256"},"end":{"earliest":"1255","latest":"1256"}}]}},{"toponym":"Schauynton","citations":[{"label":"1271-2 Ass","year":1271}],"when":{"timespans":[{"start":{"earliest":"1271","latest":"1272"},"end":{"earliest":"1271","latest":"1272"}}]}},{"toponym":"Shauynton'","citations":[{"label":"1291-2 Ass","year":1291}],"when":{"timespans":[{"start":{"earliest":"1291","latest":"1292"},"end":{"earliest":"1291","latest":"1292"}}]}},{"toponym":"Shavynton","citations":[{"label":"1303 Pat","year":1303},{"label":"1315 Ch","year":1315},{"label":"1419 Fine","year":1419}],"when":{"timespans":[{"start":{"in":"1303"},"end":{"in":"1303"}},{"start":{"in":"1315"},"end":{"in":"1315"}},{"start":{"in":"1419"},"end":{"in":"1419"}}]}},{"toponym":"Sahinton'","citations":[{"label":"1271-2 Ass","year":1271}],"when":{"timespans":[{"start":{"earliest":"1271","latest":"1272"},"end":{"earliest":"1271","latest":"1272"}}]}},{"toponym":"Schauyngton'","citations":[{"label":"1291-2 Ass","year":1291}],"when":{"timespans":[{"start":{"earliest":"1291","latest":"1292"},"end":{"earliest":"1291","latest":"1292"}}]}},{"toponym":"Shavyngton","citations":[{"label":"1337 Pat","year":1337}],"when":{"timespans":[{"start":{"in":"1337"},"end":{"in":"1337"}}]}},{"toponym":"Shavington","citations":[{"label":"1618–1618, recurring SBL","year":1618},{"label":"1618 SBL","year":1618}],"when":{"timespans":[{"start":{"in":"1618"},"end":{"in":"1618"}},{"start":{"in":"1618"},"end":{"in":"1618"}}]}},{"toponym":"Shaffyngton","citations":[{"label":"1339 Cl","year":1339}],"when":{"timespans":[{"start":{"in":"1339"},"end":{"in":"1339"}}]}},{"toponym":"Sharington or Shenton","citations":[{"label":"1695 Morden","year":1695}],"when":{"timespans":[{"start":{"in":"1695"},"end":{"in":"1695"}}]}},{"toponym":"Shenton","citations":[{"label":"1731 PR(L)","year":1731}],"when":{"timespans":[{"start":{"in":"1731"},"end":{"in":"1731"}},{"start":{"in":"1760"},"end":{"in":"1760"}}]}},{"toponym":"Shevington","citations":[{"label":"1748 PR(L)","year":1748}],"when":{"timespans":[{"start":{"in":"1748"},"end":{"in":"1748"}},{"start":{"in":"1791"},"end":{"in":"1791"}}]}}],"types":[{"identifier":"http://vocab.getty.edu/aat/300232418","label":"administrative division","sourceLabels":[{"label":"township","lang":"en"}]}],"geometry":{"type":"GeometryCollection","geometries":[{"type":"Point","coordinates":[-2.541756777,52.94503644],"citations":[{"label":"English Place-Name Society survey (DEEP coordinates)"}]},{"type":"Point","coordinates":[-2.543324054271083,52.95132364817662],"citations":[{"label":"Unlock (EDINA) gazetteer, gazetteer record unlock:11281702"}]}]},"when":{"timespans":[{"start":{"in":"1086"},"end":{"in":"1791"}}]},"relations":[{"relationType":"gvp:broaderPartitive","relationTo":"https://w3id.org/whg-epns/82/012173","label":"within Moreton Say"}]}]}