{"@context":"https://raw.githubusercontent.com/LinkedPasts/linked-places-format/main/linkedplaces-context-v1.1.jsonld","type":"FeatureCollection","license":"Digitisation of English Placenames MADS data is licensed to Jisc by the English Place Names Society and released under a Creative Commons Attribution-NonCommercial 4.0 International License.","note":"LPF v1.3, lossy; derived from the PLATO record; plato_commit=ca0afadabec1e23a145c0b03df77e8f151f79832","features":[{"@id":"http://placenames.org.uk/id/placename/82/013812","type":"Feature","properties":{"title":"Mickley","ccodes":["GB"],"fclasses":["A","P"]},"names":[{"toponym":"Mickley","lang":"en","citations":[{"label":"English Place-Name Society survey, volume 82: Shropshire"}]},{"toponym":"Mitteleg'","citations":[{"label":"1241-9 Lil","year":1241}],"when":{"timespans":[{"start":{"earliest":"1241","latest":"1249"},"end":{"earliest":"1241","latest":"1249"}}]}},{"toponym":"Mitteleye","citations":[{"label":"1327 SR","year":1327}],"when":{"timespans":[{"start":{"in":"1327"},"end":{"in":"1327"}}]}},{"toponym":"Mittonley","citations":[{"label":"1308 Ipm","year":1308}],"when":{"timespans":[{"start":{"in":"1308"},"end":{"in":"1308"}}]}},{"toponym":"Mittomleye","citations":[{"label":"Ed 3 SBL","year":1327}],"when":{"timespans":[{"start":{"earliest":"1327","latest":"1377"},"end":{"earliest":"1327","latest":"1377"}}]}},{"toponym":"Mutteleye","citations":[{"label":"1327 SR","year":1327}],"when":{"timespans":[{"start":{"in":"1327"},"end":{"in":"1327"}}]}},{"toponym":"Mittley","citations":[{"label":"1655 SAS","year":1655},{"label":"1672 HTR","year":1672}],"when":{"timespans":[{"start":{"in":"1655"},"end":{"in":"1655"}},{"start":{"in":"1672"},"end":{"in":"1672"}}]}},{"toponym":"Mitley","citations":[{"label":"1765 SBL","year":1765}],"when":{"timespans":[{"start":{"in":"1765"},"end":{"in":"1765"}}]}},{"toponym":"Mickley","citations":[{"label":"1833 OS","year":1833},{"label":"1843 TA","year":1843}],"when":{"timespans":[{"start":{"in":"1833"},"end":{"in":"1833"}},{"start":{"in":"1843"},"end":{"in":"1843"}}]}}],"types":[{"identifier":"http://vocab.getty.edu/aat/300232418","label":"administrative division","sourceLabels":[{"label":"township","lang":"en"}]}],"geometry":{"type":"GeometryCollection","geometries":[{"type":"Point","coordinates":[-2.56934,52.88742],"citations":[{"label":"GeoNames, gazetteer record geonames:6255015"}]},{"type":"Point","coordinates":[-2.572275057,52.88915253],"citations":[{"label":"English Place-Name Society survey (DEEP coordinates)"}]},{"type":"Point","coordinates":[-2.572263386979917,52.88825459189993],"citations":[{"label":"Unlock (EDINA) gazetteer, gazetteer record unlock:11217767"}]}]},"when":{"timespans":[{"start":{"in":"1241"},"end":{"in":"1843"}}]},"links":[{"type":"closeMatch","identifier":"https://sws.geonames.org/6255015/"}],"relations":[{"relationType":"gvp:broaderPartitive","relationTo":"http://placenames.org.uk/id/placename/82/013484","label":"within Prees"}]}]}