{"@context":"https://raw.githubusercontent.com/LinkedPasts/linked-places-format/main/linkedplaces-context-v1.1.jsonld","type":"FeatureCollection","license":"Digitisation of English Placenames MADS data is licensed to Jisc by the English Place Names Society and released under a Creative Commons Attribution-NonCommercial 4.0 International License.","note":"LPF v1.3, lossy; derived from the PLATO record; plato_commit=fa0d247ccc0263f8f19c8d7cdcd163df96935d1e","features":[{"@id":"https://w3id.org/whg-epns/82/015953","type":"Feature","properties":{"title":"Stoke upon Tern","ccodes":["GB"],"fclasses":["A","P"]},"names":[{"toponym":"Stoke upon Tern","lang":"en","citations":[{"label":"English Place-Name Society survey, volume 82: Shropshire"}]}],"types":[{"identifier":"http://vocab.getty.edu/aat/300232418","label":"administrative division","sourceLabels":[{"label":"township","lang":"en"}]}],"geometry":{"type":"GeometryCollection","geometries":[{"type":"Point","coordinates":[-2.53333,52.85],"citations":[{"label":"GeoNames, gazetteer record geonames:2636829"}]},{"type":"Point","coordinates":[-2.5286,52.8528],"citations":[{"label":"Key to English Place-Names (KEPN), gazetteer record 13675"}]}]},"links":[{"type":"closeMatch","identifier":"https://sws.geonames.org/2636829/"}],"relations":[{"relationType":"gvp:broaderPartitive","relationTo":"https://w3id.org/whg-epns/82/015750","label":"within Stoke upon Tern"}]}]}