{"@context":"https://raw.githubusercontent.com/LinkedPasts/linked-places-format/main/linkedplaces-context-v1.1.jsonld","type":"FeatureCollection","license":"Digitisation of English Placenames MADS data is licensed to Jisc by the English Place Names Society and released under a Creative Commons Attribution-NonCommercial 4.0 International License.","note":"LPF v1.3, lossy; derived from the PLATO record; plato_commit=fa0d247ccc0263f8f19c8d7cdcd163df96935d1e","features":[{"@id":"https://w3id.org/whg-epns/82/018213","type":"Feature","properties":{"title":"Sleap","ccodes":["GB"],"fclasses":["A","P"]},"names":[{"toponym":"Sleap","lang":"en","citations":[{"label":"English Place-Name Society survey, volume 82: Shropshire"}]},{"toponym":"Eslepe","citations":[{"label":"1086 DB","year":1086}],"when":{"timespans":[{"start":{"in":"1086"},"end":{"in":"1086"}}]}},{"toponym":"Slep'","citations":[{"label":"SAC","year":1221},{"label":"PR(L)"},{"label":"1221 SAC","year":1221},{"label":"1744 PR(L)","year":1744}],"when":{"timespans":[{"start":{"in":"1221"},"end":{"in":"1744"}},{"start":{"in":"1221"},"end":{"in":"1221"}},{"start":{"in":"1744"},"end":{"in":"1744"}}]}},{"toponym":"Slep, Slepe","citations":[{"label":"1221-1744 unspecified sources","year":1221}],"when":{"timespans":[{"start":{"in":"1221"},"end":{"in":"1744"}}]}},{"toponym":"Sclepe","citations":[{"label":"1255 RH","year":1255}],"when":{"timespans":[{"start":{"in":"1255"},"end":{"in":"1255"}}]}},{"toponym":"Slaype","citations":[{"label":"1526-7 SBL","year":1526}],"when":{"timespans":[{"start":{"earliest":"1526","latest":"1527"},"end":{"earliest":"1526","latest":"1527"}}]}},{"toponym":"Slape","citations":[{"label":"PR(L)","year":1703},{"label":"PR(L)"},{"label":"1703 PR(L)","year":1703},{"label":"1764 PR(L)","year":1764}],"when":{"timespans":[{"start":{"in":"1703"},"end":{"in":"1764"}},{"start":{"in":"1703"},"end":{"in":"1703"}},{"start":{"in":"1764"},"end":{"in":"1764"}}]}},{"toponym":"Sleape","citations":[{"label":"Saxton","year":1577},{"label":"PR(L)"},{"label":"1577 Saxton","year":1577},{"label":"1702 PR(L)","year":1702}],"when":{"timespans":[{"start":{"in":"1577"},"end":{"in":"1702"}},{"start":{"in":"1577"},"end":{"in":"1577"}},{"start":{"in":"1702"},"end":{"in":"1702"}}]}},{"toponym":"Sleepe","citations":[{"label":"1607 PR(L)","year":1607}],"when":{"timespans":[{"start":{"in":"1607"},"end":{"in":"1607"}}]}},{"toponym":"Sleap","citations":[{"label":"PR(L)","year":1657},{"label":"1657 PR(L)","year":1657}],"when":{"timespans":[{"start":{"in":"1657"},"end":{"in":"1657"}},{"start":{"in":"1657"},"end":{"in":"1657"}}]}}],"types":[{"identifier":"http://vocab.getty.edu/aat/300232418","label":"administrative division","sourceLabels":[{"label":"township","lang":"en"}]}],"geometry":{"type":"GeometryCollection","geometries":[{"type":"Point","coordinates":[-2.763077045,52.83503523],"citations":[{"label":"English Place-Name Society survey (DEEP coordinates)"}]},{"type":"Point","coordinates":[-2.764530141822442,52.83322878907885],"citations":[{"label":"Unlock (EDINA) gazetteer, gazetteer record unlock:11285254"}]}]},"when":{"timespans":[{"start":{"in":"1086"},"end":{"in":"1764"}}]},"relations":[{"relationType":"gvp:broaderPartitive","relationTo":"https://w3id.org/whg-epns/82/016882","label":"within Wem"}]}]}