{"@context":"https://raw.githubusercontent.com/LinkedPasts/linked-places-format/main/linkedplaces-context-v1.1.jsonld","type":"FeatureCollection","license":"Digitisation of English Placenames MADS data is licensed to Jisc by the English Place Names Society and released under a Creative Commons Attribution-NonCommercial 4.0 International License.","note":"LPF v1.3, lossy; derived from the PLATO record; plato_commit=ca0afadabec1e23a145c0b03df77e8f151f79832","features":[{"@id":"http://placenames.org.uk/id/placename/82/019955","type":"Feature","properties":{"title":"Hinton","ccodes":["GB"],"fclasses":["A","P"]},"names":[{"toponym":"Hinton","lang":"en","citations":[{"label":"English Place-Name Society survey, volume 82: Shropshire"}]},{"toponym":"Hyneton', Hineton'","citations":[{"label":"1255-6 Ass","year":1255}],"when":{"timespans":[{"start":{"earliest":"1255","latest":"1256"},"end":{"earliest":"1255","latest":"1256"}}]}},{"toponym":"Hayneton","citations":[{"label":"1255-6 Ass","year":1255}],"when":{"timespans":[{"start":{"earliest":"1255","latest":"1256"},"end":{"earliest":"1255","latest":"1256"}}]}},{"toponym":"Hynton'","citations":[{"label":"1291-2 SR","year":1291}],"when":{"timespans":[{"start":{"earliest":"1291","latest":"1292"},"end":{"earliest":"1291","latest":"1292"}},{"start":{"in":"1327"},"end":{"in":"1327"}}]}},{"toponym":"Hynton","citations":[{"label":"1302 Ipm","year":1302},{"label":"1381 Cl","year":1381},{"label":"1577 Saxton","year":1577}],"when":{"timespans":[{"start":{"in":"1302"},"end":{"in":"1302"}},{"start":{"in":"1381"},"end":{"in":"1381"}},{"start":{"in":"1577"},"end":{"in":"1577"}}]}}],"types":[{"identifier":"http://vocab.getty.edu/aat/300232418","label":"administrative division","sourceLabels":[{"label":"township","lang":"en"}]}],"geometry":{"type":"Point","coordinates":[-2.68379172,52.98566018],"citations":[{"label":"English Place-Name Society survey (DEEP coordinates)"}]},"when":{"timespans":[{"start":{"in":"1255"},"end":{"in":"1577"}}]},"relations":[{"relationType":"gvp:broaderPartitive","relationTo":"http://placenames.org.uk/id/placename/82/019175","label":"within Whitchurch"}]}]}