{"@context":"https://raw.githubusercontent.com/LinkedPasts/linked-places-format/main/linkedplaces-context-v1.1.jsonld","type":"FeatureCollection","license":"Digitisation of English Placenames MADS data is licensed to Jisc by the English Place Names Society and released under a Creative Commons Attribution-NonCommercial 4.0 International License.","note":"LPF v1.3, lossy; derived from the PLATO record; plato_commit=fa0d247ccc0263f8f19c8d7cdcd163df96935d1e","features":[{"@id":"https://w3id.org/whg-epns/73/001431","type":"Feature","properties":{"title":"Great Coates","ccodes":["GB"],"fclasses":["A","P"]},"names":[{"toponym":"Great Coates","lang":"en","citations":[{"label":"English Place-Name Society survey, volume 73: Lincolnshire"}]},{"toponym":"Cotes","citations":[{"label":"1086 DB","year":1086},{"label":"1175 ChancR","year":1175},{"label":"P","year":1176},{"label":"P"},{"label":"1176 P","year":1176},{"label":"1200 P","year":1200},{"label":"1201 Ass","year":1201},{"label":"1202 P","year":1202},{"label":"1204 FF","year":1204},{"label":"1204 P","year":1204},{"label":"1209 FF","year":1209},{"label":"1212 Fees","year":1212},{"label":"1212 P","year":1212},{"label":"1220 Cur","year":1220},{"label":"1223 FF","year":1223},{"label":"1230 P","year":1230},{"label":"1249 FF","year":1249},{"label":"Misc","year":1265},{"label":"1265 Misc","year":1265}],"when":{"timespans":[{"start":{"in":"1086"},"end":{"in":"1086"}},{"start":{"in":"1175"},"end":{"in":"1175"}},{"start":{"in":"1176"},"end":{"in":"1200"}},{"start":{"in":"1176"},"end":{"in":"1176"}},{"start":{"in":"1191"},"end":{"in":"1191"}},{"start":{"in":"1200"},"end":{"in":"1200"}},{"start":{"in":"1201"},"end":{"in":"1201"}},{"start":{"in":"1202"},"end":{"in":"1202"}},{"start":{"in":"1204"},"end":{"in":"1204"}},{"start":{"in":"1204"},"end":{"in":"1204"}},{"start":{"in":"1205"},"end":{"in":"1205"}},{"start":{"in":"1206"},"end":{"in":"1206"}},{"start":{"in":"1209"},"end":{"in":"1209"}},{"start":{"in":"1212"},"end":{"in":"1212"}},{"start":{"in":"1212"},"end":{"in":"1212"}},{"start":{"in":"1214"},"end":{"in":"1214"}},{"start":{"in":"1220"},"end":{"in":"1220"}},{"start":{"in":"1223"},"end":{"in":"1223"}},{"start":{"in":"1227"},"end":{"in":"1227"}},{"start":{"in":"1230"},"end":{"in":"1230"}},{"start":{"in":"1249"},"end":{"in":"1249"}},{"start":{"in":"1262"},"end":{"in":"1262"}},{"start":{"in":"1265"},"end":{"in":"1265"}},{"start":{"in":"1265"},"end":{"in":"1265"}}]}},{"toponym":"Cotes “by” Grymesby","citations":[{"label":"1426 Cl","year":1426}],"when":{"timespans":[{"start":{"in":"1426"},"end":{"in":"1426"}}]}},{"toponym":"Cotis","citations":[{"label":"c.1115 DB","year":1105}],"when":{"timespans":[{"start":{"earliest":"1105","latest":"1125"},"end":{"earliest":"1105","latest":"1125"}}]}},{"toponym":"Cotun","citations":[{"label":"c.1115 DB","year":1105},{"label":"1183 P","year":1183}],"when":{"timespans":[{"start":{"earliest":"1105","latest":"1125"},"end":{"earliest":"1105","latest":"1125"}},{"start":{"in":"1183"},"end":{"in":"1183"}},{"start":{"in":"1184"},"end":{"in":"1184"}},{"start":{"in":"1185"},"end":{"in":"1185"}}]}},{"toponym":"Kotun","citations":[{"label":"1182 P","year":1182}],"when":{"timespans":[{"start":{"in":"1182"},"end":{"in":"1182"}}]}},{"toponym":"Cothum","citations":[{"label":"1196 ChancR","year":1196}],"when":{"timespans":[{"start":{"in":"1196"},"end":{"in":"1196"}}]}},{"toponym":"Cotom","citations":[{"label":"1374 Peace","year":1374}],"when":{"timespans":[{"start":{"in":"1374"},"end":{"in":"1374"}},{"start":{"in":"1375"},"end":{"in":"1375"}}]}},{"toponym":"Magna Cotes","citations":[{"label":"1272 Ass","year":1272},{"label":"1281 FF","year":1281},{"label":"1242-43 Fees","year":1242},{"label":"1254 ValNor","year":1254},{"label":"1274 Abbr","year":1274},{"label":"1275 RH","year":1275},{"label":"1284 RSut","year":1284},{"label":"1303 FA","year":1303},{"label":"1318 AD","year":1318},{"label":"SR","year":1327},{"label":"1327 SR","year":1327}],"when":{"timespans":[{"start":{"in":"1272"},"end":{"in":"1272"}},{"start":{"in":"1281"},"end":{"in":"1281"}},{"start":{"in":"1297"},"end":{"in":"1297"}},{"start":{"earliest":"1242","latest":"1243"},"end":{"earliest":"1242","latest":"1243"}},{"start":{"in":"1254"},"end":{"in":"1254"}},{"start":{"in":"1274"},"end":{"in":"1274"}},{"start":{"in":"1275"},"end":{"in":"1275"}},{"start":{"in":"1284"},"end":{"in":"1284"}},{"start":{"in":"1294"},"end":{"in":"1294"}},{"start":{"in":"1303"},"end":{"in":"1303"}},{"start":{"in":"1316"},"end":{"in":"1316"}},{"start":{"in":"1318"},"end":{"in":"1318"}},{"start":{"in":"1327"},"end":{"in":"1332"}},{"start":{"in":"1327"},"end":{"in":"1327"}},{"start":{"in":"1332"},"end":{"in":"1332"}}]}},{"toponym":"Magna Cotes juxta Grimesby","citations":[{"label":"1584 MiscDon","year":1584}],"when":{"timespans":[{"start":{"in":"1584"},"end":{"in":"1584"}}]}},{"toponym":"Magna Cotis","citations":[{"label":"1503 Ipm","year":1503}],"when":{"timespans":[{"start":{"in":"1503"},"end":{"in":"1503"}}]}},{"toponym":"Cotes Magna","citations":[{"label":"1526 Sub","year":1526},{"label":"1554 InstBen","year":1554}],"when":{"timespans":[{"start":{"in":"1526"},"end":{"in":"1526"}},{"start":{"in":"1554"},"end":{"in":"1554"}}]}},{"toponym":"Cotes magna","citations":[{"label":"1569 InstBen","year":1569},{"label":"1590 BT","year":1590}],"when":{"timespans":[{"start":{"in":"1569"},"end":{"in":"1569"}},{"start":{"in":"1590"},"end":{"in":"1590"}},{"start":{"in":"1594"},"end":{"in":"1594"}}]}},{"toponym":"Cotes M:","citations":[{"label":"1576 Saxton","year":1576}],"when":{"timespans":[{"start":{"in":"1576"},"end":{"in":"1576"}}]}},{"toponym":"Cotts Magna","citations":[{"label":"1535 VE","year":1535}],"when":{"timespans":[{"start":{"in":"1535"},"end":{"in":"1535"}}]}},{"toponym":"Cots Mag","citations":[{"label":"a1567 LNQ","year":1517}],"when":{"timespans":[{"start":{"earliest":"1517","latest":"1567"},"end":{"earliest":"1517","latest":"1567"}}]}},{"toponym":"Cootes magna","citations":[{"label":"1570 BT","year":1570}],"when":{"timespans":[{"start":{"in":"1570"},"end":{"in":"1570"}}]}},{"toponym":"Coates magna","citations":[{"label":"1602 BT","year":1602},{"label":"1686 Terrier","year":1686}],"when":{"timespans":[{"start":{"in":"1602"},"end":{"in":"1602"}},{"start":{"in":"1614"},"end":{"in":"1614"}},{"start":{"in":"1622"},"end":{"in":"1622"}},{"start":{"in":"1675"},"end":{"in":"1675"}},{"start":{"in":"1686"},"end":{"in":"1686"}}]}},{"toponym":"Coats Magna","citations":[{"label":"1689 BT","year":1689},{"label":"1697 Terrier","year":1697}],"when":{"timespans":[{"start":{"in":"1689"},"end":{"in":"1689"}},{"start":{"in":"1723"},"end":{"in":"1723"}},{"start":{"in":"1697"},"end":{"in":"1697"}},{"start":{"in":"1709"},"end":{"in":"1709"}},{"start":{"in":"1724"},"end":{"in":"1724"}}]}},{"toponym":"“Great” Cotes","citations":[{"label":"1282 Ipm","year":1282},{"label":"1307 Pat","year":1307},{"label":"1313 Ch","year":1313},{"label":"1314 Ipm","year":1314},{"label":"1319 Pat","year":1319},{"label":"Fine","year":1347},{"label":"Ipm"},{"label":"1347 Fine","year":1347},{"label":"1509 Ipm","year":1509}],"when":{"timespans":[{"start":{"in":"1282"},"end":{"in":"1282"}},{"start":{"in":"1307"},"end":{"in":"1307"}},{"start":{"in":"1313"},"end":{"in":"1313"}},{"start":{"in":"1314"},"end":{"in":"1314"}},{"start":{"in":"1319"},"end":{"in":"1319"}},{"start":{"in":"1329"},"end":{"in":"1329"}},{"start":{"in":"1347"},"end":{"in":"1509"}},{"start":{"in":"1347"},"end":{"in":"1347"}},{"start":{"in":"1509"},"end":{"in":"1509"}}]}},{"toponym":"“Great” Cothes","citations":[{"label":"1303 Pap","year":1303}],"when":{"timespans":[{"start":{"in":"1303"},"end":{"in":"1303"}}]}},{"toponym":"“Great” Cottes","citations":[{"label":"1561 Pat","year":1561}],"when":{"timespans":[{"start":{"in":"1561"},"end":{"in":"1561"}}]}},{"toponym":"Mikelcotes","citations":[{"label":"1329 Ass","year":1329}],"when":{"timespans":[{"start":{"in":"1329"},"end":{"in":"1329"}}]}},{"toponym":"Mykelcotes","citations":[{"label":"1374 Peace","year":1374}],"when":{"timespans":[{"start":{"in":"1374"},"end":{"in":"1374"}}]}},{"toponym":"Mykelkotes","citations":[{"label":"1369 Misc","year":1369}],"when":{"timespans":[{"start":{"in":"1369"},"end":{"in":"1369"}}]}},{"toponym":"Mekelcotes","citations":[{"label":"1413-26 ECP","year":1413}],"when":{"timespans":[{"start":{"earliest":"1413","latest":"1426"},"end":{"earliest":"1413","latest":"1426"}}]}},{"toponym":"Mikyll Cotes","citations":[{"label":"1493-1500 MinAcct","year":1493}],"when":{"timespans":[{"start":{"earliest":"1493","latest":"1500"},"end":{"earliest":"1493","latest":"1500"}}]}},{"toponym":"Mikkyl Cotes","citations":[{"label":"1503 Brasses","year":1503}],"when":{"timespans":[{"start":{"in":"1503"},"end":{"in":"1503"}}]}},{"toponym":"Mikell Cotes","citations":[{"label":"1518 GrimsCB","year":1518}],"when":{"timespans":[{"start":{"in":"1518"},"end":{"in":"1518"}}]}},{"toponym":"Great Cootes","citations":[{"label":"1562 BT","year":1562}],"when":{"timespans":[{"start":{"in":"1562"},"end":{"in":"1562"}}]}},{"toponym":"Great Cottes","citations":[{"label":"1576 LER","year":1576}],"when":{"timespans":[{"start":{"in":"1576"},"end":{"in":"1576"}}]}},{"toponym":"greate Cotes","citations":[{"label":"c.1590 Terrier","year":1580},{"label":"1596 Foster","year":1596}],"when":{"timespans":[{"start":{"earliest":"1580","latest":"1600"},"end":{"earliest":"1580","latest":"1600"}},{"start":{"in":"1596"},"end":{"in":"1596"}}]}},{"toponym":"Great Cotes","citations":[{"label":"1610 Speed","year":1610},{"label":"1629 Inv","year":1629},{"label":"1634 Terrier","year":1634},{"label":"1639 BT","year":1639}],"when":{"timespans":[{"start":{"in":"1610"},"end":{"in":"1610"}},{"start":{"in":"1629"},"end":{"in":"1629"}},{"start":{"in":"1634"},"end":{"in":"1634"}},{"start":{"in":"1639"},"end":{"in":"1639"}},{"start":{"in":"1645"},"end":{"in":"1645"}}]}},{"toponym":"Great Coats","citations":[{"label":"1702 BT","year":1702},{"label":"1706 Terrier","year":1706}],"when":{"timespans":[{"start":{"in":"1702"},"end":{"in":"1702"}},{"start":{"in":"1706"},"end":{"in":"1706"}}]}},{"toponym":"Great Coates","citations":[{"label":"1741 PT","year":1741},{"label":"1756 BT","year":1756},{"label":"1781 Terrier","year":1781}],"when":{"timespans":[{"start":{"in":"1741"},"end":{"in":"1741"}},{"start":{"in":"1756"},"end":{"in":"1756"}},{"start":{"in":"1781"},"end":{"in":"1781"}}]}}],"types":[{"identifier":"http://vocab.getty.edu/aat/300232418","label":"administrative division","sourceLabels":[{"label":"township","lang":"en"}]}],"geometry":{"type":"GeometryCollection","geometries":[{"type":"Point","coordinates":[-0.13905,53.5707],"citations":[{"label":"GeoNames, gazetteer record geonames:2648133"}]},{"type":"Point","coordinates":[-0.1345402389020601,53.57629734895803],"citations":[{"label":"Unlock (EDINA) gazetteer, gazetteer record unlock:11158607"}]},{"type":"Point","coordinates":[-0.136221,53.5766],"citations":[{"label":"Key to English Place-Names (KEPN), gazetteer record 10468"}]}]},"when":{"timespans":[{"start":{"in":"1086"},"end":{"in":"1781"}}]},"links":[{"type":"closeMatch","identifier":"https://sws.geonames.org/2648133/"}],"relations":[{"relationType":"gvp:broaderPartitive","relationTo":"https://w3id.org/whg-epns/73/001430","label":"within Great Coates"}]}]}