{"@context":"https://raw.githubusercontent.com/LinkedPasts/linked-places-format/main/linkedplaces-context-v1.1.jsonld","type":"FeatureCollection","license":"Digitisation of English Placenames MADS data is licensed to Jisc by the English Place Names Society and released under a Creative Commons Attribution-NonCommercial 4.0 International License.","note":"LPF v1.3, lossy; derived from the PLATO record; plato_commit=ca0afadabec1e23a145c0b03df77e8f151f79832","features":[{"@id":"http://placenames.org.uk/id/placename/73/004937","type":"Feature","properties":{"title":"Irby upon Humber","ccodes":["GB"],"fclasses":["A","P"]},"names":[{"toponym":"Irby upon Humber","lang":"en","citations":[{"label":"English Place-Name Society survey, volume 73: Lincolnshire"}]},{"toponym":"Iribi","citations":[{"label":"1086 DB","year":1086}],"when":{"timespans":[{"start":{"in":"1086"},"end":{"in":"1086"}}]}},{"toponym":"Irebi","citations":[{"label":"1086 DB","year":1086},{"label":"c.1115 LS","year":1105},{"label":"1166 P","year":1166},{"label":"1202 Ass","year":1202}],"when":{"timespans":[{"start":{"in":"1086"},"end":{"in":"1086"}},{"start":{"earliest":"1105","latest":"1125"},"end":{"earliest":"1105","latest":"1125"}},{"start":{"in":"1166"},"end":{"in":"1166"}},{"start":{"in":"1167"},"end":{"in":"1167"}},{"start":{"in":"1202"},"end":{"in":"1202"}}]}},{"toponym":"Ireby","citations":[{"label":"1242-43 Fees","year":1242},{"label":"1254 ValNor","year":1254},{"label":"1257 FF","year":1257},{"label":"1276 RH","year":1276},{"label":"1304 Ipm","year":1304},{"label":"1502 Ipm","year":1502}],"when":{"timespans":[{"start":{"earliest":"1242","latest":"1243"},"end":{"earliest":"1242","latest":"1243"}},{"start":{"in":"1254"},"end":{"in":"1254"}},{"start":{"in":"1257"},"end":{"in":"1257"}},{"start":{"in":"1276"},"end":{"in":"1276"}},{"start":{"in":"1304"},"end":{"in":"1304"}},{"start":{"in":"1502"},"end":{"in":"1502"}}]}},{"toponym":"Yrebi","citations":[{"label":"1181 P","year":1181},{"label":"1185 Templar","year":1185},{"label":"l12 RA","year":1175},{"label":"1200 P","year":1200},{"label":"1201 Ass","year":1201},{"label":"1204 Cur","year":1204},{"label":"1210 P","year":1210}],"when":{"timespans":[{"start":{"in":"1181"},"end":{"in":"1181"}},{"start":{"in":"1182"},"end":{"in":"1182"}},{"start":{"in":"1185"},"end":{"in":"1185"}},{"start":{"earliest":"1175","latest":"1200"},"end":{"earliest":"1175","latest":"1200"}},{"start":{"in":"1200"},"end":{"in":"1200"}},{"start":{"in":"1201"},"end":{"in":"1201"}},{"start":{"in":"1204"},"end":{"in":"1204"}},{"start":{"in":"1210"},"end":{"in":"1210"}}]}},{"toponym":"Yreby","citations":[{"label":"1237 Cl","year":1237},{"label":"1261 FF","year":1261},{"label":"1265 RRGr","year":1265}],"when":{"timespans":[{"start":{"in":"1237"},"end":{"in":"1237"}},{"start":{"in":"1261"},"end":{"in":"1261"}},{"start":{"in":"1265"},"end":{"in":"1265"}}]}},{"toponym":"Hirebi","citations":[{"label":"1157-63 Dane","year":1157},{"label":"1212 Fees","year":1212}],"when":{"timespans":[{"start":{"earliest":"1157","latest":"1163"},"end":{"earliest":"1157","latest":"1163"}},{"start":{"in":"1212"},"end":{"in":"1212"}}]}},{"toponym":"Hyreby","citations":[{"label":"1210-12 RBE","year":1210},{"label":"1242-43 Fees","year":1242},{"label":"1338 Pat","year":1338}],"when":{"timespans":[{"start":{"earliest":"1210","latest":"1212"},"end":{"earliest":"1210","latest":"1212"}},{"start":{"earliest":"1242","latest":"1243"},"end":{"earliest":"1242","latest":"1243"}},{"start":{"in":"1338"},"end":{"in":"1338"}}]}},{"toponym":"Irreby","citations":[{"label":"c.1240 RA","year":1230},{"label":"1282 Ipm","year":1282},{"label":"1291 Tax","year":1291},{"label":"1306 RA","year":1306},{"label":"1316 FA","year":1316},{"label":"1375 Peace","year":1375},{"label":"1428 FA","year":1428}],"when":{"timespans":[{"start":{"earliest":"1230","latest":"1250"},"end":{"earliest":"1230","latest":"1250"}},{"start":{"in":"1282"},"end":{"in":"1282"}},{"start":{"in":"1291"},"end":{"in":"1291"}},{"start":{"in":"1306"},"end":{"in":"1306"}},{"start":{"in":"1316"},"end":{"in":"1316"}},{"start":{"in":"1346"},"end":{"in":"1346"}},{"start":{"in":"1375"},"end":{"in":"1375"}},{"start":{"in":"1428"},"end":{"in":"1428"}}]}},{"toponym":"Irbi","citations":[{"label":"1275 RH","year":1275}],"when":{"timespans":[{"start":{"in":"1275"},"end":{"in":"1275"}}]}},{"toponym":"Irby","citations":[{"label":"1303 FA","year":1303},{"label":"1306 RA","year":1306},{"label":"1306 Misc","year":1306},{"label":"1327 SR","year":1327}],"when":{"timespans":[{"start":{"in":"1303"},"end":{"in":"1303"}},{"start":{"in":"1306"},"end":{"in":"1306"}},{"start":{"in":"1306"},"end":{"in":"1306"}},{"start":{"in":"1317"},"end":{"in":"1317"}},{"start":{"in":"1327"},"end":{"in":"1327"}}]}},{"toponym":"Irby “by” Layseby","citations":[{"label":"1328 Banco","year":1328},{"label":"1329 Pat","year":1329}],"when":{"timespans":[{"start":{"in":"1328"},"end":{"in":"1328"}},{"start":{"in":"1329"},"end":{"in":"1329"}}]}},{"toponym":"Irby iuxta Leysseby","citations":[{"label":"1332 FF","year":1332},{"label":"1346 FA","year":1346},{"label":"1375 Peace","year":1375},{"label":"1402–1402, recurring FA","year":1402},{"label":"1402 FA","year":1402}],"when":{"timespans":[{"start":{"in":"1332"},"end":{"in":"1332"}},{"start":{"in":"1346"},"end":{"in":"1346"}},{"start":{"in":"1375"},"end":{"in":"1375"}},{"start":{"in":"1381"},"end":{"in":"1381"}},{"start":{"in":"1395"},"end":{"in":"1395"}},{"start":{"in":"1402"},"end":{"in":"1402"}},{"start":{"in":"1402"},"end":{"in":"1402"}}]}},{"toponym":"Irby super Humbre","citations":[{"label":"1401-2 FA","year":1401}],"when":{"timespans":[{"start":{"earliest":"1401","latest":"1402"},"end":{"earliest":"1401","latest":"1402"}}]}},{"toponym":"Irby next Gret Grymesby","citations":[{"label":"1527 Wills","year":1527}],"when":{"timespans":[{"start":{"in":"1527"},"end":{"in":"1527"}}]}},{"toponym":"Irby alias Ireby alias Erby be Swallow","citations":[{"label":"1741 PT","year":1741}],"when":{"timespans":[{"start":{"in":"1741"},"end":{"in":"1741"}}]}},{"toponym":"Irbie","citations":[{"label":"1576 LER","year":1576},{"label":"1724 Terrier","year":1724}],"when":{"timespans":[{"start":{"in":"1576"},"end":{"in":"1576"}},{"start":{"in":"1724"},"end":{"in":"1724"}}]}},{"toponym":"Hirby","citations":[{"label":"Hy2 Gilb","year":1154},{"label":"1383 Peace","year":1383}],"when":{"timespans":[{"start":{"earliest":"1154","latest":"1189"},"end":{"earliest":"1154","latest":"1189"}},{"start":{"in":"1383"},"end":{"in":"1383"}}]}},{"toponym":"Hyrby","citations":[{"label":"1267-73 RA","year":1267}],"when":{"timespans":[{"start":{"earliest":"1267","latest":"1273"},"end":{"earliest":"1267","latest":"1273"}}]}},{"toponym":"Yresbi","citations":[{"label":"1222 Welles","year":1222}],"when":{"timespans":[{"start":{"in":"1222"},"end":{"in":"1222"}}]}},{"toponym":"Urby","citations":[{"label":"1303 FA","year":1303}],"when":{"timespans":[{"start":{"in":"1303"},"end":{"in":"1303"}},{"start":{"in":"1428"},"end":{"in":"1428"}}]}},{"toponym":"Eirby","citations":[{"label":"1504 Cl","year":1504},{"label":"1504 Pat","year":1504}],"when":{"timespans":[{"start":{"in":"1504"},"end":{"in":"1504"}},{"start":{"in":"1504"},"end":{"in":"1504"}}]}},{"toponym":"Erebye","citations":[{"label":"1576 Saxton","year":1576},{"label":"1610 Speed","year":1610}],"when":{"timespans":[{"start":{"in":"1576"},"end":{"in":"1576"}},{"start":{"in":"1610"},"end":{"in":"1610"}}]}},{"toponym":"Ereby","citations":[{"label":"1577 Harrison","year":1577}],"when":{"timespans":[{"start":{"in":"1577"},"end":{"in":"1577"}}]}},{"toponym":"Erby","citations":[{"label":"1589 HollesM","year":1589},{"label":"1625 Terrier","year":1625}],"when":{"timespans":[{"start":{"in":"1589"},"end":{"in":"1589"}},{"start":{"in":"1625"},"end":{"in":"1625"}},{"start":{"in":"1634"},"end":{"in":"1634"}},{"start":{"in":"1638"},"end":{"in":"1638"}}]}},{"toponym":"Erbie","citations":[{"label":"1613 Td'E","year":1613}],"when":{"timespans":[{"start":{"in":"1613"},"end":{"in":"1613"}}]}},{"toponym":"Earbie","citations":[{"label":"1623 Td'E","year":1623}],"when":{"timespans":[{"start":{"in":"1623"},"end":{"in":"1623"}}]}},{"toponym":"Eareby","citations":[{"label":"1638 Terrier","year":1638}],"when":{"timespans":[{"start":{"in":"1638"},"end":{"in":"1638"}}]}}],"types":[{"identifier":"http://vocab.getty.edu/aat/300232418","label":"administrative division","sourceLabels":[{"label":"township","lang":"en"}]}],"geometry":{"type":"GeometryCollection","geometries":[{"type":"Point","coordinates":[-0.19461,53.52523],"citations":[{"label":"GeoNames, gazetteer record geonames:2646056"}]},{"type":"Point","coordinates":[-0.1972198188358138,53.52331438714045],"citations":[{"label":"Unlock (EDINA) gazetteer, gazetteer record unlock:11183207"}]},{"type":"Point","coordinates":[-0.198891,53.5236],"citations":[{"label":"Key to English Place-Names (KEPN), gazetteer record 10473"}]}]},"when":{"timespans":[{"start":{"in":"1086"},"end":{"in":"1741"}}]},"links":[{"type":"closeMatch","identifier":"https://sws.geonames.org/2646056/"}],"relations":[{"relationType":"gvp:broaderPartitive","relationTo":"http://placenames.org.uk/id/placename/73/004936","label":"within Irby upon Humber"}]}]}