{"@context":"https://raw.githubusercontent.com/LinkedPasts/linked-places-format/main/linkedplaces-context-v1.1.jsonld","type":"FeatureCollection","license":"Digitisation of English Placenames MADS data is licensed to Jisc by the English Place Names Society and released under a Creative Commons Attribution-NonCommercial 4.0 International License.","note":"LPF v1.3, lossy; derived from the PLATO record; plato_commit=fa0d247ccc0263f8f19c8d7cdcd163df96935d1e","features":[{"@id":"https://w3id.org/whg-epns/44/000971","type":"Feature","properties":{"title":"Gawsworth","ccodes":["GB"],"fclasses":["A","P"]},"names":[{"toponym":"Gawsworth","lang":"en","citations":[{"label":"English Place-Name Society survey, volume 44: Cheshire"}]},{"toponym":"Govesurde","citations":[{"label":"1086 DB","year":1086}],"when":{"timespans":[{"start":{"in":"1086"},"end":{"in":"1086"}}]}},{"toponym":"Goveswrthe","citations":[{"label":"1238 Dav","year":1238}],"when":{"timespans":[{"start":{"in":"1238"},"end":{"in":"1238"}}]}},{"toponym":"Gous(e)worth","citations":[{"label":"c.1130 Sheaf","year":1120},{"label":"Chest","year":1255},{"label":"c.1265 Chest","year":1255}],"when":{"timespans":[{"start":{"earliest":"1120","latest":"1140"},"end":{"earliest":"1120","latest":"1140"}},{"start":{"in":"1255"},"end":{"in":"1275"}},{"start":{"earliest":"1255","latest":"1275"},"end":{"earliest":"1255","latest":"1275"}}]}},{"toponym":"Gous(e)wurthe","citations":[{"label":"e13 Dieul","year":1200}],"when":{"timespans":[{"start":{"earliest":"1200","latest":"1225"},"end":{"earliest":"1200","latest":"1225"}}]}},{"toponym":"Gous(e) wrth(e)","citations":[{"label":"m13 Dav","year":1225}],"when":{"timespans":[{"start":{"earliest":"1225","latest":"1275"},"end":{"earliest":"1225","latest":"1275"}}]}},{"toponym":"Gous(e)wrtht","citations":[{"label":"1285 Eyre","year":1285}],"when":{"timespans":[{"start":{"in":"1285"},"end":{"in":"1285"}}]}},{"toponym":"Gouzeworthe","citations":[{"label":"1301 Sheaf","year":1301}],"when":{"timespans":[{"start":{"in":"1301"},"end":{"in":"1301"}}]}},{"toponym":"Gouesworthe","citations":[{"label":"1351 BPR","year":1351}],"when":{"timespans":[{"start":{"in":"1351"},"end":{"in":"1351"}}]}},{"toponym":"Gousseworth","citations":[{"label":"1365 Eyre","year":1365}],"when":{"timespans":[{"start":{"in":"1365"},"end":{"in":"1365"}}]}},{"toponym":"Goweswurth","citations":[{"label":"m13 Adl","year":1225}],"when":{"timespans":[{"start":{"earliest":"1225","latest":"1275"},"end":{"earliest":"1225","latest":"1275"}}]}},{"toponym":"Gowesworth","citations":[{"label":"1274 Orm2","year":1274}],"when":{"timespans":[{"start":{"in":"1274"},"end":{"in":"1274"}}]}},{"toponym":"Gowesword","citations":[{"label":"1312 Plea","year":1312},{"label":"1312 Court","year":1312}],"when":{"timespans":[{"start":{"in":"1312"},"end":{"in":"1312"}},{"start":{"in":"1312"},"end":{"in":"1312"}}]}},{"toponym":"Gows(e)worth","citations":[{"label":"1285 Court","year":1285}],"when":{"timespans":[{"start":{"in":"1285"},"end":{"in":"1285"}}]}},{"toponym":"Gows(e)wourthe","citations":[{"label":"1569 Wil","year":1569}],"when":{"timespans":[{"start":{"in":"1569"},"end":{"in":"1569"}}]}},{"toponym":"Gouwesworth","citations":[{"label":"1357 ChRR","year":1357}],"when":{"timespans":[{"start":{"in":"1357"},"end":{"in":"1357"}}]}},{"toponym":"Goseworth","citations":[{"label":"c.1270 Sheaf","year":1260},{"label":"1558 AddCh","year":1558}],"when":{"timespans":[{"start":{"earliest":"1260","latest":"1280"},"end":{"earliest":"1260","latest":"1280"}},{"start":{"in":"1558"},"end":{"in":"1558"}}]}},{"toponym":"Gosew(o)rd","citations":[{"label":"1290 Ipm","year":1290},{"label":"1290 Cl","year":1290}],"when":{"timespans":[{"start":{"in":"1290"},"end":{"in":"1290"}},{"start":{"in":"1290"},"end":{"in":"1290"}}]}},{"toponym":"Gosseworth","citations":[{"label":"1476 ChRR","year":1476}],"when":{"timespans":[{"start":{"in":"1476"},"end":{"in":"1476"}}]}},{"toponym":"Gosworth","citations":[{"label":"1514 ChEx","year":1514}],"when":{"timespans":[{"start":{"in":"1514"},"end":{"in":"1514"}}]}},{"toponym":"Goosworth","citations":[{"label":"1580 ChetOS","year":1580}],"when":{"timespans":[{"start":{"in":"1580"},"end":{"in":"1580"}}]}},{"toponym":"Gaus(e)worth(e)","citations":[{"label":"1279 Adl","year":1279}],"when":{"timespans":[{"start":{"in":"1279"},"end":{"in":"1279"}}]}},{"toponym":"Gaws(e)worth(e)","citations":[{"label":"ChRR","year":1389},{"label":"1389 ChRR","year":1389}],"when":{"timespans":[{"start":{"in":"1389"},"end":{"in":"1389"}},{"start":{"in":"1389"},"end":{"in":"1389"}}]}},{"toponym":"Gaws(e)wourth","citations":[{"label":"1553 Pat","year":1553}],"when":{"timespans":[{"start":{"in":"1553"},"end":{"in":"1553"}}]}},{"toponym":"Gawesworth","citations":[{"label":"1457 ChRR","year":1457}],"when":{"timespans":[{"start":{"in":"1457"},"end":{"in":"1457"}}]}},{"toponym":"Goghesworthe","citations":[{"label":"1341 Eyre","year":1341}],"when":{"timespans":[{"start":{"in":"1341"},"end":{"in":"1341"}}]}},{"toponym":"Gouselworth","citations":[{"label":"1386 ChRR","year":1386}],"when":{"timespans":[{"start":{"in":"1386"},"end":{"in":"1386"}}]}},{"toponym":"Gorysworth","citations":[{"label":"1445 Pat","year":1445}],"when":{"timespans":[{"start":{"in":"1445"},"end":{"in":"1445"}}]}},{"toponym":"Gaseworth","citations":[{"label":"1460 ChRR","year":1460}],"when":{"timespans":[{"start":{"in":"1460"},"end":{"in":"1460"}}]}},{"toponym":"Gaysworth","citations":[{"label":"1694 ChetOS","year":1694}],"when":{"timespans":[{"start":{"in":"1694"},"end":{"in":"1694"}}]}},{"toponym":"Godsworth","citations":[{"label":"1503 Plea","year":1503}],"when":{"timespans":[{"start":{"in":"1503"},"end":{"in":"1503"}}]}}],"types":[{"identifier":"http://vocab.getty.edu/aat/300232418","label":"administrative division","sourceLabels":[{"label":"township","lang":"en"}]}],"geometry":{"type":"GeometryCollection","geometries":[{"type":"Point","coordinates":[-2.17014,53.23178],"citations":[{"label":"GeoNames, gazetteer record geonames:2648761"}]},{"type":"Point","coordinates":[-2.164754692,53.21765811],"citations":[{"label":"English Place-Name Society survey (DEEP coordinates)"}]},{"type":"Point","coordinates":[-2.157282386762764,53.22216429427121],"citations":[{"label":"Unlock (EDINA) gazetteer, gazetteer record unlock:11151267"}]},{"type":"Point","coordinates":[-2.15871,53.2224],"citations":[{"label":"Key to English Place-Names (KEPN), gazetteer record 11698"}]}]},"when":{"timespans":[{"start":{"in":"1086"},"end":{"in":"1694"}}]},"links":[{"type":"closeMatch","identifier":"https://sws.geonames.org/2648761/"}],"relations":[{"relationType":"gvp:broaderPartitive","relationTo":"https://w3id.org/whg-epns/44/000970","label":"within Gawsworth"}]}]}