{"@context":"https://raw.githubusercontent.com/LinkedPasts/linked-places-format/main/linkedplaces-context-v1.1.jsonld","type":"FeatureCollection","license":"Digitisation of English Placenames MADS data is licensed to Jisc by the English Place Names Society and released under a Creative Commons Attribution-NonCommercial 4.0 International License.","note":"LPF v1.3, lossy; derived from the PLATO record; plato_commit=ca0afadabec1e23a145c0b03df77e8f151f79832","features":[{"@id":"http://placenames.org.uk/id/placename/44/001344","type":"Feature","properties":{"title":"Birtles","ccodes":["GB"],"fclasses":["A","P"]},"names":[{"toponym":"Birtles","lang":"en","citations":[{"label":"English Place-Name Society survey, volume 44: Cheshire"}]},{"toponym":"Bircheles","citations":[{"label":"m12 Tab","year":1125}],"when":{"timespans":[{"start":{"earliest":"1125","latest":"1175"},"end":{"earliest":"1125","latest":"1175"}}]}},{"toponym":"Byrchlis","citations":[{"label":"1240-57 AddCh","year":1240}],"when":{"timespans":[{"start":{"earliest":"1240","latest":"1257"},"end":{"earliest":"1240","latest":"1257"}}]}},{"toponym":"Birch(e)les, Birchiles, Birchilis","citations":[{"label":"m13 Dow","year":1225},{"label":"m13 Dav","year":1225},{"label":"m13 Fitt","year":1225},{"label":"m13 Chest","year":1225}],"when":{"timespans":[{"start":{"earliest":"1225","latest":"1275"},"end":{"earliest":"1225","latest":"1275"}},{"start":{"earliest":"1225","latest":"1275"},"end":{"earliest":"1225","latest":"1275"}},{"start":{"earliest":"1225","latest":"1275"},"end":{"earliest":"1225","latest":"1275"}},{"start":{"earliest":"1225","latest":"1275"},"end":{"earliest":"1225","latest":"1275"}}]}},{"toponym":"Birchelis","citations":[{"label":"e14 AddCh","year":1300}],"when":{"timespans":[{"start":{"earliest":"1300","latest":"1325"},"end":{"earliest":"1300","latest":"1325"}}]}},{"toponym":"Burch(e)les","citations":[{"label":"1291 Pat","year":1291}],"when":{"timespans":[{"start":{"in":"1291"},"end":{"in":"1291"}}]}},{"toponym":"Byrcheles","citations":[{"label":"1295 Lacy","year":1295},{"label":"1306 MinAcct","year":1306}],"when":{"timespans":[{"start":{"in":"1295"},"end":{"in":"1295"}},{"start":{"in":"1306"},"end":{"in":"1306"}}]}},{"toponym":"Byrchels","citations":[{"label":"1305 Lacy","year":1305}],"when":{"timespans":[{"start":{"in":"1305"},"end":{"in":"1305"}}]}},{"toponym":"Byrchelis","citations":[{"label":"1341 Eyre","year":1341}],"when":{"timespans":[{"start":{"in":"1341"},"end":{"in":"1341"}}]}},{"toponym":"Birchel(l)","citations":[{"label":"1267 Chest","year":1267}],"when":{"timespans":[{"start":{"in":"1267"},"end":{"in":"1267"}}]}},{"toponym":"Birchel(l) iuxta Hemdebur'","citations":[{"label":"1289 Plea","year":1289}],"when":{"timespans":[{"start":{"in":"1289"},"end":{"in":"1289"}}]}},{"toponym":"Birchal'","citations":[{"label":"1269 Adl","year":1269}],"when":{"timespans":[{"start":{"in":"1269"},"end":{"in":"1269"}}]}},{"toponym":"Byrchells","citations":[{"label":"c.1283 Chest","year":1273}],"when":{"timespans":[{"start":{"earliest":"1273","latest":"1293"},"end":{"earliest":"1273","latest":"1293"}}]}},{"toponym":"Birchulles, Birchillis","citations":[{"label":"1287 Court","year":1287},{"label":"e14 Fitt","year":1300}],"when":{"timespans":[{"start":{"in":"1287"},"end":{"in":"1287"}},{"start":{"earliest":"1300","latest":"1325"},"end":{"earliest":"1300","latest":"1325"}}]}},{"toponym":"Birtles, Birtlis","citations":[{"label":"c.1235 ChRR","year":1225},{"label":"1324 Orm2","year":1324},{"label":"1392 Fine","year":1392}],"when":{"timespans":[{"start":{"earliest":"1225","latest":"1245"},"end":{"earliest":"1225","latest":"1245"}},{"start":{"in":"1324"},"end":{"in":"1324"}},{"start":{"in":"1392"},"end":{"in":"1392"}}]}},{"toponym":"Byrtles, Bertles","citations":[{"label":"1374 Eyre","year":1374},{"label":"1657 Sheaf","year":1657}],"when":{"timespans":[{"start":{"in":"1374"},"end":{"in":"1374"}},{"start":{"in":"1657"},"end":{"in":"1657"}}]}},{"toponym":"Byrtelus, Birtulus","citations":[{"label":"1349 Eyre","year":1349}],"when":{"timespans":[{"start":{"in":"1349"},"end":{"in":"1349"}},{"start":{"in":"1377"},"end":{"in":"1377"}}]}},{"toponym":"Birteles","citations":[{"label":"1389 ChRR","year":1389}],"when":{"timespans":[{"start":{"in":"1389"},"end":{"in":"1389"}}]}},{"toponym":"Birtils","citations":[{"label":"1550 Dow","year":1550}],"when":{"timespans":[{"start":{"in":"1550"},"end":{"in":"1550"}}]}},{"toponym":"Byrthelis, Byrtheles Birthelis, Birtheles","citations":[{"label":"13 Dav","year":1200},{"label":"1289 Plea","year":1289}],"when":{"timespans":[{"start":{"earliest":"1200","latest":"1300"},"end":{"earliest":"1200","latest":"1300"}},{"start":{"in":"1289"},"end":{"in":"1289"}}]}},{"toponym":"Birthelees","citations":[{"label":"1418 Bark","year":1418}],"when":{"timespans":[{"start":{"in":"1418"},"end":{"in":"1418"}}]}},{"toponym":"Birclis, Birclie","citations":[{"label":"l13 Fitt","year":1275}],"when":{"timespans":[{"start":{"earliest":"1275","latest":"1300"},"end":{"earliest":"1275","latest":"1300"}}]}},{"toponym":"Bircles","citations":[{"label":"1327-77 AddCh","year":1327}],"when":{"timespans":[{"start":{"earliest":"1327","latest":"1377"},"end":{"earliest":"1327","latest":"1377"}}]}},{"toponym":"Birches","citations":[{"label":"1286 Eyre","year":1286},{"label":"1286 Court","year":1286}],"when":{"timespans":[{"start":{"in":"1286"},"end":{"in":"1286"}},{"start":{"in":"1286"},"end":{"in":"1286"}}]}},{"toponym":"Britles, Brytles, Brittles","citations":[{"label":"1418 Cl","year":1418},{"label":"1515 Plea","year":1515},{"label":"1592 Sheaf","year":1592}],"when":{"timespans":[{"start":{"in":"1418"},"end":{"in":"1418"}},{"start":{"in":"1515"},"end":{"in":"1515"}},{"start":{"in":"1592"},"end":{"in":"1592"}}]}},{"toponym":"Britteles, Brytheles","citations":[{"label":"1440 Eyre","year":1440},{"label":"1514 Orm2","year":1514}],"when":{"timespans":[{"start":{"in":"1440"},"end":{"in":"1440"}},{"start":{"in":"1514"},"end":{"in":"1514"}}]}}],"types":[{"identifier":"http://vocab.getty.edu/aat/300232418","label":"administrative division","sourceLabels":[{"label":"township","lang":"en"}]}],"geometry":{"type":"GeometryCollection","geometries":[{"type":"Point","coordinates":[-2.209907298,53.26253649],"citations":[{"label":"English Place-Name Society survey (DEEP coordinates)"}]},{"type":"Point","coordinates":[-2.217426793358181,53.26701909488018],"citations":[{"label":"Unlock (EDINA) gazetteer, gazetteer record unlock:11077935"}]},{"type":"Point","coordinates":[-2.21885,53.2673],"citations":[{"label":"Key to English Place-Names (KEPN), gazetteer record 11699"}]}]},"when":{"timespans":[{"start":{"in":"1125"},"end":{"in":"1657"}}]},"relations":[{"relationType":"gvp:broaderPartitive","relationTo":"http://placenames.org.uk/id/placename/44/001343","label":"within Prestbury"}]}]}