{"@context":"https://raw.githubusercontent.com/LinkedPasts/linked-places-format/main/linkedplaces-context-v1.1.jsonld","type":"FeatureCollection","license":"Digitisation of English Placenames MADS data is licensed to Jisc by the English Place Names Society and released under a Creative Commons Attribution-NonCommercial 4.0 International License.","note":"LPF v1.3, lossy; derived from the PLATO record; plato_commit=ca0afadabec1e23a145c0b03df77e8f151f79832","features":[{"@id":"https://w3id.org/whg-epns/44/002637","type":"Feature","properties":{"title":"Alderley","ccodes":["GB"],"fclasses":["A","P"]},"names":[{"toponym":"Alderley","lang":"en","citations":[{"label":"English Place-Name Society survey, volume 44: Cheshire"}]}],"types":[{"identifier":"http://vocab.getty.edu/aat/300232418","label":"administrative division","sourceLabels":[{"label":"parish","lang":"en"}]}],"geometry":{"type":"GeometryCollection","geometries":[{"type":"Point","coordinates":[-2.2377,53.28415],"citations":[{"label":"GeoNames, gazetteer record geonames:2641793"}]},{"type":"Point","coordinates":[-2.232519163661085,53.28497026798217],"citations":[{"label":"Unlock (EDINA) gazetteer, gazetteer record unlock:11227599"}]},{"type":"Point","coordinates":[-2.23394,53.2852],"citations":[{"label":"Key to English Place-Names (KEPN), gazetteer record 11708"}]}]},"links":[{"type":"closeMatch","identifier":"https://sws.geonames.org/2641793/"}],"relations":[{"relationType":"gvp:broaderPartitive","relationTo":"https://w3id.org/whg-epns/44/000002","label":"within Macclesfield Hundred"}]}]}