{"@context":"https://raw.githubusercontent.com/LinkedPasts/linked-places-format/main/linkedplaces-context-v1.1.jsonld","type":"FeatureCollection","license":"Digitisation of English Placenames MADS data is licensed to Jisc by the English Place Names Society and released under a Creative Commons Attribution-NonCommercial 4.0 International License.","note":"LPF v1.3, lossy; derived from the PLATO record; plato_commit=ca0afadabec1e23a145c0b03df77e8f151f79832","features":[{"@id":"http://placenames.org.uk/id/placename/44/010812","type":"Feature","properties":{"title":"Northenden","ccodes":["GB"],"fclasses":["A","P"]},"names":[{"toponym":"Northenden","lang":"en","citations":[{"label":"English Place-Name Society survey, volume 44: Cheshire"}]},{"toponym":"Norwordine","citations":[{"label":"1086 DB","year":1086}],"when":{"timespans":[{"start":{"in":"1086"},"end":{"in":"1086"}}]}},{"toponym":"Norwordeyn","citations":[{"label":"1398 Add","year":1398}],"when":{"timespans":[{"start":{"in":"1398"},"end":{"in":"1398"}}]}},{"toponym":"Norwrdinam","citations":[{"label":"1119 Chest","year":1119}],"when":{"timespans":[{"start":{"in":"1119"},"end":{"in":"1119"}}]}},{"toponym":"Norwurding, Norwarding","citations":[{"label":"c.1270 Earw","year":1260}],"when":{"timespans":[{"start":{"earliest":"1260","latest":"1280"},"end":{"earliest":"1260","latest":"1280"}}]}},{"toponym":"Northwrthinam","citations":[{"label":"1119 Chest","year":1119}],"when":{"timespans":[{"start":{"in":"1119"},"end":{"in":"1119"}}]}},{"toponym":"Norwrthyn","citations":[{"label":"c.1220 Chest","year":1210}],"when":{"timespans":[{"start":{"earliest":"1210","latest":"1230"},"end":{"earliest":"1210","latest":"1230"}}]}},{"toponym":"Norwrthin","citations":[{"label":"l13 Chest","year":1275}],"when":{"timespans":[{"start":{"earliest":"1275","latest":"1300"},"end":{"earliest":"1275","latest":"1300"}}]}},{"toponym":"Nort(h)iorthin, Nort(h)iorthyn","citations":[{"label":"1285 Eyre","year":1285},{"label":"1297 Pat","year":1297},{"label":"l13 Chest","year":1275}],"when":{"timespans":[{"start":{"in":"1285"},"end":{"in":"1285"}},{"start":{"in":"1286"},"end":{"in":"1286"}},{"start":{"in":"1297"},"end":{"in":"1297"}},{"start":{"earliest":"1275","latest":"1300"},"end":{"earliest":"1275","latest":"1300"}}]}},{"toponym":"Nor(t)(h)worthin, Nor(t)(h)worthyn","citations":[{"label":"c.1250 Earw","year":1240},{"label":"1286 Court","year":1286},{"label":"l13 Chest","year":1275},{"label":"1333 ChRR","year":1333}],"when":{"timespans":[{"start":{"earliest":"1240","latest":"1260"},"end":{"earliest":"1240","latest":"1260"}},{"start":{"in":"1286"},"end":{"in":"1286"}},{"start":{"in":"1287"},"end":{"in":"1287"}},{"start":{"in":"1290"},"end":{"in":"1290"}},{"start":{"earliest":"1275","latest":"1300"},"end":{"earliest":"1275","latest":"1300"}},{"start":{"in":"1333"},"end":{"in":"1333"}}]}},{"toponym":"Norhtworthyn","citations":[{"label":"c.1310 ChRR","year":1300}],"when":{"timespans":[{"start":{"earliest":"1300","latest":"1320"},"end":{"earliest":"1300","latest":"1320"}}]}},{"toponym":"Nor(th)werthin, Nor(th)werthyn, Nor(th)verthyn","citations":[{"label":"1287 Eyre","year":1287},{"label":"1344 ChRR","year":1344},{"label":"1370 Earw","year":1370}],"when":{"timespans":[{"start":{"in":"1287"},"end":{"in":"1287"}},{"start":{"in":"1344"},"end":{"in":"1344"}},{"start":{"in":"1370"},"end":{"in":"1370"}}]}},{"toponym":"Nor(th)wurthyn","citations":[{"label":"1297 CRV","year":1297},{"label":"c.1310 Tab","year":1300}],"when":{"timespans":[{"start":{"in":"1297"},"end":{"in":"1297"}},{"start":{"earliest":"1300","latest":"1320"},"end":{"earliest":"1300","latest":"1320"}}]}},{"toponym":"Norworhyn","citations":[{"label":"c.1290 Orm2","year":1280}],"when":{"timespans":[{"start":{"earliest":"1280","latest":"1300"},"end":{"earliest":"1280","latest":"1300"}}]}},{"toponym":"Norhtwor'yn","citations":[{"label":"c.1320 Orm2","year":1310}],"when":{"timespans":[{"start":{"earliest":"1310","latest":"1330"},"end":{"earliest":"1310","latest":"1330"}}]}},{"toponym":"Nortwourthin","citations":[{"label":"1335 JRC","year":1335}],"when":{"timespans":[{"start":{"in":"1335"},"end":{"in":"1335"}}]}},{"toponym":"Northwarthyne","citations":[{"label":"17 Harl.","year":1600}],"when":{"timespans":[{"start":{"earliest":"1600","latest":"1700"},"end":{"earliest":"1600","latest":"1700"}}]}},{"toponym":"Norirdene","citations":[{"label":"1280 Earw","year":1280}],"when":{"timespans":[{"start":{"in":"1280"},"end":{"in":"1280"}}]}},{"toponym":"Norworthei","citations":[{"label":"1287 Court","year":1287}],"when":{"timespans":[{"start":{"in":"1287"},"end":{"in":"1287"}}]}},{"toponym":"Northworth'm","citations":[{"label":"1291 Tax","year":1291}],"when":{"timespans":[{"start":{"in":"1291"},"end":{"in":"1291"}}]}},{"toponym":"Northwortham","citations":[{"label":"1350 Chamb","year":1350}],"when":{"timespans":[{"start":{"in":"1350"},"end":{"in":"1350"}}]}},{"toponym":"Northurthin","citations":[{"label":"c.1310 Tab","year":1300}],"when":{"timespans":[{"start":{"earliest":"1300","latest":"1320"},"end":{"earliest":"1300","latest":"1320"}}]}},{"toponym":"?Northurthyne","citations":[{"label":"1335 JRC","year":1335}],"when":{"timespans":[{"start":{"in":"1335"},"end":{"in":"1335"}}]}},{"toponym":"Northurdene","citations":[{"label":"1346 Bark","year":1346}],"when":{"timespans":[{"start":{"in":"1346"},"end":{"in":"1346"}}]}},{"toponym":"Northerden(e)","citations":[{"label":"1345 Eyre","year":1345},{"label":"1360–1360, recurring ChRR","year":1360},{"label":"1360 ChRR","year":1360}],"when":{"timespans":[{"start":{"in":"1345"},"end":{"in":"1345"}},{"start":{"in":"1360"},"end":{"in":"1360"}},{"start":{"in":"1360"},"end":{"in":"1360"}}]}},{"toponym":"Northerden","citations":[{"label":"1831 Bry","year":1831}],"when":{"timespans":[{"start":{"in":"1831"},"end":{"in":"1831"}}]}},{"toponym":"Northerdern","citations":[{"label":"1458 ChRR","year":1458}],"when":{"timespans":[{"start":{"in":"1458"},"end":{"in":"1458"}}]}},{"toponym":"Northerdon","citations":[{"label":"1535 VE","year":1535}],"when":{"timespans":[{"start":{"in":"1535"},"end":{"in":"1535"}}]}},{"toponym":"Northorden","citations":[{"label":"1408 MidCh","year":1408}],"when":{"timespans":[{"start":{"in":"1408"},"end":{"in":"1408"}}]}},{"toponym":"Northirden","citations":[{"label":"1437 Plea","year":1437}],"when":{"timespans":[{"start":{"in":"1437"},"end":{"in":"1437"}}]}},{"toponym":"Northden","citations":[{"label":"1350 ChRR","year":1350}],"when":{"timespans":[{"start":{"in":"1350"},"end":{"in":"1350"}}]}},{"toponym":"Norden","citations":[{"label":"1357 ChRR","year":1357}],"when":{"timespans":[{"start":{"in":"1357"},"end":{"in":"1357"}}]}},{"toponym":"Nordene","citations":[{"label":"1445 Orm2","year":1445}],"when":{"timespans":[{"start":{"in":"1445"},"end":{"in":"1445"}}]}},{"toponym":"Northwynden","citations":[{"label":"1366 Eyre","year":1366}],"when":{"timespans":[{"start":{"in":"1366"},"end":{"in":"1366"}}]}},{"toponym":"Northenden","citations":[{"label":"1439 ChRR","year":1439}],"when":{"timespans":[{"start":{"in":"1439"},"end":{"in":"1439"}},{"start":{"in":"1477"},"end":{"in":"1477"}}]}},{"toponym":"Northenden or Norden","citations":[{"label":"c.1620 Orm2","year":1610}],"when":{"timespans":[{"start":{"earliest":"1610","latest":"1630"},"end":{"earliest":"1610","latest":"1630"}}]}},{"toponym":"Northendon alias Northenkenworthe","citations":[{"label":"1550 ChRR","year":1550}],"when":{"timespans":[{"start":{"in":"1550"},"end":{"in":"1550"}}]}},{"toponym":"Northyn","citations":[{"label":"1379 Eyre","year":1379}],"when":{"timespans":[{"start":{"in":"1379"},"end":{"in":"1379"}}]}},{"toponym":"Northen","citations":[{"label":"1527 Earw","year":1527},{"label":"1656 Orm2","year":1656}],"when":{"timespans":[{"start":{"in":"1527"},"end":{"in":"1527"}},{"start":{"in":"1656"},"end":{"in":"1656"}}]}},{"toponym":"Northerleydene","citations":[{"label":"1395 Orm2","year":1395}],"when":{"timespans":[{"start":{"in":"1395"},"end":{"in":"1395"}}]}},{"toponym":"Netherdene","citations":[{"label":"1404 ChRR","year":1404}],"when":{"timespans":[{"start":{"in":"1404"},"end":{"in":"1404"}}]}},{"toponym":"Netherden","citations":[{"label":"1568 ChRR","year":1568}],"when":{"timespans":[{"start":{"in":"1568"},"end":{"in":"1568"}}]}},{"toponym":"Northoden","citations":[{"label":"1513 ChRR","year":1513}],"when":{"timespans":[{"start":{"in":"1513"},"end":{"in":"1513"}}]}},{"toponym":"Northernden","citations":[{"label":"1514 Orm1","year":1514}],"when":{"timespans":[{"start":{"in":"1514"},"end":{"in":"1514"}}]}},{"toponym":"Northern","citations":[{"label":"1841 TA","year":1841}],"when":{"timespans":[{"start":{"in":"1841"},"end":{"in":"1841"}}]}}],"types":[{"identifier":"http://vocab.getty.edu/aat/300232418","label":"administrative division","sourceLabels":[{"label":"township","lang":"en"}]}],"geometry":{"type":"GeometryCollection","geometries":[{"type":"Point","coordinates":[-2.25782,53.40799],"citations":[{"label":"GeoNames, gazetteer record geonames:2641367"}]},{"type":"Point","coordinates":[-2.255692005,53.39729326],"citations":[{"label":"English Place-Name Society survey (DEEP coordinates)"}]},{"type":"Point","coordinates":[-2.263295588037923,53.410762390088],"citations":[{"label":"Unlock (EDINA) gazetteer, gazetteer record unlock:11233375"}]},{"type":"Point","coordinates":[-2.26471,53.411],"citations":[{"label":"Key to English Place-Names (KEPN), gazetteer record 11736"}]}]},"when":{"timespans":[{"start":{"in":"1086"},"end":{"in":"1841"}}]},"links":[{"type":"closeMatch","identifier":"https://sws.geonames.org/2641367/"}],"relations":[{"relationType":"gvp:broaderPartitive","relationTo":"http://placenames.org.uk/id/placename/44/010811","label":"within Northenden"}]}]}