{"@context":"https://raw.githubusercontent.com/LinkedPasts/linked-places-format/main/linkedplaces-context-v1.1.jsonld","type":"FeatureCollection","license":"Digitisation of English Placenames MADS data is licensed to Jisc by the English Place Names Society and released under a Creative Commons Attribution-NonCommercial 4.0 International License.","note":"LPF v1.3, lossy; derived from the PLATO record; plato_commit=fa0d247ccc0263f8f19c8d7cdcd163df96935d1e","features":[{"@id":"https://w3id.org/whg-epns/44/015905","type":"Feature","properties":{"title":"Mottram in Longdendale","ccodes":["GB"],"fclasses":["A","P"]},"names":[{"toponym":"Mottram in Longdendale","lang":"en","citations":[{"label":"English Place-Name Society survey, volume 44: Cheshire"}]},{"toponym":"Mottrum","citations":[{"label":"Facs","year":1211},{"label":"1211-25 Facs","year":1211}],"when":{"timespans":[{"start":{"in":"1211"},"end":{"in":"1225"}},{"start":{"earliest":"1211","latest":"1225"},"end":{"earliest":"1211","latest":"1225"}}]}},{"toponym":"Mottrum in Longedonedale","citations":[{"label":"1332 Plea","year":1332}],"when":{"timespans":[{"start":{"in":"1332"},"end":{"in":"1332"}}]}},{"toponym":"Mottram, Mottram in Longedenedale","citations":[{"label":"Pap","year":1308},{"label":"1308 Pap","year":1308}],"when":{"timespans":[{"start":{"in":"1308"},"end":{"in":"1308"}},{"start":{"in":"1308"},"end":{"in":"1308"}}]}},{"toponym":"Mottrame","citations":[{"label":"1547 MinAcct","year":1547}],"when":{"timespans":[{"start":{"in":"1547"},"end":{"in":"1547"}}]}},{"toponym":"Motram","citations":[{"label":"1558 Pat","year":1558}],"when":{"timespans":[{"start":{"in":"1558"},"end":{"in":"1558"}}]}},{"toponym":"Mottrom, Mottrom cum Longedenedale, Mottrom in Langedenedale","citations":[{"label":"c.1310 Pat","year":1300}],"when":{"timespans":[{"start":{"earliest":"1300","latest":"1320"},"end":{"earliest":"1300","latest":"1320"}},{"start":{"in":"1323"},"end":{"in":"1323"}}]}},{"toponym":"Moterum in Longedenedale","citations":[{"label":"1339 Orm2","year":1339}],"when":{"timespans":[{"start":{"in":"1339"},"end":{"in":"1339"}}]}},{"toponym":"Moteram(e)","citations":[{"label":"1542 Pat","year":1542},{"label":"1546 Dugd","year":1546}],"when":{"timespans":[{"start":{"in":"1542"},"end":{"in":"1542"}},{"start":{"in":"1546"},"end":{"in":"1546"}}]}},{"toponym":"Matteram","citations":[{"label":"1580 Sheaf","year":1580}],"when":{"timespans":[{"start":{"in":"1580"},"end":{"in":"1580"}}]}},{"toponym":"Matterom","citations":[{"label":"1635 Sheaf","year":1635}],"when":{"timespans":[{"start":{"in":"1635"},"end":{"in":"1635"}}]}},{"toponym":"Motterham","citations":[{"label":"1456 Orm2","year":1456}],"when":{"timespans":[{"start":{"in":"1456"},"end":{"in":"1456"}}]}},{"toponym":"Moterham in Longdondale","citations":[{"label":"1548 Earw","year":1548}],"when":{"timespans":[{"start":{"in":"1548"},"end":{"in":"1548"}}]}}],"types":[{"identifier":"http://vocab.getty.edu/aat/300232418","label":"administrative division","sourceLabels":[{"label":"township","lang":"en"}]}],"geometry":{"type":"GeometryCollection","geometries":[{"type":"Point","coordinates":[-2.01161,53.45903],"citations":[{"label":"GeoNames, gazetteer record geonames:2642131"}]},{"type":"Point","coordinates":[-2.015059837,53.45150352],"citations":[{"label":"English Place-Name Society survey (DEEP coordinates)"}]},{"type":"Point","coordinates":[-2.00753071602111,53.45600020825674],"citations":[{"label":"Unlock (EDINA) gazetteer, gazetteer record unlock:11223710"}]},{"type":"Point","coordinates":[-2.00898,53.4563],"citations":[{"label":"Key to English Place-Names (KEPN), gazetteer record 4242"}]}]},"when":{"timespans":[{"start":{"in":"1211"},"end":{"in":"1635"}}]},"links":[{"type":"closeMatch","identifier":"https://sws.geonames.org/2642131/"}],"relations":[{"relationType":"gvp:broaderPartitive","relationTo":"https://w3id.org/whg-epns/44/015403","label":"within Mottram in Longdendale"}]}]}