{"@context":"https://raw.githubusercontent.com/LinkedPasts/linked-places-format/main/linkedplaces-context-v1.1.jsonld","type":"FeatureCollection","license":"Digitisation of English Placenames MADS data is licensed to Jisc by the English Place Names Society and released under a Creative Commons Attribution-NonCommercial 4.0 International License.","note":"LPF v1.3, lossy; derived from the PLATO record; plato_commit=ca0afadabec1e23a145c0b03df77e8f151f79832","features":[{"@id":"http://placenames.org.uk/id/placename/59/000021","type":"Feature","properties":{"title":"Ferendone Hundred","ccodes":["GB"],"fclasses":["A"]},"names":[{"toponym":"Ferendone Hundred","lang":"en","citations":[{"label":"English Place-Name Society survey, volume 59: Dorset"}]},{"toponym":"Ferendone hundret","citations":[{"label":"c.1086 GeldR","year":1076}],"when":{"timespans":[{"start":{"earliest":"1076","latest":"1096"},"end":{"earliest":"1076","latest":"1096"}}]}},{"toponym":"Ferdon'","citations":[{"label":"1178 P","year":1178}],"when":{"timespans":[{"start":{"in":"1178"},"end":{"in":"1178"}}]}},{"toponym":"Ferndone","citations":[{"label":"1178 ChancR","year":1178}],"when":{"timespans":[{"start":{"in":"1178"},"end":{"in":"1178"}}]}},{"toponym":"Ferendon'","citations":[{"label":"1212 Fees","year":1212}],"when":{"timespans":[{"start":{"in":"1212"},"end":{"in":"1212"}},{"start":{"in":"1219"},"end":{"in":"1219"}}]}}],"types":[{"identifier":"http://vocab.getty.edu/aat/300232418","label":"administrative division","sourceLabels":[{"label":"Domesday hundred","lang":"en"}]}],"geometry":null,"when":{"timespans":[{"start":{"in":"1076"},"end":{"in":"1219"}}]},"relations":[{"relationType":"gvp:broaderPartitive","relationTo":"http://placenames.org.uk/id/placename/59/000002","label":"within Redlane Hundred and Gillingham Liberty"}]}]}