{"@context":"https://raw.githubusercontent.com/LinkedPasts/linked-places-format/main/linkedplaces-context-v1.1.jsonld","type":"FeatureCollection","license":"Digitisation of English Placenames MADS data is licensed to Jisc by the English Place Names Society and released under a Creative Commons Attribution-NonCommercial 4.0 International License.","note":"LPF v1.3, lossy; derived from the PLATO record; plato_commit=ca0afadabec1e23a145c0b03df77e8f151f79832","features":[{"@id":"http://placenames.org.uk/id/placename/59/001677","type":"Feature","properties":{"title":"Hanford","ccodes":["GB"],"fclasses":["A","P"]},"names":[{"toponym":"Hanford","lang":"en","citations":[{"label":"English Place-Name Society survey, volume 59: Dorset"}]},{"toponym":"Hanford(')","citations":[{"label":"1086 DB","year":1086},{"label":"1212 Fees","year":1212},{"label":"1230 ChancR","year":1230},{"label":"1285 FA","year":1285},{"label":"1575–1575, recurring Saxton","year":1575},{"label":"1575 Saxton","year":1575}],"when":{"timespans":[{"start":{"in":"1086"},"end":{"in":"1086"}},{"start":{"in":"1212"},"end":{"in":"1212"}},{"start":{"in":"1230"},"end":{"in":"1230"}},{"start":{"in":"1285"},"end":{"in":"1285"}},{"start":{"in":"1575"},"end":{"in":"1575"}},{"start":{"in":"1575"},"end":{"in":"1575"}}]}},{"toponym":"Haunford(')","citations":[{"label":"1228 Cl","year":1228},{"label":"1240 FF","year":1240},{"label":"1288 Ass","year":1288}],"when":{"timespans":[{"start":{"in":"1228"},"end":{"in":"1228"}},{"start":{"in":"1240"},"end":{"in":"1240"}},{"start":{"in":"1288"},"end":{"in":"1288"}}]}},{"toponym":"Hamford(')","citations":[{"label":"1197 FF","year":1197},{"label":"1230 P","year":1230},{"label":"1240 Ch","year":1240},{"label":"1244 Ass","year":1244},{"label":"1251-2 Fees","year":1251},{"label":"c.1270 Seymer","year":1260},{"label":"1280–1428, recurring Ass","year":1280},{"label":"1280–1428, recurring QW"},{"label":"1280–1428, recurring FA"},{"label":"1280 Ass","year":1280},{"label":"1280 QW","year":1280},{"label":"1428 FA","year":1428}],"when":{"timespans":[{"start":{"in":"1197"},"end":{"in":"1197"}},{"start":{"in":"1230"},"end":{"in":"1230"}},{"start":{"in":"1240"},"end":{"in":"1240"}},{"start":{"in":"1242"},"end":{"in":"1242"}},{"start":{"in":"1244"},"end":{"in":"1244"}},{"start":{"earliest":"1251","latest":"1252"},"end":{"earliest":"1251","latest":"1252"}},{"start":{"earliest":"1260","latest":"1280"},"end":{"earliest":"1260","latest":"1280"}},{"start":{"in":"1280"},"end":{"in":"1428"}},{"start":{"in":"1280"},"end":{"in":"1280"}},{"start":{"in":"1280"},"end":{"in":"1280"}},{"start":{"in":"1428"},"end":{"in":"1428"}}]}},{"toponym":"Hamforde","citations":[{"label":"1291 Tax","year":1291},{"label":"1332 SR","year":1332}],"when":{"timespans":[{"start":{"in":"1291"},"end":{"in":"1291"}},{"start":{"in":"1332"},"end":{"in":"1332"}}]}},{"toponym":"Hampford(')","citations":[{"label":"1241 Ch","year":1241},{"label":"1242-3 Fees","year":1242},{"label":"1275 RH","year":1275},{"label":"1374 Pat","year":1374}],"when":{"timespans":[{"start":{"in":"1241"},"end":{"in":"1241"}},{"start":{"earliest":"1242","latest":"1243"},"end":{"earliest":"1242","latest":"1243"}},{"start":{"in":"1275"},"end":{"in":"1275"}},{"start":{"in":"1374"},"end":{"in":"1374"}}]}},{"toponym":"Enforde","citations":[{"label":"1210-12 RBE","year":1210}],"when":{"timespans":[{"start":{"earliest":"1210","latest":"1212"},"end":{"earliest":"1210","latest":"1212"}}]}},{"toponym":"Han(n)eford","citations":[{"label":"1280 Ass","year":1280}],"when":{"timespans":[{"start":{"in":"1280"},"end":{"in":"1280"}}]}},{"toponym":"Honforde","citations":[{"label":"1399 Cl","year":1399}],"when":{"timespans":[{"start":{"in":"1399"},"end":{"in":"1399"}}]}},{"toponym":"Handford","citations":[{"label":"1664 HTax","year":1664}],"when":{"timespans":[{"start":{"in":"1664"},"end":{"in":"1664"}}]}}],"types":[{"identifier":"http://vocab.getty.edu/aat/300232418","label":"administrative division","sourceLabels":[{"label":"township","lang":"en"}]}],"geometry":{"type":"GeometryCollection","geometries":[{"type":"Point","coordinates":[-2.21383,50.89844],"citations":[{"label":"GeoNames, gazetteer record geonames:7293395"}]},{"type":"Point","coordinates":[-2.213340323,50.90222682],"citations":[{"label":"English Place-Name Society survey (DEEP coordinates)"}]},{"type":"Point","coordinates":[-2.220451673857047,50.90221412908021],"citations":[{"label":"Unlock (EDINA) gazetteer, gazetteer record unlock:11165263"}]},{"type":"Point","coordinates":[-2.22178,50.9028],"citations":[{"label":"Key to English Place-Names (KEPN), gazetteer record 11563"}]}]},"when":{"timespans":[{"start":{"in":"1086"},"end":{"in":"1664"}}]},"links":[{"type":"closeMatch","identifier":"https://sws.geonames.org/7293395/"}],"relations":[{"relationType":"gvp:broaderPartitive","relationTo":"http://placenames.org.uk/id/placename/59/001676","label":"within Hanford"}]}]}