{"@context":"https://raw.githubusercontent.com/LinkedPasts/linked-places-format/main/linkedplaces-context-v1.1.jsonld","type":"FeatureCollection","license":"Digitisation of English Placenames MADS data is licensed to Jisc by the English Place Names Society and released under a Creative Commons Attribution-NonCommercial 4.0 International License.","note":"LPF v1.3, lossy; derived from the PLATO record; plato_commit=ca0afadabec1e23a145c0b03df77e8f151f79832","features":[{"@id":"https://w3id.org/whg-epns/59/001700","type":"Feature","properties":{"title":"Iwerne Courtney or Shroton","ccodes":["GB"],"fclasses":["A","P"]},"names":[{"toponym":"Iwerne Courtney or Shroton","lang":"en","citations":[{"label":"English Place-Name Society survey, volume 59: Dorset"}]}],"types":[{"identifier":"http://vocab.getty.edu/aat/300232418","label":"administrative division","sourceLabels":[{"label":"parish","lang":"en"}]}],"geometry":{"type":"GeometryCollection","geometries":[{"type":"Point","coordinates":[-2.19484,50.92181],"citations":[{"label":"GeoNames, gazetteer record geonames:7291565"}]},{"type":"Point","coordinates":[-2.206268826462394,50.91123348209402],"citations":[{"label":"Unlock (EDINA) gazetteer, gazetteer record unlock:11183725"}]},{"type":"Point","coordinates":[-2.2076,50.9118],"citations":[{"label":"Key to English Place-Names (KEPN), gazetteer record 11564"}]}]},"links":[{"type":"closeMatch","identifier":"https://sws.geonames.org/7291565/"}],"relations":[{"relationType":"gvp:broaderPartitive","relationTo":"https://w3id.org/whg-epns/59/000002","label":"within Redlane Hundred and Gillingham Liberty"}]}]}