{"@context":"https://raw.githubusercontent.com/LinkedPasts/linked-places-format/main/linkedplaces-context-v1.1.jsonld","type":"FeatureCollection","license":"Digitisation of English Placenames MADS data is licensed to Jisc by the English Place Names Society and released under a Creative Commons Attribution-NonCommercial 4.0 International License.","note":"LPF v1.3, lossy; derived from the PLATO record; plato_commit=ca0afadabec1e23a145c0b03df77e8f151f79832","features":[{"@id":"https://w3id.org/whg-epns/59/003331","type":"Feature","properties":{"title":"Silton","ccodes":["GB"],"fclasses":["A","P"]},"names":[{"toponym":"Silton","lang":"en","citations":[{"label":"English Place-Name Society survey, volume 59: Dorset"}]},{"toponym":"Seltone","citations":[{"label":"1086 DB","year":1086},{"label":"1285 FA","year":1285},{"label":"1330 Ipm","year":1330}],"when":{"timespans":[{"start":{"in":"1086"},"end":{"in":"1086"}},{"start":{"in":"1285"},"end":{"in":"1285"}},{"start":{"in":"1330"},"end":{"in":"1330"}}]}},{"toponym":"Selton(')","citations":[{"label":"1194 P","year":1194},{"label":"1222 ClR","year":1222},{"label":"1230 P","year":1230},{"label":"1268 Ass","year":1268},{"label":"1297 Cl","year":1297},{"label":"1297 Pat","year":1297},{"label":"1314 AddCh","year":1314},{"label":"1318-25 Ipm","year":1318},{"label":"1325 Fine","year":1325},{"label":"1331–1331, recurring Cl","year":1331},{"label":"1331–1331, recurring Pat"},{"label":"1331 Cl","year":1331},{"label":"1331 Pat","year":1331}],"when":{"timespans":[{"start":{"in":"1194"},"end":{"in":"1194"}},{"start":{"in":"1222"},"end":{"in":"1222"}},{"start":{"in":"1230"},"end":{"in":"1230"}},{"start":{"in":"1268"},"end":{"in":"1268"}},{"start":{"in":"1280"},"end":{"in":"1280"}},{"start":{"in":"1297"},"end":{"in":"1297"}},{"start":{"in":"1297"},"end":{"in":"1297"}},{"start":{"in":"1314"},"end":{"in":"1314"}},{"start":{"earliest":"1318","latest":"1325"},"end":{"earliest":"1318","latest":"1325"}},{"start":{"in":"1325"},"end":{"in":"1325"}},{"start":{"in":"1326"},"end":{"in":"1326"}},{"start":{"in":"1331"},"end":{"in":"1331"}},{"start":{"in":"1331"},"end":{"in":"1331"}},{"start":{"in":"1331"},"end":{"in":"1331"}}]}},{"toponym":"'Selton(') by Gyllyngham'","citations":[{"label":"1415 Fine","year":1415}],"when":{"timespans":[{"start":{"in":"1415"},"end":{"in":"1415"}}]}},{"toponym":"Selleton'","citations":[{"label":"1230 ChancR","year":1230}],"when":{"timespans":[{"start":{"in":"1230"},"end":{"in":"1230"}}]}},{"toponym":"Seleton'","citations":[{"label":"1280 Ass","year":1280}],"when":{"timespans":[{"start":{"in":"1280"},"end":{"in":"1280"}}]}},{"toponym":"Salton'","citations":[{"label":"1268 Ass","year":1268},{"label":"1291 Tax","year":1291},{"label":"1303 FA","year":1303},{"label":"1319 Ipm","year":1319},{"label":"1340 NI","year":1340},{"label":"1346 Ipm","year":1346},{"label":"1346 FA","year":1346},{"label":"1428 FA","year":1428}],"when":{"timespans":[{"start":{"in":"1268"},"end":{"in":"1268"}},{"start":{"in":"1280"},"end":{"in":"1280"}},{"start":{"in":"1288"},"end":{"in":"1288"}},{"start":{"in":"1291"},"end":{"in":"1291"}},{"start":{"in":"1303"},"end":{"in":"1303"}},{"start":{"in":"1319"},"end":{"in":"1319"}},{"start":{"in":"1330"},"end":{"in":"1330"}},{"start":{"in":"1340"},"end":{"in":"1340"}},{"start":{"in":"1346"},"end":{"in":"1346"}},{"start":{"in":"1346"},"end":{"in":"1346"}},{"start":{"in":"1428"},"end":{"in":"1428"}}]}},{"toponym":"Cylton'","citations":[{"label":"1327 SR","year":1327}],"when":{"timespans":[{"start":{"in":"1327"},"end":{"in":"1327"}}]}},{"toponym":"Cilton, Cylton","citations":[{"label":"1519 Ct","year":1519}],"when":{"timespans":[{"start":{"in":"1519"},"end":{"in":"1519"}}]}},{"toponym":"Silton(')","citations":[{"label":"1332 SR","year":1332},{"label":"1402 Pat","year":1402},{"label":"1431–1431, recurring IpmR","year":1431},{"label":"1431–1431, recurring FA"},{"label":"1431 IpmR","year":1431},{"label":"1431 FA","year":1431}],"when":{"timespans":[{"start":{"in":"1332"},"end":{"in":"1332"}},{"start":{"in":"1402"},"end":{"in":"1402"}},{"start":{"in":"1431"},"end":{"in":"1431"}},{"start":{"in":"1431"},"end":{"in":"1431"}},{"start":{"in":"1431"},"end":{"in":"1431"}}]}},{"toponym":"Sylton","citations":[{"label":"1361 Pat","year":1361},{"label":"1412–1428, recurring FA","year":1412},{"label":"1412 FA","year":1412}],"when":{"timespans":[{"start":{"in":"1361"},"end":{"in":"1361"}},{"start":{"in":"1412"},"end":{"in":"1428"}},{"start":{"in":"1412"},"end":{"in":"1412"}},{"start":{"in":"1428"},"end":{"in":"1428"}}]}},{"toponym":"Silton or Sylton","citations":[{"label":"1497 Ipm","year":1497}],"when":{"timespans":[{"start":{"in":"1497"},"end":{"in":"1497"}}]}}],"types":[{"identifier":"http://vocab.getty.edu/aat/300232418","label":"administrative division","sourceLabels":[{"label":"township","lang":"en"}]}],"geometry":{"type":"GeometryCollection","geometries":[{"type":"Point","coordinates":[-2.31306,51.06222],"citations":[{"label":"GeoNames, gazetteer record geonames:2637831"}]},{"type":"Point","coordinates":[-2.309700248,51.06299161],"citations":[{"label":"English Place-Name Society survey (DEEP coordinates)"}]},{"type":"Point","coordinates":[-2.306851944410766,51.06389900111223],"citations":[{"label":"Unlock (EDINA) gazetteer, gazetteer record unlock:11283967"}]},{"type":"Point","coordinates":[-2.30818,51.0644],"citations":[{"label":"Key to English Place-Names (KEPN), gazetteer record 11567"}]}]},"when":{"timespans":[{"start":{"in":"1086"},"end":{"in":"1519"}}]},"links":[{"type":"closeMatch","identifier":"https://sws.geonames.org/2637831/"}],"relations":[{"relationType":"gvp:broaderPartitive","relationTo":"https://w3id.org/whg-epns/59/003330","label":"within Silton"}]}]}