{"@context":"https://raw.githubusercontent.com/LinkedPasts/linked-places-format/main/linkedplaces-context-v1.1.jsonld","type":"FeatureCollection","license":"Digitisation of English Placenames MADS data is licensed to Jisc by the English Place Names Society and released under a Creative Commons Attribution-NonCommercial 4.0 International License.","note":"LPF v1.3, lossy; derived from the PLATO record; plato_commit=fa0d247ccc0263f8f19c8d7cdcd163df96935d1e","features":[{"@id":"https://w3id.org/whg-epns/59/006387","type":"Feature","properties":{"title":"Iwerne Minster","ccodes":["GB"],"fclasses":["A","P"]},"names":[{"toponym":"Iwerne Minster","lang":"en","citations":[{"label":"English Place-Name Society survey, volume 59: Dorset"}]}],"types":[{"identifier":"http://vocab.getty.edu/aat/300232418","label":"administrative division","sourceLabels":[{"label":"parish","lang":"en"}]}],"geometry":{"type":"GeometryCollection","geometries":[{"type":"Point","coordinates":[-2.19133,50.92836],"citations":[{"label":"GeoNames, gazetteer record geonames:2645984"}]},{"type":"Point","coordinates":[-2.187848226,50.92925087],"citations":[{"label":"English Place-Name Society survey (DEEP coordinates)"}]},{"type":"Point","coordinates":[-2.192117533260741,50.92924444889402],"citations":[{"label":"Unlock (EDINA) gazetteer, gazetteer record unlock:11183727"}]},{"type":"Point","coordinates":[-2.19345,50.9298],"citations":[{"label":"Key to English Place-Names (KEPN), gazetteer record 11603"}]}]},"links":[{"type":"closeMatch","identifier":"https://sws.geonames.org/2645984/"}],"relations":[{"relationType":"gvp:broaderPartitive","relationTo":"https://w3id.org/whg-epns/59/004778","label":"within Sixpenny Handley Hundred"}]}]}