{"@context":"https://raw.githubusercontent.com/LinkedPasts/linked-places-format/main/linkedplaces-context-v1.1.jsonld","type":"FeatureCollection","license":"Digitisation of English Placenames MADS data is licensed to Jisc by the English Place Names Society and released under a Creative Commons Attribution-NonCommercial 4.0 International License.","note":"LPF v1.3, lossy; derived from the PLATO record; plato_commit=fa0d247ccc0263f8f19c8d7cdcd163df96935d1e","features":[{"@id":"https://w3id.org/whg-epns/59/012130","type":"Feature","properties":{"title":"Buckland Newton","ccodes":["GB"],"fclasses":["A","P"]},"names":[{"toponym":"Buckland Newton","lang":"en","citations":[{"label":"English Place-Name Society survey, volume 59: Dorset"}]}],"types":[{"identifier":"http://vocab.getty.edu/aat/300232418","label":"administrative division","sourceLabels":[{"label":"parish","lang":"en"}]}],"geometry":{"type":"GeometryCollection","geometries":[{"type":"Point","coordinates":[-2.44016,50.84624],"citations":[{"label":"GeoNames, gazetteer record geonames:2654398"}]},{"type":"Point","coordinates":[-2.444633763,50.84581522],"citations":[{"label":"English Place-Name Society survey (DEEP coordinates)"}]},{"type":"Point","coordinates":[-2.433286456381743,50.8476571190198],"citations":[{"label":"Unlock (EDINA) gazetteer, gazetteer record unlock:11091747"}]},{"type":"Point","coordinates":[-2.43459,50.8482],"citations":[{"label":"Key to English Place-Names (KEPN), gazetteer record 11441"}]}]},"links":[{"type":"closeMatch","identifier":"https://sws.geonames.org/2654398/"}],"relations":[{"relationType":"gvp:broaderPartitive","relationTo":"https://w3id.org/whg-epns/59/012110","label":"within Buckland Newton Hundred"}]}]}