{"@context":"https://raw.githubusercontent.com/LinkedPasts/linked-places-format/main/linkedplaces-context-v1.1.jsonld","type":"FeatureCollection","license":"Digitisation of English Placenames MADS data is licensed to Jisc by the English Place Names Society and released under a Creative Commons Attribution-NonCommercial 4.0 International License.","note":"LPF v1.3, lossy; derived from the PLATO record; plato_commit=ca0afadabec1e23a145c0b03df77e8f151f79832","features":[{"@id":"http://placenames.org.uk/id/placename/59/013240","type":"Feature","properties":{"title":"Mappowder","ccodes":["GB"],"fclasses":["A","P"]},"names":[{"toponym":"Mappowder","lang":"en","citations":[{"label":"English Place-Name Society survey, volume 59: Dorset"}]}],"types":[{"identifier":"http://vocab.getty.edu/aat/300232418","label":"administrative division","sourceLabels":[{"label":"parish","lang":"en"}]}],"geometry":{"type":"GeometryCollection","geometries":[{"type":"Point","coordinates":[-2.37747,50.85458],"citations":[{"label":"GeoNames, gazetteer record geonames:2643078"}]},{"type":"Point","coordinates":[-2.376499502,50.8523504],"citations":[{"label":"English Place-Name Society survey (DEEP coordinates)"}]},{"type":"Point","coordinates":[-2.376535814365241,50.85684756036642],"citations":[{"label":"Unlock (EDINA) gazetteer, gazetteer record unlock:11213414"}]},{"type":"Point","coordinates":[-2.37785,50.8574],"citations":[{"label":"Key to English Place-Names (KEPN), gazetteer record 11442"}]}]},"links":[{"type":"closeMatch","identifier":"https://sws.geonames.org/2643078/"}],"relations":[{"relationType":"gvp:broaderPartitive","relationTo":"http://placenames.org.uk/id/placename/59/012110","label":"within Buckland Newton Hundred"}]}]}