{"@context":"https://raw.githubusercontent.com/LinkedPasts/linked-places-format/main/linkedplaces-context-v1.1.jsonld","type":"FeatureCollection","license":"Digitisation of English Placenames MADS data is licensed to Jisc by the English Place Names Society and released under a Creative Commons Attribution-NonCommercial 4.0 International License.","note":"LPF v1.3, lossy; derived from the PLATO record; plato_commit=fa0d247ccc0263f8f19c8d7cdcd163df96935d1e","features":[{"@id":"https://w3id.org/whg-epns/59/015518","type":"Feature","properties":{"title":"Castleton","ccodes":["GB"],"fclasses":["A","P"]},"names":[{"toponym":"Castleton","lang":"en","citations":[{"label":"English Place-Name Society survey, volume 59: Dorset"}]},{"toponym":"vill' de castello","citations":[{"label":"1268 Ass","year":1268}],"when":{"timespans":[{"start":{"in":"1268"},"end":{"in":"1268"}}]}},{"toponym":"Libertas de Casteltone","citations":[{"label":"1327 SR","year":1327}],"when":{"timespans":[{"start":{"in":"1327"},"end":{"in":"1327"}}]}},{"toponym":"Castelton(')","citations":[{"label":"1332 SR","year":1332}],"when":{"timespans":[{"start":{"in":"1332"},"end":{"in":"1332"}}]}},{"toponym":"lib' de Castelton(')","citations":[{"label":"1426 Sher","year":1426},{"label":"1452 Sher","year":1452}],"when":{"timespans":[{"start":{"in":"1426"},"end":{"in":"1426"}},{"start":{"in":"1452"},"end":{"in":"1452"}}]}},{"toponym":"Castelton(') Burgus","citations":[{"label":"Digby","year":1538},{"label":"1538 Digby","year":1538}],"when":{"timespans":[{"start":{"in":"1538"},"end":{"in":"1538"}},{"start":{"in":"1538"},"end":{"in":"1538"}}]}},{"toponym":"Castelton(') manerium","citations":[{"label":"1590 Digby","year":1590}],"when":{"timespans":[{"start":{"in":"1590"},"end":{"in":"1590"}}]}},{"toponym":"la Castel(l)ton', le Castel(l)ton'","citations":[{"label":"1395 Salis","year":1395},{"label":"1426 Sher","year":1426}],"when":{"timespans":[{"start":{"in":"1395"},"end":{"in":"1395"}},{"start":{"in":"1426"},"end":{"in":"1426"}},{"start":{"in":"1429"},"end":{"in":"1429"}},{"start":{"in":"1452"},"end":{"in":"1452"}}]}},{"toponym":"Castel(l)toun(e)","citations":[{"label":"1426 Sher","year":1426},{"label":"1427 Salis","year":1427}],"when":{"timespans":[{"start":{"in":"1426"},"end":{"in":"1426"}},{"start":{"in":"1427"},"end":{"in":"1427"}},{"start":{"in":"1427"},"end":{"in":"1427"}}]}},{"toponym":"lib' de Castel(l)toun(e)","citations":[{"label":"1448 Sher","year":1448}],"when":{"timespans":[{"start":{"in":"1448"},"end":{"in":"1448"}},{"start":{"in":"1454"},"end":{"in":"1454"}}]}},{"toponym":"Castel(l)town(e)","citations":[{"label":"1439 Sher","year":1439}],"when":{"timespans":[{"start":{"in":"1439"},"end":{"in":"1439"}},{"start":{"in":"1465"},"end":{"in":"1465"}},{"start":{"in":"1471"},"end":{"in":"1471"}}]}},{"toponym":"Casteltoun'","citations":[{"label":"1452 Sher","year":1452}],"when":{"timespans":[{"start":{"in":"1452"},"end":{"in":"1452"}},{"start":{"in":"1455"},"end":{"in":"1455"}}]}},{"toponym":"Casteltown(e)","citations":[{"label":"Sher","year":1484},{"label":"Pitt"},{"label":"1484 Sher","year":1484},{"label":"1617 Pitt","year":1617}],"when":{"timespans":[{"start":{"in":"1484"},"end":{"in":"1617"}},{"start":{"in":"1484"},"end":{"in":"1484"}},{"start":{"in":"1617"},"end":{"in":"1617"}}]}},{"toponym":"Castletowne","citations":[{"label":"1569-74 Map","year":1569},{"label":"1585 Sher","year":1585},{"label":"1617 Pitt","year":1617},{"label":"1639 Digby","year":1639}],"when":{"timespans":[{"start":{"earliest":"1569","latest":"1574"},"end":{"earliest":"1569","latest":"1574"}},{"start":{"in":"1585"},"end":{"in":"1585"}},{"start":{"in":"1617"},"end":{"in":"1617"}},{"start":{"in":"1639"},"end":{"in":"1639"}}]}},{"toponym":"Castleton","citations":[{"label":"1618 Digby","year":1618},{"label":"1626 Sher","year":1626},{"label":"1811 OS","year":1811}],"when":{"timespans":[{"start":{"in":"1618"},"end":{"in":"1618"}},{"start":{"in":"1626"},"end":{"in":"1626"}},{"start":{"in":"1811"},"end":{"in":"1811"}}]}},{"toponym":"Castle Towne","citations":[{"label":"1664 HTax","year":1664}],"when":{"timespans":[{"start":{"in":"1664"},"end":{"in":"1664"}}]}},{"toponym":"Casselton","citations":[{"label":"1717 Hutch3","year":1717}],"when":{"timespans":[{"start":{"in":"1717"},"end":{"in":"1717"}}]}}],"types":[{"identifier":"http://vocab.getty.edu/aat/300232418","label":"administrative division","sourceLabels":[{"label":"township","lang":"en"}]}],"geometry":{"type":"GeometryCollection","geometries":[{"type":"Point","coordinates":[-2.52424,50.94846],"citations":[{"label":"GeoNames, gazetteer record geonames:7291598"}]},{"type":"Point","coordinates":[-2.503960201,50.94630141],"citations":[{"label":"English Place-Name Society survey (DEEP coordinates)"}]},{"type":"Point","coordinates":[-2.53526,50.9557],"citations":[{"label":"Key to English Place-Names (KEPN), gazetteer record 11582"}]}]},"when":{"timespans":[{"start":{"in":"1268"},"end":{"in":"1811"}}]},"links":[{"type":"closeMatch","identifier":"https://sws.geonames.org/7291598/"}],"relations":[{"relationType":"gvp:broaderPartitive","relationTo":"https://w3id.org/whg-epns/59/015517","label":"within Castleton"}]}]}