{"@context":"https://raw.githubusercontent.com/LinkedPasts/linked-places-format/main/linkedplaces-context-v1.1.jsonld","type":"FeatureCollection","license":"Digitisation of English Placenames MADS data is licensed to Jisc by the English Place Names Society and released under a Creative Commons Attribution-NonCommercial 4.0 International License.","note":"LPF v1.3, lossy; derived from the PLATO record; plato_commit=ca0afadabec1e23a145c0b03df77e8f151f79832","features":[{"@id":"http://placenames.org.uk/id/placename/59/015517","type":"Feature","properties":{"title":"Castleton","ccodes":["GB"],"fclasses":["A","P"]},"names":[{"toponym":"Castleton","lang":"en","citations":[{"label":"English Place-Name Society survey, volume 59: Dorset"}]}],"types":[{"identifier":"http://vocab.getty.edu/aat/300232418","label":"administrative division","sourceLabels":[{"label":"parish","lang":"en"}]}],"geometry":{"type":"GeometryCollection","geometries":[{"type":"Point","coordinates":[-2.52424,50.94846],"citations":[{"label":"GeoNames, gazetteer record geonames:7291598"}]},{"type":"Point","coordinates":[-2.503960201,50.94630141],"citations":[{"label":"English Place-Name Society survey (DEEP coordinates)"}]},{"type":"Point","coordinates":[-2.53526,50.9557],"citations":[{"label":"Key to English Place-Names (KEPN), gazetteer record 11582"}]}]},"links":[{"type":"closeMatch","identifier":"https://sws.geonames.org/7291598/"}],"relations":[{"relationType":"gvp:broaderPartitive","relationTo":"http://placenames.org.uk/id/placename/59/014873","label":"within Sherborne Hundred"}]}]}