{"@context":"https://raw.githubusercontent.com/LinkedPasts/linked-places-format/main/linkedplaces-context-v1.1.jsonld","type":"FeatureCollection","license":"Digitisation of English Placenames MADS data is licensed to Jisc by the English Place Names Society and released under a Creative Commons Attribution-NonCommercial 4.0 International License.","note":"LPF v1.3, lossy; derived from the PLATO record; plato_commit=ca0afadabec1e23a145c0b03df77e8f151f79832","features":[{"@id":"http://placenames.org.uk/id/placename/59/016342","type":"Feature","properties":{"title":"Purse Caundle","ccodes":["GB"],"fclasses":["A","P"]},"names":[{"toponym":"Purse Caundle","lang":"en","citations":[{"label":"English Place-Name Society survey, volume 59: Dorset"}]},{"toponym":"Candel","citations":[{"label":"1086 DB","year":1086},{"label":"1086 Exon","year":1086},{"label":"1091-1106 MontC","year":1091},{"label":"1100-22 Ch","year":1100},{"label":"1203 AthelC","year":1203}],"when":{"timespans":[{"start":{"in":"1086"},"end":{"in":"1086"}},{"start":{"in":"1086"},"end":{"in":"1086"}},{"start":{"earliest":"1091","latest":"1106"},"end":{"earliest":"1091","latest":"1106"}},{"start":{"earliest":"1100","latest":"1122"},"end":{"earliest":"1100","latest":"1122"}},{"start":{"in":"1203"},"end":{"in":"1203"}}]}},{"toponym":"Caundel","citations":[{"label":"1241 FF","year":1241}],"when":{"timespans":[{"start":{"in":"1241"},"end":{"in":"1241"}}]}},{"toponym":"Pursca(u)ndel","citations":[{"label":"1241 FF","year":1241},{"label":"1273 AthelC","year":1273},{"label":"1285 FA","year":1285},{"label":"1288–1341, recurring Ass","year":1288},{"label":"1288–1341, recurring Cl"},{"label":"1288 Ass","year":1288},{"label":"1341 Cl","year":1341}],"when":{"timespans":[{"start":{"in":"1241"},"end":{"in":"1241"}},{"start":{"in":"1252"},"end":{"in":"1252"}},{"start":{"in":"1273"},"end":{"in":"1273"}},{"start":{"in":"1285"},"end":{"in":"1285"}},{"start":{"in":"1288"},"end":{"in":"1341"}},{"start":{"in":"1288"},"end":{"in":"1288"}},{"start":{"in":"1341"},"end":{"in":"1341"}}]}},{"toponym":"Purska(u)ndel","citations":[{"label":"1268 Ass","year":1268},{"label":"1290 Ipm","year":1290}],"when":{"timespans":[{"start":{"in":"1268"},"end":{"in":"1268"}},{"start":{"in":"1288"},"end":{"in":"1288"}},{"start":{"in":"1290"},"end":{"in":"1290"}}]}},{"toponym":"Purs Caundel, Purscandel Episcopi","citations":[{"label":"1288 Ass","year":1288}],"when":{"timespans":[{"start":{"in":"1288"},"end":{"in":"1288"}}]}},{"toponym":"Purscaundell'","citations":[{"label":"1425 Ilch","year":1425}],"when":{"timespans":[{"start":{"in":"1425"},"end":{"in":"1425"}}]}},{"toponym":"Pursse Candle","citations":[{"label":"1569-74 Map","year":1569}],"when":{"timespans":[{"start":{"earliest":"1569","latest":"1574"},"end":{"earliest":"1569","latest":"1574"}}]}},{"toponym":"Purss Caundle","citations":[{"label":"1709 WRO","year":1709}],"when":{"timespans":[{"start":{"in":"1709"},"end":{"in":"1709"}}]}},{"toponym":"Purse Caundle","citations":[{"label":"1811 OS","year":1811}],"when":{"timespans":[{"start":{"in":"1811"},"end":{"in":"1811"}}]}},{"toponym":"Purschondel","citations":[{"label":"1252 FF","year":1252}],"when":{"timespans":[{"start":{"in":"1252"},"end":{"in":"1252"}}]}},{"toponym":"Pruscandel","citations":[{"label":"1275 RH","year":1275}],"when":{"timespans":[{"start":{"in":"1275"},"end":{"in":"1275"}}]}},{"toponym":"Ca(u)ndel Purs","citations":[{"label":"1270 For","year":1270},{"label":"1280 Ass","year":1280},{"label":"1291 Tax","year":1291},{"label":"1332 SR","year":1332},{"label":"1340 NI","year":1340}],"when":{"timespans":[{"start":{"in":"1270"},"end":{"in":"1270"}},{"start":{"in":"1280"},"end":{"in":"1280"}},{"start":{"in":"1288"},"end":{"in":"1288"}},{"start":{"in":"1291"},"end":{"in":"1291"}},{"start":{"in":"1332"},"end":{"in":"1332"}},{"start":{"in":"1340"},"end":{"in":"1340"}}]}},{"toponym":"Caundel(l)purs(s)(e)","citations":[{"label":"1428 FA","year":1428},{"label":"1464 Digby","year":1464}],"when":{"timespans":[{"start":{"in":"1428"},"end":{"in":"1428"}},{"start":{"in":"1464"},"end":{"in":"1464"}},{"start":{"in":"1491"},"end":{"in":"1491"}}]}},{"toponym":"Caundell Purs(s)(e)","citations":[{"label":"1428 FA","year":1428},{"label":"1436–1501, recurring WRO","year":1436},{"label":"1436–1501, recurring Pat"},{"label":"1436 WRO","year":1436},{"label":"1501 Pat","year":1501}],"when":{"timespans":[{"start":{"in":"1428"},"end":{"in":"1428"}},{"start":{"in":"1436"},"end":{"in":"1501"}},{"start":{"in":"1436"},"end":{"in":"1436"}},{"start":{"in":"1501"},"end":{"in":"1501"}}]}},{"toponym":"Candelpurse","citations":[{"label":"1575 Saxton","year":1575}],"when":{"timespans":[{"start":{"in":"1575"},"end":{"in":"1575"}}]}},{"toponym":"Candle Purse","citations":[{"label":"1664 HTax","year":1664}],"when":{"timespans":[{"start":{"in":"1664"},"end":{"in":"1664"}}]}},{"toponym":"Caundle Purse","citations":[{"label":"1795 Boswell","year":1795}],"when":{"timespans":[{"start":{"in":"1795"},"end":{"in":"1795"}}]}},{"toponym":"Pres Caunde","citations":[{"label":"1280 Ass","year":1280}],"when":{"timespans":[{"start":{"in":"1280"},"end":{"in":"1280"}}]}},{"toponym":"Pors Caundel","citations":[{"label":"1288 Ass","year":1288}],"when":{"timespans":[{"start":{"in":"1288"},"end":{"in":"1288"}}]}},{"toponym":"Caundel Pours","citations":[{"label":"1350 Ipm","year":1350}],"when":{"timespans":[{"start":{"in":"1350"},"end":{"in":"1350"}}]}},{"toponym":"Caundell' Porc'","citations":[{"label":"1406 Digby","year":1406}],"when":{"timespans":[{"start":{"in":"1406"},"end":{"in":"1406"}}]}},{"toponym":"Caundell' Pors'","citations":[{"label":"1460 Digby","year":1460}],"when":{"timespans":[{"start":{"in":"1460"},"end":{"in":"1460"}}]}},{"toponym":"Puscandel(le)","citations":[{"label":"1535-43 Leland","year":1535}],"when":{"timespans":[{"start":{"earliest":"1535","latest":"1543"},"end":{"earliest":"1535","latest":"1543"}}]}}],"types":[{"identifier":"http://vocab.getty.edu/aat/300232418","label":"administrative division","sourceLabels":[{"label":"township","lang":"en"}]}],"geometry":{"type":"GeometryCollection","geometries":[{"type":"Point","coordinates":[-2.43782,50.95308],"citations":[{"label":"GeoNames, gazetteer record geonames:7293435"}]},{"type":"Point","coordinates":[-2.432873613,50.95647926],"citations":[{"label":"English Place-Name Society survey (DEEP coordinates)"}]},{"type":"Point","coordinates":[-2.434289236139146,50.95557519534083],"citations":[{"label":"Unlock (EDINA) gazetteer, gazetteer record unlock:11250887"}]},{"type":"Point","coordinates":[-2.4356,50.9561],"citations":[{"label":"Key to English Place-Names (KEPN), gazetteer record 11595"}]}]},"when":{"timespans":[{"start":{"in":"1086"},"end":{"in":"1811"}}]},"links":[{"type":"closeMatch","identifier":"https://sws.geonames.org/7293435/"}],"relations":[{"relationType":"gvp:broaderPartitive","relationTo":"http://placenames.org.uk/id/placename/59/016341","label":"within Purse Caundle"}]}]}