{"@context":"https://raw.githubusercontent.com/LinkedPasts/linked-places-format/main/linkedplaces-context-v1.1.jsonld","type":"FeatureCollection","license":"Digitisation of English Placenames MADS data is licensed to Jisc by the English Place Names Society and released under a Creative Commons Attribution-NonCommercial 4.0 International License.","note":"LPF v1.3, lossy; derived from the PLATO record; plato_commit=ca0afadabec1e23a145c0b03df77e8f151f79832","features":[{"@id":"http://placenames.org.uk/id/placename/59/017225","type":"Feature","properties":{"title":"Haydon","ccodes":["GB"],"fclasses":["A","P"]},"names":[{"toponym":"Haydon","lang":"en","citations":[{"label":"English Place-Name Society survey, volume 59: Dorset"}]},{"toponym":"(æt) Hægdune","citations":[{"label":"1046 KCD","year":1046}],"when":{"timespans":[{"start":{"in":"1046"},"end":{"in":"1046"}}]}},{"toponym":"Heydone, Heydona","citations":[{"label":"c.1163 Sarum","year":1153},{"label":"1569-74 Map","year":1569}],"when":{"timespans":[{"start":{"earliest":"1153","latest":"1173"},"end":{"earliest":"1153","latest":"1173"}},{"start":{"earliest":"1569","latest":"1574"},"end":{"earliest":"1569","latest":"1574"}}]}},{"toponym":"Heydon","citations":[{"label":"1253 Misc","year":1253},{"label":"1278 Drew","year":1278},{"label":"1284 Pat","year":1284},{"label":"1288 Ass","year":1288}],"when":{"timespans":[{"start":{"in":"1253"},"end":{"in":"1253"}},{"start":{"in":"1278"},"end":{"in":"1278"}},{"start":{"in":"1284"},"end":{"in":"1284"}},{"start":{"in":"1288"},"end":{"in":"1288"}}]}},{"toponym":"Heydon'","citations":[{"label":"1473 Digby","year":1473}],"when":{"timespans":[{"start":{"in":"1473"},"end":{"in":"1473"}}]}},{"toponym":"Heidon","citations":[{"label":"1202 FF","year":1202},{"label":"1204 FineR","year":1204}],"when":{"timespans":[{"start":{"in":"1202"},"end":{"in":"1202"}},{"start":{"in":"1204"},"end":{"in":"1204"}}]}},{"toponym":"Hedon'","citations":[{"label":"1204 Cur","year":1204}],"when":{"timespans":[{"start":{"in":"1204"},"end":{"in":"1204"}}]}},{"toponym":"Haydon(')","citations":[{"label":"1258 For","year":1258},{"label":"1280 Ass","year":1280},{"label":"1285–1316, recurring FA","year":1285},{"label":"1285 FA","year":1285}],"when":{"timespans":[{"start":{"in":"1258"},"end":{"in":"1258"}},{"start":{"in":"1268"},"end":{"in":"1268"}},{"start":{"in":"1280"},"end":{"in":"1280"}},{"start":{"in":"1285"},"end":{"in":"1316"}},{"start":{"in":"1285"},"end":{"in":"1285"}},{"start":{"in":"1316"},"end":{"in":"1316"}}]}},{"toponym":"Haydoun","citations":[{"label":"1385 Cl","year":1385}],"when":{"timespans":[{"start":{"in":"1385"},"end":{"in":"1385"}},{"start":{"in":"1412"},"end":{"in":"1412"}}]}},{"toponym":"Haidon(')","citations":[{"label":"1406 Digby","year":1406}],"when":{"timespans":[{"start":{"in":"1406"},"end":{"in":"1406"}}]}},{"toponym":"Haidon(') juxta Shirburne","citations":[{"label":"1412 FA","year":1412},{"label":"1614 Digby","year":1614}],"when":{"timespans":[{"start":{"in":"1412"},"end":{"in":"1412"}},{"start":{"in":"1614"},"end":{"in":"1614"}}]}},{"toponym":"Haydon Mannor","citations":[{"label":"1677 Digby","year":1677}],"when":{"timespans":[{"start":{"in":"1677"},"end":{"in":"1677"}}]}},{"toponym":"Haddon","citations":[{"label":"1303 FA","year":1303}],"when":{"timespans":[{"start":{"in":"1303"},"end":{"in":"1303"}}]}},{"toponym":"Hayden","citations":[{"label":"1664 HTax","year":1664}],"when":{"timespans":[{"start":{"in":"1664"},"end":{"in":"1664"}}]}}],"types":[{"identifier":"http://vocab.getty.edu/aat/300232418","label":"administrative division","sourceLabels":[{"label":"township","lang":"en"}]}],"geometry":{"type":"GeometryCollection","geometries":[{"type":"Point","coordinates":[-2.4682,50.93878],"citations":[{"label":"GeoNames, gazetteer record geonames:7293422"}]},{"type":"Point","coordinates":[-2.468307863,50.94015441],"citations":[{"label":"English Place-Name Society survey (DEEP coordinates)"}]},{"type":"Point","coordinates":[-2.462587710915974,50.93747970266887],"citations":[{"label":"Unlock (EDINA) gazetteer, gazetteer record unlock:11168096"}]},{"type":"Point","coordinates":[-2.46389,50.938],"citations":[{"label":"Key to English Place-Names (KEPN), gazetteer record 11585"}]}]},"when":{"timespans":[{"start":{"in":"1046"},"end":{"in":"1677"}}]},"links":[{"type":"closeMatch","identifier":"https://sws.geonames.org/7293422/"}],"relations":[{"relationType":"gvp:broaderPartitive","relationTo":"http://placenames.org.uk/id/placename/59/017224","label":"within Haydon"}]}]}