{"@context":"https://raw.githubusercontent.com/LinkedPasts/linked-places-format/main/linkedplaces-context-v1.1.jsonld","type":"FeatureCollection","license":"Digitisation of English Placenames MADS data is licensed to Jisc by the English Place Names Society and released under a Creative Commons Attribution-NonCommercial 4.0 International License.","note":"LPF v1.3, lossy; derived from the PLATO record; plato_commit=ca0afadabec1e23a145c0b03df77e8f151f79832","features":[{"@id":"http://placenames.org.uk/id/placename/59/019661","type":"Feature","properties":{"title":"Goathill","ccodes":["GB"],"fclasses":["A","P"]},"names":[{"toponym":"Goathill","lang":"en","citations":[{"label":"English Place-Name Society survey, volume 59: Dorset"}]},{"toponym":"Gatelme","citations":[{"label":"1086 DB","year":1086}],"when":{"timespans":[{"start":{"in":"1086"},"end":{"in":"1086"}}]}},{"toponym":"Ingatelma","citations":[{"label":"1086 Exon","year":1086}],"when":{"timespans":[{"start":{"in":"1086"},"end":{"in":"1086"}}]}},{"toponym":"Gathulla","citations":[{"label":"1176 P","year":1176}],"when":{"timespans":[{"start":{"in":"1176"},"end":{"in":"1176"}}]}},{"toponym":"Cotehull","citations":[{"label":"1234 Pat","year":1234}],"when":{"timespans":[{"start":{"in":"1234"},"end":{"in":"1234"}}]}},{"toponym":"Cochull","citations":[{"label":"1254 Cl","year":1254}],"when":{"timespans":[{"start":{"in":"1254"},"end":{"in":"1254"}}]}},{"toponym":"Gothull(e)","citations":[{"label":"1254-6 DEPN","year":1254},{"label":"1283 Drew","year":1283},{"label":"1290 Ch","year":1290},{"label":"1316 FA","year":1316},{"label":"1320 Ipm","year":1320}],"when":{"timespans":[{"start":{"earliest":"1254","latest":"1256"},"end":{"earliest":"1254","latest":"1256"}},{"start":{"in":"1283"},"end":{"in":"1283"}},{"start":{"in":"1290"},"end":{"in":"1290"}},{"start":{"in":"1316"},"end":{"in":"1316"}},{"start":{"in":"1320"},"end":{"in":"1320"}}]}},{"toponym":"Gothill","citations":[{"label":"1284 Drew","year":1284}],"when":{"timespans":[{"start":{"in":"1284"},"end":{"in":"1284"}}]}},{"toponym":"Gotehull","citations":[{"label":"1487 Ipm","year":1487}],"when":{"timespans":[{"start":{"in":"1487"},"end":{"in":"1487"}}]}},{"toponym":"Gotehill","citations":[{"label":"1495 Ipm","year":1495},{"label":"1535 VE","year":1535},{"label":"1575 Saxton","year":1575}],"when":{"timespans":[{"start":{"in":"1495"},"end":{"in":"1495"}},{"start":{"in":"1535"},"end":{"in":"1535"}},{"start":{"in":"1575"},"end":{"in":"1575"}}]}},{"toponym":"Gotylle","citations":[{"label":"1569-74 Map","year":1569}],"when":{"timespans":[{"start":{"earliest":"1569","latest":"1574"},"end":{"earliest":"1569","latest":"1574"}}]}}],"types":[{"identifier":"http://vocab.getty.edu/aat/300232418","label":"administrative division","sourceLabels":[{"label":"township","lang":"en"}]}],"geometry":{"type":"GeometryCollection","geometries":[{"type":"Point","coordinates":[-2.46521,50.9527],"citations":[{"label":"GeoNames, gazetteer record geonames:7300415"}]},{"type":"Point","coordinates":[-2.461315568,50.95277302],"citations":[{"label":"English Place-Name Society survey (DEEP coordinates)"}]},{"type":"Point","coordinates":[-2.462766255972345,50.95546583923981],"citations":[{"label":"Unlock (EDINA) gazetteer, gazetteer record unlock:11155724"}]},{"type":"Point","coordinates":[-2.461739,50.957994],"citations":[{"label":"Key to English Place-Names (KEPN), gazetteer record 395"}]}]},"when":{"timespans":[{"start":{"in":"1086"},"end":{"in":"1575"}}]},"links":[{"type":"closeMatch","identifier":"https://sws.geonames.org/7300415/"}],"relations":[{"relationType":"gvp:broaderPartitive","relationTo":"http://placenames.org.uk/id/placename/59/019660","label":"within Goathill"}]}]}