{"@context":"https://raw.githubusercontent.com/LinkedPasts/linked-places-format/main/linkedplaces-context-v1.1.jsonld","type":"FeatureCollection","license":"Digitisation of English Placenames MADS data is licensed to Jisc by the English Place Names Society and released under a Creative Commons Attribution-NonCommercial 4.0 International License.","note":"LPF v1.3, lossy; derived from the PLATO record; plato_commit=ca0afadabec1e23a145c0b03df77e8f151f79832","features":[{"@id":"http://placenames.org.uk/id/placename/47/000002","type":"Feature","properties":{"title":"Broxton Hundred","ccodes":["GB"],"fclasses":["A"]},"names":[{"toponym":"Broxton Hundred","lang":"en","citations":[{"label":"English Place-Name Society survey, volume 47: Cheshire"}]},{"toponym":"Atiscros Hund'","citations":[{"label":"1086 DB","year":1086}],"when":{"timespans":[{"start":{"in":"1086"},"end":{"in":"1086"}}]}},{"toponym":"Dudestan Hund'","citations":[{"label":"1086 DB","year":1086}],"when":{"timespans":[{"start":{"in":"1086"},"end":{"in":"1086"}}]}},{"toponym":"hundred' de Dudestan","citations":[{"label":"1217-29 Sheaf","year":1217}],"when":{"timespans":[{"start":{"earliest":"1217","latest":"1229"},"end":{"earliest":"1217","latest":"1229"}}]}},{"toponym":"hundred' de Duddeston","citations":[{"label":"1217-29 Tab","year":1217}],"when":{"timespans":[{"start":{"earliest":"1217","latest":"1229"},"end":{"earliest":"1217","latest":"1229"}}]}},{"toponym":"hundred of Dudestan","citations":[{"label":"1499 Orm2","year":1499}],"when":{"timespans":[{"start":{"in":"1499"},"end":{"in":"1499"}}]}},{"toponym":"hundredum de Duistan","citations":[{"label":"1499 Sheaf3","year":1499}],"when":{"timespans":[{"start":{"in":"1499"},"end":{"in":"1499"}}]}},{"toponym":"Brex(is)","citations":[{"label":"1260 Court","year":1260}],"when":{"timespans":[{"start":{"in":"1260"},"end":{"in":"1260"}}]}},{"toponym":"Hundr' de Le Brex'","citations":[{"label":"1293 Indict","year":1293}],"when":{"timespans":[{"start":{"in":"1293"},"end":{"in":"1293"}}]}},{"toponym":"hundred' de Brexin","citations":[{"label":"c.1296 Court","year":1286}],"when":{"timespans":[{"start":{"earliest":"1286","latest":"1306"},"end":{"earliest":"1286","latest":"1306"}}]}}],"types":[{"identifier":"http://vocab.getty.edu/aat/300232418","label":"administrative division","sourceLabels":[{"label":"hundred / wapentake","lang":"en"}]}],"geometry":null,"when":{"timespans":[{"start":{"in":"1086"},"end":{"in":"1499"}}]},"relations":[{"relationType":"gvp:broaderPartitive","relationTo":"http://placenames.org.uk/id/placename/47/000001","label":"within Cheshire"}]}]}