{"@context":"https://raw.githubusercontent.com/LinkedPasts/linked-places-format/main/linkedplaces-context-v1.1.jsonld","type":"FeatureCollection","license":"Digitisation of English Placenames MADS data is licensed to Jisc by the English Place Names Society and released under a Creative Commons Attribution-NonCommercial 4.0 International License.","note":"LPF v1.3, lossy; derived from the PLATO record; plato_commit=ca0afadabec1e23a145c0b03df77e8f151f79832","features":[{"@id":"http://placenames.org.uk/id/placename/47/001242","type":"Feature","properties":{"title":"Cuddington, Cuddington Green & Cuddington Hall","ccodes":["GB"],"fclasses":["A","P"]},"names":[{"toponym":"Cuddington, Cuddington Green & Cuddington Hall","lang":"en","citations":[{"label":"English Place-Name Society survey, volume 47: Cheshire"}]},{"toponym":"Cuntitone","citations":[{"label":"1086 DB","year":1086}],"when":{"timespans":[{"start":{"in":"1086"},"end":{"in":"1086"}}]}},{"toponym":"Kydinton","citations":[{"label":"1284 Ch","year":1284}],"when":{"timespans":[{"start":{"in":"1284"},"end":{"in":"1284"}}]}},{"toponym":"Kydynton","citations":[{"label":"1350 Eyre","year":1350}],"when":{"timespans":[{"start":{"in":"1350"},"end":{"in":"1350"}}]}},{"toponym":"Kyddynton, Kyddynton iuxta Malpas","citations":[{"label":"1475 Chol","year":1475}],"when":{"timespans":[{"start":{"in":"1475"},"end":{"in":"1475"}}]}},{"toponym":"Kiddinton","citations":[{"label":"1577 Saxton","year":1577}],"when":{"timespans":[{"start":{"in":"1577"},"end":{"in":"1577"}}]}},{"toponym":"Kidington","citations":[{"label":"1484 Orm2","year":1484}],"when":{"timespans":[{"start":{"in":"1484"},"end":{"in":"1484"}}]}},{"toponym":"Kidington alias Cudington","citations":[{"label":"1582 Chol","year":1582}],"when":{"timespans":[{"start":{"in":"1582"},"end":{"in":"1582"}}]}},{"toponym":"Kyddyngton","citations":[{"label":"1542 Plea","year":1542}],"when":{"timespans":[{"start":{"in":"1542"},"end":{"in":"1542"}}]}},{"toponym":"Kyddington","citations":[{"label":"1551 Pat","year":1551}],"when":{"timespans":[{"start":{"in":"1551"},"end":{"in":"1551"}}]}},{"toponym":"Kyddingeton","citations":[{"label":"1580 Orm2","year":1580}],"when":{"timespans":[{"start":{"in":"1580"},"end":{"in":"1580"}}]}},{"toponym":"Cyddington","citations":[{"label":"1635 Chol","year":1635}],"when":{"timespans":[{"start":{"in":"1635"},"end":{"in":"1635"}}]}},{"toponym":"Kiddington","citations":[{"label":"1560 Chol","year":1560}],"when":{"timespans":[{"start":{"in":"1560"},"end":{"in":"1560"}}]}},{"toponym":"Cudin(g)ton","citations":[{"label":"1288–1288, recurring Court","year":1288},{"label":"1288 Court","year":1288}],"when":{"timespans":[{"start":{"in":"1288"},"end":{"in":"1288"}},{"start":{"in":"1288"},"end":{"in":"1288"}}]}},{"toponym":"Cudynton","citations":[{"label":"1288-1600 unspecified sources","year":1288}],"when":{"timespans":[{"start":{"in":"1288"},"end":{"in":"1600"}}]}},{"toponym":"Cudyngton","citations":[{"label":"1360–1567, recurring BPR","year":1360},{"label":"1360–1567, recurring ChRR"},{"label":"1360 BPR","year":1360},{"label":"1567 ChRR","year":1567}],"when":{"timespans":[{"start":{"in":"1360"},"end":{"in":"1567"}},{"start":{"in":"1360"},"end":{"in":"1360"}},{"start":{"in":"1567"},"end":{"in":"1567"}}]}},{"toponym":"Cuddington","citations":[{"label":"1355 Plea","year":1355}],"when":{"timespans":[{"start":{"in":"1355"},"end":{"in":"1355"}}]}},{"toponym":"Cuddynton","citations":[{"label":"1362 ChRR","year":1362}],"when":{"timespans":[{"start":{"in":"1362"},"end":{"in":"1362"}}]}},{"toponym":"Kudyntton","citations":[{"label":"1368 Chol","year":1368}],"when":{"timespans":[{"start":{"in":"1368"},"end":{"in":"1368"}}]}},{"toponym":"Kudynton","citations":[{"label":"1497 Chol","year":1497}],"when":{"timespans":[{"start":{"in":"1497"},"end":{"in":"1497"}}]}},{"toponym":"Cudington iuxta Malpas","citations":[{"label":"1288 Court","year":1288}],"when":{"timespans":[{"start":{"in":"1288"},"end":{"in":"1288"}}]}},{"toponym":"Cudynton iuxta Tilstan","citations":[{"label":"1357 Tourn","year":1357}],"when":{"timespans":[{"start":{"in":"1357"},"end":{"in":"1357"}}]}},{"toponym":"Cuddington alias Kiddington","citations":[{"label":"1640 Orm2","year":1640}],"when":{"timespans":[{"start":{"in":"1640"},"end":{"in":"1640"}}]}},{"toponym":"Cuddington Green & Cuddington Hall","citations":[{"label":"1831 Bry","year":1831}],"when":{"timespans":[{"start":{"in":"1831"},"end":{"in":"1831"}}]}},{"toponym":"Codington","citations":[{"label":"1289 Court","year":1289}],"when":{"timespans":[{"start":{"in":"1289"},"end":{"in":"1289"}}]}},{"toponym":"Codyngton","citations":[{"label":"1523 ChRR","year":1523}],"when":{"timespans":[{"start":{"in":"1523"},"end":{"in":"1523"}}]}},{"toponym":"Coddington","citations":[{"label":"1631 Chol","year":1631}],"when":{"timespans":[{"start":{"in":"1631"},"end":{"in":"1631"}}]}},{"toponym":"Codinton","citations":[{"label":"c.1303 Chol","year":1293}],"when":{"timespans":[{"start":{"earliest":"1293","latest":"1313"},"end":{"earliest":"1293","latest":"1313"}}]}},{"toponym":"Codintone","citations":[{"label":"1320 Chol","year":1320}],"when":{"timespans":[{"start":{"in":"1320"},"end":{"in":"1320"}}]}},{"toponym":"Kedynton","citations":[{"label":"1432 AddCh","year":1432}],"when":{"timespans":[{"start":{"in":"1432"},"end":{"in":"1432"}},{"start":{"in":"1454"},"end":{"in":"1454"}}]}},{"toponym":"Kuyddington","citations":[{"label":"1620 Orm2","year":1620}],"when":{"timespans":[{"start":{"in":"1620"},"end":{"in":"1620"}}]}}],"types":[{"identifier":"http://vocab.getty.edu/aat/300232418","label":"administrative division","sourceLabels":[{"label":"township","lang":"en"}]}],"geometry":{"type":"GeometryCollection","geometries":[{"type":"Point","coordinates":[-2.81402,53.01522],"citations":[{"label":"GeoNames, gazetteer record geonames:7293023"}]},{"type":"Point","coordinates":[-2.819786935,53.0081755],"citations":[{"label":"English Place-Name Society survey (DEEP coordinates)"}]},{"type":"Point","coordinates":[-2.81241979279222,53.01272237624482],"citations":[{"label":"Unlock (EDINA) gazetteer, gazetteer record unlock:11124324"}]},{"type":"Point","coordinates":[-2.78395,53.0132],"citations":[{"label":"Key to English Place-Names (KEPN), gazetteer record 12029"}]}]},"when":{"timespans":[{"start":{"in":"1086"},"end":{"in":"1831"}}]},"links":[{"type":"closeMatch","identifier":"https://sws.geonames.org/7293023/"}],"relations":[{"relationType":"gvp:broaderPartitive","relationTo":"http://placenames.org.uk/id/placename/47/000029","label":"within Malpas"}]}]}