{"@context":"https://raw.githubusercontent.com/LinkedPasts/linked-places-format/main/linkedplaces-context-v1.1.jsonld","type":"FeatureCollection","license":"Digitisation of English Placenames MADS data is licensed to Jisc by the English Place Names Society and released under a Creative Commons Attribution-NonCommercial 4.0 International License.","note":"LPF v1.3, lossy; derived from the PLATO record; plato_commit=ca0afadabec1e23a145c0b03df77e8f151f79832","features":[{"@id":"http://placenames.org.uk/id/placename/47/001392","type":"Feature","properties":{"title":"Edge, Edge Green, Edge House, Edge Lane & Edge Scar & Little Edge","ccodes":["GB"],"fclasses":["A","P"]},"names":[{"toponym":"Edge, Edge Green, Edge House, Edge Lane & Edge Scar & Little Edge","lang":"en","citations":[{"label":"English Place-Name Society survey, volume 47: Cheshire"}]},{"toponym":"Eghe","citations":[{"label":"1086 DB","year":1086}],"when":{"timespans":[{"start":{"in":"1086"},"end":{"in":"1086"}}]}},{"toponym":"Egge","citations":[{"label":"1160–1577, recurring Chol","year":1160},{"label":"1160–1577, recurring ChRR"},{"label":"c.1170 Chol","year":1160},{"label":"1577 ChRR","year":1577}],"when":{"timespans":[{"start":{"in":"1160"},"end":{"in":"1577"}},{"start":{"earliest":"1160","latest":"1180"},"end":{"earliest":"1160","latest":"1180"}},{"start":{"in":"1577"},"end":{"in":"1577"}}]}},{"toponym":"Parva Egge","citations":[{"label":"c.1190 Chol","year":1180}],"when":{"timespans":[{"start":{"earliest":"1180","latest":"1200"},"end":{"earliest":"1180","latest":"1200"}}]}},{"toponym":"Magna Egge","citations":[{"label":"c.1303 Chol","year":1293}],"when":{"timespans":[{"start":{"earliest":"1293","latest":"1313"},"end":{"earliest":"1293","latest":"1313"}}]}},{"toponym":"Great Egge","citations":[{"label":"1311 Ipm","year":1311}],"when":{"timespans":[{"start":{"in":"1311"},"end":{"in":"1311"}}]}},{"toponym":"Little Egge","citations":[{"label":"1353 BPR","year":1353}],"when":{"timespans":[{"start":{"in":"1353"},"end":{"in":"1353"}}]}},{"toponym":"Mangna Egge","citations":[{"label":"1369 Chol","year":1369}],"when":{"timespans":[{"start":{"in":"1369"},"end":{"in":"1369"}}]}},{"toponym":"Mikel Egge","citations":[{"label":"1426 Chol","year":1426}],"when":{"timespans":[{"start":{"in":"1426"},"end":{"in":"1426"}}]}},{"toponym":"le Egge","citations":[{"label":"1472 ChRR","year":1472}],"when":{"timespans":[{"start":{"in":"1472"},"end":{"in":"1472"}}]}},{"toponym":"the Egge","citations":[{"label":"1558-1603 Surv","year":1558}],"when":{"timespans":[{"start":{"earliest":"1558","latest":"1603"},"end":{"earliest":"1558","latest":"1603"}}]}},{"toponym":"le Egge Grene","citations":[{"label":"1476 Chol","year":1476}],"when":{"timespans":[{"start":{"in":"1476"},"end":{"in":"1476"}}]}},{"toponym":"Hegge","citations":[{"label":"1272 Chol","year":1272},{"label":"1426 Sheaf","year":1426}],"when":{"timespans":[{"start":{"in":"1272"},"end":{"in":"1272"}},{"start":{"in":"1426"},"end":{"in":"1426"}}]}},{"toponym":"Magna-Egges","citations":[{"label":"1312 Plea","year":1312}],"when":{"timespans":[{"start":{"in":"1312"},"end":{"in":"1312"}}]}},{"toponym":"Great Edge","citations":[{"label":"1401 ChRR","year":1401}],"when":{"timespans":[{"start":{"in":"1401"},"end":{"in":"1401"}}]}},{"toponym":"Edge","citations":[{"label":"1406–1406, recurring ChRR","year":1406},{"label":"1406 ChRR","year":1406}],"when":{"timespans":[{"start":{"in":"1406"},"end":{"in":"1406"}},{"start":{"in":"1406"},"end":{"in":"1406"}}]}},{"toponym":"Easte Edge","citations":[{"label":"1642 Sheaf","year":1642}],"when":{"timespans":[{"start":{"in":"1642"},"end":{"in":"1642"}}]}},{"toponym":"Little Edge, Edge Green","citations":[{"label":"1831 Bry","year":1831}],"when":{"timespans":[{"start":{"in":"1831"},"end":{"in":"1831"}}]}},{"toponym":"le Edge","citations":[{"label":"1460 Chol","year":1460}],"when":{"timespans":[{"start":{"in":"1460"},"end":{"in":"1460"}}]}},{"toponym":"Edgge","citations":[{"label":"1558 Orm2","year":1558}],"when":{"timespans":[{"start":{"in":"1558"},"end":{"in":"1558"}}]}},{"toponym":"Great Edgge & Little Edgge","citations":[{"label":"1577 Orm2","year":1577}],"when":{"timespans":[{"start":{"in":"1577"},"end":{"in":"1577"}}]}},{"toponym":"Magna Ege","citations":[{"label":"1422 Plea","year":1422}],"when":{"timespans":[{"start":{"in":"1422"},"end":{"in":"1422"}}]}},{"toponym":"Ege","citations":[{"label":"1458 Chol","year":1458},{"label":"1587 ChRR","year":1587},{"label":"1635 Sheaf","year":1635}],"when":{"timespans":[{"start":{"in":"1458"},"end":{"in":"1458"}},{"start":{"in":"1587"},"end":{"in":"1587"}},{"start":{"in":"1635"},"end":{"in":"1635"}}]}},{"toponym":"Hege","citations":[{"label":"1513 Chol","year":1513}],"when":{"timespans":[{"start":{"in":"1513"},"end":{"in":"1513"}},{"start":{"in":"1514"},"end":{"in":"1514"}}]}},{"toponym":"Egy","citations":[{"label":"1554 Pat","year":1554}],"when":{"timespans":[{"start":{"in":"1554"},"end":{"in":"1554"}}]}}],"types":[{"identifier":"http://vocab.getty.edu/aat/300232418","label":"administrative division","sourceLabels":[{"label":"township","lang":"en"}]}],"geometry":{"type":"GeometryCollection","geometries":[{"type":"Point","coordinates":[-2.76951,53.0444],"citations":[{"label":"GeoNames, gazetteer record geonames:7290866"}]},{"type":"Point","coordinates":[-2.775720745,53.04443273],"citations":[{"label":"English Place-Name Society survey (DEEP coordinates)"}]},{"type":"Point","coordinates":[-2.768342784909184,53.04897689003191],"citations":[{"label":"Unlock (EDINA) gazetteer, gazetteer record unlock:11137944"}]},{"type":"Point","coordinates":[-2.78477,53.0582],"citations":[{"label":"Key to English Place-Names (KEPN), gazetteer record 12103"}]}]},"when":{"timespans":[{"start":{"in":"1086"},"end":{"in":"1831"}}]},"links":[{"type":"closeMatch","identifier":"https://sws.geonames.org/7290866/"}],"relations":[{"relationType":"gvp:broaderPartitive","relationTo":"http://placenames.org.uk/id/placename/47/000029","label":"within Malpas"}]}]}