{"@context":"https://raw.githubusercontent.com/LinkedPasts/linked-places-format/main/linkedplaces-context-v1.1.jsonld","type":"FeatureCollection","license":"Digitisation of English Placenames MADS data is licensed to Jisc by the English Place Names Society and released under a Creative Commons Attribution-NonCommercial 4.0 International License.","note":"LPF v1.3, lossy; derived from the PLATO record; plato_commit=ca0afadabec1e23a145c0b03df77e8f151f79832","features":[{"@id":"https://w3id.org/whg-epns/47/002040","type":"Feature","properties":{"title":"Newton by Malpas, Newton Hall","ccodes":["GB"],"fclasses":["A","P"]},"names":[{"toponym":"Newton by Malpas, Newton Hall","lang":"en","citations":[{"label":"English Place-Name Society survey, volume 47: Cheshire"}]},{"toponym":"Neuton","citations":[{"label":"13 AD","year":1200},{"label":"1270–1518, recurring Chol","year":1270},{"label":"1270–1518, recurring Plea"},{"label":"1270–1518, recurring AD"},{"label":"c.1280 Chol","year":1270},{"label":"1518 Plea","year":1518},{"label":"1518 AD","year":1518}],"when":{"timespans":[{"start":{"earliest":"1200","latest":"1300"},"end":{"earliest":"1200","latest":"1300"}},{"start":{"in":"1270"},"end":{"in":"1518"}},{"start":{"earliest":"1270","latest":"1290"},"end":{"earliest":"1270","latest":"1290"}},{"start":{"in":"1518"},"end":{"in":"1518"}},{"start":{"in":"1518"},"end":{"in":"1518"}}]}},{"toponym":"Neuton iuxta Malpas","citations":[{"label":"1288 Court","year":1288}],"when":{"timespans":[{"start":{"in":"1288"},"end":{"in":"1288"}}]}},{"toponym":"Neuton Cudynton","citations":[{"label":"1315 Plea","year":1315}],"when":{"timespans":[{"start":{"in":"1315"},"end":{"in":"1315"}}]}},{"toponym":"Neuton (H)oldecastel","citations":[{"label":"1329 AD","year":1329}],"when":{"timespans":[{"start":{"in":"1329"},"end":{"in":"1329"}},{"start":{"in":"1333"},"end":{"in":"1333"}}]}},{"toponym":"Neuton nigh Malpas, Neuton nygh Malpas","citations":[{"label":"1518 AD","year":1518}],"when":{"timespans":[{"start":{"in":"1518"},"end":{"in":"1518"}}]}},{"toponym":"Newton, Newton near Malpas","citations":[{"label":"1370 Orm2","year":1370}],"when":{"timespans":[{"start":{"in":"1370"},"end":{"in":"1370"}}]}},{"toponym":"Newton","citations":[{"label":"1417–1417, recurring AD","year":1417},{"label":"1417 AD","year":1417}],"when":{"timespans":[{"start":{"in":"1417"},"end":{"in":"1417"}},{"start":{"in":"1417"},"end":{"in":"1417"}}]}},{"toponym":"Newton by Oldcastle","citations":[{"label":"1500 Orm2","year":1500}],"when":{"timespans":[{"start":{"in":"1500"},"end":{"in":"1500"}}]}},{"toponym":"Newton iuxta Oldecastell","citations":[{"label":"1532 Chol","year":1532}],"when":{"timespans":[{"start":{"in":"1532"},"end":{"in":"1532"}}]}},{"toponym":"Newton Hall","citations":[{"label":"1831 Bry","year":1831}],"when":{"timespans":[{"start":{"in":"1831"},"end":{"in":"1831"}}]}}],"types":[{"identifier":"http://vocab.getty.edu/aat/300232418","label":"administrative division","sourceLabels":[{"label":"township","lang":"en"}]}],"geometry":{"type":"GeometryCollection","geometries":[{"type":"Point","coordinates":[-2.80186,53.00486],"citations":[{"label":"GeoNames, gazetteer record geonames:7299946"}]},{"type":"Point","coordinates":[-2.797348676,53.00383284],"citations":[{"label":"English Place-Name Society survey (DEEP coordinates)"}]},{"type":"Point","coordinates":[-2.797348912914319,53.00383392671534],"citations":[{"label":"Unlock (EDINA) gazetteer, gazetteer record unlock:11230935"}]},{"type":"Point","coordinates":[-2.81359,53.004],"citations":[{"label":"Key to English Place-Names (KEPN), gazetteer record 12104"}]}]},"when":{"timespans":[{"start":{"in":"1200"},"end":{"in":"1831"}}]},"links":[{"type":"closeMatch","identifier":"https://sws.geonames.org/7299946/"}],"relations":[{"relationType":"gvp:broaderPartitive","relationTo":"https://w3id.org/whg-epns/47/000029","label":"within Malpas"}]}]}