{"@context":"https://raw.githubusercontent.com/LinkedPasts/linked-places-format/main/linkedplaces-context-v1.1.jsonld","type":"FeatureCollection","license":"Digitisation of English Placenames MADS data is licensed to Jisc by the English Place Names Society and released under a Creative Commons Attribution-NonCommercial 4.0 International License.","note":"LPF v1.3, lossy; derived from the PLATO record; plato_commit=ca0afadabec1e23a145c0b03df77e8f151f79832","features":[{"@id":"https://w3id.org/whg-epns/47/002471","type":"Feature","properties":{"title":"Wychough","ccodes":["GB"],"fclasses":["A","P"]},"names":[{"toponym":"Wychough","lang":"en","citations":[{"label":"English Place-Name Society survey, volume 47: Cheshire"}]},{"toponym":"Wychalewh'","citations":[{"label":"1208-29 AD","year":1208}],"when":{"timespans":[{"start":{"earliest":"1208","latest":"1229"},"end":{"earliest":"1208","latest":"1229"}}]}},{"toponym":"Wychehalgh'","citations":[{"label":"1347–1347, recurring Eyre","year":1347},{"label":"1347 Eyre","year":1347}],"when":{"timespans":[{"start":{"in":"1347"},"end":{"in":"1347"}},{"start":{"in":"1347"},"end":{"in":"1347"}}]}},{"toponym":"Wich(e)halgh', Wych(e)halgh', Wyche(h)algh(e), Wychehalge, Wycheallgh, Wycheaulgh","citations":[{"label":"1347-1600 unspecified sources","year":1347}],"when":{"timespans":[{"start":{"in":"1347"},"end":{"in":"1600"}}]}},{"toponym":"Wichalgh","citations":[{"label":"1842 OS","year":1842}],"when":{"timespans":[{"start":{"in":"1842"},"end":{"in":"1842"}}]}},{"toponym":"Wychelhalgh","citations":[{"label":"1460 ChRR","year":1460}],"when":{"timespans":[{"start":{"in":"1460"},"end":{"in":"1460"}}]}},{"toponym":"Wichehagh alias Fulwiche","citations":[{"label":"1508 ChRR","year":1508}],"when":{"timespans":[{"start":{"in":"1508"},"end":{"in":"1508"}}]}},{"toponym":"Drytwiche alias Fulwyche alias Wichehagh","citations":[{"label":"1537 ChRR","year":1537}],"when":{"timespans":[{"start":{"in":"1537"},"end":{"in":"1537"}}]}},{"toponym":"Whichehagh' alias Fulwiche","citations":[{"label":"1515 MinAcct","year":1515}],"when":{"timespans":[{"start":{"in":"1515"},"end":{"in":"1515"}}]}},{"toponym":"Wichehaugh","citations":[{"label":"1559 ChRR","year":1559}],"when":{"timespans":[{"start":{"in":"1559"},"end":{"in":"1559"}}]}},{"toponym":"Wyche-Haugh","citations":[{"label":"1654 Orm2","year":1654}],"when":{"timespans":[{"start":{"in":"1654"},"end":{"in":"1654"}}]}},{"toponym":"Wych Haugh","citations":[{"label":"1642 Sheaf","year":1642}],"when":{"timespans":[{"start":{"in":"1642"},"end":{"in":"1642"}}]}},{"toponym":"Wichough","citations":[{"label":"1663 Sheaf","year":1663}],"when":{"timespans":[{"start":{"in":"1663"},"end":{"in":"1663"}}]}},{"toponym":"Wychough","citations":[{"label":"1724 NotCestr","year":1724},{"label":"1831 Bry","year":1831}],"when":{"timespans":[{"start":{"in":"1724"},"end":{"in":"1724"}},{"start":{"in":"1831"},"end":{"in":"1831"}}]}},{"toponym":"Whichough","citations":[{"label":"1727 Sheaf","year":1727},{"label":"1769 Chol","year":1769}],"when":{"timespans":[{"start":{"in":"1727"},"end":{"in":"1727"}},{"start":{"in":"1769"},"end":{"in":"1769"}}]}}],"types":[{"identifier":"http://vocab.getty.edu/aat/300232418","label":"administrative division","sourceLabels":[{"label":"township","lang":"en"}]}],"geometry":{"type":"GeometryCollection","geometries":[{"type":"Point","coordinates":[-2.76724,53.00153],"citations":[{"label":"GeoNames, gazetteer record geonames:7299966"}]},{"type":"Point","coordinates":[-2.774914883,52.99948592],"citations":[{"label":"English Place-Name Society survey (DEEP coordinates)"}]},{"type":"Point","coordinates":[-2.76889,53.0043],"citations":[{"label":"Key to English Place-Names (KEPN), gazetteer record 434"}]}]},"when":{"timespans":[{"start":{"in":"1208"},"end":{"in":"1842"}}]},"links":[{"type":"closeMatch","identifier":"https://sws.geonames.org/7299966/"}],"relations":[{"relationType":"gvp:broaderPartitive","relationTo":"https://w3id.org/whg-epns/47/000029","label":"within Malpas"}]}]}