{"@context":"https://raw.githubusercontent.com/LinkedPasts/linked-places-format/main/linkedplaces-context-v1.1.jsonld","type":"FeatureCollection","license":"Digitisation of English Placenames MADS data is licensed to Jisc by the English Place Names Society and released under a Creative Commons Attribution-NonCommercial 4.0 International License.","note":"LPF v1.3, lossy; derived from the PLATO record; plato_commit=ca0afadabec1e23a145c0b03df77e8f151f79832","features":[{"@id":"https://w3id.org/whg-epns/47/003474","type":"Feature","properties":{"title":"Aldford","ccodes":["GB"],"fclasses":["A","P"]},"names":[{"toponym":"Aldford","lang":"en","citations":[{"label":"English Place-Name Society survey, volume 47: Cheshire"}]},{"toponym":"Ferentone","citations":[{"label":"1086 DB","year":1086}],"when":{"timespans":[{"start":{"in":"1086"},"end":{"in":"1086"}}]}},{"toponym":"Aldefordia","citations":[{"label":"1153 Dugd","year":1153},{"label":"c.1170 Dieul","year":1160}],"when":{"timespans":[{"start":{"in":"1153"},"end":{"in":"1153"}},{"start":{"earliest":"1160","latest":"1180"},"end":{"earliest":"1160","latest":"1180"}}]}},{"toponym":"Aldeford","citations":[{"label":"1154-60 Ch","year":1154},{"label":"1561 ChRR","year":1561}],"when":{"timespans":[{"start":{"earliest":"1154","latest":"1160"},"end":{"earliest":"1154","latest":"1160"}},{"start":{"in":"1561"},"end":{"in":"1561"}}]}},{"toponym":"Ald(e)ford","citations":[{"label":"c.1200 Dieul","year":1190},{"label":"c.1200 Whall","year":1190},{"label":"13 Chest","year":1200}],"when":{"timespans":[{"start":{"earliest":"1190","latest":"1210"},"end":{"earliest":"1190","latest":"1210"}},{"start":{"earliest":"1190","latest":"1210"},"end":{"earliest":"1190","latest":"1210"}},{"start":{"earliest":"1200","latest":"1300"},"end":{"earliest":"1200","latest":"1300"}}]}},{"toponym":"le Aldeford","citations":[{"label":"1430 Sheaf","year":1430}],"when":{"timespans":[{"start":{"in":"1430"},"end":{"in":"1430"}}]}},{"toponym":"Aldford alias Odford","citations":[{"label":"1724 NotCestr","year":1724},{"label":"1724 NotCestr","year":1724}],"when":{"timespans":[{"start":{"in":"1724"},"end":{"in":"1724"}},{"start":{"in":"1724"},"end":{"in":"1724"}}]}},{"toponym":"vetus vadum","citations":[{"label":"c.1195 Luciani","year":1185}],"when":{"timespans":[{"start":{"earliest":"1185","latest":"1205"},"end":{"earliest":"1185","latest":"1205"}}]}},{"toponym":"Audeford","citations":[{"label":"1208-15 ChQW","year":1208},{"label":"1254 Pat","year":1254},{"label":"1260 Court","year":1260},{"label":"1499 ChQW","year":1499}],"when":{"timespans":[{"start":{"earliest":"1208","latest":"1215"},"end":{"earliest":"1208","latest":"1215"}},{"start":{"in":"1254"},"end":{"in":"1254"}},{"start":{"in":"1260"},"end":{"in":"1260"}},{"start":{"in":"1499"},"end":{"in":"1499"}}]}},{"toponym":"Audford","citations":[{"label":"1620 Sheaf","year":1620},{"label":"1656 Orm2","year":1656}],"when":{"timespans":[{"start":{"in":"1620"},"end":{"in":"1620"}},{"start":{"in":"1656"},"end":{"in":"1656"}}]}},{"toponym":"Aldreford","citations":[{"label":"1290 Cl","year":1290}],"when":{"timespans":[{"start":{"in":"1290"},"end":{"in":"1290"}}]}},{"toponym":"Alderford","citations":[{"label":"1290 Ipm","year":1290}],"when":{"timespans":[{"start":{"in":"1290"},"end":{"in":"1290"}}]}},{"toponym":"Alderforde","citations":[{"label":"1498 ChRR","year":1498}],"when":{"timespans":[{"start":{"in":"1498"},"end":{"in":"1498"}}]}},{"toponym":"Elleford","citations":[{"label":"1314 ChRR","year":1314}],"when":{"timespans":[{"start":{"in":"1314"},"end":{"in":"1314"}}]}},{"toponym":"Elford","citations":[{"label":"1351–1515, recurring BPR","year":1351},{"label":"1351–1515, recurring Chol"},{"label":"1351–1515, recurring ChRR"},{"label":"1351 BPR","year":1351},{"label":"1515 Chol","year":1515},{"label":"1515 ChRR","year":1515}],"when":{"timespans":[{"start":{"in":"1351"},"end":{"in":"1515"}},{"start":{"in":"1351"},"end":{"in":"1351"}},{"start":{"in":"1515"},"end":{"in":"1515"}},{"start":{"in":"1515"},"end":{"in":"1515"}}]}},{"toponym":"E(l)leford(e), Elford(e)","citations":[{"label":"1351-1515 unspecified sources","year":1351}],"when":{"timespans":[{"start":{"in":"1351"},"end":{"in":"1515"}}]}},{"toponym":"Adleford","citations":[{"label":"1400 ChRR","year":1400}],"when":{"timespans":[{"start":{"in":"1400"},"end":{"in":"1400"}}]}},{"toponym":"Aldford","citations":[{"label":"1493 ChRR","year":1493},{"label":"1521 Orm2","year":1521},{"label":"1558 ChRR","year":1558},{"label":"1586 ChRR","year":1586}],"when":{"timespans":[{"start":{"in":"1493"},"end":{"in":"1493"}},{"start":{"in":"1521"},"end":{"in":"1521"}},{"start":{"in":"1558"},"end":{"in":"1558"}},{"start":{"in":"1586"},"end":{"in":"1586"}}]}},{"toponym":"Aldfforde","citations":[{"label":"1493 ChRR","year":1493},{"label":"1521 Orm2","year":1521},{"label":"1558 ChRR","year":1558},{"label":"1586 ChRR","year":1586}],"when":{"timespans":[{"start":{"in":"1493"},"end":{"in":"1493"}},{"start":{"in":"1521"},"end":{"in":"1521"}},{"start":{"in":"1558"},"end":{"in":"1558"}},{"start":{"in":"1586"},"end":{"in":"1586"}}]}},{"toponym":"Hadford","citations":[{"label":"1535 VE","year":1535}],"when":{"timespans":[{"start":{"in":"1535"},"end":{"in":"1535"}}]}},{"toponym":"Odford","citations":[{"label":"1663 Sheaf","year":1663},{"label":"1694 Mere","year":1694}],"when":{"timespans":[{"start":{"in":"1663"},"end":{"in":"1663"}},{"start":{"in":"1672"},"end":{"in":"1672"}},{"start":{"in":"1698"},"end":{"in":"1698"}},{"start":{"in":"1719"},"end":{"in":"1719"}},{"start":{"in":"1694"},"end":{"in":"1694"}}]}},{"toponym":"Oldford","citations":[{"label":"1666 Sheaf","year":1666}],"when":{"timespans":[{"start":{"in":"1666"},"end":{"in":"1666"}}]}}],"types":[{"identifier":"http://vocab.getty.edu/aat/300232418","label":"administrative division","sourceLabels":[{"label":"township","lang":"en"}]}],"geometry":{"type":"GeometryCollection","geometries":[{"type":"Point","coordinates":[-2.86812,53.12762],"citations":[{"label":"GeoNames, gazetteer record geonames:2657536"}]},{"type":"Point","coordinates":[-2.881783928,53.12460732],"citations":[{"label":"English Place-Name Society survey (DEEP coordinates)"}]},{"type":"Point","coordinates":[-2.874403624856798,53.12915803477394],"citations":[{"label":"Unlock (EDINA) gazetteer, gazetteer record unlock:11058094"}]},{"type":"Point","coordinates":[-2.8608,53.1296],"citations":[{"label":"Key to English Place-Names (KEPN), gazetteer record 12056"}]}]},"when":{"timespans":[{"start":{"in":"1086"},"end":{"in":"1724"}}]},"links":[{"type":"closeMatch","identifier":"https://sws.geonames.org/2657536/"}],"relations":[{"relationType":"gvp:broaderPartitive","relationTo":"https://w3id.org/whg-epns/47/003473","label":"within Aldford"}]}]}