{"@context":"https://raw.githubusercontent.com/LinkedPasts/linked-places-format/main/linkedplaces-context-v1.1.jsonld","type":"FeatureCollection","license":"Digitisation of English Placenames MADS data is licensed to Jisc by the English Place Names Society and released under a Creative Commons Attribution-NonCommercial 4.0 International License.","note":"LPF v1.3, lossy; derived from the PLATO record; plato_commit=ca0afadabec1e23a145c0b03df77e8f151f79832","features":[{"@id":"https://w3id.org/whg-epns/47/003667","type":"Feature","properties":{"title":"Aldersey","ccodes":["GB"],"fclasses":["A","P"]},"names":[{"toponym":"Aldersey","lang":"en","citations":[{"label":"English Place-Name Society survey, volume 47: Cheshire"}]},{"toponym":"Aldrishey","citations":[{"label":"1180-1220 Chol","year":1180}],"when":{"timespans":[{"start":{"earliest":"1180","latest":"1220"},"end":{"earliest":"1180","latest":"1220"}}]}},{"toponym":"Aldres Heye","citations":[{"label":"13 AddCh","year":1200}],"when":{"timespans":[{"start":{"earliest":"1200","latest":"1300"},"end":{"earliest":"1200","latest":"1300"}}]}},{"toponym":"Aldresheye","citations":[{"label":"1340 Eyre","year":1340}],"when":{"timespans":[{"start":{"in":"1340"},"end":{"in":"1340"}},{"start":{"in":"1344"},"end":{"in":"1344"}}]}},{"toponym":"Audrishe","citations":[{"label":"1272-1307 StoweCh","year":1272}],"when":{"timespans":[{"start":{"earliest":"1272","latest":"1307"},"end":{"earliest":"1272","latest":"1307"}}]}},{"toponym":"Alderisheye","citations":[{"label":"1289 Court","year":1289}],"when":{"timespans":[{"start":{"in":"1289"},"end":{"in":"1289"}}]}},{"toponym":"Haudershey","citations":[{"label":"14 Chol","year":1300}],"when":{"timespans":[{"start":{"earliest":"1300","latest":"1400"},"end":{"earliest":"1300","latest":"1400"}}]}},{"toponym":"Aldreshay","citations":[{"label":"1366 Plea","year":1366}],"when":{"timespans":[{"start":{"in":"1366"},"end":{"in":"1366"}}]}},{"toponym":"Aldrisey","citations":[{"label":"1284 Ipm","year":1284}],"when":{"timespans":[{"start":{"in":"1284"},"end":{"in":"1284"}}]}},{"toponym":"Aldresey","citations":[{"label":"1285–1663, recurring Ipm","year":1285},{"label":"1285–1663, recurring ChRR"},{"label":"1285 Ipm","year":1285},{"label":"1663 ChRR","year":1663}],"when":{"timespans":[{"start":{"in":"1285"},"end":{"in":"1663"}},{"start":{"in":"1285"},"end":{"in":"1285"}},{"start":{"in":"1663"},"end":{"in":"1663"}}]}},{"toponym":"Aldersey","citations":[{"label":"1289–1289, recurring Plea","year":1289},{"label":"1289 Plea","year":1289}],"when":{"timespans":[{"start":{"in":"1289"},"end":{"in":"1289"}},{"start":{"in":"1289"},"end":{"in":"1289"}}]}},{"toponym":"Aldresey, Ald(e)risey, Aldirsey, Alderesey, Alduresey","citations":[{"label":"1289-1600 unspecified sources","year":1289}],"when":{"timespans":[{"start":{"in":"1289"},"end":{"in":"1600"}}]}},{"toponym":"Alduresay","citations":[{"label":"1307–1619, recurring Plea","year":1307},{"label":"1307–1619, recurring ChRR"},{"label":"1307 Plea","year":1307},{"label":"1619 ChRR","year":1619}],"when":{"timespans":[{"start":{"in":"1307"},"end":{"in":"1619"}},{"start":{"in":"1307"},"end":{"in":"1307"}},{"start":{"in":"1619"},"end":{"in":"1619"}}]}},{"toponym":"Aldrussey","citations":[{"label":"l13 Chol","year":1275}],"when":{"timespans":[{"start":{"earliest":"1275","latest":"1300"},"end":{"earliest":"1275","latest":"1300"}}]}},{"toponym":"Aldressey","citations":[{"label":"1329 Chol","year":1329}],"when":{"timespans":[{"start":{"in":"1329"},"end":{"in":"1329"}}]}},{"toponym":"Alderzey, Aderzey","citations":[{"label":"c.1300 Chol","year":1290}],"when":{"timespans":[{"start":{"earliest":"1290","latest":"1310"},"end":{"earliest":"1290","latest":"1310"}}]}},{"toponym":"Aldrezeye","citations":[{"label":"1304 Chamb","year":1304}],"when":{"timespans":[{"start":{"in":"1304"},"end":{"in":"1304"}}]}},{"toponym":"Ald(e)resley","citations":[{"label":"1435 Chol","year":1435}],"when":{"timespans":[{"start":{"in":"1435"},"end":{"in":"1435"}}]}},{"toponym":"Aldresley","citations":[{"label":"1455 ChRR","year":1455}],"when":{"timespans":[{"start":{"in":"1455"},"end":{"in":"1455"}},{"start":{"in":"1474"},"end":{"in":"1474"}}]}},{"toponym":"Aldersley","citations":[{"label":"1457 ChRR","year":1457},{"label":"1516 Plea","year":1516}],"when":{"timespans":[{"start":{"in":"1457"},"end":{"in":"1457"}},{"start":{"in":"1476"},"end":{"in":"1476"}},{"start":{"in":"1516"},"end":{"in":"1516"}}]}},{"toponym":"Alderseley","citations":[{"label":"1476 ChRR","year":1476}],"when":{"timespans":[{"start":{"in":"1476"},"end":{"in":"1476"}}]}},{"toponym":"Eddersay","citations":[{"label":"1467 Cre","year":1467}],"when":{"timespans":[{"start":{"in":"1467"},"end":{"in":"1467"}}]}},{"toponym":"Aldersen","citations":[{"label":"1472 ChRR","year":1472}],"when":{"timespans":[{"start":{"in":"1472"},"end":{"in":"1472"}}]}}],"types":[{"identifier":"http://vocab.getty.edu/aat/300232418","label":"administrative division","sourceLabels":[{"label":"township","lang":"en"}]}],"geometry":{"type":"GeometryCollection","geometries":[{"type":"Point","coordinates":[-2.80744,53.10058],"citations":[{"label":"GeoNames, gazetteer record geonames:7299927"}]},{"type":"Point","coordinates":[-2.806560163,53.09816978],"citations":[{"label":"English Place-Name Society survey (DEEP coordinates)"}]},{"type":"Point","coordinates":[-2.799176348035319,53.10271585205418],"citations":[{"label":"Unlock (EDINA) gazetteer, gazetteer record unlock:11058060"}]},{"type":"Point","coordinates":[-2.80052,53.103],"citations":[{"label":"Key to English Place-Names (KEPN), gazetteer record 12060"}]}]},"when":{"timespans":[{"start":{"in":"1180"},"end":{"in":"1663"}}]},"links":[{"type":"closeMatch","identifier":"https://sws.geonames.org/7299927/"}],"relations":[{"relationType":"gvp:broaderPartitive","relationTo":"https://w3id.org/whg-epns/47/003666","label":"within Coddington"}]}]}