{"@context":"https://raw.githubusercontent.com/LinkedPasts/linked-places-format/main/linkedplaces-context-v1.1.jsonld","type":"FeatureCollection","license":"Digitisation of English Placenames MADS data is licensed to Jisc by the English Place Names Society and released under a Creative Commons Attribution-NonCommercial 4.0 International License.","note":"LPF v1.3, lossy; derived from the PLATO record; plato_commit=fa0d247ccc0263f8f19c8d7cdcd163df96935d1e","features":[{"@id":"https://w3id.org/whg-epns/47/004290","type":"Feature","properties":{"title":"Golborne Bellow","ccodes":["GB"],"fclasses":["A","P"]},"names":[{"toponym":"Golborne Bellow","lang":"en","citations":[{"label":"English Place-Name Society survey, volume 47: Cheshire"}]},{"toponym":"Belewgolburn","citations":[{"label":"c.1300 Chol","year":1290}],"when":{"timespans":[{"start":{"earliest":"1290","latest":"1310"},"end":{"earliest":"1290","latest":"1310"}}]}},{"toponym":"Golburne Belewe","citations":[{"label":"1304 Chamb","year":1304}],"when":{"timespans":[{"start":{"in":"1304"},"end":{"in":"1304"}}]}},{"toponym":"-Bello(u), -Bellewe","citations":[{"label":"1415 ChRR","year":1415},{"label":"1597 Orm2","year":1597}],"when":{"timespans":[{"start":{"in":"1415"},"end":{"in":"1415"}},{"start":{"in":"1597"},"end":{"in":"1597"}}]}},{"toponym":"-Belleau","citations":[{"label":"1602 Orm2","year":1602},{"label":"1842 OS","year":1842}],"when":{"timespans":[{"start":{"in":"1602"},"end":{"in":"1602"}},{"start":{"in":"1842"},"end":{"in":"1842"}}]}},{"toponym":"Golborne Bellows, or Golborne Below","citations":[{"label":"1656 Orm2","year":1656}],"when":{"timespans":[{"start":{"in":"1656"},"end":{"in":"1656"}}]}}],"types":[{"identifier":"http://vocab.getty.edu/aat/300232418","label":"administrative division","sourceLabels":[{"label":"township","lang":"en"}]}],"geometry":{"type":"GeometryCollection","geometries":[{"type":"Point","coordinates":[-2.78701,53.12684],"citations":[{"label":"GeoNames, gazetteer record geonames:7294395"}]},{"type":"Point","coordinates":[-2.79212089,53.12523761],"citations":[{"label":"English Place-Name Society survey (DEEP coordinates)"}]},{"type":"Point","coordinates":[-2.78608,53.1301],"citations":[{"label":"Key to English Place-Names (KEPN), gazetteer record 12067"}]}]},"when":{"timespans":[{"start":{"in":"1290"},"end":{"in":"1842"}}]},"links":[{"type":"closeMatch","identifier":"https://sws.geonames.org/7294395/"}],"relations":[{"relationType":"gvp:broaderPartitive","relationTo":"https://w3id.org/whg-epns/47/004289","label":"within Tattenhall"}]}]}