{"@context":"https://raw.githubusercontent.com/LinkedPasts/linked-places-format/main/linkedplaces-context-v1.1.jsonld","type":"FeatureCollection","license":"Digitisation of English Placenames MADS data is licensed to Jisc by the English Place Names Society and released under a Creative Commons Attribution-NonCommercial 4.0 International License.","note":"LPF v1.3, lossy; derived from the PLATO record; plato_commit=ca0afadabec1e23a145c0b03df77e8f151f79832","features":[{"@id":"http://placenames.org.uk/id/placename/47/004888","type":"Feature","properties":{"title":"Christleton","ccodes":["GB"],"fclasses":["A","P"]},"names":[{"toponym":"Christleton","lang":"en","citations":[{"label":"English Place-Name Society survey, volume 47: Cheshire"}]},{"toponym":"Cristetone","citations":[{"label":"1086 DB","year":1086}],"when":{"timespans":[{"start":{"in":"1086"},"end":{"in":"1086"}}]}},{"toponym":"Cristentune","citations":[{"label":"1096-1101 Chest","year":1096}],"when":{"timespans":[{"start":{"earliest":"1096","latest":"1101"},"end":{"earliest":"1096","latest":"1101"}},{"start":{"in":"1150"},"end":{"in":"1150"}}]}},{"toponym":"Cristentona","citations":[{"label":"1121-29 Chest","year":1121}],"when":{"timespans":[{"start":{"earliest":"1121","latest":"1129"},"end":{"earliest":"1121","latest":"1129"}},{"start":{"in":"1150"},"end":{"in":"1150"}},{"start":{"earliest":"1301","latest":"1321"},"end":{"earliest":"1301","latest":"1321"}}]}},{"toponym":"Cristelton","citations":[{"label":"1157–1653, recurring Chest","year":1157},{"label":"1157–1653, recurring Sheaf"},{"label":"1157-97 Chest","year":1157},{"label":"1653 Sheaf","year":1653}],"when":{"timespans":[{"start":{"in":"1157"},"end":{"in":"1653"}},{"start":{"earliest":"1157","latest":"1197"},"end":{"earliest":"1157","latest":"1197"}},{"start":{"in":"1653"},"end":{"in":"1653"}}]}},{"toponym":"C(h)ristel(e)ton(a), C(h)ristilton(a), C(h)ristylton(a), C(h)ristulton(a), C(h)ristel(e)tone, C(h)ristiltone, C(h)ristyltone, C(h)ristultona, C(h)ristel(e)tun, C(h)ristiltun, C(h)ristyltun, C(h)ristultun,C(h)rystel(e)ton(a), C(h)rystilton(a), C(h)rystylton(a), C(h)rystulton(a), C(h)rystel(e)tone, C(h)rystiltone, C(h)rystyltone, C(h)rystultone, C(h)rystel(e)tun, C(h)rystiltun, C(h)rystyltun, C(h)rystultun","citations":[{"label":"1157-1653 unspecified sources","year":1157}],"when":{"timespans":[{"start":{"in":"1157"},"end":{"in":"1653"}}]}},{"toponym":"Christletona","citations":[{"label":"12 Tab","year":1100}],"when":{"timespans":[{"start":{"earliest":"1100","latest":"1200"},"end":{"earliest":"1100","latest":"1200"}}]}},{"toponym":"Christleton","citations":[{"label":"1200-50 Chest","year":1200},{"label":"1410 ChRR","year":1410},{"label":"1579–1579, recurring Dugd","year":1579},{"label":"1579 Dugd","year":1579}],"when":{"timespans":[{"start":{"earliest":"1200","latest":"1250"},"end":{"earliest":"1200","latest":"1250"}},{"start":{"in":"1257"},"end":{"in":"1257"}},{"start":{"in":"1281"},"end":{"in":"1281"}},{"start":{"in":"1410"},"end":{"in":"1410"}},{"start":{"in":"1579"},"end":{"in":"1579"}},{"start":{"in":"1579"},"end":{"in":"1579"}}]}},{"toponym":"Cristleton","citations":[{"label":"1579-1600 unspecified sources","year":1579}],"when":{"timespans":[{"start":{"in":"1579"},"end":{"in":"1600"}}]}},{"toponym":"Cristeuton","citations":[{"label":"c.1160 CASNS","year":1150}],"when":{"timespans":[{"start":{"earliest":"1150","latest":"1170"},"end":{"earliest":"1150","latest":"1170"}}]}},{"toponym":"Hamcristilton","citations":[{"label":"1200-50 Chest","year":1200},{"label":"1301-6 AddCh","year":1301}],"when":{"timespans":[{"start":{"earliest":"1200","latest":"1250"},"end":{"earliest":"1200","latest":"1250"}},{"start":{"earliest":"1301","latest":"1306"},"end":{"earliest":"1301","latest":"1306"}}]}},{"toponym":"Homcristilton","citations":[{"label":"1290 Ipm","year":1290}],"when":{"timespans":[{"start":{"in":"1290"},"end":{"in":"1290"}}]}},{"toponym":"Hamcristelton'","citations":[{"label":"1296 Vern","year":1296}],"when":{"timespans":[{"start":{"in":"1296"},"end":{"in":"1296"}}]}},{"toponym":"Homecristelton'","citations":[{"label":"1317 Plea","year":1317},{"label":"1318 AddCh","year":1318}],"when":{"timespans":[{"start":{"in":"1317"},"end":{"in":"1317"}},{"start":{"in":"1318"},"end":{"in":"1318"}}]}},{"toponym":"Hom Cristulton'","citations":[{"label":"1343 Vern","year":1343}],"when":{"timespans":[{"start":{"in":"1343"},"end":{"in":"1343"}}]}},{"toponym":"Cristutona","citations":[{"label":"13 Bun","year":1200}],"when":{"timespans":[{"start":{"earliest":"1200","latest":"1300"},"end":{"earliest":"1200","latest":"1300"}}]}},{"toponym":"Magna Cristulton","citations":[{"label":"13 Vern","year":1200}],"when":{"timespans":[{"start":{"earliest":"1200","latest":"1300"},"end":{"earliest":"1200","latest":"1300"}}]}},{"toponym":"Great Cristelton","citations":[{"label":"c.1279 AD","year":1269}],"when":{"timespans":[{"start":{"earliest":"1269","latest":"1289"},"end":{"earliest":"1269","latest":"1289"}}]}},{"toponym":"Magna Cristelton","citations":[{"label":"1324 Plea","year":1324}],"when":{"timespans":[{"start":{"in":"1324"},"end":{"in":"1324"}}]}},{"toponym":"Christ'","citations":[{"label":"e13 Chest","year":1200}],"when":{"timespans":[{"start":{"earliest":"1200","latest":"1225"},"end":{"earliest":"1200","latest":"1225"}}]}},{"toponym":"Cristerton","citations":[{"label":"1251-5 Dieul","year":1251}],"when":{"timespans":[{"start":{"earliest":"1251","latest":"1255"},"end":{"earliest":"1251","latest":"1255"}}]}},{"toponym":"Kirkecristelton","citations":[{"label":"1289 Court","year":1289}],"when":{"timespans":[{"start":{"in":"1289"},"end":{"in":"1289"}}]}},{"toponym":"Chirch(e)-","citations":[{"label":"1298–1492, recurring Plea","year":1298},{"label":"1298–1492, recurring Plea"},{"label":"1298 Plea","year":1298},{"label":"1492 Plea","year":1492}],"when":{"timespans":[{"start":{"in":"1298"},"end":{"in":"1492"}},{"start":{"in":"1298"},"end":{"in":"1298"}},{"start":{"in":"1492"},"end":{"in":"1492"}}]}},{"toponym":"Church(e)-","citations":[{"label":"1348–1625, recurring MidCh","year":1348},{"label":"1348–1625, recurring ChRR"},{"label":"1348 MidCh","year":1348},{"label":"1625 ChRR","year":1625}],"when":{"timespans":[{"start":{"in":"1348"},"end":{"in":"1625"}},{"start":{"in":"1348"},"end":{"in":"1348"}},{"start":{"in":"1625"},"end":{"in":"1625"}}]}},{"toponym":"Cresteltun","citations":[{"label":"1303 Port","year":1303}],"when":{"timespans":[{"start":{"in":"1303"},"end":{"in":"1303"}}]}},{"toponym":"Crestelton","citations":[{"label":"1472 ChRR","year":1472}],"when":{"timespans":[{"start":{"in":"1472"},"end":{"in":"1472"}}]}},{"toponym":"Crestilton","citations":[{"label":"1309 Ipm","year":1309}],"when":{"timespans":[{"start":{"in":"1309"},"end":{"in":"1309"}}]}},{"toponym":"Chrisilton","citations":[{"label":"c.1480 Sheaf","year":1470}],"when":{"timespans":[{"start":{"earliest":"1470","latest":"1490"},"end":{"earliest":"1470","latest":"1490"}}]}},{"toponym":"Chrisleton","citations":[{"label":"1570 ChRR","year":1570},{"label":"1646 Sheaf","year":1646},{"label":"1724 NotCestr","year":1724}],"when":{"timespans":[{"start":{"in":"1570"},"end":{"in":"1570"}},{"start":{"in":"1646"},"end":{"in":"1646"}},{"start":{"in":"1724"},"end":{"in":"1724"}}]}},{"toponym":"Chriselton","citations":[{"label":"1685 Sheaf","year":1685}],"when":{"timespans":[{"start":{"in":"1685"},"end":{"in":"1685"}}]}},{"toponym":"Crissleton","citations":[{"label":"1721 BW","year":1721}],"when":{"timespans":[{"start":{"in":"1721"},"end":{"in":"1721"}}]}},{"toponym":"Kysterton","citations":[{"label":"1539 Orm2","year":1539}],"when":{"timespans":[{"start":{"in":"1539"},"end":{"in":"1539"}}]}},{"toponym":"Chisterton","citations":[{"label":"1719 Sheaf","year":1719}],"when":{"timespans":[{"start":{"in":"1719"},"end":{"in":"1719"}}]}},{"toponym":"Kerselton alias Christleton","citations":[{"label":"1541 Dugd","year":1541}],"when":{"timespans":[{"start":{"in":"1541"},"end":{"in":"1541"}}]}},{"toponym":"Kyrsylton","citations":[{"label":"1549 Sheaf","year":1549}],"when":{"timespans":[{"start":{"in":"1549"},"end":{"in":"1549"}}]}},{"toponym":"Kyrstelton alias Cristelton","citations":[{"label":"1553 Pat","year":1553}],"when":{"timespans":[{"start":{"in":"1553"},"end":{"in":"1553"}}]}},{"toponym":"Chrislington","citations":[{"label":"1620 Sheaf","year":1620}],"when":{"timespans":[{"start":{"in":"1620"},"end":{"in":"1620"}},{"start":{"in":"1646"},"end":{"in":"1646"}},{"start":{"in":"1723"},"end":{"in":"1723"}}]}},{"toponym":"Crislington","citations":[{"label":"1668 Sheaf","year":1668}],"when":{"timespans":[{"start":{"in":"1668"},"end":{"in":"1668"}}]}},{"toponym":"Christlington","citations":[{"label":"1672 Sheaf","year":1672},{"label":"1750 Orm2","year":1750},{"label":"1792 BW","year":1792}],"when":{"timespans":[{"start":{"in":"1672"},"end":{"in":"1672"}},{"start":{"in":"1750"},"end":{"in":"1750"}},{"start":{"in":"1792"},"end":{"in":"1792"}}]}},{"toponym":"Cristlenton","citations":[{"label":"1644 Sheaf","year":1644}],"when":{"timespans":[{"start":{"in":"1644"},"end":{"in":"1644"}}]}},{"toponym":"Christliton","citations":[{"label":"1662 Sheaf","year":1662}],"when":{"timespans":[{"start":{"in":"1662"},"end":{"in":"1662"}}]}}],"types":[{"identifier":"http://vocab.getty.edu/aat/300232418","label":"administrative division","sourceLabels":[{"label":"township","lang":"en"}]}],"geometry":{"type":"GeometryCollection","geometries":[{"type":"Point","coordinates":[-2.83789,53.18509],"citations":[{"label":"GeoNames, gazetteer record geonames:2653069"}]},{"type":"Point","coordinates":[-2.838002325,53.17886506],"citations":[{"label":"English Place-Name Society survey (DEEP coordinates)"}]},{"type":"Point","coordinates":[-2.830608102103978,53.18341308713361],"citations":[{"label":"Unlock (EDINA) gazetteer, gazetteer record unlock:11106859"}]},{"type":"Point","coordinates":[-2.83195,53.1837],"citations":[{"label":"Key to English Place-Names (KEPN), gazetteer record 12074"}]}]},"when":{"timespans":[{"start":{"in":"1086"},"end":{"in":"1792"}}]},"links":[{"type":"closeMatch","identifier":"https://sws.geonames.org/2653069/"}],"relations":[{"relationType":"gvp:broaderPartitive","relationTo":"http://placenames.org.uk/id/placename/47/004887","label":"within Christleton"}]}]}