{"@context":"https://raw.githubusercontent.com/LinkedPasts/linked-places-format/main/linkedplaces-context-v1.1.jsonld","type":"FeatureCollection","license":"Digitisation of English Placenames MADS data is licensed to Jisc by the English Place Names Society and released under a Creative Commons Attribution-NonCommercial 4.0 International License.","note":"LPF v1.3, lossy; derived from the PLATO record; plato_commit=fa0d247ccc0263f8f19c8d7cdcd163df96935d1e","features":[{"@id":"https://w3id.org/whg-epns/47/005984","type":"Feature","properties":{"title":"Mickle Trafford","ccodes":["GB"],"fclasses":["A","P"]},"names":[{"toponym":"Mickle Trafford","lang":"en","citations":[{"label":"English Place-Name Society survey, volume 47: Cheshire"}]},{"toponym":"Traford","citations":[{"label":"1086 DB","year":1086},{"label":"1270-71 Chest","year":1270}],"when":{"timespans":[{"start":{"in":"1086"},"end":{"in":"1086"}},{"start":{"earliest":"1270","latest":"1271"},"end":{"earliest":"1270","latest":"1271"}}]}},{"toponym":"Trafford","citations":[{"label":"Dow","year":1287},{"label":"NotCestr"},{"label":"1287 Dow","year":1287},{"label":"1742 NotCestr","year":1742}],"when":{"timespans":[{"start":{"in":"1287"},"end":{"in":"1742"}},{"start":{"in":"1287"},"end":{"in":"1287"}},{"start":{"in":"1742"},"end":{"in":"1742"}}]}},{"toponym":"Trafforde, Trafforth","citations":[{"label":"1287-1742 unspecified sources","year":1287}],"when":{"timespans":[{"start":{"in":"1287"},"end":{"in":"1742"}}]}},{"toponym":"Trafford Green","citations":[{"label":"1671 Sheaf","year":1671}],"when":{"timespans":[{"start":{"in":"1671"},"end":{"in":"1671"}},{"start":{"earliest":"1810","latest":"1830"},"end":{"earliest":"1810","latest":"1830"}}]}},{"toponym":"Trafford Brooke","citations":[{"label":"1671 Sheaf","year":1671}],"when":{"timespans":[{"start":{"in":"1671"},"end":{"in":"1671"}}]}},{"toponym":"Troford","citations":[{"label":"1086 DB","year":1086}],"when":{"timespans":[{"start":{"in":"1086"},"end":{"in":"1086"}}]}},{"toponym":"Trofford","citations":[{"label":"1288 Plea","year":1288},{"label":"ChFor","year":1294},{"label":"ChRR"},{"label":"1294 ChFor","year":1294},{"label":"1446 ChRR","year":1446}],"when":{"timespans":[{"start":{"in":"1288"},"end":{"in":"1288"}},{"start":{"in":"1294"},"end":{"in":"1446"}},{"start":{"in":"1294"},"end":{"in":"1294"}},{"start":{"in":"1446"},"end":{"in":"1446"}}]}},{"toponym":"Trofforde, Troffort","citations":[{"label":"1294-1446 unspecified sources","year":1294}],"when":{"timespans":[{"start":{"in":"1294"},"end":{"in":"1446"}}]}},{"toponym":"Throford","citations":[{"label":"c.1330 Chol","year":1320}],"when":{"timespans":[{"start":{"earliest":"1320","latest":"1340"},"end":{"earliest":"1320","latest":"1340"}}]}},{"toponym":"Trosford","citations":[{"label":"1086 DB","year":1086}],"when":{"timespans":[{"start":{"in":"1086"},"end":{"in":"1086"}}]}},{"toponym":"Trochford","citations":[{"label":"1096-1101 Chest","year":1096}],"when":{"timespans":[{"start":{"earliest":"1096","latest":"1101"},"end":{"earliest":"1096","latest":"1101"}},{"start":{"earliest":"1200","latest":"1300"},"end":{"earliest":"1200","latest":"1300"}}]}},{"toponym":"Trochfort","citations":[{"label":"1150 Chest","year":1150}],"when":{"timespans":[{"start":{"in":"1150"},"end":{"in":"1150"}}]}},{"toponym":"Trocford","citations":[{"label":"1188-91 Chest","year":1188},{"label":"1240 P","year":1240},{"label":"1241 Lib","year":1241},{"label":"13 Tab","year":1200},{"label":"1295 Cre","year":1295}],"when":{"timespans":[{"start":{"earliest":"1188","latest":"1191"},"end":{"earliest":"1188","latest":"1191"}},{"start":{"in":"1240"},"end":{"in":"1240"}},{"start":{"in":"1241"},"end":{"in":"1241"}},{"start":{"earliest":"1200","latest":"1300"},"end":{"earliest":"1200","latest":"1300"}},{"start":{"in":"1295"},"end":{"in":"1295"}}]}},{"toponym":"Trokford","citations":[{"label":"1240 P","year":1240},{"label":"1291 Cl","year":1291}],"when":{"timespans":[{"start":{"in":"1240"},"end":{"in":"1240"}},{"start":{"in":"1291"},"end":{"in":"1291"}}]}},{"toponym":"Trocfford","citations":[{"label":"c.1270 Sheaf","year":1260}],"when":{"timespans":[{"start":{"earliest":"1260","latest":"1280"},"end":{"earliest":"1260","latest":"1280"}}]}},{"toponym":"Trocforde","citations":[{"label":"e14 Sheaf","year":1300}],"when":{"timespans":[{"start":{"earliest":"1300","latest":"1325"},"end":{"earliest":"1300","latest":"1325"}}]}},{"toponym":"Trohcford","citations":[{"label":"13 Bun","year":1200}],"when":{"timespans":[{"start":{"earliest":"1200","latest":"1300"},"end":{"earliest":"1200","latest":"1300"}}]}},{"toponym":"Throkford","citations":[{"label":"1240 P","year":1240}],"when":{"timespans":[{"start":{"in":"1240"},"end":{"in":"1240"}}]}},{"toponym":"Trouchford","citations":[{"label":"1270-1310 Chol","year":1270}],"when":{"timespans":[{"start":{"earliest":"1270","latest":"1310"},"end":{"earliest":"1270","latest":"1310"}}]}},{"toponym":"Trohford","citations":[{"label":"1208-26 Facs","year":1208},{"label":"c.1215 CoLegh","year":1205},{"label":"1267 Sheaf","year":1267},{"label":"1274 Chest","year":1274}],"when":{"timespans":[{"start":{"earliest":"1208","latest":"1226"},"end":{"earliest":"1208","latest":"1226"}},{"start":{"earliest":"1205","latest":"1225"},"end":{"earliest":"1205","latest":"1225"}},{"start":{"in":"1267"},"end":{"in":"1267"}},{"start":{"in":"1274"},"end":{"in":"1274"}},{"start":{"earliest":"1296","latest":"1316"},"end":{"earliest":"1296","latest":"1316"}}]}},{"toponym":"Trhoford","citations":[{"label":"1240 P","year":1240}],"when":{"timespans":[{"start":{"in":"1240"},"end":{"in":"1240"}}]}},{"toponym":"Trogford","citations":[{"label":"1240 Cl","year":1240},{"label":"Court","year":1288},{"label":"Plea"},{"label":"ChF"},{"label":"ChRR"},{"label":"Pat"},{"label":"Cl"},{"label":"ChRR"},{"label":"1288 Court","year":1288},{"label":"1288 Plea","year":1288},{"label":"1288 ChF","year":1288},{"label":"1288 ChRR","year":1288},{"label":"1288 Pat","year":1288},{"label":"1288 Cl","year":1288},{"label":"1398 ChRR","year":1398}],"when":{"timespans":[{"start":{"in":"1240"},"end":{"in":"1240"}},{"start":{"in":"1288"},"end":{"in":"1398"}},{"start":{"in":"1288"},"end":{"in":"1288"}},{"start":{"in":"1288"},"end":{"in":"1288"}},{"start":{"in":"1288"},"end":{"in":"1288"}},{"start":{"in":"1288"},"end":{"in":"1288"}},{"start":{"in":"1288"},"end":{"in":"1288"}},{"start":{"in":"1288"},"end":{"in":"1288"}},{"start":{"in":"1398"},"end":{"in":"1398"}}]}},{"toponym":"Trogforde","citations":[{"label":"1489 ChRR","year":1489}],"when":{"timespans":[{"start":{"in":"1489"},"end":{"in":"1489"}}]}},{"toponym":"Trogheford","citations":[{"label":"1254 Pat","year":1254}],"when":{"timespans":[{"start":{"in":"1254"},"end":{"in":"1254"}}]}},{"toponym":"Troghford","citations":[{"label":"Ipm","year":1262},{"label":"c.1272 Ipm","year":1262}],"when":{"timespans":[{"start":{"in":"1262"},"end":{"in":"1282"}},{"start":{"earliest":"1262","latest":"1282"},"end":{"earliest":"1262","latest":"1282"}}]}},{"toponym":"Troghforde","citations":[{"label":"c.1272-1600 unspecified sources","year":1262}],"when":{"timespans":[{"start":{"in":"1262"},"end":{"in":"1600"}}]}},{"toponym":"Troghfford","citations":[{"label":"1524 ChRR","year":1524}],"when":{"timespans":[{"start":{"in":"1524"},"end":{"in":"1524"}}]}},{"toponym":"Throghford","citations":[{"label":"1456 Pat","year":1456}],"when":{"timespans":[{"start":{"in":"1456"},"end":{"in":"1456"}}]}},{"toponym":"Troughfourde","citations":[{"label":"l13 Sheaf","year":1275}],"when":{"timespans":[{"start":{"earliest":"1275","latest":"1300"},"end":{"earliest":"1275","latest":"1300"}}]}},{"toponym":"Troughford","citations":[{"label":"1304 Chamb","year":1304},{"label":"1354 BPR","year":1354},{"label":"1521 Plea","year":1521},{"label":"1524 ChRR","year":1524}],"when":{"timespans":[{"start":{"in":"1304"},"end":{"in":"1304"}},{"start":{"in":"1354"},"end":{"in":"1354"}},{"start":{"in":"1521"},"end":{"in":"1521"}},{"start":{"in":"1524"},"end":{"in":"1524"}}]}},{"toponym":"Troughforde","citations":[{"label":"1531 ChRR","year":1531}],"when":{"timespans":[{"start":{"in":"1531"},"end":{"in":"1531"}}]}},{"toponym":"Trovford","citations":[{"label":"1265-91 Chest","year":1265}],"when":{"timespans":[{"start":{"earliest":"1265","latest":"1291"},"end":{"earliest":"1265","latest":"1291"}}]}},{"toponym":"Trouford","citations":[{"label":"1267-8 Sheaf","year":1267},{"label":"13 Bun","year":1200},{"label":"1327 Ch","year":1327},{"label":"1328 Pat","year":1328}],"when":{"timespans":[{"start":{"earliest":"1267","latest":"1268"},"end":{"earliest":"1267","latest":"1268"}},{"start":{"earliest":"1200","latest":"1300"},"end":{"earliest":"1200","latest":"1300"}},{"start":{"in":"1327"},"end":{"in":"1327"}},{"start":{"in":"1328"},"end":{"in":"1328"}}]}},{"toponym":"Trowefordia","citations":[{"label":"c. 1268-95 Chest","year":1268}],"when":{"timespans":[{"start":{"earliest":"1268","latest":"1295"},"end":{"earliest":"1268","latest":"1295"}}]}},{"toponym":"Troweford","citations":[{"label":"H3 Orm2","year":1216},{"label":"1325 Chol","year":1325}],"when":{"timespans":[{"start":{"earliest":"1216","latest":"1272"},"end":{"earliest":"1216","latest":"1272"}},{"start":{"in":"1325"},"end":{"in":"1325"}}]}},{"toponym":"Trahford","citations":[{"label":"1271 BW","year":1271}],"when":{"timespans":[{"start":{"in":"1271"},"end":{"in":"1271"}}]}},{"toponym":"Traghford","citations":[{"label":"1535 VE","year":1535},{"label":"1549 Orm2","year":1549}],"when":{"timespans":[{"start":{"in":"1535"},"end":{"in":"1535"}},{"start":{"in":"1549"},"end":{"in":"1549"}}]}},{"toponym":"Trefford","citations":[{"label":"1288 Plea","year":1288}],"when":{"timespans":[{"start":{"in":"1288"},"end":{"in":"1288"}}]}},{"toponym":"Troght(h)ford","citations":[{"label":"1290 Court","year":1290}],"when":{"timespans":[{"start":{"in":"1290"},"end":{"in":"1290"}}]}},{"toponym":"Magna Trogthforde","citations":[{"label":"Court","year":1290},{"label":"1290 Court","year":1290}],"when":{"timespans":[{"start":{"in":"1290"},"end":{"in":"1290"}},{"start":{"in":"1290"},"end":{"in":"1290"}}]}},{"toponym":"Magna Troghford(e), Magna Troughford(e)","citations":[{"label":"1290-1600 unspecified sources","year":1290}],"when":{"timespans":[{"start":{"in":"1290"},"end":{"in":"1600"}}]}},{"toponym":"Magna Trafford","citations":[{"label":"1528 Orm2","year":1528}],"when":{"timespans":[{"start":{"in":"1528"},"end":{"in":"1528"}}]}},{"toponym":"Trocforde Magna","citations":[{"label":"e14 Sheaf","year":1300}],"when":{"timespans":[{"start":{"earliest":"1300","latest":"1325"},"end":{"earliest":"1300","latest":"1325"}}]}},{"toponym":"Troghford Magna","citations":[{"label":"1454 ChRR","year":1454}],"when":{"timespans":[{"start":{"in":"1454"},"end":{"in":"1454"}}]}},{"toponym":"Trafford Magna alias Midle Trafford alias Mickle Trafford","citations":[{"label":"1671 Sheaf","year":1671}],"when":{"timespans":[{"start":{"in":"1671"},"end":{"in":"1671"}}]}},{"toponym":"Mekeltroghford","citations":[{"label":"1379 Eyre","year":1379}],"when":{"timespans":[{"start":{"in":"1379"},"end":{"in":"1379"}}]}},{"toponym":"Mykull Troghford","citations":[{"label":"1416 ChRR","year":1416}],"when":{"timespans":[{"start":{"in":"1416"},"end":{"in":"1416"}}]}},{"toponym":"Mickle Trafford","citations":[{"label":"ChRR","year":1616},{"label":"1616 ChRR","year":1616}],"when":{"timespans":[{"start":{"in":"1616"},"end":{"in":"1616"}},{"start":{"in":"1616"},"end":{"in":"1616"}}]}},{"toponym":"Mickle Traford","citations":[{"label":"1690 Sheaf","year":1690}],"when":{"timespans":[{"start":{"in":"1690"},"end":{"in":"1690"}}]}},{"toponym":"Michaell Trafford","citations":[{"label":"1679 Sheaf","year":1679}],"when":{"timespans":[{"start":{"in":"1679"},"end":{"in":"1679"}}]}},{"toponym":"Great Troghford","citations":[{"label":"1398 ChRR","year":1398}],"when":{"timespans":[{"start":{"in":"1398"},"end":{"in":"1398"}}]}},{"toponym":"Great Trafford","citations":[{"label":"1549 Orm2","year":1549}],"when":{"timespans":[{"start":{"in":"1549"},"end":{"in":"1549"}}]}},{"toponym":"Great Trafford alias Mickle Trafford","citations":[{"label":"1616 ChRR","year":1616}],"when":{"timespans":[{"start":{"in":"1616"},"end":{"in":"1616"}}]}},{"toponym":"Great Traghford","citations":[{"label":"1549 Orm2","year":1549}],"when":{"timespans":[{"start":{"in":"1549"},"end":{"in":"1549"}}]}},{"toponym":"Midle Trafford, Trafford Magna alias Midle Trafford, Midle Trafford alias Mickle Trafford","citations":[{"label":"1671 Sheaf","year":1671}],"when":{"timespans":[{"start":{"in":"1671"},"end":{"in":"1671"}}]}}],"types":[{"identifier":"http://vocab.getty.edu/aat/300232418","label":"administrative division","sourceLabels":[{"label":"township","lang":"en"}]}],"geometry":{"type":"GeometryCollection","geometries":[{"type":"Point","coordinates":[-2.83225,53.22146],"citations":[{"label":"GeoNames, gazetteer record geonames:2642637"}]},{"type":"Point","coordinates":[-2.838703865,53.21482089],"citations":[{"label":"English Place-Name Society survey (DEEP coordinates)"}]},{"type":"Point","coordinates":[-2.831303567355435,53.21936896222977],"citations":[{"label":"Unlock (EDINA) gazetteer, gazetteer record unlock:11217727"}]},{"type":"Point","coordinates":[-2.83265,53.2196],"citations":[{"label":"Key to English Place-Names (KEPN), gazetteer record 12087"}]}]},"when":{"timespans":[{"start":{"in":"1086"},"end":{"in":"1830"}}]},"links":[{"type":"closeMatch","identifier":"https://sws.geonames.org/2642637/"}],"relations":[{"relationType":"gvp:broaderPartitive","relationTo":"https://w3id.org/whg-epns/47/005806","label":"within Plemstall"}]}]}