{"@context":"https://raw.githubusercontent.com/LinkedPasts/linked-places-format/main/linkedplaces-context-v1.1.jsonld","type":"FeatureCollection","license":"Digitisation of English Placenames MADS data is licensed to Jisc by the English Place Names Society and released under a Creative Commons Attribution-NonCommercial 4.0 International License.","note":"LPF v1.3, lossy; derived from the PLATO record; plato_commit=fa0d247ccc0263f8f19c8d7cdcd163df96935d1e","features":[{"@id":"https://w3id.org/whg-epns/47/006418","type":"Feature","properties":{"title":"Newton by Chester, Newton Bank, Newton Cottage, Newton Hall & Newton Lane","ccodes":["GB"],"fclasses":["A","P"]},"names":[{"toponym":"Newton by Chester, Newton Bank, Newton Cottage, Newton Hall & Newton Lane","lang":"en","citations":[{"label":"English Place-Name Society survey, volume 47: Cheshire"}]},{"toponym":"Newentone","citations":[{"label":"1086 DB","year":1086}],"when":{"timespans":[{"start":{"in":"1086"},"end":{"in":"1086"}}]}},{"toponym":"Neutone","citations":[{"label":"1086 DB","year":1086}],"when":{"timespans":[{"start":{"in":"1086"},"end":{"in":"1086"}}]}},{"toponym":"Neutona","citations":[{"label":"1119 Chest","year":1119}],"when":{"timespans":[{"start":{"in":"1119"},"end":{"in":"1119"}},{"start":{"in":"1150"},"end":{"in":"1150"}}]}},{"toponym":"Neuton","citations":[{"label":"Chest","year":1200},{"label":"Rental"},{"label":"e13 Chest","year":1200},{"label":"1450 Rental","year":1450},{"label":"1724 NotCestr","year":1724}],"when":{"timespans":[{"start":{"in":"1200"},"end":{"in":"1450"}},{"start":{"earliest":"1200","latest":"1225"},"end":{"earliest":"1200","latest":"1225"}},{"start":{"in":"1450"},"end":{"in":"1450"}},{"start":{"in":"1724"},"end":{"in":"1724"}}]}},{"toponym":"Neutone, Neutona","citations":[{"label":"e13-1450 unspecified sources","year":1200}],"when":{"timespans":[{"start":{"in":"1200"},"end":{"in":"1450"}}]}},{"toponym":"Neuton iuxta Cestr'","citations":[{"label":"1295 Cl","year":1295}],"when":{"timespans":[{"start":{"in":"1295"},"end":{"in":"1295"}}]}},{"toponym":"Neuton Upton","citations":[{"label":"1318 Orm2","year":1318}],"when":{"timespans":[{"start":{"in":"1318"},"end":{"in":"1318"}}]}},{"toponym":"Neuton Hole","citations":[{"label":"1450 Plea","year":1450}],"when":{"timespans":[{"start":{"in":"1450"},"end":{"in":"1450"}}]}},{"toponym":"Neuton le Bache","citations":[{"label":"1519 ChRR","year":1519}],"when":{"timespans":[{"start":{"in":"1519"},"end":{"in":"1519"}}]}},{"toponym":"Hole Neuton","citations":[{"label":"1410 ChRR","year":1410}],"when":{"timespans":[{"start":{"in":"1410"},"end":{"in":"1410"}}]}},{"toponym":"Neton","citations":[{"label":"1295 CRC","year":1295}],"when":{"timespans":[{"start":{"in":"1295"},"end":{"in":"1295"}}]}},{"toponym":"Newton","citations":[{"label":"ChRR","year":1307},{"label":"1307 ChRR","year":1307}],"when":{"timespans":[{"start":{"in":"1307"},"end":{"in":"1307"}},{"start":{"in":"1307"},"end":{"in":"1307"}}]}},{"toponym":"Newton iuxta Cestr'","citations":[{"label":"1329 IpmR","year":1329}],"when":{"timespans":[{"start":{"in":"1329"},"end":{"in":"1329"}}]}},{"toponym":"Newton Upton","citations":[{"label":"1589 ChRR","year":1589}],"when":{"timespans":[{"start":{"in":"1589"},"end":{"in":"1589"}}]}},{"toponym":"Newton Hall & Newton House","citations":[{"label":"1831 Bry","year":1831}],"when":{"timespans":[{"start":{"in":"1831"},"end":{"in":"1831"}}]}},{"toponym":"Newton Lane","citations":[{"label":"1842 OS","year":1842}],"when":{"timespans":[{"start":{"in":"1842"},"end":{"in":"1842"}}]}}],"types":[{"identifier":"http://vocab.getty.edu/aat/300232418","label":"administrative division","sourceLabels":[{"label":"township","lang":"en"}]}],"geometry":{"type":"GeometryCollection","geometries":[{"type":"Point","coordinates":[-2.883443803,53.20550742],"citations":[{"label":"English Place-Name Society survey (DEEP coordinates)"}]},{"type":"Point","coordinates":[-2.86242,53.2104],"citations":[{"label":"Key to English Place-Names (KEPN), gazetteer record 12094"}]}]},"when":{"timespans":[{"start":{"in":"1086"},"end":{"in":"1842"}}]},"relations":[{"relationType":"gvp:broaderPartitive","relationTo":"https://w3id.org/whg-epns/47/006376","label":"within St Oswald's"}]}]}