{"@context":"https://raw.githubusercontent.com/LinkedPasts/linked-places-format/main/linkedplaces-context-v1.1.jsonld","type":"FeatureCollection","license":"Digitisation of English Placenames MADS data is licensed to Jisc by the English Place Names Society and released under a Creative Commons Attribution-NonCommercial 4.0 International License.","note":"LPF v1.3, lossy; derived from the PLATO record; plato_commit=ca0afadabec1e23a145c0b03df77e8f151f79832","features":[{"@id":"http://placenames.org.uk/id/placename/47/007455","type":"Feature","properties":{"title":"Backford","ccodes":["GB"],"fclasses":["A","P"]},"names":[{"toponym":"Backford","lang":"en","citations":[{"label":"English Place-Name Society survey, volume 47: Cheshire"}]},{"toponym":"Bacfort","citations":[{"label":"1150 Chest","year":1150},{"label":"R1 Orm2","year":1189}],"when":{"timespans":[{"start":{"in":"1150"},"end":{"in":"1150"}},{"start":{"earliest":"1189","latest":"1199"},"end":{"earliest":"1189","latest":"1199"}}]}},{"toponym":"Bacford","citations":[{"label":"12 Sheaf","year":1100},{"label":"1258 Whall","year":1258},{"label":"1663 Sheaf","year":1663}],"when":{"timespans":[{"start":{"earliest":"1100","latest":"1200"},"end":{"earliest":"1100","latest":"1200"}},{"start":{"in":"1258"},"end":{"in":"1258"}},{"start":{"in":"1663"},"end":{"in":"1663"}}]}},{"toponym":"Bakford","citations":[{"label":"e13 Sheaf","year":1200}],"when":{"timespans":[{"start":{"earliest":"1200","latest":"1225"},"end":{"earliest":"1200","latest":"1225"}}]}},{"toponym":"Bacford(e), Bacforda, Bacfort(he), Bakford(e), Bakforda, Bakfort(he)","citations":[{"label":"1693 Sheaf","year":1693}],"when":{"timespans":[{"start":{"in":"1693"},"end":{"in":"1693"}}]}},{"toponym":"Backford","citations":[{"label":"1186-94 Chest","year":1186},{"label":"1291 Tax","year":1291},{"label":"14 Chest","year":1300},{"label":"1394 ChRR","year":1394},{"label":"1544–1544, recurring Pat","year":1544},{"label":"1544 Pat","year":1544}],"when":{"timespans":[{"start":{"earliest":"1186","latest":"1194"},"end":{"earliest":"1186","latest":"1194"}},{"start":{"in":"1291"},"end":{"in":"1291"}},{"start":{"earliest":"1300","latest":"1400"},"end":{"earliest":"1300","latest":"1400"}},{"start":{"in":"1394"},"end":{"in":"1394"}},{"start":{"in":"1544"},"end":{"in":"1544"}},{"start":{"in":"1544"},"end":{"in":"1544"}}]}},{"toponym":"Backforde","citations":[{"label":"1544-1600 unspecified sources","year":1544}],"when":{"timespans":[{"start":{"in":"1544"},"end":{"in":"1600"}}]}},{"toponym":"Bakeforde","citations":[{"label":"13 Orm2","year":1200},{"label":"1315 Orm2","year":1315}],"when":{"timespans":[{"start":{"earliest":"1200","latest":"1300"},"end":{"earliest":"1200","latest":"1300"}},{"start":{"in":"1315"},"end":{"in":"1315"}}]}},{"toponym":"Bakeford","citations":[{"label":"1512 ChRR","year":1512},{"label":"1535 VE","year":1535}],"when":{"timespans":[{"start":{"in":"1512"},"end":{"in":"1512"}},{"start":{"in":"1535"},"end":{"in":"1535"}}]}},{"toponym":"Bakeforth","citations":[{"label":"1537 Dugd","year":1537}],"when":{"timespans":[{"start":{"in":"1537"},"end":{"in":"1537"}}]}},{"toponym":"Backeford","citations":[{"label":"1310 Orm2","year":1310},{"label":"1541 Dugd","year":1541},{"label":"1632 Sheaf","year":1632}],"when":{"timespans":[{"start":{"in":"1310"},"end":{"in":"1310"}},{"start":{"in":"1541"},"end":{"in":"1541"}},{"start":{"in":"1632"},"end":{"in":"1632"}}]}},{"toponym":"Backeforde","citations":[{"label":"1534-7 Dugd","year":1534},{"label":"1534-7 Orm2","year":1534}],"when":{"timespans":[{"start":{"earliest":"1534","latest":"1537"},"end":{"earliest":"1534","latest":"1537"}},{"start":{"earliest":"1534","latest":"1537"},"end":{"earliest":"1534","latest":"1537"}}]}},{"toponym":"Bacceford","citations":[{"label":"1347 ChFor","year":1347}],"when":{"timespans":[{"start":{"in":"1347"},"end":{"in":"1347"}}]}},{"toponym":"Bachforth","citations":[{"label":"c.1554 Whall","year":1544}],"when":{"timespans":[{"start":{"earliest":"1544","latest":"1564"},"end":{"earliest":"1544","latest":"1564"}}]}},{"toponym":"Bagford","citations":[{"label":"1535 VE","year":1535}],"when":{"timespans":[{"start":{"in":"1535"},"end":{"in":"1535"}}]}},{"toponym":"Bakesforde","citations":[{"label":"1553 Pat","year":1553}],"when":{"timespans":[{"start":{"in":"1553"},"end":{"in":"1553"}}]}}],"types":[{"identifier":"http://vocab.getty.edu/aat/300232418","label":"administrative division","sourceLabels":[{"label":"township","lang":"en"}]}],"geometry":{"type":"GeometryCollection","geometries":[{"type":"Point","coordinates":[-2.90279,53.23862],"citations":[{"label":"GeoNames, gazetteer record geonames:2656675"}]},{"type":"Point","coordinates":[-2.918589788,53.23850544],"citations":[{"label":"English Place-Name Society survey (DEEP coordinates)"}]},{"type":"Point","coordinates":[-2.906565604312878,53.23680061187842],"citations":[{"label":"Unlock (EDINA) gazetteer, gazetteer record unlock:11066536"}]},{"type":"Point","coordinates":[-2.9079,53.2371],"citations":[{"label":"Key to English Place-Names (KEPN), gazetteer record 12089"}]}]},"when":{"timespans":[{"start":{"in":"1100"},"end":{"in":"1693"}}]},"links":[{"type":"closeMatch","identifier":"https://sws.geonames.org/2656675/"}],"relations":[{"relationType":"gvp:broaderPartitive","relationTo":"http://placenames.org.uk/id/placename/47/007454","label":"within Backford"}]}]}