{"@context":"https://raw.githubusercontent.com/LinkedPasts/linked-places-format/main/linkedplaces-context-v1.1.jsonld","type":"FeatureCollection","license":"Digitisation of English Placenames MADS data is licensed to Jisc by the English Place Names Society and released under a Creative Commons Attribution-NonCommercial 4.0 International License.","note":"LPF v1.3, lossy; derived from the PLATO record; plato_commit=ca0afadabec1e23a145c0b03df77e8f151f79832","features":[{"@id":"https://w3id.org/whg-epns/47/009226","type":"Feature","properties":{"title":"Burton, Burton Manor","ccodes":["GB"],"fclasses":["A","P"]},"names":[{"toponym":"Burton, Burton Manor","lang":"en","citations":[{"label":"English Place-Name Society survey, volume 47: Cheshire"}]},{"toponym":"Burton","citations":[{"label":"1152 MRA","year":1152},{"label":"1238 Orm2","year":1238},{"label":"1278–1278, recurring ChFor","year":1278},{"label":"1278 ChFor","year":1278}],"when":{"timespans":[{"start":{"in":"1152"},"end":{"in":"1152"}},{"start":{"in":"1238"},"end":{"in":"1238"}},{"start":{"in":"1278"},"end":{"in":"1278"}},{"start":{"in":"1278"},"end":{"in":"1278"}}]}},{"toponym":"Burton in Wir(e)hale","citations":[{"label":"c.1234 MRA","year":1224}],"when":{"timespans":[{"start":{"earliest":"1224","latest":"1244"},"end":{"earliest":"1224","latest":"1244"}}]}},{"toponym":"Borton","citations":[{"label":"c.1240 Sheaf3","year":1230},{"label":"1291 Tax","year":1291},{"label":"1349 Pap","year":1349}],"when":{"timespans":[{"start":{"earliest":"1230","latest":"1250"},"end":{"earliest":"1230","latest":"1250"}},{"start":{"in":"1291"},"end":{"in":"1291"}},{"start":{"in":"1349"},"end":{"in":"1349"}}]}},{"toponym":"Borton in Wirral","citations":[{"label":"1566 Sheaf","year":1566}],"when":{"timespans":[{"start":{"in":"1566"},"end":{"in":"1566"}}]}},{"toponym":"Bertone","citations":[{"label":"1310 Pap","year":1310}],"when":{"timespans":[{"start":{"in":"1310"},"end":{"in":"1310"}}]}},{"toponym":"Bourton","citations":[{"label":"1363 Pap","year":1363}],"when":{"timespans":[{"start":{"in":"1363"},"end":{"in":"1363"}}]}},{"toponym":"Bwerton","citations":[{"label":"1592 JRC","year":1592}],"when":{"timespans":[{"start":{"in":"1592"},"end":{"in":"1592"}}]}},{"toponym":"Barton","citations":[{"label":"1646 Sheaf","year":1646}],"when":{"timespans":[{"start":{"in":"1646"},"end":{"in":"1646"}}]}}],"types":[{"identifier":"http://vocab.getty.edu/aat/300232418","label":"administrative division","sourceLabels":[{"label":"township","lang":"en"}]}],"geometry":{"type":"GeometryCollection","geometries":[{"type":"Point","coordinates":[-3.02549,53.25954],"citations":[{"label":"GeoNames, gazetteer record geonames:2654217"}]},{"type":"Point","coordinates":[-3.034454566,53.25823383],"citations":[{"label":"English Place-Name Society survey (DEEP coordinates)"}]},{"type":"Point","coordinates":[-3.027067822248799,53.2627939722811],"citations":[{"label":"Unlock (EDINA) gazetteer, gazetteer record unlock:11094070"}]},{"type":"Point","coordinates":[-3.02839,53.2631],"citations":[{"label":"Key to English Place-Names (KEPN), gazetteer record 12132"}]}]},"when":{"timespans":[{"start":{"in":"1152"},"end":{"in":"1646"}}]},"links":[{"type":"closeMatch","identifier":"https://sws.geonames.org/2654217/"}],"relations":[{"relationType":"gvp:broaderPartitive","relationTo":"https://w3id.org/whg-epns/47/009225","label":"within Burton"}]}]}