{"@context":"https://raw.githubusercontent.com/LinkedPasts/linked-places-format/main/linkedplaces-context-v1.1.jsonld","type":"FeatureCollection","license":"Digitisation of English Placenames MADS data is licensed to Jisc by the English Place Names Society and released under a Creative Commons Attribution-NonCommercial 4.0 International License.","note":"LPF v1.3, lossy; derived from the PLATO record; plato_commit=fa0d247ccc0263f8f19c8d7cdcd163df96935d1e","features":[{"@id":"https://w3id.org/whg-epns/47/011670","type":"Feature","properties":{"title":"Oxton","ccodes":["GB"],"fclasses":["A","P"]},"names":[{"toponym":"Oxton","lang":"en","citations":[{"label":"English Place-Name Society survey, volume 47: Cheshire"}]},{"toponym":"Oxton","citations":[{"label":"13 ChRR","year":1200},{"label":"Cl","year":1275},{"label":"1275 Cl","year":1275}],"when":{"timespans":[{"start":{"earliest":"1200","latest":"1300"},"end":{"earliest":"1200","latest":"1300"}},{"start":{"in":"1275"},"end":{"in":"1275"}},{"start":{"in":"1275"},"end":{"in":"1275"}}]}},{"toponym":"Oxton alias Oxon","citations":[{"label":"1616 ChRR","year":1616},{"label":"1616 ChRR","year":1616}],"when":{"timespans":[{"start":{"in":"1616"},"end":{"in":"1616"}},{"start":{"in":"1616"},"end":{"in":"1616"}}]}},{"toponym":"Oxtone","citations":[{"label":"1275 Ipm","year":1275}],"when":{"timespans":[{"start":{"in":"1275"},"end":{"in":"1275"}}]}},{"toponym":"Oxeton","citations":[{"label":"1278 Ipm","year":1278}],"when":{"timespans":[{"start":{"in":"1278"},"end":{"in":"1278"}}]}},{"toponym":"Oxon","citations":[{"label":"1549 Orm2","year":1549},{"label":"1566 Sheaf","year":1566},{"label":"1724 NotCestr","year":1724},{"label":"1818 Sheaf","year":1818}],"when":{"timespans":[{"start":{"in":"1549"},"end":{"in":"1549"}},{"start":{"in":"1566"},"end":{"in":"1566"}},{"start":{"in":"1611"},"end":{"in":"1611"}},{"start":{"in":"1652"},"end":{"in":"1652"}},{"start":{"in":"1724"},"end":{"in":"1724"}},{"start":{"in":"1818"},"end":{"in":"1818"}}]}},{"toponym":"Oxon alias Oxton","citations":[{"label":"1620 Orm2","year":1620}],"when":{"timespans":[{"start":{"in":"1620"},"end":{"in":"1620"}}]}}],"types":[{"identifier":"http://vocab.getty.edu/aat/300232418","label":"administrative division","sourceLabels":[{"label":"township","lang":"en"}]}],"geometry":{"type":"GeometryCollection","geometries":[{"type":"Point","coordinates":[-3.067344547,53.37481632],"citations":[{"label":"English Place-Name Society survey (DEEP coordinates)"}]},{"type":"Point","coordinates":[-3.059941360249077,53.3793785179916],"citations":[{"label":"Unlock (EDINA) gazetteer, gazetteer record unlock:11238405"}]},{"type":"Point","coordinates":[-3.06126,53.3796],"citations":[{"label":"Key to English Place-Names (KEPN), gazetteer record 12155"}]}]},"when":{"timespans":[{"start":{"in":"1200"},"end":{"in":"1818"}}]},"relations":[{"relationType":"gvp:broaderPartitive","relationTo":"https://w3id.org/whg-epns/47/011323","label":"within Woodchurch"}]}]}