{"@context":"https://raw.githubusercontent.com/LinkedPasts/linked-places-format/main/linkedplaces-context-v1.1.jsonld","type":"FeatureCollection","license":"Digitisation of English Placenames MADS data is licensed to Jisc by the English Place Names Society and released under a Creative Commons Attribution-NonCommercial 4.0 International License.","note":"LPF v1.3, lossy; derived from the PLATO record; plato_commit=ca0afadabec1e23a145c0b03df77e8f151f79832","features":[{"@id":"http://placenames.org.uk/id/placename/88/001332","type":"Feature","properties":{"title":"Bittesby","ccodes":["GB"],"fclasses":["A","P"]},"names":[{"toponym":"Bittesby","lang":"en","citations":[{"label":"English Place-Name Society survey, volume 88: Leicestershire"}]},{"toponym":"Bichesbie","citations":[{"label":"1086 DB","year":1086}],"when":{"timespans":[{"start":{"in":"1086"},"end":{"in":"1086"}}]}},{"toponym":"Bittlesby","citations":[{"label":"1258 Ch","year":1258},{"label":"1327 SR","year":1327}],"when":{"timespans":[{"start":{"in":"1258"},"end":{"in":"1258"}},{"start":{"in":"1327"},"end":{"in":"1327"}}]}},{"toponym":"Bitlesby","citations":[{"label":"1315 Cl","year":1315},{"label":"1329 Ipm","year":1329},{"label":"1344 Cl","year":1344}],"when":{"timespans":[{"start":{"in":"1315"},"end":{"in":"1315"}},{"start":{"in":"1329"},"end":{"in":"1329"}},{"start":{"in":"1335"},"end":{"in":"1335"}},{"start":{"in":"1344"},"end":{"in":"1344"}}]}},{"toponym":"Bittelesby","citations":[{"label":"1428 FA","year":1428}],"when":{"timespans":[{"start":{"in":"1428"},"end":{"in":"1428"}}]}},{"toponym":"Buttelesby","citations":[{"label":"1274 IpmR","year":1274}],"when":{"timespans":[{"start":{"in":"1274"},"end":{"in":"1274"}}]}},{"toponym":"Buttlesby","citations":[{"label":"1275 Cl","year":1275}],"when":{"timespans":[{"start":{"in":"1275"},"end":{"in":"1275"}}]}},{"toponym":"Butlesby","citations":[{"label":"1285 FA","year":1285},{"label":"1327 SR","year":1327}],"when":{"timespans":[{"start":{"in":"1285"},"end":{"in":"1285"}},{"start":{"in":"1327"},"end":{"in":"1327"}}]}},{"toponym":"Butlisby","citations":[{"label":"1271 Ipm","year":1271},{"label":"1277 Hastings","year":1277}],"when":{"timespans":[{"start":{"in":"1271"},"end":{"in":"1271"}},{"start":{"in":"1274"},"end":{"in":"1274"}},{"start":{"in":"1277"},"end":{"in":"1277"}}]}},{"toponym":"Bytlesby","citations":[{"label":"1328 Banco","year":1328}],"when":{"timespans":[{"start":{"in":"1328"},"end":{"in":"1328"}}]}},{"toponym":"Bettelesby","citations":[{"label":"1383 Ipm","year":1383}],"when":{"timespans":[{"start":{"in":"1383"},"end":{"in":"1383"}}]}},{"toponym":"Bettesby","citations":[{"label":"1383 Cl","year":1383}],"when":{"timespans":[{"start":{"in":"1383"},"end":{"in":"1383"}}]}},{"toponym":"Bittesby","citations":[{"label":"1507 Ipm","year":1507},{"label":"1515 AD","year":1515},{"label":"1540–1540, recurring MinAccts","year":1540},{"label":"1540 MinAccts","year":1540}],"when":{"timespans":[{"start":{"in":"1507"},"end":{"in":"1507"}},{"start":{"in":"1515"},"end":{"in":"1515"}},{"start":{"in":"1540"},"end":{"in":"1540"}},{"start":{"in":"1540"},"end":{"in":"1540"}}]}}],"types":[{"identifier":"http://vocab.getty.edu/aat/300232418","label":"administrative division","sourceLabels":[{"label":"township","lang":"en"}]}],"geometry":{"type":"GeometryCollection","geometries":[{"type":"Point","coordinates":[-1.26266,52.4654],"citations":[{"label":"GeoNames, gazetteer record geonames:7291634"}]},{"type":"Point","coordinates":[-1.256591279674717,52.46473390587475],"citations":[{"label":"Unlock (EDINA) gazetteer, gazetteer record unlock:11078200"}]},{"type":"Point","coordinates":[-1.25809,52.4651],"citations":[{"label":"Key to English Place-Names (KEPN), gazetteer record 8873"}]}]},"when":{"timespans":[{"start":{"in":"1086"},"end":{"in":"1540"}}]},"links":[{"type":"closeMatch","identifier":"https://sws.geonames.org/7291634/"}],"relations":[{"relationType":"gvp:broaderPartitive","relationTo":"http://placenames.org.uk/id/placename/88/001331","label":"within Bittesby"}]}]}