{"@context":"https://raw.githubusercontent.com/LinkedPasts/linked-places-format/main/linkedplaces-context-v1.1.jsonld","type":"FeatureCollection","license":"Digitisation of English Placenames MADS data is licensed to Jisc by the English Place Names Society and released under a Creative Commons Attribution-NonCommercial 4.0 International License.","note":"LPF v1.3, lossy; derived from the PLATO record; plato_commit=fa0d247ccc0263f8f19c8d7cdcd163df96935d1e","features":[{"@id":"https://w3id.org/whg-epns/88/002227","type":"Feature","properties":{"title":"Primethorpe","ccodes":["GB"],"fclasses":["A","P"]},"names":[{"toponym":"Primethorpe","lang":"en","citations":[{"label":"English Place-Name Society survey, volume 88: Leicestershire"}]},{"toponym":"Torp","citations":[{"label":"1203 Cur","year":1203},{"label":"1220 MHW","year":1220}],"when":{"timespans":[{"start":{"in":"1203"},"end":{"in":"1203"}},{"start":{"in":"1220"},"end":{"in":"1220"}}]}},{"toponym":"Thorp","citations":[{"label":"1260 Cur","year":1260},{"label":"1285 FA","year":1285}],"when":{"timespans":[{"start":{"in":"1260"},"end":{"in":"1260"}},{"start":{"in":"1272"},"end":{"in":"1272"}},{"start":{"in":"1285"},"end":{"in":"1285"}},{"start":{"in":"1330"},"end":{"in":"1330"}}]}},{"toponym":"Thorp iuxta Brocton","citations":[{"label":"1285 FA","year":1285}],"when":{"timespans":[{"start":{"in":"1285"},"end":{"in":"1285"}}]}},{"toponym":"Thorpe","citations":[{"label":"1346 Pat","year":1346}],"when":{"timespans":[{"start":{"in":"1346"},"end":{"in":"1346"}}]}},{"toponym":"Thorpe iuxta Browgton","citations":[{"label":"1539 MinAccts","year":1539}],"when":{"timespans":[{"start":{"in":"1539"},"end":{"in":"1539"}}]}},{"toponym":"Prymesthorp","citations":[{"label":"1316 FA","year":1316}],"when":{"timespans":[{"start":{"in":"1316"},"end":{"in":"1316"}}]}},{"toponym":"Primethorpe","citations":[{"label":"1575 LeicW","year":1575}],"when":{"timespans":[{"start":{"in":"1575"},"end":{"in":"1575"}},{"start":{"in":"1622"},"end":{"in":"1622"}}]}},{"toponym":"Prymethorp(e)","citations":[{"label":"1601 Ipm","year":1601},{"label":"1637 Fine","year":1637}],"when":{"timespans":[{"start":{"in":"1601"},"end":{"in":"1601"}},{"start":{"in":"1614"},"end":{"in":"1614"}},{"start":{"in":"1637"},"end":{"in":"1637"}}]}}],"types":[{"identifier":"http://vocab.getty.edu/aat/300232418","label":"administrative division","sourceLabels":[{"label":"township","lang":"en"}]}],"geometry":{"type":"GeometryCollection","geometries":[{"type":"Point","coordinates":[-1.225889918803526,52.53646650441684],"citations":[{"label":"Unlock (EDINA) gazetteer, gazetteer record unlock:11250125"}]},{"type":"Point","coordinates":[-1.224854,52.532984],"citations":[{"label":"Key to English Place-Names (KEPN), gazetteer record 0114"}]}]},"when":{"timespans":[{"start":{"in":"1203"},"end":{"in":"1637"}}]},"relations":[{"relationType":"gvp:broaderPartitive","relationTo":"https://w3id.org/whg-epns/88/002123","label":"within Broughton Astley"}]}]}