{"@context":"https://raw.githubusercontent.com/LinkedPasts/linked-places-format/main/linkedplaces-context-v1.1.jsonld","type":"FeatureCollection","license":"Digitisation of English Placenames MADS data is licensed to Jisc by the English Place Names Society and released under a Creative Commons Attribution-NonCommercial 4.0 International License.","note":"LPF v1.3, lossy; derived from the PLATO record; plato_commit=fa0d247ccc0263f8f19c8d7cdcd163df96935d1e","features":[{"@id":"https://w3id.org/whg-epns/88/004938","type":"Feature","properties":{"title":"Frolesworth","ccodes":["GB"],"fclasses":["A","P"]},"names":[{"toponym":"Frolesworth","lang":"en","citations":[{"label":"English Place-Name Society survey, volume 88: Leicestershire"}]}],"types":[{"identifier":"http://vocab.getty.edu/aat/300232418","label":"administrative division","sourceLabels":[{"label":"parish","lang":"en"}]}],"geometry":{"type":"GeometryCollection","geometries":[{"type":"Point","coordinates":[-1.25992,52.51437],"citations":[{"label":"GeoNames, gazetteer record geonames:7296325"}]},{"type":"Point","coordinates":[-1.255832997262685,52.50968511004744],"citations":[{"label":"Unlock (EDINA) gazetteer, gazetteer record unlock:11148482"}]},{"type":"Point","coordinates":[-1.25734,52.5101],"citations":[{"label":"Key to English Place-Names (KEPN), gazetteer record 8885"}]}]},"links":[{"type":"closeMatch","identifier":"https://sws.geonames.org/7296325/"}],"relations":[{"relationType":"gvp:broaderPartitive","relationTo":"https://w3id.org/whg-epns/88/000002","label":"within Guthlaxton Hundred"}]}]}