{"@context":"https://raw.githubusercontent.com/LinkedPasts/linked-places-format/main/linkedplaces-context-v1.1.jsonld","type":"FeatureCollection","license":"Digitisation of English Placenames MADS data is licensed to Jisc by the English Place Names Society and released under a Creative Commons Attribution-NonCommercial 4.0 International License.","note":"LPF v1.3, lossy; derived from the PLATO record; plato_commit=ca0afadabec1e23a145c0b03df77e8f151f79832","features":[{"@id":"http://placenames.org.uk/id/placename/88/006023","type":"Feature","properties":{"title":"Walton","ccodes":["GB"],"fclasses":["A","P"]},"names":[{"toponym":"Walton","lang":"en","citations":[{"label":"English Place-Name Society survey, volume 88: Leicestershire"}]},{"toponym":"Waltone","citations":[{"label":"1086 DB","year":1086}],"when":{"timespans":[{"start":{"in":"1086"},"end":{"in":"1086"}}]}},{"toponym":"Walton","citations":[{"label":"1160 × 1200 Rey","year":1160},{"label":"1202 Cur","year":1202},{"label":"e.13 Wyg","year":1200}],"when":{"timespans":[{"start":{"earliest":"1160","latest":"1200"},"end":{"earliest":"1160","latest":"1200"}},{"start":{"in":"1202"},"end":{"in":"1202"}},{"start":{"earliest":"1200","latest":"1225"},"end":{"earliest":"1200","latest":"1225"}}]}},{"toponym":"~ iuxta Kynemundecot'","citations":[{"label":"c.1290 Rey","year":1280}],"when":{"timespans":[{"start":{"earliest":"1280","latest":"1300"},"end":{"earliest":"1280","latest":"1300"}}]}},{"toponym":"~ iuxta Kynemundecotes","citations":[{"label":"l.13 Wyg","year":1275}],"when":{"timespans":[{"start":{"earliest":"1275","latest":"1300"},"end":{"earliest":"1275","latest":"1300"}}]}},{"toponym":"~ negh' Kymcoyte","citations":[{"label":"1538 Ferrers","year":1538}],"when":{"timespans":[{"start":{"in":"1538"},"end":{"in":"1538"}}]}},{"toponym":"Waltona","citations":[{"label":"e.13 Wyg","year":1200}],"when":{"timespans":[{"start":{"earliest":"1200","latest":"1225"},"end":{"earliest":"1200","latest":"1225"}}]}},{"toponym":"Waltun","citations":[{"label":"1367 Rey","year":1367},{"label":"1380 Wyg","year":1380}],"when":{"timespans":[{"start":{"in":"1367"},"end":{"in":"1367"}},{"start":{"in":"1380"},"end":{"in":"1380"}}]}},{"toponym":"Waleton","citations":[{"label":"1199 ChR","year":1199},{"label":"1209 × 35 RHug","year":1209}],"when":{"timespans":[{"start":{"in":"1199"},"end":{"in":"1199"}},{"start":{"earliest":"1209","latest":"1235"},"end":{"earliest":"1209","latest":"1235"}}]}},{"toponym":"Wauton","citations":[{"label":"1243 Fees","year":1243},{"label":"1268 Misc","year":1268}],"when":{"timespans":[{"start":{"in":"1243"},"end":{"in":"1243"}},{"start":{"in":"1268"},"end":{"in":"1268"}}]}},{"toponym":"Wollton","citations":[{"label":"1679 Terrier","year":1679}],"when":{"timespans":[{"start":{"in":"1679"},"end":{"in":"1679"}}]}}],"types":[{"identifier":"http://vocab.getty.edu/aat/300232418","label":"administrative division","sourceLabels":[{"label":"township","lang":"en"}]}],"geometry":{"type":"GeometryCollection","geometries":[{"type":"Point","coordinates":[-1.12494,52.47774],"citations":[{"label":"GeoNames, gazetteer record geonames:2634835"}]},{"type":"Point","coordinates":[-1.124329,52.4785],"citations":[{"label":"Key to English Place-Names (KEPN), gazetteer record 0109"}]}]},"when":{"timespans":[{"start":{"in":"1086"},"end":{"in":"1679"}}]},"links":[{"type":"closeMatch","identifier":"https://sws.geonames.org/2634835/"}],"relations":[{"relationType":"gvp:broaderPartitive","relationTo":"http://placenames.org.uk/id/placename/88/005968","label":"within Kimcote and Walton"}]}]}