{"@context":"https://raw.githubusercontent.com/LinkedPasts/linked-places-format/main/linkedplaces-context-v1.1.jsonld","type":"FeatureCollection","license":"Digitisation of English Placenames MADS data is licensed to Jisc by the English Place Names Society and released under a Creative Commons Attribution-NonCommercial 4.0 International License.","note":"LPF v1.3, lossy; derived from the PLATO record; plato_commit=ca0afadabec1e23a145c0b03df77e8f151f79832","features":[{"@id":"http://placenames.org.uk/id/placename/88/009765","type":"Feature","properties":{"title":"Shawell","ccodes":["GB"],"fclasses":["A","P"]},"names":[{"toponym":"Shawell","lang":"en","citations":[{"label":"English Place-Name Society survey, volume 88: Leicestershire"}]},{"toponym":"Sawelle","citations":[{"label":"1086 DB","year":1086},{"label":"1205 FF","year":1205}],"when":{"timespans":[{"start":{"in":"1086"},"end":{"in":"1086"}},{"start":{"in":"1205"},"end":{"in":"1205"}}]}},{"toponym":"Sawell","citations":[{"label":"1233 Cur","year":1233},{"label":"1235 Cl","year":1235}],"when":{"timespans":[{"start":{"in":"1233"},"end":{"in":"1233"}},{"start":{"in":"1235"},"end":{"in":"1235"}}]}},{"toponym":"Sewell","citations":[{"label":"1203 Cur","year":1203}],"when":{"timespans":[{"start":{"in":"1203"},"end":{"in":"1203"}},{"start":{"in":"1230"},"end":{"in":"1230"}}]}},{"toponym":"Scawell","citations":[{"label":"1220 MHW","year":1220}],"when":{"timespans":[{"start":{"in":"1220"},"end":{"in":"1220"}}]}},{"toponym":"Schawelle","citations":[{"label":"1232 RHug","year":1232}],"when":{"timespans":[{"start":{"in":"1232"},"end":{"in":"1232"}}]}},{"toponym":"Schadewell(e)","citations":[{"label":"1224 RHug","year":1224},{"label":"1241 Cur","year":1241},{"label":"c.1291 Tax","year":1281}],"when":{"timespans":[{"start":{"in":"1224"},"end":{"in":"1224"}},{"start":{"in":"1241"},"end":{"in":"1241"}},{"start":{"earliest":"1281","latest":"1301"},"end":{"earliest":"1281","latest":"1301"}}]}},{"toponym":"Shadewell","citations":[{"label":"1338 Hosp","year":1338}],"when":{"timespans":[{"start":{"in":"1338"},"end":{"in":"1338"}}]}},{"toponym":"Shathewell(e)","citations":[{"label":"1270 RGrav","year":1270},{"label":"1316–1424, recurring FA","year":1316},{"label":"1316–1424, recurring Banco"},{"label":"1316 FA","year":1316},{"label":"1424 Banco","year":1424},{"label":"1428–1497, recurring FA","year":1428},{"label":"1428–1497, recurring Braye"},{"label":"1428 FA","year":1428},{"label":"1497 Braye","year":1497},{"label":"1517 Hastings","year":1517},{"label":"1533 Fine","year":1533}],"when":{"timespans":[{"start":{"in":"1270"},"end":{"in":"1270"}},{"start":{"in":"1316"},"end":{"in":"1424"}},{"start":{"in":"1316"},"end":{"in":"1316"}},{"start":{"in":"1424"},"end":{"in":"1424"}},{"start":{"in":"1428"},"end":{"in":"1497"}},{"start":{"in":"1428"},"end":{"in":"1428"}},{"start":{"in":"1497"},"end":{"in":"1497"}},{"start":{"in":"1517"},"end":{"in":"1517"}},{"start":{"in":"1533"},"end":{"in":"1533"}}]}},{"toponym":"Shathwell","citations":[{"label":"1518 Braye","year":1518}],"when":{"timespans":[{"start":{"in":"1518"},"end":{"in":"1518"}}]}},{"toponym":"Shawell","citations":[{"label":"1507 Ipm","year":1507},{"label":"1510–1518, recurring Visit","year":1510},{"label":"1510 Visit","year":1510}],"when":{"timespans":[{"start":{"in":"1507"},"end":{"in":"1507"}},{"start":{"in":"1510"},"end":{"in":"1518"}},{"start":{"in":"1510"},"end":{"in":"1510"}},{"start":{"in":"1518"},"end":{"in":"1518"}}]}}],"types":[{"identifier":"http://vocab.getty.edu/aat/300232418","label":"administrative division","sourceLabels":[{"label":"township","lang":"en"}]}],"geometry":{"type":"GeometryCollection","geometries":[{"type":"Point","coordinates":[-1.19835,52.41723],"citations":[{"label":"GeoNames, gazetteer record geonames:7295433"}]},{"type":"Point","coordinates":[-1.198529628035581,52.41939830196481],"citations":[{"label":"Unlock (EDINA) gazetteer, gazetteer record unlock:11281807"}]},{"type":"Point","coordinates":[-1.20004,52.4198],"citations":[{"label":"Key to English Place-Names (KEPN), gazetteer record 8900"}]}]},"when":{"timespans":[{"start":{"in":"1086"},"end":{"in":"1533"}}]},"links":[{"type":"closeMatch","identifier":"https://sws.geonames.org/7295433/"}],"relations":[{"relationType":"gvp:broaderPartitive","relationTo":"http://placenames.org.uk/id/placename/88/009764","label":"within Shawell"}]}]}