{"@context":"https://raw.githubusercontent.com/LinkedPasts/linked-places-format/main/linkedplaces-context-v1.1.jsonld","type":"FeatureCollection","license":"Digitisation of English Placenames MADS data is licensed to Jisc by the English Place Names Society and released under a Creative Commons Attribution-NonCommercial 4.0 International License.","note":"LPF v1.3, lossy; derived from the PLATO record; plato_commit=ca0afadabec1e23a145c0b03df77e8f151f79832","features":[{"@id":"https://w3id.org/whg-epns/88/009764","type":"Feature","properties":{"title":"Shawell","ccodes":["GB"],"fclasses":["A","P"]},"names":[{"toponym":"Shawell","lang":"en","citations":[{"label":"English Place-Name Society survey, volume 88: Leicestershire"}]}],"types":[{"identifier":"http://vocab.getty.edu/aat/300232418","label":"administrative division","sourceLabels":[{"label":"parish","lang":"en"}]}],"geometry":{"type":"GeometryCollection","geometries":[{"type":"Point","coordinates":[-1.19835,52.41723],"citations":[{"label":"GeoNames, gazetteer record geonames:7295433"}]},{"type":"Point","coordinates":[-1.198529628035581,52.41939830196481],"citations":[{"label":"Unlock (EDINA) gazetteer, gazetteer record unlock:11281807"}]},{"type":"Point","coordinates":[-1.20004,52.4198],"citations":[{"label":"Key to English Place-Names (KEPN), gazetteer record 8900"}]}]},"links":[{"type":"closeMatch","identifier":"https://sws.geonames.org/7295433/"}],"relations":[{"relationType":"gvp:broaderPartitive","relationTo":"https://w3id.org/whg-epns/88/000002","label":"within Guthlaxton Hundred"}]}]}