{"@context":"https://raw.githubusercontent.com/LinkedPasts/linked-places-format/main/linkedplaces-context-v1.1.jsonld","type":"FeatureCollection","license":"Digitisation of English Placenames MADS data is licensed to Jisc by the English Place Names Society and released under a Creative Commons Attribution-NonCommercial 4.0 International License.","note":"LPF v1.3, lossy; derived from the PLATO record; plato_commit=fa0d247ccc0263f8f19c8d7cdcd163df96935d1e","features":[{"@id":"https://w3id.org/whg-epns/88/012479","type":"Feature","properties":{"title":"Wigston Parva","ccodes":["GB"],"fclasses":["A","P"]},"names":[{"toponym":"Wigston Parva","lang":"en","citations":[{"label":"English Place-Name Society survey, volume 88: Leicestershire"}]},{"toponym":"Wicgestane","citations":[{"label":"1002 × 04 S","year":1002},{"label":"1004 S","year":1004}],"when":{"timespans":[{"start":{"earliest":"1002","latest":"1004"},"end":{"earliest":"1002","latest":"1004"}},{"start":{"in":"1004"},"end":{"in":"1004"}}]}},{"toponym":"Wiggestane","citations":[{"label":"1002 × 04 S","year":1002}],"when":{"timespans":[{"start":{"earliest":"1002","latest":"1004"},"end":{"earliest":"1002","latest":"1004"}}]}},{"toponym":"Wicestan","citations":[{"label":"1086 DB","year":1086}],"when":{"timespans":[{"start":{"in":"1086"},"end":{"in":"1086"}}]}},{"toponym":"Wigestan","citations":[{"label":"1148 × 54 Reg","year":1148},{"label":"P","year":1188},{"label":"Ass"},{"label":"1188 P","year":1188},{"label":"1202 Ass","year":1202}],"when":{"timespans":[{"start":{"earliest":"1148","latest":"1154"},"end":{"earliest":"1148","latest":"1154"}},{"start":{"in":"1188"},"end":{"in":"1202"}},{"start":{"in":"1188"},"end":{"in":"1188"}},{"start":{"in":"1202"},"end":{"in":"1202"}}]}},{"toponym":"Wiggestan","citations":[{"label":"1196 ChancR","year":1196},{"label":"1198 P","year":1198}],"when":{"timespans":[{"start":{"in":"1196"},"end":{"in":"1196"}},{"start":{"in":"1198"},"end":{"in":"1198"}}]}},{"toponym":"Wiggestain","citations":[{"label":"1195 P","year":1195}],"when":{"timespans":[{"start":{"in":"1195"},"end":{"in":"1195"}},{"start":{"in":"1197"},"end":{"in":"1197"}}]}},{"toponym":"Wichestain","citations":[{"label":"1202 Ass","year":1202}],"when":{"timespans":[{"start":{"in":"1202"},"end":{"in":"1202"}}]}},{"toponym":"Wigeston","citations":[{"label":"1200 Cur","year":1200},{"label":"1202 Ass","year":1202}],"when":{"timespans":[{"start":{"in":"1200"},"end":{"in":"1200"}},{"start":{"in":"1202"},"end":{"in":"1202"}}]}},{"toponym":"Wygeston","citations":[{"label":"1261 RGrav","year":1261},{"label":"Pat","year":1310},{"label":"Banco"},{"label":"1310 Pat","year":1310},{"label":"1394 Banco","year":1394}],"when":{"timespans":[{"start":{"in":"1261"},"end":{"in":"1261"}},{"start":{"in":"1310"},"end":{"in":"1394"}},{"start":{"in":"1310"},"end":{"in":"1310"}},{"start":{"in":"1394"},"end":{"in":"1394"}}]}},{"toponym":"Wiggeston","citations":[{"label":"1316 FA","year":1316},{"label":"Ct","year":1536},{"label":"LML"},{"label":"1536 Ct","year":1536},{"label":"1627 LML","year":1627}],"when":{"timespans":[{"start":{"in":"1316"},"end":{"in":"1316"}},{"start":{"in":"1536"},"end":{"in":"1627"}},{"start":{"in":"1536"},"end":{"in":"1536"}},{"start":{"in":"1627"},"end":{"in":"1627"}}]}},{"toponym":"Wyggeston","citations":[{"label":"1327 SR","year":1327},{"label":"1392 Banco","year":1392},{"label":"1399 Pat","year":1399},{"label":"1445 Ipm","year":1445}],"when":{"timespans":[{"start":{"in":"1327"},"end":{"in":"1327"}},{"start":{"in":"1392"},"end":{"in":"1392"}},{"start":{"in":"1399"},"end":{"in":"1399"}},{"start":{"in":"1445"},"end":{"in":"1445"}}]}},{"toponym":"Wigston","citations":[{"label":"1576 Saxton","year":1576},{"label":"1610 Speed","year":1610}],"when":{"timespans":[{"start":{"in":"1576"},"end":{"in":"1576"}},{"start":{"in":"1610"},"end":{"in":"1610"}}]}},{"toponym":"Little Wigston","citations":[{"label":"1610 Speed","year":1610},{"label":"1627 LML","year":1627},{"label":"1807 Nichols","year":1807}],"when":{"timespans":[{"start":{"in":"1610"},"end":{"in":"1610"}},{"start":{"in":"1627"},"end":{"in":"1627"}},{"start":{"in":"1807"},"end":{"in":"1807"}}]}},{"toponym":"Wigston Parva","citations":[{"label":"TA","year":1843},{"label":"1843 TA","year":1843}],"when":{"timespans":[{"start":{"in":"1843"},"end":{"in":"1843"}},{"start":{"in":"1843"},"end":{"in":"1843"}}]}}],"types":[{"identifier":"http://vocab.getty.edu/aat/300232418","label":"administrative division","sourceLabels":[{"label":"township","lang":"en"}]}],"geometry":{"type":"GeometryCollection","geometries":[{"type":"Point","coordinates":[-1.31574,52.50663],"citations":[{"label":"GeoNames, gazetteer record geonames:2633935"}]},{"type":"Point","coordinates":[-1.314911934215065,52.50105072386147],"citations":[{"label":"Unlock (EDINA) gazetteer, gazetteer record unlock:11322813"}]},{"type":"Point","coordinates":[-1.31641,52.5014],"citations":[{"label":"Key to English Place-Names (KEPN), gazetteer record 8907"}]}]},"when":{"timespans":[{"start":{"in":"1002"},"end":{"in":"1843"}}]},"links":[{"type":"closeMatch","identifier":"https://sws.geonames.org/2633935/"}],"relations":[{"relationType":"gvp:broaderPartitive","relationTo":"https://w3id.org/whg-epns/88/012478","label":"within Wigston Parva"}]}]}