{"@context":"https://raw.githubusercontent.com/LinkedPasts/linked-places-format/main/linkedplaces-context-v1.1.jsonld","type":"FeatureCollection","license":"Digitisation of English Placenames MADS data is licensed to Jisc by the English Place Names Society and released under a Creative Commons Attribution-NonCommercial 4.0 International License.","note":"LPF v1.3, lossy; derived from the PLATO record; plato_commit=ca0afadabec1e23a145c0b03df77e8f151f79832","features":[{"@id":"https://w3id.org/whg-epns/46/000013","type":"Feature","properties":{"title":"Barthomley","ccodes":["GB"],"fclasses":["A","P"]},"names":[{"toponym":"Barthomley","lang":"en","citations":[{"label":"English Place-Name Society survey, volume 46: Cheshire"}]}],"types":[{"identifier":"http://vocab.getty.edu/aat/300232418","label":"administrative division","sourceLabels":[{"label":"parish","lang":"en"}]}],"geometry":{"type":"GeometryCollection","geometries":[{"type":"Point","coordinates":[-2.34821,53.06862],"citations":[{"label":"GeoNames, gazetteer record geonames:2656225"}]},{"type":"Point","coordinates":[-2.358188145,53.06440284],"citations":[{"label":"English Place-Name Society survey (DEEP coordinates)"}]},{"type":"Point","coordinates":[-2.350762666911168,53.06892114567782],"citations":[{"label":"Unlock (EDINA) gazetteer, gazetteer record unlock:11071145"}]},{"type":"Point","coordinates":[-2.35216,53.0692],"citations":[{"label":"Key to English Place-Names (KEPN), gazetteer record 11894"}]}]},"links":[{"type":"closeMatch","identifier":"https://sws.geonames.org/2656225/"}],"relations":[{"relationType":"gvp:broaderPartitive","relationTo":"https://w3id.org/whg-epns/46/000002","label":"within Nantwich Hundred"}]}]}