{"@context":"https://raw.githubusercontent.com/LinkedPasts/linked-places-format/main/linkedplaces-context-v1.1.jsonld","type":"FeatureCollection","license":"Digitisation of English Placenames MADS data is licensed to Jisc by the English Place Names Society and released under a Creative Commons Attribution-NonCommercial 4.0 International License.","note":"LPF v1.3, lossy; derived from the PLATO record; plato_commit=ca0afadabec1e23a145c0b03df77e8f151f79832","features":[{"@id":"https://w3id.org/whg-epns/46/000448","type":"Feature","properties":{"title":"Crewe","ccodes":["GB"],"fclasses":["A","P"]},"names":[{"toponym":"Crewe","lang":"en","citations":[{"label":"English Place-Name Society survey, volume 46: Cheshire"}]},{"toponym":"Creu","citations":[{"label":"1086 DB","year":1086}],"when":{"timespans":[{"start":{"in":"1086"},"end":{"in":"1086"}}]}},{"toponym":"Crewe","citations":[{"label":"1297–1297, recurring Cre","year":1297},{"label":"1297 Cre","year":1297}],"when":{"timespans":[{"start":{"in":"1297"},"end":{"in":"1297"}},{"start":{"in":"1297"},"end":{"in":"1297"}}]}},{"toponym":"Crew, Creue","citations":[{"label":"1297-1600 unspecified sources","year":1297}],"when":{"timespans":[{"start":{"in":"1297"},"end":{"in":"1600"}}]}},{"toponym":"Criwa","citations":[{"label":"c.1150 Orm2","year":1140}],"when":{"timespans":[{"start":{"earliest":"1140","latest":"1160"},"end":{"earliest":"1140","latest":"1160"}}]}},{"toponym":"Crue","citations":[{"label":"1220–1586, recurring Whall","year":1220},{"label":"1220–1586, recurring AddCh"},{"label":"1220–1586, recurring ChRR"},{"label":"1220-40 Whall","year":1220},{"label":"1220-40 AddCh","year":1220},{"label":"1586 ChRR","year":1586}],"when":{"timespans":[{"start":{"in":"1220"},"end":{"in":"1586"}},{"start":{"earliest":"1220","latest":"1240"},"end":{"earliest":"1220","latest":"1240"}},{"start":{"earliest":"1220","latest":"1240"},"end":{"earliest":"1220","latest":"1240"}},{"start":{"in":"1586"},"end":{"in":"1586"}}]}},{"toponym":"Cruwe","citations":[{"label":"1290 to 1472 ChRR","year":1290}],"when":{"timespans":[{"start":{"earliest":"1290","latest":"1472"},"end":{"earliest":"1290","latest":"1472"}}]}},{"toponym":"Cruue, Crwe","citations":[{"label":"1288 to 1572 ChRR","year":1288}],"when":{"timespans":[{"start":{"earliest":"1288","latest":"1572"},"end":{"earliest":"1288","latest":"1572"}}]}},{"toponym":"Crwue, Cure, le Crue","citations":[{"label":"1398 ChRR","year":1398}],"when":{"timespans":[{"start":{"in":"1398"},"end":{"in":"1398"}}]}},{"toponym":"Crue juxta Weston","citations":[{"label":"1314 Orm2","year":1314}],"when":{"timespans":[{"start":{"in":"1314"},"end":{"in":"1314"}}]}},{"toponym":"Crue juxta Haselynton","citations":[{"label":"1337 Plea","year":1337}],"when":{"timespans":[{"start":{"in":"1337"},"end":{"in":"1337"}}]}},{"toponym":"Crue juxta Bertumley","citations":[{"label":"1440 ChRR","year":1440}],"when":{"timespans":[{"start":{"in":"1440"},"end":{"in":"1440"}}]}},{"toponym":"Crowe","citations":[{"label":"1330 MidCh","year":1330},{"label":"1351 BPR","year":1351}],"when":{"timespans":[{"start":{"in":"1330"},"end":{"in":"1330"}},{"start":{"in":"1391"},"end":{"in":"1391"}},{"start":{"in":"1351"},"end":{"in":"1351"}}]}}],"types":[{"identifier":"http://vocab.getty.edu/aat/300232418","label":"administrative division","sourceLabels":[{"label":"township","lang":"en"}]}],"geometry":{"type":"GeometryCollection","geometries":[{"type":"Point","coordinates":[-2.403128405,53.08223942],"citations":[{"label":"English Place-Name Society survey (DEEP coordinates)"}]},{"type":"Point","coordinates":[-2.395622167337882,53.07777063367422],"citations":[{"label":"Unlock (EDINA) gazetteer, gazetteer record unlock:11121731"}]},{"type":"Point","coordinates":[-2.44198,53.0959],"citations":[{"label":"Key to English Place-Names (KEPN), gazetteer record 11895"}]}]},"when":{"timespans":[{"start":{"in":"1086"},"end":{"in":"1600"}}]},"relations":[{"relationType":"gvp:broaderPartitive","relationTo":"https://w3id.org/whg-epns/46/000013","label":"within Barthomley"}]}]}