{"@context":"https://raw.githubusercontent.com/LinkedPasts/linked-places-format/main/linkedplaces-context-v1.1.jsonld","type":"FeatureCollection","license":"Digitisation of English Placenames MADS data is licensed to Jisc by the English Place Names Society and released under a Creative Commons Attribution-NonCommercial 4.0 International License.","note":"LPF v1.3, lossy; derived from the PLATO record; plato_commit=ca0afadabec1e23a145c0b03df77e8f151f79832","features":[{"@id":"http://placenames.org.uk/id/placename/46/002465","type":"Feature","properties":{"title":"Batherton, Batherton Hall & Batherton Mill","ccodes":["GB"],"fclasses":["A","P"]},"names":[{"toponym":"Batherton, Batherton Hall & Batherton Mill","lang":"en","citations":[{"label":"English Place-Name Society survey, volume 46: Cheshire"}]},{"toponym":"Berdeltune","citations":[{"label":"1086 DB","year":1086}],"when":{"timespans":[{"start":{"in":"1086"},"end":{"in":"1086"}}]}},{"toponym":"Bertherton","citations":[{"label":"l12 AddCh","year":1175},{"label":"1216–1522, recurring AddCh","year":1216},{"label":"1216–1522, recurring Plea"},{"label":"H3 AddCh","year":1216},{"label":"1522 Plea","year":1522}],"when":{"timespans":[{"start":{"earliest":"1175","latest":"1200"},"end":{"earliest":"1175","latest":"1200"}},{"start":{"in":"1216"},"end":{"in":"1522"}},{"start":{"earliest":"1216","latest":"1272"},"end":{"earliest":"1216","latest":"1272"}},{"start":{"in":"1522"},"end":{"in":"1522"}}]}},{"toponym":"Berthirton, Berthurton, Berthertun","citations":[{"label":"H3-1522 unspecified sources","year":1216}],"when":{"timespans":[{"start":{"in":"1216"},"end":{"in":"1522"}}]}},{"toponym":"Bertherton iuxta Stapelegh","citations":[{"label":"1312 Plea","year":1312}],"when":{"timespans":[{"start":{"in":"1312"},"end":{"in":"1312"}}]}},{"toponym":"molendinum de Bertherton","citations":[{"label":"1354 Eyre","year":1354}],"when":{"timespans":[{"start":{"in":"1354"},"end":{"in":"1354"}}]}},{"toponym":"Berterton","citations":[{"label":"1400 Pat","year":1400}],"when":{"timespans":[{"start":{"in":"1400"},"end":{"in":"1400"}}]}},{"toponym":"Berderton","citations":[{"label":"1522 Plea","year":1522}],"when":{"timespans":[{"start":{"in":"1522"},"end":{"in":"1522"}}]}},{"toponym":"Bartherton","citations":[{"label":"H3 AddCh","year":1216},{"label":"1621 Orm2","year":1621},{"label":"1624 ChRR","year":1624},{"label":"1724 NotCestr","year":1724},{"label":"1838 TA","year":1838}],"when":{"timespans":[{"start":{"earliest":"1216","latest":"1272"},"end":{"earliest":"1216","latest":"1272"}},{"start":{"in":"1621"},"end":{"in":"1621"}},{"start":{"in":"1624"},"end":{"in":"1624"}},{"start":{"in":"1724"},"end":{"in":"1724"}},{"start":{"in":"1838"},"end":{"in":"1838"}}]}},{"toponym":"Barterton","citations":[{"label":"1600 Sheaf","year":1600}],"when":{"timespans":[{"start":{"in":"1600"},"end":{"in":"1600"}}]}},{"toponym":"Barterton Hall","citations":[{"label":"1845 ChetOS","year":1845}],"when":{"timespans":[{"start":{"in":"1845"},"end":{"in":"1845"}}]}},{"toponym":"Barderton","citations":[{"label":"1605 Chol","year":1605}],"when":{"timespans":[{"start":{"in":"1605"},"end":{"in":"1605"}}]}},{"toponym":"Betherton","citations":[{"label":"1283 Ipm","year":1283},{"label":"1293 Plea","year":1293},{"label":"1309 Pat","year":1309},{"label":"1310 Cl","year":1310}],"when":{"timespans":[{"start":{"in":"1283"},"end":{"in":"1283"}},{"start":{"in":"1293"},"end":{"in":"1293"}},{"start":{"in":"1309"},"end":{"in":"1309"}},{"start":{"in":"1310"},"end":{"in":"1310"}}]}},{"toponym":"Bertheringtone","citations":[{"label":"1283 Sheaf3","year":1283}],"when":{"timespans":[{"start":{"in":"1283"},"end":{"in":"1283"}}]}},{"toponym":"Berdynton","citations":[{"label":"1293 Plea","year":1293}],"when":{"timespans":[{"start":{"in":"1293"},"end":{"in":"1293"}}]}},{"toponym":"Bethtirton","citations":[{"label":"1299 Pat","year":1299}],"when":{"timespans":[{"start":{"in":"1299"},"end":{"in":"1299"}}]}},{"toponym":"(molendinum de) Bertheton","citations":[{"label":"1351 Eyre","year":1351}],"when":{"timespans":[{"start":{"in":"1351"},"end":{"in":"1351"}}]}},{"toponym":"Bretherton","citations":[{"label":"1468 MinAcct","year":1468}],"when":{"timespans":[{"start":{"in":"1468"},"end":{"in":"1468"}}]}},{"toponym":"Batherton","citations":[{"label":"1831 Bry","year":1831},{"label":"1842 OS","year":1842}],"when":{"timespans":[{"start":{"in":"1831"},"end":{"in":"1831"}},{"start":{"in":"1842"},"end":{"in":"1842"}}]}}],"types":[{"identifier":"http://vocab.getty.edu/aat/300232418","label":"administrative division","sourceLabels":[{"label":"township","lang":"en"}]}],"geometry":{"type":"GeometryCollection","geometries":[{"type":"Point","coordinates":[-2.50413,53.04494],"citations":[{"label":"GeoNames, gazetteer record geonames:7292990"}]},{"type":"Point","coordinates":[-2.507216569,53.04588046],"citations":[{"label":"English Place-Name Society survey (DEEP coordinates)"}]},{"type":"Point","coordinates":[-2.514621927316061,53.04135463524914],"citations":[{"label":"Unlock (EDINA) gazetteer, gazetteer record unlock:11071596"}]},{"type":"Point","coordinates":[-2.516,53.0417],"citations":[{"label":"Key to English Place-Names (KEPN), gazetteer record 11908"}]}]},"when":{"timespans":[{"start":{"in":"1086"},"end":{"in":"1845"}}]},"links":[{"type":"closeMatch","identifier":"https://sws.geonames.org/7292990/"}],"relations":[{"relationType":"gvp:broaderPartitive","relationTo":"http://placenames.org.uk/id/placename/46/002371","label":"within Wybunbury"}]}]}