{"@context":"https://raw.githubusercontent.com/LinkedPasts/linked-places-format/main/linkedplaces-context-v1.1.jsonld","type":"FeatureCollection","license":"Digitisation of English Placenames MADS data is licensed to Jisc by the English Place Names Society and released under a Creative Commons Attribution-NonCommercial 4.0 International License.","note":"LPF v1.3, lossy; derived from the PLATO record; plato_commit=fa0d247ccc0263f8f19c8d7cdcd163df96935d1e","features":[{"@id":"https://w3id.org/whg-epns/46/002885","type":"Feature","properties":{"title":"Chorlton","ccodes":["GB"],"fclasses":["A","P"]},"names":[{"toponym":"Chorlton","lang":"en","citations":[{"label":"English Place-Name Society survey, volume 46: Cheshire"}]},{"toponym":"Cerletune","citations":[{"label":"1086 DB","year":1086}],"when":{"timespans":[{"start":{"in":"1086"},"end":{"in":"1086"}}]}},{"toponym":"Cherleton","citations":[{"label":"13 Vern","year":1200}],"when":{"timespans":[{"start":{"earliest":"1200","latest":"1300"},"end":{"earliest":"1200","latest":"1300"}}]}},{"toponym":"Cherl(e)ton, Cherl(e)ton iuxta Wybenbiryhagh, Cherl(e)ton iuxta Wybunbury","citations":[{"label":"1295 ChancW","year":1295},{"label":"1296 Plea","year":1296},{"label":"1298 Plea","year":1298},{"label":"1308 Ipm","year":1308},{"label":"1342 ChRR","year":1342}],"when":{"timespans":[{"start":{"in":"1295"},"end":{"in":"1295"}},{"start":{"in":"1296"},"end":{"in":"1296"}},{"start":{"in":"1298"},"end":{"in":"1298"}},{"start":{"in":"1308"},"end":{"in":"1308"}},{"start":{"in":"1342"},"end":{"in":"1342"}}]}},{"toponym":"Jorleton","citations":[{"label":"l12 AddCh","year":1175}],"when":{"timespans":[{"start":{"earliest":"1175","latest":"1200"},"end":{"earliest":"1175","latest":"1200"}}]}},{"toponym":"Chorl(e)ton, Chorl(e)ton iuxta Wib(b)enbury","citations":[{"label":"1288 Court","year":1288},{"label":"c.1295 Sheaf","year":1285},{"label":"1312 Plea","year":1312},{"label":"1348 Eyre","year":1348}],"when":{"timespans":[{"start":{"in":"1288"},"end":{"in":"1288"}},{"start":{"earliest":"1285","latest":"1305"},"end":{"earliest":"1285","latest":"1305"}},{"start":{"in":"1312"},"end":{"in":"1312"}},{"start":{"in":"1348"},"end":{"in":"1348"}}]}},{"toponym":"Chorl(e)ton iuxta Godwynesley","citations":[{"label":"1364 ChRR","year":1364}],"when":{"timespans":[{"start":{"in":"1364"},"end":{"in":"1364"}}]}},{"toponym":"Charlton","citations":[{"label":"1646 Sheaf","year":1646}],"when":{"timespans":[{"start":{"in":"1646"},"end":{"in":"1646"}}]}}],"types":[{"identifier":"http://vocab.getty.edu/aat/300232418","label":"administrative division","sourceLabels":[{"label":"township","lang":"en"}]}],"geometry":{"type":"GeometryCollection","geometries":[{"type":"Point","coordinates":[-2.40541,53.05029],"citations":[{"label":"GeoNames, gazetteer record geonames:6693494"}]},{"type":"Point","coordinates":[-2.417710641,53.04622838],"citations":[{"label":"English Place-Name Society survey (DEEP coordinates)"}]},{"type":"Point","coordinates":[-2.410294540952461,53.05075039585117],"citations":[{"label":"Unlock (EDINA) gazetteer, gazetteer record unlock:11106815"}]},{"type":"Point","coordinates":[-2.41168,53.051],"citations":[{"label":"Key to English Place-Names (KEPN), gazetteer record 11912"}]}]},"when":{"timespans":[{"start":{"in":"1086"},"end":{"in":"1646"}}]},"links":[{"type":"closeMatch","identifier":"https://sws.geonames.org/6693494/"}],"relations":[{"relationType":"gvp:broaderPartitive","relationTo":"https://w3id.org/whg-epns/46/002371","label":"within Wybunbury"}]}]}