{"@context":"https://raw.githubusercontent.com/LinkedPasts/linked-places-format/main/linkedplaces-context-v1.1.jsonld","type":"FeatureCollection","license":"Digitisation of English Placenames MADS data is licensed to Jisc by the English Place Names Society and released under a Creative Commons Attribution-NonCommercial 4.0 International License.","note":"LPF v1.3, lossy; derived from the PLATO record; plato_commit=fa0d247ccc0263f8f19c8d7cdcd163df96935d1e","features":[{"@id":"https://w3id.org/whg-epns/46/003366","type":"Feature","properties":{"title":"Rope","ccodes":["GB"],"fclasses":["A","P"]},"names":[{"toponym":"Rope","lang":"en","citations":[{"label":"English Place-Name Society survey, volume 46: Cheshire"}]},{"toponym":"Rap","citations":[{"label":"c. 1180 AddCh","year":1170},{"label":"12 Chol","year":1100}],"when":{"timespans":[{"start":{"earliest":"1170","latest":"1190"},"end":{"earliest":"1170","latest":"1190"}},{"start":{"in":"1259"},"end":{"in":"1259"}},{"start":{"in":"1322"},"end":{"in":"1322"}},{"start":{"earliest":"1100","latest":"1200"},"end":{"earliest":"1100","latest":"1200"}},{"start":{"earliest":"1275","latest":"1300"},"end":{"earliest":"1275","latest":"1300"}}]}},{"toponym":"Rape","citations":[{"label":"1259 AddCh","year":1259},{"label":"1308 ChRR","year":1308}],"when":{"timespans":[{"start":{"in":"1259"},"end":{"in":"1259"}},{"start":{"in":"1308"},"end":{"in":"1308"}}]}},{"toponym":"Rop","citations":[{"label":"H3 AddCh","year":1216},{"label":"1280 P","year":1280}],"when":{"timespans":[{"start":{"earliest":"1216","latest":"1272"},"end":{"earliest":"1216","latest":"1272"}},{"start":{"in":"1280"},"end":{"in":"1280"}}]}},{"toponym":"Ropp","citations":[{"label":"1584 Sheaf","year":1584}],"when":{"timespans":[{"start":{"in":"1584"},"end":{"in":"1584"}}]}},{"toponym":"Roppe","citations":[{"label":"1621 Orm2","year":1621}],"when":{"timespans":[{"start":{"in":"1621"},"end":{"in":"1621"}}]}},{"toponym":"Roop","citations":[{"label":"1311 AddCh","year":1311}],"when":{"timespans":[{"start":{"in":"1311"},"end":{"in":"1311"}}]}},{"toponym":"Roope","citations":[{"label":"1449 Sheaf","year":1449}],"when":{"timespans":[{"start":{"in":"1449"},"end":{"in":"1449"}}]}},{"toponym":"R(o)ep","citations":[{"label":"1359 BPR","year":1359}],"when":{"timespans":[{"start":{"in":"1359"},"end":{"in":"1359"}}]}},{"toponym":"Rope","citations":[{"label":"1416 ChRR","year":1416},{"label":"1842 OS","year":1842}],"when":{"timespans":[{"start":{"in":"1416"},"end":{"in":"1416"}},{"start":{"in":"1842"},"end":{"in":"1842"}}]}},{"toponym":"le Rope","citations":[{"label":"1432 AddCh","year":1432}],"when":{"timespans":[{"start":{"in":"1432"},"end":{"in":"1432"}}]}}],"types":[{"identifier":"http://vocab.getty.edu/aat/300232418","label":"administrative division","sourceLabels":[{"label":"township","lang":"en"}]}],"geometry":{"type":"GeometryCollection","geometries":[{"type":"Point","coordinates":[-2.46122,53.07132],"citations":[{"label":"GeoNames, gazetteer record geonames:7299919"}]},{"type":"Point","coordinates":[-2.462656384,53.06404252],"citations":[{"label":"English Place-Name Society survey (DEEP coordinates)"}]},{"type":"Point","coordinates":[-2.470167397302655,53.06850928920223],"citations":[{"label":"Unlock (EDINA) gazetteer, gazetteer record unlock:11272473"}]},{"type":"Point","coordinates":[-2.47155,53.0688],"citations":[{"label":"Key to English Place-Names (KEPN), gazetteer record 11918"}]}]},"when":{"timespans":[{"start":{"in":"1100"},"end":{"in":"1842"}}]},"links":[{"type":"closeMatch","identifier":"https://sws.geonames.org/7299919/"}],"relations":[{"relationType":"gvp:broaderPartitive","relationTo":"https://w3id.org/whg-epns/46/002371","label":"within Wybunbury"}]}]}