{"@context":"https://raw.githubusercontent.com/LinkedPasts/linked-places-format/main/linkedplaces-context-v1.1.jsonld","type":"FeatureCollection","license":"Digitisation of English Placenames MADS data is licensed to Jisc by the English Place Names Society and released under a Creative Commons Attribution-NonCommercial 4.0 International License.","note":"LPF v1.3, lossy; derived from the PLATO record; plato_commit=ca0afadabec1e23a145c0b03df77e8f151f79832","features":[{"@id":"http://placenames.org.uk/id/placename/46/005600","type":"Feature","properties":{"title":"Wirswall, Wirswall Hall","ccodes":["GB"],"fclasses":["A","P"]},"names":[{"toponym":"Wirswall, Wirswall Hall","lang":"en","citations":[{"label":"English Place-Name Society survey, volume 46: Cheshire"}]},{"toponym":"Wireswelle, Wiresuelle","citations":[{"label":"1086 DB","year":1086}],"when":{"timespans":[{"start":{"in":"1086"},"end":{"in":"1086"}}]}},{"toponym":"Wyreswell(e)","citations":[{"label":"1276 Ipm","year":1276},{"label":"1324 Orm2","year":1324}],"when":{"timespans":[{"start":{"in":"1276"},"end":{"in":"1276"}},{"start":{"in":"1308"},"end":{"in":"1308"}},{"start":{"in":"1324"},"end":{"in":"1324"}}]}},{"toponym":"Wierswell","citations":[{"label":"1831 Bry","year":1831}],"when":{"timespans":[{"start":{"in":"1831"},"end":{"in":"1831"}}]}},{"toponym":"Wyriswall","citations":[{"label":"c.1180 AddCh","year":1170}],"when":{"timespans":[{"start":{"earliest":"1170","latest":"1190"},"end":{"earliest":"1170","latest":"1190"}}]}},{"toponym":"Wyriswall(e), Wiriswall(e)","citations":[{"label":"1260 Court","year":1260},{"label":"1283 Ipm","year":1283}],"when":{"timespans":[{"start":{"in":"1260"},"end":{"in":"1260"}},{"start":{"in":"1283"},"end":{"in":"1283"}}]}},{"toponym":"Wyreswall","citations":[{"label":"1288–1526, recurring Court","year":1288},{"label":"1288–1526, recurring Plea"},{"label":"1288 Court","year":1288},{"label":"1526 Plea","year":1526}],"when":{"timespans":[{"start":{"in":"1288"},"end":{"in":"1526"}},{"start":{"in":"1288"},"end":{"in":"1288"}},{"start":{"in":"1526"},"end":{"in":"1526"}}]}},{"toponym":"Wireswall, Wyreswall(e)","citations":[{"label":"1288-1526 unspecified sources","year":1288}],"when":{"timespans":[{"start":{"in":"1288"},"end":{"in":"1526"}}]}},{"toponym":"Over Wireswall","citations":[{"label":"1499 Orm2","year":1499}],"when":{"timespans":[{"start":{"in":"1499"},"end":{"in":"1499"}}]}},{"toponym":"Wyrswall' iuxta Album monasterium","citations":[{"label":"12 Chol","year":1100}],"when":{"timespans":[{"start":{"earliest":"1100","latest":"1200"},"end":{"earliest":"1100","latest":"1200"}}]}},{"toponym":"Wyrswall, Wirswall","citations":[{"label":"1321 Fine","year":1321},{"label":"1321 Pat","year":1321},{"label":"1342 ChRR","year":1342}],"when":{"timespans":[{"start":{"in":"1321"},"end":{"in":"1321"}},{"start":{"in":"1322"},"end":{"in":"1322"}},{"start":{"in":"1321"},"end":{"in":"1321"}},{"start":{"in":"1322"},"end":{"in":"1322"}},{"start":{"in":"1342"},"end":{"in":"1342"}}]}},{"toponym":"Wyrs(e)wall","citations":[{"label":"1493 Chol","year":1493}],"when":{"timespans":[{"start":{"in":"1493"},"end":{"in":"1493"}}]}},{"toponym":"Wirswall","citations":[{"label":"1727 Sheaf","year":1727}],"when":{"timespans":[{"start":{"in":"1727"},"end":{"in":"1727"}}]}},{"toponym":"Wyswal(e)","citations":[{"label":"H3 AddCh","year":1216}],"when":{"timespans":[{"start":{"earliest":"1216","latest":"1272"},"end":{"earliest":"1216","latest":"1272"}}]}},{"toponym":"Wereswall","citations":[{"label":"1357 BPR","year":1357}],"when":{"timespans":[{"start":{"in":"1357"},"end":{"in":"1357"}}]}},{"toponym":"Werreswall","citations":[{"label":"1507 ChRR","year":1507}],"when":{"timespans":[{"start":{"in":"1507"},"end":{"in":"1507"}}]}},{"toponym":"Werswall","citations":[{"label":"1660 LCWills","year":1660}],"when":{"timespans":[{"start":{"in":"1660"},"end":{"in":"1660"}}]}},{"toponym":"Wyreswale","citations":[{"label":"1358 AddCh","year":1358}],"when":{"timespans":[{"start":{"in":"1358"},"end":{"in":"1358"}}]}},{"toponym":"Worswall","citations":[{"label":"1488 ChRR","year":1488},{"label":"1597 Orm2","year":1597},{"label":"1679 Chol","year":1679}],"when":{"timespans":[{"start":{"in":"1488"},"end":{"in":"1488"}},{"start":{"in":"1490"},"end":{"in":"1490"}},{"start":{"in":"1597"},"end":{"in":"1597"}},{"start":{"in":"1679"},"end":{"in":"1679"}}]}},{"toponym":"Worsewall","citations":[{"label":"1724 NotCestr","year":1724}],"when":{"timespans":[{"start":{"in":"1724"},"end":{"in":"1724"}}]}},{"toponym":"Wyrsal","citations":[{"label":"1621 Orm2","year":1621}],"when":{"timespans":[{"start":{"in":"1621"},"end":{"in":"1621"}}]}}],"types":[{"identifier":"http://vocab.getty.edu/aat/300232418","label":"administrative division","sourceLabels":[{"label":"township","lang":"en"}]}],"geometry":{"type":"GeometryCollection","geometries":[{"type":"Point","coordinates":[-2.67878,52.99681],"citations":[{"label":"GeoNames, gazetteer record geonames:7294358"}]},{"type":"Point","coordinates":[-2.685366722,52.99104536],"citations":[{"label":"English Place-Name Society survey (DEEP coordinates)"}]},{"type":"Point","coordinates":[-2.677988250826833,52.99558394387261],"citations":[{"label":"Unlock (EDINA) gazetteer, gazetteer record unlock:11324427"}]},{"type":"Point","coordinates":[-2.67934,52.9959],"citations":[{"label":"Key to English Place-Names (KEPN), gazetteer record 11932"}]}]},"when":{"timespans":[{"start":{"in":"1086"},"end":{"in":"1831"}}]},"links":[{"type":"closeMatch","identifier":"https://sws.geonames.org/7294358/"}],"relations":[{"relationType":"gvp:broaderPartitive","relationTo":"http://placenames.org.uk/id/placename/46/005599","label":"within Whitchurch"}]}]}