{"@context":"https://raw.githubusercontent.com/LinkedPasts/linked-places-format/main/linkedplaces-context-v1.1.jsonld","type":"FeatureCollection","license":"Digitisation of English Placenames MADS data is licensed to Jisc by the English Place Names Society and released under a Creative Commons Attribution-NonCommercial 4.0 International License.","note":"LPF v1.3, lossy; derived from the PLATO record; plato_commit=fa0d247ccc0263f8f19c8d7cdcd163df96935d1e","features":[{"@id":"https://w3id.org/whg-epns/46/006379","type":"Feature","properties":{"title":"Acton","ccodes":["GB"],"fclasses":["A","P"]},"names":[{"toponym":"Acton","lang":"en","citations":[{"label":"English Place-Name Society survey, volume 46: Cheshire"}]}],"types":[{"identifier":"http://vocab.getty.edu/aat/300232418","label":"administrative division","sourceLabels":[{"label":"parish","lang":"en"}]}],"geometry":{"type":"GeometryCollection","geometries":[{"type":"Point","coordinates":[-2.54893,53.06835],"citations":[{"label":"GeoNames, gazetteer record geonames:7299882"}]},{"type":"Point","coordinates":[-2.5523136,53.07265038],"citations":[{"label":"English Place-Name Society survey (DEEP coordinates)"}]},{"type":"Point","coordinates":[-2.544907180742852,53.07718074465703],"citations":[{"label":"Unlock (EDINA) gazetteer, gazetteer record unlock:11056494"}]},{"type":"Point","coordinates":[-2.54628,53.0775],"citations":[{"label":"Key to English Place-Names (KEPN), gazetteer record 11939"}]}]},"links":[{"type":"closeMatch","identifier":"https://sws.geonames.org/7299882/"}],"relations":[{"relationType":"gvp:broaderPartitive","relationTo":"https://w3id.org/whg-epns/46/000002","label":"within Nantwich Hundred"}]}]}