{"@context":"https://raw.githubusercontent.com/LinkedPasts/linked-places-format/main/linkedplaces-context-v1.1.jsonld","type":"FeatureCollection","license":"Digitisation of English Placenames MADS data is licensed to Jisc by the English Place Names Society and released under a Creative Commons Attribution-NonCommercial 4.0 International License.","note":"LPF v1.3, lossy; derived from the PLATO record; plato_commit=ca0afadabec1e23a145c0b03df77e8f151f79832","features":[{"@id":"http://placenames.org.uk/id/placename/46/010675","type":"Feature","properties":{"title":"Alvanley, Alvanley Hall","ccodes":["GB"],"fclasses":["A","P"]},"names":[{"toponym":"Alvanley, Alvanley Hall","lang":"en","citations":[{"label":"English Place-Name Society survey, volume 46: Cheshire"}]},{"toponym":"Elveldelie","citations":[{"label":"1086 DB","year":1086}],"when":{"timespans":[{"start":{"in":"1086"},"end":{"in":"1086"}}]}},{"toponym":"Alualdeleh","citations":[{"label":"1208-26 AddCh","year":1208}],"when":{"timespans":[{"start":{"earliest":"1208","latest":"1226"},"end":{"earliest":"1208","latest":"1226"}}]}},{"toponym":"Alvaldeley","citations":[{"label":"1209 Tab","year":1209}],"when":{"timespans":[{"start":{"in":"1209"},"end":{"in":"1209"}}]}},{"toponym":"Alualdeley","citations":[{"label":"1292 Ipm","year":1292}],"when":{"timespans":[{"start":{"in":"1292"},"end":{"in":"1292"}}]}},{"toponym":"Aluadeleya","citations":[{"label":"1216-29 Chest","year":1216}],"when":{"timespans":[{"start":{"earliest":"1216","latest":"1229"},"end":{"earliest":"1216","latest":"1229"}}]}},{"toponym":"Aluadeleg'","citations":[{"label":"1265-91 Chest","year":1265}],"when":{"timespans":[{"start":{"earliest":"1265","latest":"1291"},"end":{"earliest":"1265","latest":"1291"}}]}},{"toponym":"Aluedeleg'","citations":[{"label":"1265-91 Chest","year":1265}],"when":{"timespans":[{"start":{"earliest":"1265","latest":"1291"},"end":{"earliest":"1265","latest":"1291"}}]}},{"toponym":"Alvedelegh","citations":[{"label":"1346 BPR","year":1346}],"when":{"timespans":[{"start":{"in":"1346"},"end":{"in":"1346"}}]}},{"toponym":"Avandeley","citations":[{"label":"1292–1724, recurring Ipm","year":1292},{"label":"1292–1724, recurring NotCestr"},{"label":"1292 Ipm","year":1292},{"label":"1724 NotCestr","year":1724}],"when":{"timespans":[{"start":{"in":"1292"},"end":{"in":"1724"}},{"start":{"in":"1292"},"end":{"in":"1292"}},{"start":{"in":"1724"},"end":{"in":"1724"}}]}},{"toponym":"Aluandeley, Alvand(e)ley(e), Alvand(e)legh","citations":[{"label":"1292-1724 unspecified sources","year":1292}],"when":{"timespans":[{"start":{"in":"1292"},"end":{"in":"1724"}}]}},{"toponym":"capella de Avandeley","citations":[{"label":"1468 MinAcct","year":1468}],"when":{"timespans":[{"start":{"in":"1468"},"end":{"in":"1468"}}]}},{"toponym":"Alvanley","citations":[{"label":"1386 Sheaf","year":1386},{"label":"1562–1562, recurring ChRR","year":1562},{"label":"1562 ChRR","year":1562}],"when":{"timespans":[{"start":{"in":"1386"},"end":{"in":"1386"}},{"start":{"in":"1562"},"end":{"in":"1562"}},{"start":{"in":"1562"},"end":{"in":"1562"}}]}},{"toponym":"Alvanly","citations":[{"label":"1724 NotCestr","year":1724}],"when":{"timespans":[{"start":{"in":"1724"},"end":{"in":"1724"}}]}},{"toponym":"Alvanley Hall, the chapelry of Alvanley","citations":[{"label":"1831 Bry","year":1831}],"when":{"timespans":[{"start":{"in":"1831"},"end":{"in":"1831"}}]}},{"toponym":"Aluendeleye","citations":[{"label":"1294 ChFor","year":1294}],"when":{"timespans":[{"start":{"in":"1294"},"end":{"in":"1294"}}]}},{"toponym":"Alvendeleye, Alvendelegh","citations":[{"label":"1308 Misc","year":1308}],"when":{"timespans":[{"start":{"in":"1308"},"end":{"in":"1308"}}]}},{"toponym":"Alvendeley","citations":[{"label":"1729 Chol","year":1729}],"when":{"timespans":[{"start":{"in":"1729"},"end":{"in":"1729"}}]}},{"toponym":"Alvenley","citations":[{"label":"1581 Sheaf","year":1581}],"when":{"timespans":[{"start":{"in":"1581"},"end":{"in":"1581"}},{"start":{"in":"1666"},"end":{"in":"1666"}}]}},{"toponym":"Alvondelegh","citations":[{"label":"1315 Orm2","year":1315}],"when":{"timespans":[{"start":{"in":"1315"},"end":{"in":"1315"}}]}},{"toponym":"Alvonley","citations":[{"label":"1503 ChFor","year":1503}],"when":{"timespans":[{"start":{"in":"1503"},"end":{"in":"1503"}}]}},{"toponym":"Aluonley","citations":[{"label":"1641 Orm2","year":1641}],"when":{"timespans":[{"start":{"in":"1641"},"end":{"in":"1641"}}]}},{"toponym":"Alwandelegh","citations":[{"label":"1330 Cl","year":1330}],"when":{"timespans":[{"start":{"in":"1330"},"end":{"in":"1330"}}]}},{"toponym":"Olvendelegh","citations":[{"label":"1369 Bark","year":1369}],"when":{"timespans":[{"start":{"in":"1369"},"end":{"in":"1369"}}]}},{"toponym":"Almondelegh","citations":[{"label":"1497 ChRR","year":1497}],"when":{"timespans":[{"start":{"in":"1497"},"end":{"in":"1497"}}]}},{"toponym":"Albandelegh","citations":[{"label":"1540 Dugd","year":1540}],"when":{"timespans":[{"start":{"in":"1540"},"end":{"in":"1540"}}]}},{"toponym":"Abandley","citations":[{"label":"1553 Pat","year":1553}],"when":{"timespans":[{"start":{"in":"1553"},"end":{"in":"1553"}}]}},{"toponym":"Alvenerley","citations":[{"label":"1549 Sheaf","year":1549}],"when":{"timespans":[{"start":{"in":"1549"},"end":{"in":"1549"}}]}},{"toponym":"Avantley","citations":[{"label":"1611 Chol","year":1611}],"when":{"timespans":[{"start":{"in":"1611"},"end":{"in":"1611"}}]}},{"toponym":"Aulmeley","citations":[{"label":"1690 Sheaf","year":1690}],"when":{"timespans":[{"start":{"in":"1690"},"end":{"in":"1690"}}]}}],"types":[{"identifier":"http://vocab.getty.edu/aat/300232418","label":"administrative division","sourceLabels":[{"label":"township","lang":"en"}]}],"geometry":{"type":"GeometryCollection","geometries":[{"type":"Point","coordinates":[-2.75295,53.26008],"citations":[{"label":"GeoNames, gazetteer record geonames:2657396"}]},{"type":"Point","coordinates":[-2.749636536,53.26036479],"citations":[{"label":"English Place-Name Society survey (DEEP coordinates)"}]},{"type":"Point","coordinates":[-2.757053044262531,53.2558240673966],"citations":[{"label":"Unlock (EDINA) gazetteer, gazetteer record unlock:11061519"}]},{"type":"Point","coordinates":[-2.75857,53.2651],"citations":[{"label":"Key to English Place-Names (KEPN), gazetteer record 11976"}]}]},"when":{"timespans":[{"start":{"in":"1086"},"end":{"in":"1831"}}]},"links":[{"type":"closeMatch","identifier":"https://sws.geonames.org/2657396/"}],"relations":[{"relationType":"gvp:broaderPartitive","relationTo":"http://placenames.org.uk/id/placename/46/010674","label":"within Frodsham"}]}]}