{"@context":"https://raw.githubusercontent.com/LinkedPasts/linked-places-format/main/linkedplaces-context-v1.1.jsonld","type":"FeatureCollection","license":"Digitisation of English Placenames MADS data is licensed to Jisc by the English Place Names Society and released under a Creative Commons Attribution-NonCommercial 4.0 International License.","note":"LPF v1.3, lossy; derived from the PLATO record; plato_commit=ca0afadabec1e23a145c0b03df77e8f151f79832","features":[{"@id":"http://placenames.org.uk/id/placename/46/015164","type":"Feature","properties":{"title":"Calveley, Calveley Green & Calveley Hall","ccodes":["GB"],"fclasses":["A","P"]},"names":[{"toponym":"Calveley, Calveley Green & Calveley Hall","lang":"en","citations":[{"label":"English Place-Name Society survey, volume 46: Cheshire"}]},{"toponym":"Kaluileia, Kaluileh, Caluilee, Caluileg'","citations":[{"label":"1180–1474, recurring Chol","year":1180},{"label":"1180–1474, recurring ChRR"},{"label":"c.1180-1220 Chol","year":1180},{"label":"1474 ChRR","year":1474}],"when":{"timespans":[{"start":{"in":"1180"},"end":{"in":"1474"}},{"start":{"earliest":"1180","latest":"1220"},"end":{"earliest":"1180","latest":"1220"}},{"start":{"in":"1474"},"end":{"in":"1474"}}]}},{"toponym":"Kaluileg', Calvileg', Cal(l)vyleg', Caluile(gh), Caluiley(e), Caluil(ay)","citations":[{"label":"c.1180–1220-1474 unspecified sources","year":1180}],"when":{"timespans":[{"start":{"in":"1180"},"end":{"in":"1474"}}]}},{"toponym":"Keluileg'","citations":[{"label":"1202-9 Chol","year":1202}],"when":{"timespans":[{"start":{"earliest":"1202","latest":"1209"},"end":{"earliest":"1202","latest":"1209"}}]}},{"toponym":"Calueleg'","citations":[{"label":"1233-9 Chest","year":1233}],"when":{"timespans":[{"start":{"earliest":"1233","latest":"1239"},"end":{"earliest":"1233","latest":"1239"}}]}},{"toponym":"Caluelee","citations":[{"label":"a.1240 MidCh","year":1190}],"when":{"timespans":[{"start":{"earliest":"1190","latest":"1240"},"end":{"earliest":"1190","latest":"1240"}}]}},{"toponym":"Kalvelee","citations":[{"label":"1259 Court","year":1259}],"when":{"timespans":[{"start":{"in":"1259"},"end":{"in":"1259"}}]}},{"toponym":"Calveley","citations":[{"label":"1282–1282, recurring Court","year":1282},{"label":"1282 Court","year":1282}],"when":{"timespans":[{"start":{"in":"1282"},"end":{"in":"1282"}},{"start":{"in":"1282"},"end":{"in":"1282"}}]}},{"toponym":"Calueley, Calveleg(h), Calvele(e), Calvele(y)ghe, Calvely, Calveligh","citations":[{"label":"1282-1600 unspecified sources","year":1282}],"when":{"timespans":[{"start":{"in":"1282"},"end":{"in":"1600"}}]}},{"toponym":"Calveley Green","citations":[{"label":"1671 Sheaf","year":1671},{"label":"1842 OS","year":1842}],"when":{"timespans":[{"start":{"in":"1671"},"end":{"in":"1671"}},{"start":{"in":"1842"},"end":{"in":"1842"}}]}},{"toponym":"Calveley Hall","citations":[{"label":"1724 NotCestr","year":1724}],"when":{"timespans":[{"start":{"in":"1724"},"end":{"in":"1724"}}]}},{"toponym":"Caveleg'","citations":[{"label":"1330 BW","year":1330}],"when":{"timespans":[{"start":{"in":"1330"},"end":{"in":"1330"}}]}},{"toponym":"Calleye","citations":[{"label":"1335 Pat","year":1335}],"when":{"timespans":[{"start":{"in":"1335"},"end":{"in":"1335"}}]}},{"toponym":"Calley","citations":[{"label":"1440 ChRR","year":1440},{"label":"1918 Sheaf","year":1918}],"when":{"timespans":[{"start":{"in":"1440"},"end":{"in":"1440"}},{"start":{"in":"1473"},"end":{"in":"1473"}},{"start":{"in":"1918"},"end":{"in":"1918"}}]}},{"toponym":"Callay","citations":[{"label":"1476 ChRR","year":1476}],"when":{"timespans":[{"start":{"in":"1476"},"end":{"in":"1476"}}]}},{"toponym":"Calverley","citations":[{"label":"1475 VR","year":1475}],"when":{"timespans":[{"start":{"in":"1475"},"end":{"in":"1475"}}]}},{"toponym":"Caverley","citations":[{"label":"1673 Sheaf","year":1673}],"when":{"timespans":[{"start":{"in":"1673"},"end":{"in":"1673"}}]}},{"toponym":"Caweley","citations":[{"label":"1559 ChRR","year":1559}],"when":{"timespans":[{"start":{"in":"1559"},"end":{"in":"1559"}}]}},{"toponym":"Cawley","citations":[{"label":"1918 Sheaf","year":1918}],"when":{"timespans":[{"start":{"in":"1918"},"end":{"in":"1918"}}]}}],"types":[{"identifier":"http://vocab.getty.edu/aat/300232418","label":"administrative division","sourceLabels":[{"label":"township","lang":"en"}]}],"geometry":{"type":"GeometryCollection","geometries":[{"type":"Point","coordinates":[-2.60874,53.12328],"citations":[{"label":"GeoNames, gazetteer record geonames:2653963"}]},{"type":"Point","coordinates":[-2.597840536,53.1263716],"citations":[{"label":"English Place-Name Society survey (DEEP coordinates)"}]},{"type":"Point","coordinates":[-2.605250122907732,53.12184019967309],"citations":[{"label":"Unlock (EDINA) gazetteer, gazetteer record unlock:11096865"}]},{"type":"Point","coordinates":[-2.60662,53.1221],"citations":[{"label":"Key to English Place-Names (KEPN), gazetteer record 12012"}]}]},"when":{"timespans":[{"start":{"in":"1180"},"end":{"in":"1918"}}]},"links":[{"type":"closeMatch","identifier":"https://sws.geonames.org/2653963/"}],"relations":[{"relationType":"gvp:broaderPartitive","relationTo":"http://placenames.org.uk/id/placename/46/014811","label":"within Bunbury"}]}]}