{"@context":"https://raw.githubusercontent.com/LinkedPasts/linked-places-format/main/linkedplaces-context-v1.1.jsonld","type":"FeatureCollection","license":"Digitisation of English Placenames MADS data is licensed to Jisc by the English Place Names Society and released under a Creative Commons Attribution-NonCommercial 4.0 International License.","note":"LPF v1.3, lossy; derived from the PLATO record; plato_commit=ca0afadabec1e23a145c0b03df77e8f151f79832","features":[{"@id":"http://placenames.org.uk/id/placename/46/015497","type":"Feature","properties":{"title":"Ridley, Ridley Farm, Ridley Green, Ridley Hall, Ridley Pool & Ridley Wood","ccodes":["GB"],"fclasses":["A","P"]},"names":[{"toponym":"Ridley, Ridley Farm, Ridley Green, Ridley Hall, Ridley Pool & Ridley Wood","lang":"en","citations":[{"label":"English Place-Name Society survey, volume 46: Cheshire"}]},{"toponym":"Ridle(i)a, Ridlee, Ridleh, Ridleg'","citations":[{"label":"1180-1220 Chol","year":1180}],"when":{"timespans":[{"start":{"earliest":"1180","latest":"1220"},"end":{"earliest":"1180","latest":"1220"}}]}},{"toponym":"Ridlegh","citations":[{"label":"1265-84 Chest","year":1265}],"when":{"timespans":[{"start":{"earliest":"1265","latest":"1284"},"end":{"earliest":"1265","latest":"1284"}}]}},{"toponym":"Rydlegh","citations":[{"label":"1331 ChRR","year":1331}],"when":{"timespans":[{"start":{"in":"1331"},"end":{"in":"1331"}}]}},{"toponym":"Ridle, Ridley","citations":[{"label":"1400 ChRR","year":1400}],"when":{"timespans":[{"start":{"in":"1400"},"end":{"in":"1400"}}]}},{"toponym":"Ryddlgh'","citations":[{"label":"1310 Chol","year":1310}],"when":{"timespans":[{"start":{"in":"1310"},"end":{"in":"1310"}}]}},{"toponym":"Ridle Hawlle Place, Ridle Parke & Ridle Poole","citations":[{"label":"c.1536 Leland","year":1526}],"when":{"timespans":[{"start":{"earliest":"1526","latest":"1546"},"end":{"earliest":"1526","latest":"1546"}}]}},{"toponym":"Ridley Pool","citations":[{"label":"1656 Orm2","year":1656}],"when":{"timespans":[{"start":{"in":"1656"},"end":{"in":"1656"}}]}},{"toponym":"Ridley Farme","citations":[{"label":"1657 Chol","year":1657}],"when":{"timespans":[{"start":{"in":"1657"},"end":{"in":"1657"}}]}},{"toponym":"Higher Ridley-greene & Lower Ridley-greene, Ridley-greene","citations":[{"label":"1671 Sheaf","year":1671},{"label":"1677 Chol","year":1677}],"when":{"timespans":[{"start":{"in":"1671"},"end":{"in":"1671"}},{"start":{"in":"1677"},"end":{"in":"1677"}}]}},{"toponym":"Ridley Hall","citations":[{"label":"1724 NotCestr","year":1724}],"when":{"timespans":[{"start":{"in":"1724"},"end":{"in":"1724"}}]}},{"toponym":"Ridley Farm, Ridley Green & Ridley Wood","citations":[{"label":"1831 Bry","year":1831}],"when":{"timespans":[{"start":{"in":"1831"},"end":{"in":"1831"}}]}},{"toponym":"Riddelegh","citations":[{"label":"c.1230 Chol","year":1220},{"label":"1460 ChRR","year":1460}],"when":{"timespans":[{"start":{"earliest":"1220","latest":"1240"},"end":{"earliest":"1220","latest":"1240"}},{"start":{"in":"1460"},"end":{"in":"1460"}}]}},{"toponym":"Ryddelegh","citations":[{"label":"c.1230 Chol","year":1220},{"label":"1460 ChRR","year":1460}],"when":{"timespans":[{"start":{"earliest":"1220","latest":"1240"},"end":{"earliest":"1220","latest":"1240"}},{"start":{"in":"1460"},"end":{"in":"1460"}}]}},{"toponym":"Riddeleg(h)","citations":[{"label":"c.1230 Chol","year":1220},{"label":"1460 ChRR","year":1460}],"when":{"timespans":[{"start":{"earliest":"1220","latest":"1240"},"end":{"earliest":"1220","latest":"1240"}},{"start":{"in":"1460"},"end":{"in":"1460"}}]}},{"toponym":"Riddeley(e)","citations":[{"label":"c.1230 Chol","year":1220},{"label":"1460 ChRR","year":1460}],"when":{"timespans":[{"start":{"earliest":"1220","latest":"1240"},"end":{"earliest":"1220","latest":"1240"}},{"start":{"in":"1460"},"end":{"in":"1460"}}]}},{"toponym":"Riddel(ee)","citations":[{"label":"c.1230 Chol","year":1220},{"label":"1460 ChRR","year":1460}],"when":{"timespans":[{"start":{"earliest":"1220","latest":"1240"},"end":{"earliest":"1220","latest":"1240"}},{"start":{"in":"1460"},"end":{"in":"1460"}}]}},{"toponym":"Ridele","citations":[{"label":"1272 Chol","year":1272}],"when":{"timespans":[{"start":{"in":"1272"},"end":{"in":"1272"}}]}},{"toponym":"Ridelegh","citations":[{"label":"1288 Orm2","year":1288},{"label":"1290–1561, recurring Plea","year":1290},{"label":"1290–1561, recurring Pat"},{"label":"1290 Plea","year":1290},{"label":"1561 Pat","year":1561}],"when":{"timespans":[{"start":{"in":"1288"},"end":{"in":"1288"}},{"start":{"in":"1290"},"end":{"in":"1561"}},{"start":{"in":"1290"},"end":{"in":"1290"}},{"start":{"in":"1561"},"end":{"in":"1561"}}]}},{"toponym":"Rydelegh, Rideleg', Rideley, Ridelgh, Ridelee","citations":[{"label":"1290-1561 unspecified sources","year":1290}],"when":{"timespans":[{"start":{"in":"1290"},"end":{"in":"1561"}}]}},{"toponym":"Rydeleng","citations":[{"label":"1297 Cl","year":1297}],"when":{"timespans":[{"start":{"in":"1297"},"end":{"in":"1297"}}]}},{"toponym":"Redlegh","citations":[{"label":"1297 IpmR","year":1297},{"label":"1326 ChRR","year":1326}],"when":{"timespans":[{"start":{"in":"1297"},"end":{"in":"1297"}},{"start":{"in":"1326"},"end":{"in":"1326"}}]}},{"toponym":"Reddeley","citations":[{"label":"1309 ChRR","year":1309},{"label":"1336 Orm2","year":1336}],"when":{"timespans":[{"start":{"in":"1309"},"end":{"in":"1309"}},{"start":{"in":"1336"},"end":{"in":"1336"}}]}},{"toponym":"Redele(gh)","citations":[{"label":"1321 City","year":1321}],"when":{"timespans":[{"start":{"in":"1321"},"end":{"in":"1321"}}]}},{"toponym":"Redilegh","citations":[{"label":"1378 Eyre","year":1378}],"when":{"timespans":[{"start":{"in":"1378"},"end":{"in":"1378"}}]}},{"toponym":"Rudle","citations":[{"label":"1320 Chol","year":1320}],"when":{"timespans":[{"start":{"in":"1320"},"end":{"in":"1320"}}]}},{"toponym":"Rudylegh","citations":[{"label":"1349 Rich","year":1349}],"when":{"timespans":[{"start":{"in":"1349"},"end":{"in":"1349"}}]}}],"types":[{"identifier":"http://vocab.getty.edu/aat/300232418","label":"administrative division","sourceLabels":[{"label":"township","lang":"en"}]}],"geometry":{"type":"GeometryCollection","geometries":[{"type":"Point","coordinates":[-2.66829,53.08298],"citations":[{"label":"GeoNames, gazetteer record geonames:7294571"}]},{"type":"Point","coordinates":[-2.686793674,53.08094054],"citations":[{"label":"English Place-Name Society survey (DEEP coordinates)"}]},{"type":"Point","coordinates":[-2.67925855322254,53.07648975164236],"citations":[{"label":"Unlock (EDINA) gazetteer, gazetteer record unlock:11255895"}]},{"type":"Point","coordinates":[-2.68061,53.0768],"citations":[{"label":"Key to English Place-Names (KEPN), gazetteer record 12015"}]}]},"when":{"timespans":[{"start":{"in":"1180"},"end":{"in":"1831"}}]},"links":[{"type":"closeMatch","identifier":"https://sws.geonames.org/7294571/"}],"relations":[{"relationType":"gvp:broaderPartitive","relationTo":"http://placenames.org.uk/id/placename/46/014811","label":"within Bunbury"}]}]}