{"@context":"https://raw.githubusercontent.com/LinkedPasts/linked-places-format/main/linkedplaces-context-v1.1.jsonld","type":"FeatureCollection","license":"Digitisation of English Placenames MADS data is licensed to Jisc by the English Place Names Society and released under a Creative Commons Attribution-NonCommercial 4.0 International License.","note":"LPF v1.3, lossy; derived from the PLATO record; plato_commit=ca0afadabec1e23a145c0b03df77e8f151f79832","features":[{"@id":"http://placenames.org.uk/id/placename/46/015604","type":"Feature","properties":{"title":"Spurstow, Spurstow Hall & Spurstow Lower Hall","ccodes":["GB"],"fclasses":["A","P"]},"names":[{"toponym":"Spurstow, Spurstow Hall & Spurstow Lower Hall","lang":"en","citations":[{"label":"English Place-Name Society survey, volume 46: Cheshire"}]},{"toponym":"Spuretone","citations":[{"label":"1086 DB","year":1086}],"when":{"timespans":[{"start":{"in":"1086"},"end":{"in":"1086"}}]}},{"toponym":"Sporstow","citations":[{"label":"1180–1220, recurring Chol","year":1180},{"label":"1180-1220 Chol","year":1180}],"when":{"timespans":[{"start":{"in":"1180"},"end":{"in":"1220"}},{"start":{"earliest":"1180","latest":"1220"},"end":{"earliest":"1180","latest":"1220"}}]}},{"toponym":"Sporistow","citations":[{"label":"1180-1600 unspecified sources","year":1180}],"when":{"timespans":[{"start":{"in":"1180"},"end":{"in":"1600"}}]}},{"toponym":"Sporustow","citations":[{"label":"1308 Adl","year":1308}],"when":{"timespans":[{"start":{"in":"1308"},"end":{"in":"1308"}}]}},{"toponym":"Sporstowe, Sporstou(e)","citations":[{"label":"1395 Chol","year":1395}],"when":{"timespans":[{"start":{"in":"1395"},"end":{"in":"1395"}}]}},{"toponym":"Sporstows","citations":[{"label":"1664 Sheaf","year":1664}],"when":{"timespans":[{"start":{"in":"1664"},"end":{"in":"1664"}}]}},{"toponym":"Spurestoa, Spurestou, Spuristou","citations":[{"label":"1180-1220 Chol","year":1180}],"when":{"timespans":[{"start":{"earliest":"1180","latest":"1220"},"end":{"earliest":"1180","latest":"1220"}}]}},{"toponym":"Spurstow(e)","citations":[{"label":"c.1280 Misc","year":1270},{"label":"1281–1281, recurring Chest","year":1281},{"label":"1281 Chest","year":1281}],"when":{"timespans":[{"start":{"earliest":"1270","latest":"1290"},"end":{"earliest":"1270","latest":"1290"}},{"start":{"in":"1281"},"end":{"in":"1281"}},{"start":{"in":"1281"},"end":{"in":"1281"}}]}},{"toponym":"Spurstou, Spurstaue","citations":[{"label":"1281-1600 unspecified sources","year":1281}],"when":{"timespans":[{"start":{"in":"1281"},"end":{"in":"1600"}}]}},{"toponym":"the Hall of Spurstowe","citations":[{"label":"1584 ChRR","year":1584}],"when":{"timespans":[{"start":{"in":"1584"},"end":{"in":"1584"}}]}},{"toponym":"manors of Spurstow and Spurstow Hall","citations":[{"label":"1605 Cre","year":1605}],"when":{"timespans":[{"start":{"in":"1605"},"end":{"in":"1605"}}]}},{"toponym":"Spurstow Hall Farm","citations":[{"label":"1806 Cre","year":1806}],"when":{"timespans":[{"start":{"in":"1806"},"end":{"in":"1806"}}]}},{"toponym":"Spurstow Hall, Spurstow Lower Hall","citations":[{"label":"1831 Bry","year":1831}],"when":{"timespans":[{"start":{"in":"1831"},"end":{"in":"1831"}}]}},{"toponym":"Spurtouwe","citations":[{"label":"1282 Court","year":1282}],"when":{"timespans":[{"start":{"in":"1282"},"end":{"in":"1282"}}]}},{"toponym":"Sprostowe","citations":[{"label":"1287 Court","year":1287}],"when":{"timespans":[{"start":{"in":"1287"},"end":{"in":"1287"}}]}},{"toponym":"Sproustou","citations":[{"label":"1313 Cre","year":1313}],"when":{"timespans":[{"start":{"in":"1313"},"end":{"in":"1313"}},{"start":{"in":"1434"},"end":{"in":"1434"}}]}},{"toponym":"Sproustowe","citations":[{"label":"1507 MinAcct","year":1507}],"when":{"timespans":[{"start":{"in":"1507"},"end":{"in":"1507"}}]}},{"toponym":"Spourstowe","citations":[{"label":"1359 Chol","year":1359}],"when":{"timespans":[{"start":{"in":"1359"},"end":{"in":"1359"}}]}},{"toponym":"Spourstow","citations":[{"label":"1366 MidCh","year":1366}],"when":{"timespans":[{"start":{"in":"1366"},"end":{"in":"1366"}}]}},{"toponym":"Spirstowe","citations":[{"label":"1400 Pat","year":1400}],"when":{"timespans":[{"start":{"in":"1400"},"end":{"in":"1400"}}]}},{"toponym":"Sperstou","citations":[{"label":"1413 Cl","year":1413}],"when":{"timespans":[{"start":{"in":"1413"},"end":{"in":"1413"}}]}},{"toponym":"Spurstall","citations":[{"label":"1550 MinAcct","year":1550}],"when":{"timespans":[{"start":{"in":"1550"},"end":{"in":"1550"}}]}},{"toponym":"Spurstoll","citations":[{"label":"1561 Pat","year":1561}],"when":{"timespans":[{"start":{"in":"1561"},"end":{"in":"1561"}}]}}],"types":[{"identifier":"http://vocab.getty.edu/aat/300232418","label":"administrative division","sourceLabels":[{"label":"township","lang":"en"}]}],"geometry":{"type":"GeometryCollection","geometries":[{"type":"Point","coordinates":[-2.6632,53.10798],"citations":[{"label":"GeoNames, gazetteer record geonames:2637171"}]},{"type":"Point","coordinates":[-2.657209136,53.09908807],"citations":[{"label":"English Place-Name Society survey (DEEP coordinates)"}]},{"type":"Point","coordinates":[-2.66474636286325,53.10354245284535],"citations":[{"label":"Unlock (EDINA) gazetteer, gazetteer record unlock:11289751"}]},{"type":"Point","coordinates":[-2.66624,53.1128],"citations":[{"label":"Key to English Place-Names (KEPN), gazetteer record 12016"}]}]},"when":{"timespans":[{"start":{"in":"1086"},"end":{"in":"1831"}}]},"links":[{"type":"closeMatch","identifier":"https://sws.geonames.org/2637171/"}],"relations":[{"relationType":"gvp:broaderPartitive","relationTo":"http://placenames.org.uk/id/placename/46/014811","label":"within Bunbury"}]}]}