{"@context":"https://raw.githubusercontent.com/LinkedPasts/linked-places-format/main/linkedplaces-context-v1.1.jsonld","type":"FeatureCollection","license":"Digitisation of English Placenames MADS data is licensed to Jisc by the English Place Names Society and released under a Creative Commons Attribution-NonCommercial 4.0 International License.","note":"LPF v1.3, lossy; derived from the PLATO record; plato_commit=fa0d247ccc0263f8f19c8d7cdcd163df96935d1e","features":[{"@id":"https://w3id.org/whg-epns/07/000948","type":"Feature","properties":{"title":"Newtimber","ccodes":["GB"],"fclasses":["A","P"]},"names":[{"toponym":"Newtimber","lang":"en","citations":[{"label":"English Place-Name Society survey, volume 7: Sussex"}]},{"toponym":"Nitimbre","citations":[{"label":"950 BCS","year":950},{"label":"1291 Tax","year":1291}],"when":{"timespans":[{"start":{"in":"0950"},"end":{"in":"0950"}},{"start":{"in":"1291"},"end":{"in":"1291"}}]}},{"toponym":"Nytimbre","citations":[{"label":"1248 Ass","year":1248},{"label":"1284 Ipm","year":1284},{"label":"1296 SR","year":1296}],"when":{"timespans":[{"start":{"in":"1248"},"end":{"in":"1248"}},{"start":{"in":"1284"},"end":{"in":"1284"}},{"start":{"in":"1296"},"end":{"in":"1296"}},{"start":{"in":"1327"},"end":{"in":"1327"}}]}},{"toponym":"Nytymbre","citations":[{"label":"1340 NI","year":1340},{"label":"1394 Lewes Deeds","year":1394}],"when":{"timespans":[{"start":{"in":"1340"},"end":{"in":"1340"}},{"start":{"in":"1394"},"end":{"in":"1394"}}]}},{"toponym":"Niuembre","citations":[{"label":"1086 DB","year":1086}],"when":{"timespans":[{"start":{"in":"1086"},"end":{"in":"1086"}}]}},{"toponym":"Newetymber","citations":[{"label":"1270 FF","year":1270}],"when":{"timespans":[{"start":{"in":"1270"},"end":{"in":"1270"}}]}},{"toponym":"Neutimbre","citations":[{"label":"1432 IpmR","year":1432}],"when":{"timespans":[{"start":{"in":"1432"},"end":{"in":"1432"}}]}}],"types":[{"identifier":"http://vocab.getty.edu/aat/300232418","label":"administrative division","sourceLabels":[{"label":"township","lang":"en"}]}],"geometry":{"type":"GeometryCollection","geometries":[{"type":"Point","coordinates":[-0.19312,50.89607],"citations":[{"label":"GeoNames, gazetteer record geonames:7292760"}]},{"type":"Point","coordinates":[-0.2006036851618942,50.90654211351241],"citations":[{"label":"Unlock (EDINA) gazetteer, gazetteer record unlock:11230696"}]},{"type":"Point","coordinates":[-0.202164,50.9071],"citations":[{"label":"Key to English Place-Names (KEPN), gazetteer record 7034"}]}]},"when":{"timespans":[{"start":{"in":"0950"},"end":{"in":"1432"}}]},"links":[{"type":"closeMatch","identifier":"https://sws.geonames.org/7292760/"}],"relations":[{"relationType":"gvp:broaderPartitive","relationTo":"https://w3id.org/whg-epns/07/000947","label":"within Newtimber"}]}]}