{"@context":"https://raw.githubusercontent.com/LinkedPasts/linked-places-format/main/linkedplaces-context-v1.1.jsonld","type":"FeatureCollection","license":"Digitisation of English Placenames MADS data is licensed to Jisc by the English Place Names Society and released under a Creative Commons Attribution-NonCommercial 4.0 International License.","note":"LPF v1.3, lossy; derived from the PLATO record; plato_commit=ca0afadabec1e23a145c0b03df77e8f151f79832","features":[{"@id":"https://w3id.org/whg-epns/07/000981","type":"Feature","properties":{"title":"Pyecombe","ccodes":["GB"],"fclasses":["A","P"]},"names":[{"toponym":"Pyecombe","lang":"en","citations":[{"label":"English Place-Name Society survey, volume 7: Sussex"}]},{"toponym":"Picumba","citations":[{"label":"t. Wm 2 Lewes","year":1087},{"label":"1180-1204 AD","year":1180}],"when":{"timespans":[{"start":{"earliest":"1087","latest":"1100"},"end":{"earliest":"1087","latest":"1100"}},{"start":{"earliest":"1180","latest":"1204"},"end":{"earliest":"1180","latest":"1204"}}]}},{"toponym":"Pycombe","citations":[{"label":"1272–1439, recurring Ipm","year":1272},{"label":"1272–1439, recurring IpmR"},{"label":"t. Ed 1 Ipm","year":1272},{"label":"1439 IpmR","year":1439}],"when":{"timespans":[{"start":{"in":"1272"},"end":{"in":"1439"}},{"start":{"earliest":"1272","latest":"1307"},"end":{"earliest":"1272","latest":"1307"}},{"start":{"in":"1439"},"end":{"in":"1439"}}]}},{"toponym":"Piccumbe","citations":[{"label":"c. 1100 AD","year":1090},{"label":"1305 FF","year":1305}],"when":{"timespans":[{"start":{"earliest":"1090","latest":"1110"},"end":{"earliest":"1090","latest":"1110"}},{"start":{"in":"1305"},"end":{"in":"1305"}}]}},{"toponym":"Pickumbe","citations":[{"label":"1248 Ass","year":1248}],"when":{"timespans":[{"start":{"in":"1248"},"end":{"in":"1248"}}]}},{"toponym":"Pikcomb","citations":[{"label":"1284 FA","year":1284}],"when":{"timespans":[{"start":{"in":"1284"},"end":{"in":"1284"}}]}},{"toponym":"Pykcumbe","citations":[{"label":"1296 SR","year":1296}],"when":{"timespans":[{"start":{"in":"1296"},"end":{"in":"1296"}}]}},{"toponym":"Pykcoumbe","citations":[{"label":"1332 SR","year":1332}],"when":{"timespans":[{"start":{"in":"1332"},"end":{"in":"1332"}}]}},{"toponym":"Pykcombe","citations":[{"label":"1476 IpmR","year":1476}],"when":{"timespans":[{"start":{"in":"1476"},"end":{"in":"1476"}}]}}],"types":[{"identifier":"http://vocab.getty.edu/aat/300232418","label":"administrative division","sourceLabels":[{"label":"township","lang":"en"}]}],"geometry":{"type":"GeometryCollection","geometries":[{"type":"Point","coordinates":[-0.15873,50.89689],"citations":[{"label":"GeoNames, gazetteer record geonames:7297493"}]},{"type":"Point","coordinates":[-0.1583083121524641,50.89688802936097],"citations":[{"label":"Unlock (EDINA) gazetteer, gazetteer record unlock:11251115"}]},{"type":"Point","coordinates":[-0.174085,50.8977],"citations":[{"label":"Key to English Place-Names (KEPN), gazetteer record 7036"}]}]},"when":{"timespans":[{"start":{"in":"1087"},"end":{"in":"1476"}}]},"links":[{"type":"closeMatch","identifier":"https://sws.geonames.org/7297493/"}],"relations":[{"relationType":"gvp:broaderPartitive","relationTo":"https://w3id.org/whg-epns/07/000980","label":"within Pyecombe"}]}]}