{"@context":"https://raw.githubusercontent.com/LinkedPasts/linked-places-format/main/linkedplaces-context-v1.1.jsonld","type":"FeatureCollection","license":"Digitisation of English Placenames MADS data is licensed to Jisc by the English Place Names Society and released under a Creative Commons Attribution-NonCommercial 4.0 International License.","note":"LPF v1.3, lossy; derived from the PLATO record; plato_commit=ca0afadabec1e23a145c0b03df77e8f151f79832","features":[{"@id":"http://placenames.org.uk/id/placename/07/001121","type":"Feature","properties":{"title":"Patcham","ccodes":["GB"],"fclasses":["A","P"]},"names":[{"toponym":"Patcham","lang":"en","citations":[{"label":"English Place-Name Society survey, volume 7: Sussex"}]},{"toponym":"Piceham","citations":[{"label":"1086 DB","year":1086}],"when":{"timespans":[{"start":{"in":"1086"},"end":{"in":"1086"}}]}},{"toponym":"Peccham","citations":[{"label":"1087–1476, recurring Lewes","year":1087},{"label":"1087–1476, recurring IpmR"},{"label":"t. Wm 2 Lewes","year":1087},{"label":"1476 IpmR","year":1476}],"when":{"timespans":[{"start":{"in":"1087"},"end":{"in":"1476"}},{"start":{"earliest":"1087","latest":"1100"},"end":{"earliest":"1087","latest":"1100"}},{"start":{"in":"1476"},"end":{"in":"1476"}}]}},{"toponym":"Pecham","citations":[{"label":"1291 Tax","year":1291}],"when":{"timespans":[{"start":{"in":"1291"},"end":{"in":"1291"}}]}},{"toponym":"Pechham","citations":[{"label":"1315 AD","year":1315}],"when":{"timespans":[{"start":{"in":"1315"},"end":{"in":"1315"}}]}},{"toponym":"Pecheham","citations":[{"label":"1377 Pat","year":1377}],"when":{"timespans":[{"start":{"in":"1377"},"end":{"in":"1377"}}]}},{"toponym":"Petcham","citations":[{"label":"1316 FA","year":1316},{"label":"1794 VCH","year":1794}],"when":{"timespans":[{"start":{"in":"1316"},"end":{"in":"1316"}},{"start":{"in":"1794"},"end":{"in":"1794"}}]}},{"toponym":"Peckham or Pecham or Patcham","citations":[{"label":"1664 VCH","year":1664}],"when":{"timespans":[{"start":{"in":"1664"},"end":{"in":"1664"}}]}}],"types":[{"identifier":"http://vocab.getty.edu/aat/300232418","label":"administrative division","sourceLabels":[{"label":"township","lang":"en"}]}],"geometry":{"type":"GeometryCollection","geometries":[{"type":"Point","coordinates":[-0.15003,50.86396],"citations":[{"label":"GeoNames, gazetteer record geonames:2640582"}]},{"type":"Point","coordinates":[-0.1455228336305199,50.86070788272655],"citations":[{"label":"Unlock (EDINA) gazetteer, gazetteer record unlock:11241109"}]},{"type":"Point","coordinates":[-0.146731,50.8703],"citations":[{"label":"Key to English Place-Names (KEPN), gazetteer record 7043"}]}]},"when":{"timespans":[{"start":{"in":"1086"},"end":{"in":"1794"}}]},"links":[{"type":"closeMatch","identifier":"https://sws.geonames.org/2640582/"}],"relations":[{"relationType":"gvp:broaderPartitive","relationTo":"http://placenames.org.uk/id/placename/07/001120","label":"within Patcham"}]}]}