{"@context":"https://raw.githubusercontent.com/LinkedPasts/linked-places-format/main/linkedplaces-context-v1.1.jsonld","type":"FeatureCollection","license":"Digitisation of English Placenames MADS data is licensed to Jisc by the English Place Names Society and released under a Creative Commons Attribution-NonCommercial 4.0 International License.","note":"LPF v1.3, lossy; derived from the PLATO record; plato_commit=ca0afadabec1e23a145c0b03df77e8f151f79832","features":[{"@id":"https://w3id.org/whg-epns/07/001397","type":"Feature","properties":{"title":"Streat","ccodes":["GB"],"fclasses":["A","P"]},"names":[{"toponym":"Streat","lang":"en","citations":[{"label":"English Place-Name Society survey, volume 7: Sussex"}]},{"toponym":"Estrat","citations":[{"label":"1086 DB","year":1086}],"when":{"timespans":[{"start":{"in":"1086"},"end":{"in":"1086"}}]}},{"toponym":"Strates","citations":[{"label":"1284 FA","year":1284}],"when":{"timespans":[{"start":{"in":"1284"},"end":{"in":"1284"}}]}},{"toponym":"Strete","citations":[{"label":"1271–1464, recurring Ipm","year":1271},{"label":"1271–1464, recurring IpmR"},{"label":"1271 Ipm","year":1271},{"label":"1464 IpmR","year":1464}],"when":{"timespans":[{"start":{"in":"1271"},"end":{"in":"1464"}},{"start":{"in":"1271"},"end":{"in":"1271"}},{"start":{"in":"1464"},"end":{"in":"1464"}}]}},{"toponym":"Stretes","citations":[{"label":"1296 Ipm","year":1296}],"when":{"timespans":[{"start":{"in":"1296"},"end":{"in":"1296"}}]}},{"toponym":"Streete","citations":[{"label":"1590 MarL","year":1590}],"when":{"timespans":[{"start":{"in":"1590"},"end":{"in":"1590"}}]}}],"types":[{"identifier":"http://vocab.getty.edu/aat/300232418","label":"administrative division","sourceLabels":[{"label":"township","lang":"en"}]}],"geometry":{"type":"GeometryCollection","geometries":[{"type":"Point","coordinates":[-0.07957,50.92193],"citations":[{"label":"GeoNames, gazetteer record geonames:7297426"}]},{"type":"Point","coordinates":[-0.0719153516186887,50.92247611993663],"citations":[{"label":"Unlock (EDINA) gazetteer, gazetteer record unlock:11294250"}]},{"type":"Point","coordinates":[-0.0734907,50.9231],"citations":[{"label":"Key to English Place-Names (KEPN), gazetteer record 7049"}]}]},"when":{"timespans":[{"start":{"in":"1086"},"end":{"in":"1590"}}]},"links":[{"type":"closeMatch","identifier":"https://sws.geonames.org/7297426/"}],"relations":[{"relationType":"gvp:broaderPartitive","relationTo":"https://w3id.org/whg-epns/07/001396","label":"within Streat"}]}]}