{"@context":"https://raw.githubusercontent.com/LinkedPasts/linked-places-format/main/linkedplaces-context-v1.1.jsonld","type":"FeatureCollection","license":"Digitisation of English Placenames MADS data is licensed to Jisc by the English Place Names Society and released under a Creative Commons Attribution-NonCommercial 4.0 International License.","note":"LPF v1.3, lossy; derived from the PLATO record; plato_commit=fa0d247ccc0263f8f19c8d7cdcd163df96935d1e","features":[{"@id":"https://w3id.org/whg-epns/07/001434","type":"Feature","properties":{"title":"Wivelsfield","ccodes":["GB"],"fclasses":["A","P"]},"names":[{"toponym":"Wivelsfield","lang":"en","citations":[{"label":"English Place-Name Society survey, volume 7: Sussex"}]}],"types":[{"identifier":"http://vocab.getty.edu/aat/300232418","label":"administrative division","sourceLabels":[{"label":"parish","lang":"en"}]}],"geometry":{"type":"GeometryCollection","geometries":[{"type":"Point","coordinates":[-0.09089,50.96908],"citations":[{"label":"GeoNames, gazetteer record geonames:2633719"}]},{"type":"Point","coordinates":[-0.08428937775800059,50.96765183248333],"citations":[{"label":"Unlock (EDINA) gazetteer, gazetteer record unlock:11324758"}]},{"type":"Point","coordinates":[-0.0858651,50.9682],"citations":[{"label":"Key to English Place-Names (KEPN), gazetteer record 7051"}]}]},"links":[{"type":"closeMatch","identifier":"https://sws.geonames.org/2633719/"}],"relations":[{"relationType":"gvp:broaderPartitive","relationTo":"https://w3id.org/whg-epns/07/001174","label":"within Streat Hundred"}]}]}