{"@context":"https://raw.githubusercontent.com/LinkedPasts/linked-places-format/main/linkedplaces-context-v1.1.jsonld","type":"FeatureCollection","license":"Digitisation of English Placenames MADS data is licensed to Jisc by the English Place Names Society and released under a Creative Commons Attribution-NonCommercial 4.0 International License.","note":"LPF v1.3, lossy; derived from the PLATO record; plato_commit=ca0afadabec1e23a145c0b03df77e8f151f79832","features":[{"@id":"http://placenames.org.uk/id/placename/07/001408","type":"Feature","properties":{"title":"Westmeston","ccodes":["GB"],"fclasses":["A","P"]},"names":[{"toponym":"Westmeston","lang":"en","citations":[{"label":"English Place-Name Society survey, volume 7: Sussex"}]},{"toponym":"Westmwætun","citations":[{"label":"c. 765 BCS","year":755}],"when":{"timespans":[{"start":{"earliest":"0755","latest":"0775"},"end":{"earliest":"0755","latest":"0775"}}]}},{"toponym":"Westmestun(e)","citations":[{"label":"1086 DB","year":1086},{"label":"1091-1125 AD","year":1091}],"when":{"timespans":[{"start":{"in":"1086"},"end":{"in":"1086"}},{"start":{"earliest":"1091","latest":"1125"},"end":{"earliest":"1091","latest":"1125"}}]}},{"toponym":"Westmeston","citations":[{"label":"1291–1291, recurring Tax","year":1291},{"label":"1291 Tax","year":1291}],"when":{"timespans":[{"start":{"in":"1291"},"end":{"in":"1291"}},{"start":{"in":"1291"},"end":{"in":"1291"}}]}},{"toponym":"Westminston","citations":[{"label":"1623 MarM","year":1623}],"when":{"timespans":[{"start":{"in":"1623"},"end":{"in":"1623"}}]}}],"types":[{"identifier":"http://vocab.getty.edu/aat/300232418","label":"administrative division","sourceLabels":[{"label":"township","lang":"en"}]}],"geometry":{"type":"GeometryCollection","geometries":[{"type":"Point","coordinates":[-0.09888,50.90693],"citations":[{"label":"GeoNames, gazetteer record geonames:2634344"}]},{"type":"Point","coordinates":[-0.1010892672351087,50.90496551331651],"citations":[{"label":"Unlock (EDINA) gazetteer, gazetteer record unlock:11318871"}]},{"type":"Point","coordinates":[-0.102661,50.9055],"citations":[{"label":"Key to English Place-Names (KEPN), gazetteer record 7050"}]}]},"when":{"timespans":[{"start":{"in":"0755"},"end":{"in":"1623"}}]},"links":[{"type":"closeMatch","identifier":"https://sws.geonames.org/2634344/"}],"relations":[{"relationType":"gvp:broaderPartitive","relationTo":"http://placenames.org.uk/id/placename/07/001407","label":"within Westmeston"}]}]}