{"@context":"https://raw.githubusercontent.com/LinkedPasts/linked-places-format/main/linkedplaces-context-v1.1.jsonld","type":"FeatureCollection","license":"Digitisation of English Placenames MADS data is licensed to Jisc by the English Place Names Society and released under a Creative Commons Attribution-NonCommercial 4.0 International License.","note":"LPF v1.3, lossy; derived from the PLATO record; plato_commit=ca0afadabec1e23a145c0b03df77e8f151f79832","features":[{"@id":"http://placenames.org.uk/id/placename/07/001597","type":"Feature","properties":{"title":"Stanmer","ccodes":["GB"],"fclasses":["A","P"]},"names":[{"toponym":"Stanmer","lang":"en","citations":[{"label":"English Place-Name Society survey, volume 7: Sussex"}]},{"toponym":"Stanmere","citations":[{"label":"765 BCS","year":765},{"label":"1086 DB","year":1086},{"label":"1232 Pat","year":1232},{"label":"1272 RH","year":1272},{"label":"1296 SR","year":1296}],"when":{"timespans":[{"start":{"in":"0765"},"end":{"in":"0765"}},{"start":{"in":"1086"},"end":{"in":"1086"}},{"start":{"in":"1232"},"end":{"in":"1232"}},{"start":{"in":"1272"},"end":{"in":"1272"}},{"start":{"in":"1296"},"end":{"in":"1296"}}]}},{"toponym":"Stamere","citations":[{"label":"1086 DB","year":1086},{"label":"1327 SR","year":1327}],"when":{"timespans":[{"start":{"in":"1086"},"end":{"in":"1086"}},{"start":{"in":"1327"},"end":{"in":"1327"}}]}},{"toponym":"Stamer","citations":[{"label":"1671 MarL","year":1671}],"when":{"timespans":[{"start":{"in":"1671"},"end":{"in":"1671"}}]}},{"toponym":"Stammer","citations":[{"label":"1690 MarM","year":1690}],"when":{"timespans":[{"start":{"in":"1690"},"end":{"in":"1690"}}]}},{"toponym":"Stanmer","citations":[{"label":"1787 SAC","year":1787}],"when":{"timespans":[{"start":{"in":"1787"},"end":{"in":"1787"}}]}},{"toponym":"Stonmere","citations":[{"label":"1291 Tax","year":1291}],"when":{"timespans":[{"start":{"in":"1291"},"end":{"in":"1291"}}]}}],"types":[{"identifier":"http://vocab.getty.edu/aat/300232418","label":"administrative division","sourceLabels":[{"label":"township","lang":"en"}]}],"geometry":{"type":"GeometryCollection","geometries":[{"type":"Point","coordinates":[-0.10265,50.87065],"citations":[{"label":"GeoNames, gazetteer record geonames:2637064"}]},{"type":"Point","coordinates":[-0.1025509157723689,50.86901145974807],"citations":[{"label":"Unlock (EDINA) gazetteer, gazetteer record unlock:11291058"}]},{"type":"Point","coordinates":[-0.104121,50.8696],"citations":[{"label":"Key to English Place-Names (KEPN), gazetteer record 7056"}]}]},"when":{"timespans":[{"start":{"in":"0765"},"end":{"in":"1787"}}]},"links":[{"type":"closeMatch","identifier":"https://sws.geonames.org/2637064/"}],"relations":[{"relationType":"gvp:broaderPartitive","relationTo":"http://placenames.org.uk/id/placename/07/001596","label":"within Stanmer"}]}]}