{"@context":"https://raw.githubusercontent.com/LinkedPasts/linked-places-format/main/linkedplaces-context-v1.1.jsonld","type":"FeatureCollection","license":"Digitisation of English Placenames MADS data is licensed to Jisc by the English Place Names Society and released under a Creative Commons Attribution-NonCommercial 4.0 International License.","note":"LPF v1.3, lossy; derived from the PLATO record; plato_commit=fa0d247ccc0263f8f19c8d7cdcd163df96935d1e","features":[{"@id":"https://w3id.org/whg-epns/07/001755","type":"Feature","properties":{"title":"Lewes","ccodes":["GB"],"fclasses":["A","P"]},"names":[{"toponym":"Lewes","lang":"en","citations":[{"label":"English Place-Name Society survey, volume 7: Sussex"}]},{"toponym":"(wiþ) Læwe","citations":[{"label":"961 BCS","year":961}],"when":{"timespans":[{"start":{"in":"0961"},"end":{"in":"0961"}}]}},{"toponym":"(to) Læwe","citations":[{"label":"c. 1100 Laws of Aethelred","year":1090}],"when":{"timespans":[{"start":{"earliest":"1090","latest":"1110"},"end":{"earliest":"1090","latest":"1110"}}]}},{"toponym":"juxta Læwes","citations":[{"label":"961 BCS","year":961},{"label":"Edgar Coins","year":959}],"when":{"timespans":[{"start":{"in":"0961"},"end":{"in":"0961"}},{"start":{"earliest":"0959","latest":"0975"},"end":{"earliest":"0959","latest":"0975"}},{"start":{"earliest":"1042","latest":"1066"},"end":{"earliest":"1042","latest":"1066"}}]}},{"toponym":"Leawes, Læwes","citations":[{"label":"c. 1150 FW","year":1140}],"when":{"timespans":[{"start":{"earliest":"1140","latest":"1160"},"end":{"earliest":"1140","latest":"1160"}}]}},{"toponym":"Leuuas","citations":[{"label":"1081-5 BM","year":1081},{"label":"1149-53 AC","year":1149}],"when":{"timespans":[{"start":{"earliest":"1081","latest":"1085"},"end":{"earliest":"1081","latest":"1085"}},{"start":{"earliest":"1149","latest":"1153"},"end":{"earliest":"1149","latest":"1153"}}]}},{"toponym":"Lewes","citations":[{"label":"DB","year":1086},{"label":"1086 DB","year":1086}],"when":{"timespans":[{"start":{"in":"1086"},"end":{"in":"1086"}},{"start":{"in":"1086"},"end":{"in":"1086"}}]}},{"toponym":"Lewis, Lewys","citations":[{"label":"1149-53 AC","year":1149},{"label":"1159 P","year":1159},{"label":"1519 AD","year":1519},{"label":"1616 Recov","year":1616},{"label":"1675 Ogilby","year":1675}],"when":{"timespans":[{"start":{"earliest":"1149","latest":"1153"},"end":{"earliest":"1149","latest":"1153"}},{"start":{"in":"1159"},"end":{"in":"1159"}},{"start":{"in":"1519"},"end":{"in":"1519"}},{"start":{"in":"1616"},"end":{"in":"1616"}},{"start":{"in":"1675"},"end":{"in":"1675"}}]}},{"toponym":"Lauuis","citations":[{"label":"1121 AC","year":1121}],"when":{"timespans":[{"start":{"in":"1121"},"end":{"in":"1121"}}]}},{"toponym":"Leawes, Leawys","citations":[{"label":"c. 1280 Ipm","year":1270}],"when":{"timespans":[{"start":{"earliest":"1270","latest":"1290"},"end":{"earliest":"1270","latest":"1290"}}]}},{"toponym":"Leuwes","citations":[{"label":"1292 AD","year":1292},{"label":"1296 SR","year":1296}],"when":{"timespans":[{"start":{"in":"1292"},"end":{"in":"1292"}},{"start":{"in":"1296"},"end":{"in":"1296"}}]}},{"toponym":"Luwes","citations":[{"label":"1308-12 Cl","year":1308}],"when":{"timespans":[{"start":{"earliest":"1308","latest":"1312"},"end":{"earliest":"1308","latest":"1312"}}]}},{"toponym":"Lews","citations":[{"label":"1359 Ipm","year":1359}],"when":{"timespans":[{"start":{"in":"1359"},"end":{"in":"1359"}}]}},{"toponym":"Lyewes","citations":[{"label":"1388 FF","year":1388}],"when":{"timespans":[{"start":{"in":"1388"},"end":{"in":"1388"}}]}}],"types":[{"identifier":"http://vocab.getty.edu/aat/300232418","label":"administrative division","sourceLabels":[{"label":"township","lang":"en"}]}],"geometry":{"type":"GeometryCollection","geometries":[{"type":"Point","coordinates":[0.01133,50.87363],"citations":[{"label":"GeoNames, gazetteer record geonames:2644559"}]},{"type":"Point","coordinates":[0.01146813921936529,50.87609618472853],"citations":[{"label":"Unlock (EDINA) gazetteer, gazetteer record unlock:11194428"}]},{"type":"Point","coordinates":[0.00988524,50.8767],"citations":[{"label":"Key to English Place-Names (KEPN), gazetteer record 7061"}]}]},"when":{"timespans":[{"start":{"in":"0959"},"end":{"in":"1675"}}]},"links":[{"type":"closeMatch","identifier":"https://sws.geonames.org/2644559/"}],"relations":[{"relationType":"gvp:broaderPartitive","relationTo":"https://w3id.org/whg-epns/07/001754","label":"within Lewes"}]}]}