{"@context":"https://raw.githubusercontent.com/LinkedPasts/linked-places-format/main/linkedplaces-context-v1.1.jsonld","type":"FeatureCollection","license":"Digitisation of English Placenames MADS data is licensed to Jisc by the English Place Names Society and released under a Creative Commons Attribution-NonCommercial 4.0 International License.","note":"LPF v1.3, lossy; derived from the PLATO record; plato_commit=fa0d247ccc0263f8f19c8d7cdcd163df96935d1e","features":[{"@id":"https://w3id.org/whg-epns/07/001879","type":"Feature","properties":{"title":"Newhaven","ccodes":["GB"],"fclasses":["A","P"]},"names":[{"toponym":"Newhaven","lang":"en","citations":[{"label":"English Place-Name Society survey, volume 7: Sussex"}]},{"toponym":"Mechinges","citations":[{"label":"t. Wm 2 Lewes","year":1087},{"label":"1272 AD","year":1272}],"when":{"timespans":[{"start":{"earliest":"1087","latest":"1100"},"end":{"earliest":"1087","latest":"1100"}},{"start":{"in":"1272"},"end":{"in":"1272"}}]}},{"toponym":"Mechingas","citations":[{"label":"1121 AD","year":1121}],"when":{"timespans":[{"start":{"in":"1121"},"end":{"in":"1121"}}]}},{"toponym":"Mechynges","citations":[{"label":"1295 Pat","year":1295}],"when":{"timespans":[{"start":{"in":"1295"},"end":{"in":"1295"}}]}},{"toponym":"Mecinges","citations":[{"label":"1091-1125 AD","year":1091},{"label":"1204 Cur","year":1204}],"when":{"timespans":[{"start":{"earliest":"1091","latest":"1125"},"end":{"earliest":"1091","latest":"1125"}},{"start":{"in":"1204"},"end":{"in":"1204"}}]}},{"toponym":"Mechyng, Meching","citations":[{"label":"SR","year":1296},{"label":"Ipm"},{"label":"1296 SR","year":1296},{"label":"1493 Ipm","year":1493}],"when":{"timespans":[{"start":{"in":"1296"},"end":{"in":"1493"}},{"start":{"in":"1296"},"end":{"in":"1296"}},{"start":{"in":"1493"},"end":{"in":"1493"}}]}},{"toponym":"Mychyng","citations":[{"label":"1531 SRS","year":1531}],"when":{"timespans":[{"start":{"in":"1531"},"end":{"in":"1531"}}]}},{"toponym":"Mychen","citations":[{"label":"1675 Ogilby","year":1675}],"when":{"timespans":[{"start":{"in":"1675"},"end":{"in":"1675"}}]}},{"toponym":"Mitching","citations":[{"label":"1732 Morden","year":1732}],"when":{"timespans":[{"start":{"in":"1732"},"end":{"in":"1732"}}]}},{"toponym":"Newhaven al. Michinge","citations":[{"label":"1586 MarL","year":1586}],"when":{"timespans":[{"start":{"in":"1586"},"end":{"in":"1586"}}]}},{"toponym":"Meetching al. Newhaven","citations":[{"label":"1685 MarL","year":1685}],"when":{"timespans":[{"start":{"in":"1685"},"end":{"in":"1685"}}]}},{"toponym":"Meeching(e)","citations":[{"label":"1656 BM","year":1656},{"label":"1729 Recov","year":1729}],"when":{"timespans":[{"start":{"in":"1656"},"end":{"in":"1656"}},{"start":{"in":"1729"},"end":{"in":"1729"}}]}}],"types":[{"identifier":"http://vocab.getty.edu/aat/300232418","label":"administrative division","sourceLabels":[{"label":"township","lang":"en"}]}],"geometry":{"type":"GeometryCollection","geometries":[{"type":"Point","coordinates":[0.05545,50.79693],"citations":[{"label":"GeoNames, gazetteer record geonames:2641637"}]},{"type":"Point","coordinates":[0.05053607139555764,50.79446391140615],"citations":[{"label":"Unlock (EDINA) gazetteer, gazetteer record unlock:11230085"}]},{"type":"Point","coordinates":[0.048952,50.7951],"citations":[{"label":"Key to English Place-Names (KEPN), gazetteer record 7065"}]}]},"when":{"timespans":[{"start":{"in":"1087"},"end":{"in":"1732"}}]},"links":[{"type":"closeMatch","identifier":"https://sws.geonames.org/2641637/"}],"relations":[{"relationType":"gvp:broaderPartitive","relationTo":"https://w3id.org/whg-epns/07/001878","label":"within Newhaven"}]}]}