{"@context":"https://raw.githubusercontent.com/LinkedPasts/linked-places-format/main/linkedplaces-context-v1.1.jsonld","type":"FeatureCollection","license":"Digitisation of English Placenames MADS data is licensed to Jisc by the English Place Names Society and released under a Creative Commons Attribution-NonCommercial 4.0 International License.","note":"LPF v1.3, lossy; derived from the PLATO record; plato_commit=ca0afadabec1e23a145c0b03df77e8f151f79832","features":[{"@id":"http://placenames.org.uk/id/placename/07/002365","type":"Feature","properties":{"title":"Tarring Neville","ccodes":["GB"],"fclasses":["A","P"]},"names":[{"toponym":"Tarring Neville","lang":"en","citations":[{"label":"English Place-Name Society survey, volume 7: Sussex"}]},{"toponym":"Toringes","citations":[{"label":"1086 DB","year":1086},{"label":"1194 P","year":1194}],"when":{"timespans":[{"start":{"in":"1086"},"end":{"in":"1086"}},{"start":{"in":"1194"},"end":{"in":"1194"}}]}},{"toponym":"Torringes","citations":[{"label":"1215 FF","year":1215}],"when":{"timespans":[{"start":{"in":"1215"},"end":{"in":"1215"}},{"start":{"in":"1251"},"end":{"in":"1251"}}]}},{"toponym":"Torryng(g)(e), Torringe","citations":[{"label":"1200–1565, recurring AD","year":1200},{"label":"1200–1565, recurring MinAcct"},{"label":"1200 AD","year":1200},{"label":"1565 MinAcct","year":1565}],"when":{"timespans":[{"start":{"in":"1200"},"end":{"in":"1565"}},{"start":{"in":"1200"},"end":{"in":"1200"}},{"start":{"in":"1565"},"end":{"in":"1565"}}]}},{"toponym":"Torringe by Lewes","citations":[{"label":"1335 Ipm","year":1335}],"when":{"timespans":[{"start":{"in":"1335"},"end":{"in":"1335"}}]}},{"toponym":"Terring(e)","citations":[{"label":"1274 RH","year":1274},{"label":"1291 Tax","year":1291}],"when":{"timespans":[{"start":{"in":"1274"},"end":{"in":"1274"}},{"start":{"in":"1291"},"end":{"in":"1291"}}]}},{"toponym":"Teringe","citations":[{"label":"1285 Ch","year":1285}],"when":{"timespans":[{"start":{"in":"1285"},"end":{"in":"1285"}}]}},{"toponym":"Terringes","citations":[{"label":"1291 Cl","year":1291}],"when":{"timespans":[{"start":{"in":"1291"},"end":{"in":"1291"}}]}},{"toponym":"Tarringes","citations":[{"label":"1291 MinAcct","year":1291}],"when":{"timespans":[{"start":{"in":"1291"},"end":{"in":"1291"}}]}},{"toponym":"Thoryng Nevell","citations":[{"label":"1339 CplM","year":1339}],"when":{"timespans":[{"start":{"in":"1339"},"end":{"in":"1339"}}]}},{"toponym":"Tyrryng Nevyle","citations":[{"label":"1559 Recov","year":1559}],"when":{"timespans":[{"start":{"in":"1559"},"end":{"in":"1559"}}]}},{"toponym":"Tarringe Nevell","citations":[{"label":"1588 Ct","year":1588}],"when":{"timespans":[{"start":{"in":"1588"},"end":{"in":"1588"}}]}}],"types":[{"identifier":"http://vocab.getty.edu/aat/300232418","label":"administrative division","sourceLabels":[{"label":"township","lang":"en"}]}],"geometry":{"type":"GeometryCollection","geometries":[{"type":"Point","coordinates":[0.04669,50.81488],"citations":[{"label":"GeoNames, gazetteer record geonames:2636200"}]},{"type":"Point","coordinates":[0.05132333822023055,50.81243954192512],"citations":[{"label":"Unlock (EDINA) gazetteer, gazetteer record unlock:11298043"}]},{"type":"Point","coordinates":[0.050132,50.822],"citations":[{"label":"Key to English Place-Names (KEPN), gazetteer record 7073"}]}]},"when":{"timespans":[{"start":{"in":"1086"},"end":{"in":"1588"}}]},"links":[{"type":"closeMatch","identifier":"https://sws.geonames.org/2636200/"}],"relations":[{"relationType":"gvp:broaderPartitive","relationTo":"http://placenames.org.uk/id/placename/07/002364","label":"within Tarring Neville"}]}]}