{"@context":"https://raw.githubusercontent.com/LinkedPasts/linked-places-format/main/linkedplaces-context-v1.1.jsonld","type":"FeatureCollection","license":"Digitisation of English Placenames MADS data is licensed to Jisc by the English Place Names Society and released under a Creative Commons Attribution-NonCommercial 4.0 International License.","note":"LPF v1.3, lossy; derived from the PLATO record; plato_commit=ca0afadabec1e23a145c0b03df77e8f151f79832","features":[{"@id":"https://w3id.org/whg-epns/07/002920","type":"Feature","properties":{"title":"West Firle","ccodes":["GB"],"fclasses":["A","P"]},"names":[{"toponym":"West Firle","lang":"en","citations":[{"label":"English Place-Name Society survey, volume 7: Sussex"}]},{"toponym":"Ferla, Ferle","citations":[{"label":"1086 DB","year":1086}],"when":{"timespans":[{"start":{"in":"1086"},"end":{"in":"1086"}}]}},{"toponym":"Ferles","citations":[{"label":"1189–1327, recurring Ch","year":1189},{"label":"1189–1327, recurring SR"},{"label":"1189 Ch","year":1189},{"label":"1327 SR","year":1327}],"when":{"timespans":[{"start":{"in":"1189"},"end":{"in":"1327"}},{"start":{"in":"1189"},"end":{"in":"1189"}},{"start":{"in":"1327"},"end":{"in":"1327"}}]}},{"toponym":"Estferles","citations":[{"label":"1254 FF","year":1254}],"when":{"timespans":[{"start":{"in":"1254"},"end":{"in":"1254"}}]}},{"toponym":"Westferles","citations":[{"label":"1255 FF","year":1255}],"when":{"timespans":[{"start":{"in":"1255"},"end":{"in":"1255"}}]}},{"toponym":"West(e)furle","citations":[{"label":"1591 MarL","year":1591}],"when":{"timespans":[{"start":{"in":"1591"},"end":{"in":"1591"}}]}},{"toponym":"Fierles","citations":[{"label":"1202 FF","year":1202}],"when":{"timespans":[{"start":{"in":"1202"},"end":{"in":"1202"}}]}},{"toponym":"Estfirle","citations":[{"label":"1235 FF","year":1235},{"label":"1297 Ipm","year":1297}],"when":{"timespans":[{"start":{"in":"1235"},"end":{"in":"1235"}},{"start":{"in":"1297"},"end":{"in":"1297"}}]}},{"toponym":"Firle","citations":[{"label":"1271 FF","year":1271}],"when":{"timespans":[{"start":{"in":"1271"},"end":{"in":"1271"}}]}},{"toponym":"Firles","citations":[{"label":"1407 IpmR","year":1407}],"when":{"timespans":[{"start":{"in":"1407"},"end":{"in":"1407"}}]}},{"toponym":"Fyrles","citations":[{"label":"1439 IpmR","year":1439}],"when":{"timespans":[{"start":{"in":"1439"},"end":{"in":"1439"}}]}},{"toponym":"Westfarles","citations":[{"label":"1309 Abbr","year":1309},{"label":"1386 Ass","year":1386}],"when":{"timespans":[{"start":{"in":"1309"},"end":{"in":"1309"}},{"start":{"in":"1386"},"end":{"in":"1386"}}]}},{"toponym":"Fereles","citations":[{"label":"1332 FF","year":1332}],"when":{"timespans":[{"start":{"in":"1332"},"end":{"in":"1332"}}]}},{"toponym":"Virle","citations":[{"label":"1412 FA","year":1412}],"when":{"timespans":[{"start":{"in":"1412"},"end":{"in":"1412"}}]}},{"toponym":"Westferlegh","citations":[{"label":"1438 Cicestr","year":1438}],"when":{"timespans":[{"start":{"in":"1438"},"end":{"in":"1438"}}]}},{"toponym":"Ffirley","citations":[{"label":"1538 SAC","year":1538}],"when":{"timespans":[{"start":{"in":"1538"},"end":{"in":"1538"}}]}},{"toponym":"Firley al. Fyrle","citations":[{"label":"1648 Recov","year":1648}],"when":{"timespans":[{"start":{"in":"1648"},"end":{"in":"1648"}}]}},{"toponym":"Westfryllys","citations":[{"label":"1509 LP","year":1509}],"when":{"timespans":[{"start":{"in":"1509"},"end":{"in":"1509"}}]}},{"toponym":"West frille","citations":[{"label":"1565 DuLa","year":1565}],"when":{"timespans":[{"start":{"in":"1565"},"end":{"in":"1565"}}]}}],"types":[{"identifier":"http://vocab.getty.edu/aat/300232418","label":"administrative division","sourceLabels":[{"label":"township","lang":"en"}]}],"geometry":{"type":"GeometryCollection","geometries":[{"type":"Point","coordinates":[0.08716,50.84475],"citations":[{"label":"GeoNames, gazetteer record geonames:2634416"}]},{"type":"Point","coordinates":[0.09549091916223437,50.84763334065527],"citations":[{"label":"Unlock (EDINA) gazetteer, gazetteer record unlock:11316810"}]},{"type":"Point","coordinates":[0.0938997,50.8482],"citations":[{"label":"Key to English Place-Names (KEPN), gazetteer record 7082"}]}]},"when":{"timespans":[{"start":{"in":"1086"},"end":{"in":"1648"}}]},"links":[{"type":"closeMatch","identifier":"https://sws.geonames.org/2634416/"}],"relations":[{"relationType":"gvp:broaderPartitive","relationTo":"https://w3id.org/whg-epns/07/002919","label":"within West Firle"}]}]}