{"@context":"https://raw.githubusercontent.com/LinkedPasts/linked-places-format/main/linkedplaces-context-v1.1.jsonld","type":"FeatureCollection","license":"Digitisation of English Placenames MADS data is licensed to Jisc by the English Place Names Society and released under a Creative Commons Attribution-NonCommercial 4.0 International License.","note":"LPF v1.3, lossy; derived from the PLATO record; plato_commit=fa0d247ccc0263f8f19c8d7cdcd163df96935d1e","features":[{"@id":"https://w3id.org/whg-epns/07/003005","type":"Feature","properties":{"title":"Flexborough Hundred","ccodes":["GB"],"fclasses":["A"]},"names":[{"toponym":"Flexborough Hundred","lang":"en","citations":[{"label":"English Place-Name Society survey, volume 7: Sussex"}]},{"toponym":"Flexeberg(e)","citations":[{"label":"1086 DB","year":1086},{"label":"1188 P","year":1188}],"when":{"timespans":[{"start":{"in":"1086"},"end":{"in":"1086"}},{"start":{"in":"1188"},"end":{"in":"1188"}}]}},{"toponym":"Flexbrow","citations":[{"label":"1565 DuLa","year":1565}],"when":{"timespans":[{"start":{"in":"1565"},"end":{"in":"1565"}}]}},{"toponym":"Fexeberge","citations":[{"label":"1195 P","year":1195}],"when":{"timespans":[{"start":{"in":"1195"},"end":{"in":"1195"}}]}},{"toponym":"Faxeberg(h)","citations":[{"label":"1248 Fees","year":1248},{"label":"1248 Ass","year":1248},{"label":"1285 CplM","year":1285},{"label":"1296 SR","year":1296}],"when":{"timespans":[{"start":{"in":"1248"},"end":{"in":"1248"}},{"start":{"in":"1248"},"end":{"in":"1248"}},{"start":{"in":"1285"},"end":{"in":"1285"}},{"start":{"in":"1296"},"end":{"in":"1296"}}]}},{"toponym":"Faxeberewe","citations":[{"label":"1272 RH","year":1272}],"when":{"timespans":[{"start":{"in":"1272"},"end":{"in":"1272"}}]}},{"toponym":"Faxberwe, Faxberge","citations":[{"label":"1272 RH","year":1272}],"when":{"timespans":[{"start":{"in":"1272"},"end":{"in":"1272"}}]}},{"toponym":"Faxberewe","citations":[{"label":"1275 SAC","year":1275}],"when":{"timespans":[{"start":{"in":"1275"},"end":{"in":"1275"}}]}},{"toponym":"Flaxbergh(e)","citations":[{"label":"1316 FA","year":1316},{"label":"1332 SR","year":1332}],"when":{"timespans":[{"start":{"in":"1316"},"end":{"in":"1316"}},{"start":{"in":"1332"},"end":{"in":"1332"}}]}},{"toponym":"Flaxebergh","citations":[{"label":"1327 SR","year":1327}],"when":{"timespans":[{"start":{"in":"1327"},"end":{"in":"1327"}}]}}],"types":[{"identifier":"http://vocab.getty.edu/aat/300232418","label":"administrative division","sourceLabels":[{"label":"hundred / wapentake","lang":"en"}]}],"geometry":null,"when":{"timespans":[{"start":{"in":"1086"},"end":{"in":"1565"}}]},"relations":[{"relationType":"gvp:broaderPartitive","relationTo":"https://w3id.org/whg-epns/07/001977","label":"within Rape of Pevensey"}]}]}