{"@context":"https://raw.githubusercontent.com/LinkedPasts/linked-places-format/main/linkedplaces-context-v1.1.jsonld","type":"FeatureCollection","license":"Digitisation of English Placenames MADS data is licensed to Jisc by the English Place Names Society and released under a Creative Commons Attribution-NonCommercial 4.0 International License.","note":"LPF v1.3, lossy; derived from the PLATO record; plato_commit=fa0d247ccc0263f8f19c8d7cdcd163df96935d1e","features":[{"@id":"https://w3id.org/whg-epns/07/003404","type":"Feature","properties":{"title":"Rotherfield","ccodes":["GB"],"fclasses":["A","P"]},"names":[{"toponym":"Rotherfield","lang":"en","citations":[{"label":"English Place-Name Society survey, volume 7: Sussex"}]},{"toponym":"Ridrefelda","citations":[{"label":"788 BCS","year":788},{"label":"790 BCS","year":790}],"when":{"timespans":[{"start":{"in":"0788"},"end":{"in":"0788"}},{"start":{"in":"0790"},"end":{"in":"0790"}}]}},{"toponym":"æt Hryðeranfelda","citations":[{"label":"c. 880 BCS","year":870}],"when":{"timespans":[{"start":{"earliest":"0870","latest":"0890"},"end":{"earliest":"0870","latest":"0890"}}]}},{"toponym":"Hryðerafeld","citations":[{"label":"c. 1030 Thorpe","year":1020}],"when":{"timespans":[{"start":{"earliest":"1020","latest":"1040"},"end":{"earliest":"1020","latest":"1040"}}]}},{"toponym":"Reredfelle","citations":[{"label":"1086 DB","year":1086}],"when":{"timespans":[{"start":{"in":"1086"},"end":{"in":"1086"}}]}},{"toponym":"Retheresfeld","citations":[{"label":"1089 BM","year":1089}],"when":{"timespans":[{"start":{"in":"1089"},"end":{"in":"1089"}}]}},{"toponym":"Rederesfeld, Retherfeld","citations":[{"label":"c. 1105 RegRoff","year":1095}],"when":{"timespans":[{"start":{"earliest":"1095","latest":"1115"},"end":{"earliest":"1095","latest":"1115"}}]}}],"types":[{"identifier":"http://vocab.getty.edu/aat/300232418","label":"administrative division","sourceLabels":[{"label":"township","lang":"en"}]}],"geometry":{"type":"GeometryCollection","geometries":[{"type":"Point","coordinates":[0.21943,51.04628],"citations":[{"label":"GeoNames, gazetteer record geonames:2639095"}]},{"type":"Point","coordinates":[0.2184508933449301,51.04324422913778],"citations":[{"label":"Unlock (EDINA) gazetteer, gazetteer record unlock:11272993"}]},{"type":"Point","coordinates":[0.216838,51.0438],"citations":[{"label":"Key to English Place-Names (KEPN), gazetteer record 7091"}]}]},"when":{"timespans":[{"start":{"in":"0788"},"end":{"in":"1115"}}]},"links":[{"type":"closeMatch","identifier":"https://sws.geonames.org/2639095/"}],"relations":[{"relationType":"gvp:broaderPartitive","relationTo":"https://w3id.org/whg-epns/07/003402","label":"within Rotherfield"}]}]}