{"@context":"https://raw.githubusercontent.com/LinkedPasts/linked-places-format/main/linkedplaces-context-v1.1.jsonld","type":"FeatureCollection","license":"Digitisation of English Placenames MADS data is licensed to Jisc by the English Place Names Society and released under a Creative Commons Attribution-NonCommercial 4.0 International License.","note":"LPF v1.3, lossy; derived from the PLATO record; plato_commit=fa0d247ccc0263f8f19c8d7cdcd163df96935d1e","features":[{"@id":"https://w3id.org/whg-epns/07/004136","type":"Feature","properties":{"title":"Shiplake Hundred","ccodes":["GB"],"fclasses":["A"]},"names":[{"toponym":"Shiplake Hundred","lang":"en","citations":[{"label":"English Place-Name Society survey, volume 7: Sussex"}]},{"toponym":"Schepelawe","citations":[{"label":"1180 P","year":1180}],"when":{"timespans":[{"start":{"in":"1180"},"end":{"in":"1180"}},{"start":{"in":"1188"},"end":{"in":"1188"}}]}},{"toponym":"Shippelake","citations":[{"label":"1248 Ass","year":1248}],"when":{"timespans":[{"start":{"in":"1248"},"end":{"in":"1248"}}]}},{"toponym":"Schiplak'","citations":[{"label":"1279 QW","year":1279}],"when":{"timespans":[{"start":{"in":"1279"},"end":{"in":"1279"}}]}},{"toponym":"Shepelake","citations":[{"label":"Ass","year":1262},{"label":"Ipm"},{"label":"1262 Ass","year":1262},{"label":"1359 Ipm","year":1359}],"when":{"timespans":[{"start":{"in":"1262"},"end":{"in":"1359"}},{"start":{"in":"1262"},"end":{"in":"1262"}},{"start":{"in":"1359"},"end":{"in":"1359"}}]}},{"toponym":"Sepelake, Schepelake","citations":[{"label":"1262-1359 unspecified sources","year":1262}],"when":{"timespans":[{"start":{"in":"1262"},"end":{"in":"1359"}}]}},{"toponym":"Sepenlake","citations":[{"label":"1292 MinAcct","year":1292}],"when":{"timespans":[{"start":{"in":"1292"},"end":{"in":"1292"}}]}},{"toponym":"Sheplake","citations":[{"label":"1359 Add","year":1359}],"when":{"timespans":[{"start":{"in":"1359"},"end":{"in":"1359"}}]}}],"types":[{"identifier":"http://vocab.getty.edu/aat/300232418","label":"administrative division","sourceLabels":[{"label":"hundred / wapentake","lang":"en"}]}],"geometry":null,"when":{"timespans":[{"start":{"in":"1180"},"end":{"in":"1359"}}]},"relations":[{"relationType":"gvp:broaderPartitive","relationTo":"https://w3id.org/whg-epns/07/001977","label":"within Rape of Pevensey"}]}]}