{"@context":"https://raw.githubusercontent.com/LinkedPasts/linked-places-format/main/linkedplaces-context-v1.1.jsonld","type":"FeatureCollection","license":"Digitisation of English Placenames MADS data is licensed to Jisc by the English Place Names Society and released under a Creative Commons Attribution-NonCommercial 4.0 International License.","note":"LPF v1.3, lossy; derived from the PLATO record; plato_commit=ca0afadabec1e23a145c0b03df77e8f151f79832","features":[{"@id":"https://w3id.org/whg-epns/07/004497","type":"Feature","properties":{"title":"Arlington","ccodes":["GB"],"fclasses":["A","P"]},"names":[{"toponym":"Arlington","lang":"en","citations":[{"label":"English Place-Name Society survey, volume 7: Sussex"}]},{"toponym":"Erlington, Herlintone","citations":[{"label":"1086 DB","year":1086}],"when":{"timespans":[{"start":{"in":"1086"},"end":{"in":"1086"}}]}},{"toponym":"Erlington, Erlyngton","citations":[{"label":"1230–1610, recurring P","year":1230},{"label":"1230–1610, recurring Norden"},{"label":"1230 P","year":1230},{"label":"1610 Norden","year":1610}],"when":{"timespans":[{"start":{"in":"1230"},"end":{"in":"1610"}},{"start":{"in":"1230"},"end":{"in":"1230"}},{"start":{"in":"1610"},"end":{"in":"1610"}}]}},{"toponym":"Erdlynton","citations":[{"label":"1309 Chancery Warrants","year":1309}],"when":{"timespans":[{"start":{"in":"1309"},"end":{"in":"1309"}}]}},{"toponym":"Arlyngton","citations":[{"label":"1573 FM","year":1573}],"when":{"timespans":[{"start":{"in":"1573"},"end":{"in":"1573"}}]}}],"types":[{"identifier":"http://vocab.getty.edu/aat/300232418","label":"administrative division","sourceLabels":[{"label":"township","lang":"en"}]}],"geometry":{"type":"GeometryCollection","geometries":[{"type":"Point","coordinates":[0.20552,50.85597],"citations":[{"label":"GeoNames, gazetteer record geonames:7298000"}]},{"type":"Point","coordinates":[0.194861767542928,50.84580597246653],"citations":[{"label":"Unlock (EDINA) gazetteer, gazetteer record unlock:11063722"}]},{"type":"Point","coordinates":[0.193259,50.8464],"citations":[{"label":"Key to English Place-Names (KEPN), gazetteer record 7104"}]}]},"when":{"timespans":[{"start":{"in":"1086"},"end":{"in":"1610"}}]},"links":[{"type":"closeMatch","identifier":"https://sws.geonames.org/7298000/"}],"relations":[{"relationType":"gvp:broaderPartitive","relationTo":"https://w3id.org/whg-epns/07/004496","label":"within Arlington"}]}]}