{"@context":"https://raw.githubusercontent.com/LinkedPasts/linked-places-format/main/linkedplaces-context-v1.1.jsonld","type":"FeatureCollection","license":"Digitisation of English Placenames MADS data is licensed to Jisc by the English Place Names Society and released under a Creative Commons Attribution-NonCommercial 4.0 International License.","note":"LPF v1.3, lossy; derived from the PLATO record; plato_commit=fa0d247ccc0263f8f19c8d7cdcd163df96935d1e","features":[{"@id":"https://w3id.org/whg-epns/07/004565","type":"Feature","properties":{"title":"Berwick","ccodes":["GB"],"fclasses":["A","P"]},"names":[{"toponym":"Berwick","lang":"en","citations":[{"label":"English Place-Name Society survey, volume 7: Sussex"}]},{"toponym":"Bernice, Berewice","citations":[{"label":"1086 DB","year":1086}],"when":{"timespans":[{"start":{"in":"1086"},"end":{"in":"1086"}}]}},{"toponym":"Berwicke al. South Berwick al. Barrike","citations":[{"label":"1571 SRS","year":1571}],"when":{"timespans":[{"start":{"in":"1571"},"end":{"in":"1571"}}]}},{"toponym":"Barwick(e)","citations":[{"label":"1587 MarL","year":1587},{"label":"1596 VCH","year":1596}],"when":{"timespans":[{"start":{"in":"1587"},"end":{"in":"1587"}},{"start":{"in":"1596"},"end":{"in":"1596"}}]}},{"toponym":"Berrycke","citations":[{"label":"1595 MarL","year":1595}],"when":{"timespans":[{"start":{"in":"1595"},"end":{"in":"1595"}}]}}],"types":[{"identifier":"http://vocab.getty.edu/aat/300232418","label":"administrative division","sourceLabels":[{"label":"township","lang":"en"}]}],"geometry":{"type":"GeometryCollection","geometries":[{"type":"Point","coordinates":[0.1545,50.82578],"citations":[{"label":"GeoNames, gazetteer record geonames:2655827"}]},{"type":"Point","coordinates":[0.1514485317259743,50.82862512282173],"citations":[{"label":"Unlock (EDINA) gazetteer, gazetteer record unlock:11076133"}]},{"type":"Point","coordinates":[0.149852,50.8292],"citations":[{"label":"Key to English Place-Names (KEPN), gazetteer record 7105"}]}]},"when":{"timespans":[{"start":{"in":"1086"},"end":{"in":"1596"}}]},"links":[{"type":"closeMatch","identifier":"https://sws.geonames.org/2655827/"}],"relations":[{"relationType":"gvp:broaderPartitive","relationTo":"https://w3id.org/whg-epns/07/004564","label":"within Berwick"}]}]}