{"@context":"https://raw.githubusercontent.com/LinkedPasts/linked-places-format/main/linkedplaces-context-v1.1.jsonld","type":"FeatureCollection","license":"Digitisation of English Placenames MADS data is licensed to Jisc by the English Place Names Society and released under a Creative Commons Attribution-NonCommercial 4.0 International License.","note":"LPF v1.3, lossy; derived from the PLATO record; plato_commit=ca0afadabec1e23a145c0b03df77e8f151f79832","features":[{"@id":"https://w3id.org/whg-epns/07/005359","type":"Feature","properties":{"title":"Hellingly","ccodes":["GB"],"fclasses":["A","P"]},"names":[{"toponym":"Hellingly","lang":"en","citations":[{"label":"English Place-Name Society survey, volume 7: Sussex"}]}],"types":[{"identifier":"http://vocab.getty.edu/aat/300232418","label":"administrative division","sourceLabels":[{"label":"parish","lang":"en"}]}],"geometry":{"type":"GeometryCollection","geometries":[{"type":"Point","coordinates":[0.24685,50.88787],"citations":[{"label":"GeoNames, gazetteer record geonames:2647160"}]},{"type":"Point","coordinates":[0.2538070202576879,50.88965643026083],"citations":[{"label":"Unlock (EDINA) gazetteer, gazetteer record unlock:11169656"}]},{"type":"Point","coordinates":[0.252196,50.8902],"citations":[{"label":"Key to English Place-Names (KEPN), gazetteer record 7119"}]}]},"links":[{"type":"closeMatch","identifier":"https://sws.geonames.org/2647160/"}],"relations":[{"relationType":"gvp:broaderPartitive","relationTo":"https://w3id.org/whg-epns/07/005228","label":"within Dill Hundred"}]}]}