{"@context":"https://raw.githubusercontent.com/LinkedPasts/linked-places-format/main/linkedplaces-context-v1.1.jsonld","type":"FeatureCollection","license":"Digitisation of English Placenames MADS data is licensed to Jisc by the English Place Names Society and released under a Creative Commons Attribution-NonCommercial 4.0 International License.","note":"LPF v1.3, lossy; derived from the PLATO record; plato_commit=ca0afadabec1e23a145c0b03df77e8f151f79832","features":[{"@id":"https://w3id.org/whg-epns/07/006047","type":"Feature","properties":{"title":"Burwash","ccodes":["GB"],"fclasses":["A","P"]},"names":[{"toponym":"Burwash","lang":"en","citations":[{"label":"English Place-Name Society survey, volume 7: Sussex"}]},{"toponym":"Burgers(a)","citations":[{"label":"12th AD","year":1100},{"label":"c. 1210 Pens","year":1200}],"when":{"timespans":[{"start":{"earliest":"1100","latest":"1200"},"end":{"earliest":"1100","latest":"1200"}},{"start":{"earliest":"1200","latest":"1220"},"end":{"earliest":"1200","latest":"1220"}}]}},{"toponym":"Burhercse","citations":[{"label":"a. 1170 BM","year":1120}],"when":{"timespans":[{"start":{"earliest":"1120","latest":"1170"},"end":{"earliest":"1120","latest":"1170"}}]}},{"toponym":"Burhers(e)","citations":[{"label":"1259 FF","year":1259},{"label":"1262 Ass","year":1262}],"when":{"timespans":[{"start":{"in":"1259"},"end":{"in":"1259"}},{"start":{"in":"1262"},"end":{"in":"1262"}}]}},{"toponym":"Burgherse","citations":[{"label":"1200–1378, recurring AD","year":1200},{"label":"1200–1378, recurring Pat"},{"label":"13th AD","year":1200},{"label":"1378 Pat","year":1378}],"when":{"timespans":[{"start":{"in":"1200"},"end":{"in":"1378"}},{"start":{"earliest":"1200","latest":"1300"},"end":{"earliest":"1200","latest":"1300"}},{"start":{"in":"1378"},"end":{"in":"1378"}}]}},{"toponym":"Burghersh(e), Burghersch(e), Burgherssh(e)","citations":[{"label":"13th-1378 unspecified sources","year":1200}],"when":{"timespans":[{"start":{"in":"1200"},"end":{"in":"1378"}}]}},{"toponym":"Burges(s)e","citations":[{"label":"1224 Bracton","year":1224},{"label":"1248 Ass","year":1248}],"when":{"timespans":[{"start":{"in":"1224"},"end":{"in":"1224"}},{"start":{"in":"1248"},"end":{"in":"1248"}}]}},{"toponym":"Burgheys","citations":[{"label":"1258 FF","year":1258}],"when":{"timespans":[{"start":{"in":"1258"},"end":{"in":"1258"}}]}},{"toponym":"Burghesse","citations":[{"label":"1279 Ass","year":1279}],"when":{"timespans":[{"start":{"in":"1279"},"end":{"in":"1279"}}]}},{"toponym":"Burchersse","citations":[{"label":"1263 FF","year":1263}],"when":{"timespans":[{"start":{"in":"1263"},"end":{"in":"1263"}}]}},{"toponym":"Burgheresse","citations":[{"label":"1304 Ipm","year":1304}],"when":{"timespans":[{"start":{"in":"1304"},"end":{"in":"1304"}}]}},{"toponym":"Borghurst, Borghesse","citations":[{"label":"1279 Ass","year":1279}],"when":{"timespans":[{"start":{"in":"1279"},"end":{"in":"1279"}}]}},{"toponym":"Borwhesse","citations":[{"label":"1302 RH","year":1302}],"when":{"timespans":[{"start":{"in":"1302"},"end":{"in":"1302"}}]}},{"toponym":"Burgherste","citations":[{"label":"1434 Pens","year":1434}],"when":{"timespans":[{"start":{"in":"1434"},"end":{"in":"1434"}}]}},{"toponym":"Berghers","citations":[{"label":"1296 SR","year":1296}],"when":{"timespans":[{"start":{"in":"1296"},"end":{"in":"1296"}}]}},{"toponym":"Bourgherssh","citations":[{"label":"1340 Misc","year":1340}],"when":{"timespans":[{"start":{"in":"1340"},"end":{"in":"1340"}}]}},{"toponym":"Burgasshe","citations":[{"label":"1378 IpmR","year":1378}],"when":{"timespans":[{"start":{"in":"1378"},"end":{"in":"1378"}}]}},{"toponym":"Burgwassh","citations":[{"label":"1428 IpmR","year":1428}],"when":{"timespans":[{"start":{"in":"1428"},"end":{"in":"1428"}}]}},{"toponym":"Burgherssh al. Burwassh","citations":[{"label":"1440 Cicestr","year":1440}],"when":{"timespans":[{"start":{"in":"1440"},"end":{"in":"1440"}}]}},{"toponym":"Burghwysh, Burwesshe","citations":[{"label":"1535 VE","year":1535}],"when":{"timespans":[{"start":{"in":"1535"},"end":{"in":"1535"}}]}},{"toponym":"Burghershe al. Burwish","citations":[{"label":"1580 SRS","year":1580}],"when":{"timespans":[{"start":{"in":"1580"},"end":{"in":"1580"}}]}},{"toponym":"Bur(r)ishe","citations":[{"label":"1586 MarL","year":1586}],"when":{"timespans":[{"start":{"in":"1586"},"end":{"in":"1586"}},{"start":{"in":"1620"},"end":{"in":"1620"}}]}},{"toponym":"Burhurst al. Burwash al. Burrysh","citations":[{"label":"1603 SRS","year":1603}],"when":{"timespans":[{"start":{"in":"1603"},"end":{"in":"1603"}}]}}],"types":[{"identifier":"http://vocab.getty.edu/aat/300232418","label":"administrative division","sourceLabels":[{"label":"township","lang":"en"}]}],"geometry":{"type":"GeometryCollection","geometries":[{"type":"Point","coordinates":[0.38504,50.99755],"citations":[{"label":"GeoNames, gazetteer record geonames:2654196"}]},{"type":"Point","coordinates":[0.3871867072687811,50.99494347954103],"citations":[{"label":"Unlock (EDINA) gazetteer, gazetteer record unlock:11094217"}]},{"type":"Point","coordinates":[0.385557,50.9955],"citations":[{"label":"Key to English Place-Names (KEPN), gazetteer record 7125"}]}]},"when":{"timespans":[{"start":{"in":"1100"},"end":{"in":"1620"}}]},"links":[{"type":"closeMatch","identifier":"https://sws.geonames.org/2654196/"}],"relations":[{"relationType":"gvp:broaderPartitive","relationTo":"https://w3id.org/whg-epns/07/006046","label":"within Burwash"}]}]}