{"@context":"https://raw.githubusercontent.com/LinkedPasts/linked-places-format/main/linkedplaces-context-v1.1.jsonld","type":"FeatureCollection","license":"Digitisation of English Placenames MADS data is licensed to Jisc by the English Place Names Society and released under a Creative Commons Attribution-NonCommercial 4.0 International License.","note":"LPF v1.3, lossy; derived from the PLATO record; plato_commit=ca0afadabec1e23a145c0b03df77e8f151f79832","features":[{"@id":"http://placenames.org.uk/id/placename/07/008185","type":"Feature","properties":{"title":"Peasmarsh","ccodes":["GB"],"fclasses":["A","P"]},"names":[{"toponym":"Peasmarsh","lang":"en","citations":[{"label":"English Place-Name Society survey, volume 7: Sussex"}]},{"toponym":"Pisemers(h)e, Pysemers(h)e","citations":[{"label":"12th AD","year":1100},{"label":"1247 Pat","year":1247}],"when":{"timespans":[{"start":{"earliest":"1100","latest":"1200"},"end":{"earliest":"1100","latest":"1200"}},{"start":{"in":"1247"},"end":{"in":"1247"}}]}},{"toponym":"Pesemers(h)e, Pesemersse","citations":[{"label":"1248–1535, recurring Ass","year":1248},{"label":"1248–1535, recurring VE"},{"label":"1248 Ass","year":1248},{"label":"1535 VE","year":1535}],"when":{"timespans":[{"start":{"in":"1248"},"end":{"in":"1535"}},{"start":{"in":"1248"},"end":{"in":"1248"}},{"start":{"in":"1535"},"end":{"in":"1535"}}]}},{"toponym":"Pesmersshe","citations":[{"label":"1248-1535 unspecified sources","year":1248}],"when":{"timespans":[{"start":{"in":"1248"},"end":{"in":"1535"}}]}},{"toponym":"Pesmarshe","citations":[{"label":"1420 IpmR","year":1420}],"when":{"timespans":[{"start":{"in":"1420"},"end":{"in":"1420"}}]}},{"toponym":"Peysmerche","citations":[{"label":"1496 FF","year":1496}],"when":{"timespans":[{"start":{"in":"1496"},"end":{"in":"1496"}}]}},{"toponym":"Peasmershe","citations":[{"label":"1588 MarL","year":1588}],"when":{"timespans":[{"start":{"in":"1588"},"end":{"in":"1588"}}]}}],"types":[{"identifier":"http://vocab.getty.edu/aat/300232418","label":"administrative division","sourceLabels":[{"label":"township","lang":"en"}]}],"geometry":{"type":"GeometryCollection","geometries":[{"type":"Point","coordinates":[0.68913,50.97262],"citations":[{"label":"GeoNames, gazetteer record geonames:2640536"}]},{"type":"Point","coordinates":[0.6713940238332703,50.97979142701521],"citations":[{"label":"Unlock (EDINA) gazetteer, gazetteer record unlock:11241500"}]},{"type":"Point","coordinates":[0.683444,50.9711],"citations":[{"label":"Key to English Place-Names (KEPN), gazetteer record 7159"}]}]},"when":{"timespans":[{"start":{"in":"1100"},"end":{"in":"1588"}}]},"links":[{"type":"closeMatch","identifier":"https://sws.geonames.org/2640536/"}],"relations":[{"relationType":"gvp:broaderPartitive","relationTo":"http://placenames.org.uk/id/placename/07/008184","label":"within Peasmarsh"}]}]}