{"@context":"https://raw.githubusercontent.com/LinkedPasts/linked-places-format/main/linkedplaces-context-v1.1.jsonld","type":"FeatureCollection","license":"Digitisation of English Placenames MADS data is licensed to Jisc by the English Place Names Society and released under a Creative Commons Attribution-NonCommercial 4.0 International License.","note":"LPF v1.3, lossy; derived from the PLATO record; plato_commit=ca0afadabec1e23a145c0b03df77e8f151f79832","features":[{"@id":"https://w3id.org/whg-epns/07/008158","type":"Feature","properties":{"title":"Iden","ccodes":["GB"],"fclasses":["A","P"]},"names":[{"toponym":"Iden","lang":"en","citations":[{"label":"English Place-Name Society survey, volume 7: Sussex"}]},{"toponym":"Idene","citations":[{"label":"1086–1535, recurring DB","year":1086},{"label":"1086–1535, recurring VE"},{"label":"1086 DB","year":1086},{"label":"1535 VE","year":1535}],"when":{"timespans":[{"start":{"in":"1086"},"end":{"in":"1535"}},{"start":{"in":"1086"},"end":{"in":"1086"}},{"start":{"in":"1535"},"end":{"in":"1535"}}]}},{"toponym":"Idenne, Iden","citations":[{"label":"1086-1535 unspecified sources","year":1086}],"when":{"timespans":[{"start":{"in":"1086"},"end":{"in":"1535"}}]}},{"toponym":"Hiden","citations":[{"label":"1204 Abbr","year":1204},{"label":"1361 IpmR","year":1361}],"when":{"timespans":[{"start":{"in":"1204"},"end":{"in":"1204"}},{"start":{"in":"1361"},"end":{"in":"1361"}}]}},{"toponym":"Hyde","citations":[{"label":"1261 Ass","year":1261}],"when":{"timespans":[{"start":{"in":"1261"},"end":{"in":"1261"}}]}}],"types":[{"identifier":"http://vocab.getty.edu/aat/300232418","label":"administrative division","sourceLabels":[{"label":"township","lang":"en"}]}],"geometry":{"type":"GeometryCollection","geometries":[{"type":"Point","coordinates":[0.73102,50.98197],"citations":[{"label":"GeoNames, gazetteer record geonames:2646294"}]},{"type":"Point","coordinates":[0.7283153737172431,50.97847495488632],"citations":[{"label":"Unlock (EDINA) gazetteer, gazetteer record unlock:11182132"}]},{"type":"Point","coordinates":[0.726648,50.9791],"citations":[{"label":"Key to English Place-Names (KEPN), gazetteer record 7158"}]}]},"when":{"timespans":[{"start":{"in":"1086"},"end":{"in":"1535"}}]},"links":[{"type":"closeMatch","identifier":"https://sws.geonames.org/2646294/"}],"relations":[{"relationType":"gvp:broaderPartitive","relationTo":"https://w3id.org/whg-epns/07/008157","label":"within Iden"}]}]}