{"@context":"https://raw.githubusercontent.com/LinkedPasts/linked-places-format/main/linkedplaces-context-v1.1.jsonld","type":"FeatureCollection","license":"Digitisation of English Placenames MADS data is licensed to Jisc by the English Place Names Society and released under a Creative Commons Attribution-NonCommercial 4.0 International License.","note":"LPF v1.3, lossy; derived from the PLATO record; plato_commit=ca0afadabec1e23a145c0b03df77e8f151f79832","features":[{"@id":"http://placenames.org.uk/id/placename/70/000009","type":"Feature","properties":{"title":"Alberbury","ccodes":["GB"],"fclasses":["A","P"]},"names":[{"toponym":"Alberbury","lang":"en","citations":[{"label":"English Place-Name Society survey, volume 70: Shropshire"}]},{"toponym":"Alberberie","citations":[{"label":"1086 DB","year":1086}],"when":{"timespans":[{"start":{"in":"1086"},"end":{"in":"1086"}}]}},{"toponym":"Alberberia","citations":[{"label":"1155 SAC","year":1155}],"when":{"timespans":[{"start":{"in":"1155"},"end":{"in":"1155"}}]}},{"toponym":"Alberbur'","citations":[{"label":"1242 Fees","year":1242},{"label":"1255 RH","year":1255},{"label":"1271-2 Ass","year":1271}],"when":{"timespans":[{"start":{"in":"1242"},"end":{"in":"1242"}},{"start":{"in":"1255"},"end":{"in":"1255"}},{"start":{"earliest":"1271","latest":"1272"},"end":{"earliest":"1271","latest":"1272"}}]}},{"toponym":"Alberbyr'","citations":[{"label":"1255-6 Ass","year":1255}],"when":{"timespans":[{"start":{"earliest":"1255","latest":"1256"},"end":{"earliest":"1255","latest":"1256"}}]}},{"toponym":"Alberbury","citations":[{"label":"1274 Ipm","year":1274}],"when":{"timespans":[{"start":{"in":"1274"},"end":{"in":"1274"}}]}},{"toponym":"Alburbury","citations":[{"label":"1293–1617, recurring Pat","year":1293},{"label":"1293–1617, recurring PR(L)"},{"label":"1293 Pat","year":1293},{"label":"1617 PR(L)","year":1617}],"when":{"timespans":[{"start":{"in":"1293"},"end":{"in":"1617"}},{"start":{"in":"1293"},"end":{"in":"1293"}},{"start":{"in":"1617"},"end":{"in":"1617"}}]}},{"toponym":"Alburburi","citations":[{"label":"1346 FA","year":1346}],"when":{"timespans":[{"start":{"in":"1346"},"end":{"in":"1346"}}]}},{"toponym":"Alburbiry","citations":[{"label":"1363 Pat","year":1363}],"when":{"timespans":[{"start":{"in":"1363"},"end":{"in":"1363"}}]}},{"toponym":"Alberberry","citations":[{"label":"1744 PR(L)","year":1744}],"when":{"timespans":[{"start":{"in":"1744"},"end":{"in":"1744"}}]}},{"toponym":"Alburbery","citations":[{"label":"1810 PR(StA)","year":1810}],"when":{"timespans":[{"start":{"in":"1810"},"end":{"in":"1810"}}]}},{"toponym":"Abberbure","citations":[{"label":"1232 Ch","year":1232}],"when":{"timespans":[{"start":{"in":"1232"},"end":{"in":"1232"}}]}},{"toponym":"Abberbur', Abburbur'","citations":[{"label":"1259 Cl","year":1259}],"when":{"timespans":[{"start":{"in":"1259"},"end":{"in":"1259"}}]}},{"toponym":"Abberbir","citations":[{"label":"1268 Cl","year":1268}],"when":{"timespans":[{"start":{"in":"1268"},"end":{"in":"1268"}}]}},{"toponym":"Abberbury","citations":[{"label":"1291–1767, recurring Ass","year":1291},{"label":"1291–1767, recurring PR(H)"},{"label":"1291-2 Ass","year":1291},{"label":"1767 PR(H)","year":1767}],"when":{"timespans":[{"start":{"in":"1291"},"end":{"in":"1767"}},{"start":{"earliest":"1291","latest":"1292"},"end":{"earliest":"1291","latest":"1292"}},{"start":{"in":"1767"},"end":{"in":"1767"}}]}},{"toponym":"Abburbury","citations":[{"label":"1347 Cl","year":1347}],"when":{"timespans":[{"start":{"in":"1347"},"end":{"in":"1347"}}]}},{"toponym":"Aberbury","citations":[{"label":"1607 PR(StA)","year":1607},{"label":"1675 Ogilby","year":1675}],"when":{"timespans":[{"start":{"in":"1607"},"end":{"in":"1607"}},{"start":{"in":"1675"},"end":{"in":"1675"}}]}},{"toponym":"Aberberry","citations":[{"label":"1658 PR(StA)","year":1658}],"when":{"timespans":[{"start":{"in":"1658"},"end":{"in":"1658"}}]}},{"toponym":"Abberberry","citations":[{"label":"1799 PR(L)","year":1799}],"when":{"timespans":[{"start":{"in":"1799"},"end":{"in":"1799"}}]}},{"toponym":"Albebur'","citations":[{"label":"1271-2 Ass","year":1271}],"when":{"timespans":[{"start":{"earliest":"1271","latest":"1272"},"end":{"earliest":"1271","latest":"1272"}}]}},{"toponym":"Auberburi","citations":[{"label":"1271-2 Ass","year":1271}],"when":{"timespans":[{"start":{"earliest":"1271","latest":"1272"},"end":{"earliest":"1271","latest":"1272"}}]}},{"toponym":"Awberbury","citations":[{"label":"1697 PR(L)","year":1697}],"when":{"timespans":[{"start":{"in":"1697"},"end":{"in":"1697"}}]}},{"toponym":"Awburbery","citations":[{"label":"1703 PR(L)","year":1703}],"when":{"timespans":[{"start":{"in":"1703"},"end":{"in":"1703"}}]}},{"toponym":"Awburbury","citations":[{"label":"1724 PR(L)","year":1724}],"when":{"timespans":[{"start":{"in":"1724"},"end":{"in":"1724"}}]}},{"toponym":"Abbrebur', Aldrebur'","citations":[{"label":"1271-2 Ass","year":1271}],"when":{"timespans":[{"start":{"earliest":"1271","latest":"1272"},"end":{"earliest":"1271","latest":"1272"}}]}},{"toponym":"Albreburs","citations":[{"label":"c.1320 FFW","year":1310}],"when":{"timespans":[{"start":{"earliest":"1310","latest":"1330"},"end":{"earliest":"1310","latest":"1330"}}]}},{"toponym":"Albrybury","citations":[{"label":"1398 SBL","year":1398}],"when":{"timespans":[{"start":{"in":"1398"},"end":{"in":"1398"}}]}},{"toponym":"Albresbury","citations":[{"label":"1316 FA","year":1316}],"when":{"timespans":[{"start":{"in":"1316"},"end":{"in":"1316"}}]}},{"toponym":"Malberbury","citations":[{"label":"1343 Cl","year":1343}],"when":{"timespans":[{"start":{"in":"1343"},"end":{"in":"1343"}}]}},{"toponym":"Atterbury","citations":[{"label":"1363 Cl","year":1363}],"when":{"timespans":[{"start":{"in":"1363"},"end":{"in":"1363"}}]}},{"toponym":"Albertbyri","citations":[{"label":"c.1540 Leland","year":1530}],"when":{"timespans":[{"start":{"earliest":"1530","latest":"1550"},"end":{"earliest":"1530","latest":"1550"}}]}},{"toponym":"Albury","citations":[{"label":"1610 SBL","year":1610}],"when":{"timespans":[{"start":{"in":"1610"},"end":{"in":"1610"}}]}},{"toponym":"Obberbury","citations":[{"label":"1649 SAS","year":1649},{"label":"1709 PR(L)","year":1709},{"label":"1721 PR(L)","year":1721},{"label":"1797 PR(StA)","year":1797}],"when":{"timespans":[{"start":{"in":"1649"},"end":{"in":"1649"}},{"start":{"in":"1709"},"end":{"in":"1709"}},{"start":{"in":"1721"},"end":{"in":"1721"}},{"start":{"in":"1797"},"end":{"in":"1797"}}]}},{"toponym":"Obarberry","citations":[{"label":"1714 PR(StA)","year":1714}],"when":{"timespans":[{"start":{"in":"1714"},"end":{"in":"1714"}}]}},{"toponym":"Oberbury","citations":[{"label":"1721 PR(StA)","year":1721}],"when":{"timespans":[{"start":{"in":"1721"},"end":{"in":"1721"}}]}},{"toponym":"Obberberry","citations":[{"label":"1808 PR(StA)","year":1808}],"when":{"timespans":[{"start":{"in":"1808"},"end":{"in":"1808"}}]}},{"toponym":"Allderbury","citations":[{"label":"1703 PR(StA)","year":1703}],"when":{"timespans":[{"start":{"in":"1703"},"end":{"in":"1703"}}]}},{"toponym":"Aerbery","citations":[{"label":"1733 PR(StA)","year":1733}],"when":{"timespans":[{"start":{"in":"1733"},"end":{"in":"1733"}}]}}],"types":[{"identifier":"http://vocab.getty.edu/aat/300232418","label":"administrative division","sourceLabels":[{"label":"township","lang":"en"}]}],"geometry":{"type":"GeometryCollection","geometries":[{"type":"Point","coordinates":[-2.95074,52.72234],"citations":[{"label":"GeoNames, gazetteer record geonames:2657572"}]},{"type":"Point","coordinates":[-2.950665761,52.72309335],"citations":[{"label":"English Place-Name Society survey (DEEP coordinates)"}]},{"type":"Point","coordinates":[-2.940321389771767,52.72407593627779],"citations":[{"label":"Unlock (EDINA) gazetteer, gazetteer record unlock:11057872"}]},{"type":"Point","coordinates":[-2.94163,52.7244],"citations":[{"label":"Key to English Place-Names (KEPN), gazetteer record 13756"}]}]},"when":{"timespans":[{"start":{"in":"1086"},"end":{"in":"1810"}}]},"links":[{"type":"closeMatch","identifier":"https://sws.geonames.org/2657572/"}],"relations":[{"relationType":"gvp:broaderPartitive","relationTo":"http://placenames.org.uk/id/placename/70/000008","label":"within Alberbury with Cardeston"}]}]}