{"@context":"https://raw.githubusercontent.com/LinkedPasts/linked-places-format/main/linkedplaces-context-v1.1.jsonld","type":"FeatureCollection","license":"Digitisation of English Placenames MADS data is licensed to Jisc by the English Place Names Society and released under a Creative Commons Attribution-NonCommercial 4.0 International License.","note":"LPF v1.3, lossy; derived from the PLATO record; plato_commit=ca0afadabec1e23a145c0b03df77e8f151f79832","features":[{"@id":"https://w3id.org/whg-epns/70/003106","type":"Feature","properties":{"title":"Newnham and Polmere","ccodes":["GB"],"fclasses":["A","P"]},"names":[{"toponym":"Newnham and Polmere","lang":"en","citations":[{"label":"English Place-Name Society survey, volume 70: Shropshire"}]},{"toponym":"Newnham","citations":[{"label":"1209-10 MGS","year":1209},{"label":"1601–1601, recurring SBL","year":1601},{"label":"1601 SBL","year":1601}],"when":{"timespans":[{"start":{"earliest":"1209","latest":"1210"},"end":{"earliest":"1209","latest":"1210"}},{"start":{"in":"1601"},"end":{"in":"1601"}},{"start":{"in":"1601"},"end":{"in":"1601"}}]}},{"toponym":"Newneham","citations":[{"label":"1572 PR(H)","year":1572}],"when":{"timespans":[{"start":{"in":"1572"},"end":{"in":"1572"}},{"start":{"in":"1577"},"end":{"in":"1577"}}]}},{"toponym":"Neunam","citations":[{"label":"1255 RH","year":1255}],"when":{"timespans":[{"start":{"in":"1255"},"end":{"in":"1255"}}]}},{"toponym":"Neunham","citations":[{"label":"1276 Ipm","year":1276}],"when":{"timespans":[{"start":{"in":"1276"},"end":{"in":"1276"}}]}},{"toponym":"Newnum","citations":[{"label":"1672 HTR","year":1672}],"when":{"timespans":[{"start":{"in":"1672"},"end":{"in":"1672"}}]}},{"toponym":"Newenham","citations":[{"label":"1255-6 Ass","year":1255},{"label":"1308 Ipm","year":1308}],"when":{"timespans":[{"start":{"earliest":"1255","latest":"1256"},"end":{"earliest":"1255","latest":"1256"}},{"start":{"in":"1308"},"end":{"in":"1308"}},{"start":{"in":"1490"},"end":{"in":"1490"}}]}},{"toponym":"Newenam","citations":[{"label":"1291-2 Ass","year":1291}],"when":{"timespans":[{"start":{"earliest":"1291","latest":"1292"},"end":{"earliest":"1291","latest":"1292"}}]}},{"toponym":"Newenam'","citations":[{"label":"c.1380 SBL","year":1370}],"when":{"timespans":[{"start":{"earliest":"1370","latest":"1390"},"end":{"earliest":"1370","latest":"1390"}}]}}],"types":[{"identifier":"http://vocab.getty.edu/aat/300232418","label":"administrative division","sourceLabels":[{"label":"township","lang":"en"}]}],"geometry":{"type":"GeometryCollection","geometries":[{"type":"Point","coordinates":[-2.871406088,52.68414213],"citations":[{"label":"English Place-Name Society survey (DEEP coordinates)"}]},{"type":"Point","coordinates":[-2.865400360205483,52.67969163830978],"citations":[{"label":"Unlock (EDINA) gazetteer, gazetteer record unlock:11230517"}]}]},"when":{"timespans":[{"start":{"in":"1209"},"end":{"in":"1672"}}]},"relations":[{"relationType":"gvp:broaderPartitive","relationTo":"https://w3id.org/whg-epns/70/002018","label":"within Pontesbury"}]}]}