{"@context":"https://raw.githubusercontent.com/LinkedPasts/linked-places-format/main/linkedplaces-context-v1.1.jsonld","type":"FeatureCollection","license":"Digitisation of English Placenames MADS data is licensed to Jisc by the English Place Names Society and released under a Creative Commons Attribution-NonCommercial 4.0 International License.","note":"LPF v1.3, lossy; derived from the PLATO record; plato_commit=fa0d247ccc0263f8f19c8d7cdcd163df96935d1e","features":[{"@id":"https://w3id.org/whg-epns/70/005909","type":"Feature","properties":{"title":"Berrington","ccodes":["GB"],"fclasses":["A","P"]},"names":[{"toponym":"Berrington","lang":"en","citations":[{"label":"English Place-Name Society survey, volume 70: Shropshire"}]}],"types":[{"identifier":"http://vocab.getty.edu/aat/300232418","label":"administrative division","sourceLabels":[{"label":"township","lang":"en"}]}],"geometry":{"type":"GeometryCollection","geometries":[{"type":"Point","coordinates":[-2.7,52.65],"citations":[{"label":"GeoNames, gazetteer record geonames:2655839"}]},{"type":"Point","coordinates":[-2.696415824,52.65832666],"citations":[{"label":"English Place-Name Society survey (DEEP coordinates)"}]},{"type":"Point","coordinates":[-2.702257872190555,52.65379771782643],"citations":[{"label":"Unlock (EDINA) gazetteer, gazetteer record unlock:11075853"}]},{"type":"Point","coordinates":[-2.70374,52.6631],"citations":[{"label":"Key to English Place-Names (KEPN), gazetteer record 13324"}]}]},"links":[{"type":"closeMatch","identifier":"https://sws.geonames.org/2655839/"}],"relations":[{"relationType":"gvp:broaderPartitive","relationTo":"https://w3id.org/whg-epns/70/005886","label":"within Berrington"}]}]}