{"@context":"https://raw.githubusercontent.com/LinkedPasts/linked-places-format/main/linkedplaces-context-v1.1.jsonld","type":"FeatureCollection","license":"Digitisation of English Placenames MADS data is licensed to Jisc by the English Place Names Society and released under a Creative Commons Attribution-NonCommercial 4.0 International License.","note":"LPF v1.3, lossy; derived from the PLATO record; plato_commit=ca0afadabec1e23a145c0b03df77e8f151f79832","features":[{"@id":"http://placenames.org.uk/id/placename/70/006442","type":"Feature","properties":{"title":"Cantlop","ccodes":["GB"],"fclasses":["A","P"]},"names":[{"toponym":"Cantlop","lang":"en","citations":[{"label":"English Place-Name Society survey, volume 70: Shropshire"}]},{"toponym":"Cantelop","citations":[{"label":"1086 DB","year":1086}],"when":{"timespans":[{"start":{"in":"1086"},"end":{"in":"1086"}}]}},{"toponym":"Cantilop","citations":[{"label":"1221-2 Ass","year":1221}],"when":{"timespans":[{"start":{"earliest":"1221","latest":"1222"},"end":{"earliest":"1221","latest":"1222"}}]}},{"toponym":"Cantolop","citations":[{"label":"1255 RH","year":1255}],"when":{"timespans":[{"start":{"in":"1255"},"end":{"in":"1255"}}]}},{"toponym":"Cantilup","citations":[{"label":"1255-6 Ass","year":1255}],"when":{"timespans":[{"start":{"earliest":"1255","latest":"1256"},"end":{"earliest":"1255","latest":"1256"}}]}},{"toponym":"Kantelhope","citations":[{"label":"1271-2 Ass","year":1271}],"when":{"timespans":[{"start":{"earliest":"1271","latest":"1272"},"end":{"earliest":"1271","latest":"1272"}}]}},{"toponym":"Cantelop'","citations":[{"label":"1271–1694, recurring Ass","year":1271},{"label":"1271–1694, recurring SBL"},{"label":"1271-2 Ass","year":1271},{"label":"1694 SBL","year":1694}],"when":{"timespans":[{"start":{"in":"1271"},"end":{"in":"1694"}},{"start":{"earliest":"1271","latest":"1272"},"end":{"earliest":"1271","latest":"1272"}},{"start":{"in":"1694"},"end":{"in":"1694"}}]}},{"toponym":"Canteop(e)","citations":[{"label":"1271-1694 unspecified sources","year":1271}],"when":{"timespans":[{"start":{"in":"1271"},"end":{"in":"1694"}}]}},{"toponym":"Cantelhop'","citations":[{"label":"1271-2 Ass","year":1271}],"when":{"timespans":[{"start":{"earliest":"1271","latest":"1272"},"end":{"earliest":"1271","latest":"1272"}}]}},{"toponym":"Cantelhope","citations":[{"label":"1274 RH","year":1274},{"label":"1294 Ipm","year":1294},{"label":"1334 SR","year":1334},{"label":"1394 SBL","year":1394},{"label":"1416 AD","year":1416}],"when":{"timespans":[{"start":{"in":"1274"},"end":{"in":"1274"}},{"start":{"in":"1294"},"end":{"in":"1294"}},{"start":{"in":"1334"},"end":{"in":"1334"}},{"start":{"in":"1394"},"end":{"in":"1394"}},{"start":{"in":"1416"},"end":{"in":"1416"}}]}},{"toponym":"Cantelhop","citations":[{"label":"1294 InqMisc","year":1294},{"label":"1316 FA","year":1316}],"when":{"timespans":[{"start":{"in":"1294"},"end":{"in":"1294"}},{"start":{"in":"1316"},"end":{"in":"1316"}}]}},{"toponym":"Cantilhope","citations":[{"label":"1315 Ipm","year":1315}],"when":{"timespans":[{"start":{"in":"1315"},"end":{"in":"1315"}}]}},{"toponym":"Cantilope","citations":[{"label":"1430 Fine","year":1430}],"when":{"timespans":[{"start":{"in":"1430"},"end":{"in":"1430"}}]}},{"toponym":"Cantlopp","citations":[{"label":"1579 PR(L)","year":1579}],"when":{"timespans":[{"start":{"in":"1579"},"end":{"in":"1579"}}]}},{"toponym":"Cantlop","citations":[{"label":"1613 PR(L)","year":1613}],"when":{"timespans":[{"start":{"in":"1613"},"end":{"in":"1613"}}]}},{"toponym":"Cantlope","citations":[{"label":"1648 PR(L)","year":1648},{"label":"1672 HTR","year":1672},{"label":"1702 SBL","year":1702}],"when":{"timespans":[{"start":{"in":"1648"},"end":{"in":"1648"}},{"start":{"in":"1672"},"end":{"in":"1672"}},{"start":{"in":"1702"},"end":{"in":"1702"}}]}},{"toponym":"Cantlap","citations":[{"label":"1702 SBL","year":1702}],"when":{"timespans":[{"start":{"in":"1702"},"end":{"in":"1702"}}]}}],"types":[{"identifier":"http://vocab.getty.edu/aat/300232418","label":"administrative division","sourceLabels":[{"label":"township","lang":"en"}]}],"geometry":{"type":"GeometryCollection","geometries":[{"type":"Point","coordinates":[-2.705113054,52.64748612],"citations":[{"label":"English Place-Name Society survey (DEEP coordinates)"}]},{"type":"Point","coordinates":[-2.702113857461146,52.64480764122717],"citations":[{"label":"Unlock (EDINA) gazetteer, gazetteer record unlock:11097753"}]}]},"when":{"timespans":[{"start":{"in":"1086"},"end":{"in":"1702"}}]},"relations":[{"relationType":"gvp:broaderPartitive","relationTo":"http://placenames.org.uk/id/placename/70/005886","label":"within Berrington"}]}]}