{"@context":"https://raw.githubusercontent.com/LinkedPasts/linked-places-format/main/linkedplaces-context-v1.1.jsonld","type":"FeatureCollection","license":"Digitisation of English Placenames MADS data is licensed to Jisc by the English Place Names Society and released under a Creative Commons Attribution-NonCommercial 4.0 International License.","note":"LPF v1.3, lossy; derived from the PLATO record; plato_commit=fa0d247ccc0263f8f19c8d7cdcd163df96935d1e","features":[{"@id":"https://w3id.org/whg-epns/70/006587","type":"Feature","properties":{"title":"Eaton Mascott","ccodes":["GB"],"fclasses":["A","P"]},"names":[{"toponym":"Eaton Mascott","lang":"en","citations":[{"label":"English Place-Name Society survey, volume 70: Shropshire"}]},{"toponym":"Etune","citations":[{"label":"1086 DB","year":1086}],"when":{"timespans":[{"start":{"in":"1086"},"end":{"in":"1086"}}]}},{"toponym":"Etun","citations":[{"label":"1215-36 HAC","year":1215}],"when":{"timespans":[{"start":{"earliest":"1215","latest":"1236"},"end":{"earliest":"1215","latest":"1236"}}]}},{"toponym":"Eton'","citations":[{"label":"Fees","year":1242},{"label":"SBL"},{"label":"1242 Fees","year":1242},{"label":"1583 SBL","year":1583}],"when":{"timespans":[{"start":{"in":"1242"},"end":{"in":"1583"}},{"start":{"in":"1242"},"end":{"in":"1242"}},{"start":{"in":"1583"},"end":{"in":"1583"}}]}},{"toponym":"Etone","citations":[{"label":"1242-1583 unspecified sources","year":1242}],"when":{"timespans":[{"start":{"in":"1242"},"end":{"in":"1583"}}]}},{"toponym":"Eton' Marscot","citations":[{"label":"1255 RH","year":1255}],"when":{"timespans":[{"start":{"in":"1255"},"end":{"in":"1255"}}]}},{"toponym":"Eton Marhcote alias Marhscote","citations":[{"label":"1295 Ipm","year":1295}],"when":{"timespans":[{"start":{"in":"1295"},"end":{"in":"1295"}}]}},{"toponym":"Eton' Massecote","citations":[{"label":"1301 SAC","year":1301}],"when":{"timespans":[{"start":{"in":"1301"},"end":{"in":"1301"}}]}},{"toponym":"Eton Mascot'","citations":[{"label":"1334 SR","year":1334}],"when":{"timespans":[{"start":{"in":"1334"},"end":{"in":"1334"}}]}},{"toponym":"Eton Marescot","citations":[{"label":"1346 FA","year":1346}],"when":{"timespans":[{"start":{"in":"1346"},"end":{"in":"1346"}}]}},{"toponym":"Eton Mascot","citations":[{"label":"1397 InqMisc","year":1397}],"when":{"timespans":[{"start":{"in":"1397"},"end":{"in":"1397"}}]}},{"toponym":"Eton Mascote","citations":[{"label":"1404 Fine","year":1404},{"label":"1431 FA","year":1431}],"when":{"timespans":[{"start":{"in":"1404"},"end":{"in":"1404"}},{"start":{"in":"1431"},"end":{"in":"1431"}}]}},{"toponym":"Eton Marescote, Eton Mascote","citations":[{"label":"1428 FA","year":1428}],"when":{"timespans":[{"start":{"in":"1428"},"end":{"in":"1428"}}]}},{"toponym":"Eatune","citations":[{"label":"c.1160-72 HAC","year":1160}],"when":{"timespans":[{"start":{"earliest":"1160","latest":"1172"},"end":{"earliest":"1160","latest":"1172"}}]}},{"toponym":"Eton' et Marscote","citations":[{"label":"1255-6 Ass","year":1255}],"when":{"timespans":[{"start":{"earliest":"1255","latest":"1256"},"end":{"earliest":"1255","latest":"1256"}}]}},{"toponym":"Marscote et Etone","citations":[{"label":"1291-2 Ass","year":1291}],"when":{"timespans":[{"start":{"earliest":"1291","latest":"1292"},"end":{"earliest":"1291","latest":"1292"}}]}},{"toponym":"Etton'","citations":[{"label":"1291-2 Ass","year":1291}],"when":{"timespans":[{"start":{"earliest":"1291","latest":"1292"},"end":{"earliest":"1291","latest":"1292"}}]}},{"toponym":"Massecote","citations":[{"label":"l.13th ForProc","year":1275}],"when":{"timespans":[{"start":{"earliest":"1275","latest":"1300"},"end":{"earliest":"1275","latest":"1300"}}]}},{"toponym":"Eyton","citations":[{"label":"1583 SBL","year":1583}],"when":{"timespans":[{"start":{"in":"1583"},"end":{"in":"1583"}}]}},{"toponym":"Eaton Mascott","citations":[{"label":"PR(L)","year":1648},{"label":"1648 PR(L)","year":1648}],"when":{"timespans":[{"start":{"in":"1648"},"end":{"in":"1648"}},{"start":{"in":"1648"},"end":{"in":"1648"}}]}},{"toponym":"Eaton Mascot","citations":[{"label":"1648-1600 unspecified sources","year":1600}],"when":{"timespans":[{"start":{"in":"1600"},"end":{"in":"1648"}}]}},{"toponym":"Eaton Marscot","citations":[{"label":"1781 PR(L)","year":1781}],"when":{"timespans":[{"start":{"in":"1781"},"end":{"in":"1781"}}]}}],"types":[{"identifier":"http://vocab.getty.edu/aat/300232418","label":"administrative division","sourceLabels":[{"label":"township","lang":"en"}]}],"geometry":{"type":"GeometryCollection","geometries":[{"type":"Point","coordinates":[-2.682955436,52.64851499],"citations":[{"label":"English Place-Name Society survey (DEEP coordinates)"}]},{"type":"Point","coordinates":[-2.687333683253255,52.64489429395142],"citations":[{"label":"Unlock (EDINA) gazetteer, gazetteer record unlock:11137621"}]}]},"when":{"timespans":[{"start":{"in":"1086"},"end":{"in":"1781"}}]},"relations":[{"relationType":"gvp:broaderPartitive","relationTo":"https://w3id.org/whg-epns/70/005886","label":"within Berrington"}]}]}