{"@context":"https://raw.githubusercontent.com/LinkedPasts/linked-places-format/main/linkedplaces-context-v1.1.jsonld","type":"FeatureCollection","license":"Digitisation of English Placenames MADS data is licensed to Jisc by the English Place Names Society and released under a Creative Commons Attribution-NonCommercial 4.0 International License.","note":"LPF v1.3, lossy; derived from the PLATO record; plato_commit=ca0afadabec1e23a145c0b03df77e8f151f79832","features":[{"@id":"http://placenames.org.uk/id/placename/70/007484","type":"Feature","properties":{"title":"Great Ryton and Little Ryton","ccodes":["GB"],"fclasses":["A","P"]},"names":[{"toponym":"Great Ryton and Little Ryton","lang":"en","citations":[{"label":"English Place-Name Society survey, volume 70: Shropshire"}]},{"toponym":"Ruiton', Ruiton' Superior","citations":[{"label":"1208-9 ForProc","year":1208}],"when":{"timespans":[{"start":{"earliest":"1208","latest":"1209"},"end":{"earliest":"1208","latest":"1209"}}]}},{"toponym":"Ruyton'","citations":[{"label":"1241 Cl","year":1241}],"when":{"timespans":[{"start":{"in":"1241"},"end":{"in":"1241"}}]}},{"toponym":"Parva Ruyton, Magna Ruyton","citations":[{"label":"1410 SBL","year":1410}],"when":{"timespans":[{"start":{"in":"1410"},"end":{"in":"1410"}}]}},{"toponym":"Ruiton","citations":[{"label":"1783 PR(L)","year":1783}],"when":{"timespans":[{"start":{"in":"1783"},"end":{"in":"1783"}}]}},{"toponym":"Ruton'","citations":[{"label":"1261–1347, recurring ForProc","year":1261},{"label":"1261–1347, recurring Pat"},{"label":"1261-2 ForProc","year":1261},{"label":"1347 Pat","year":1347}],"when":{"timespans":[{"start":{"in":"1261"},"end":{"in":"1347"}},{"start":{"earliest":"1261","latest":"1262"},"end":{"earliest":"1261","latest":"1262"}},{"start":{"in":"1347"},"end":{"in":"1347"}}]}},{"toponym":"Ruton(e)","citations":[{"label":"1261-1347 unspecified sources","year":1261}],"when":{"timespans":[{"start":{"in":"1261"},"end":{"in":"1347"}}]}},{"toponym":"Magna Ruton', Parva Ruton","citations":[{"label":"1301 SAC","year":1301}],"when":{"timespans":[{"start":{"in":"1301"},"end":{"in":"1301"}}]}},{"toponym":"Rutton","citations":[{"label":"1271-2 Ass","year":1271}],"when":{"timespans":[{"start":{"earliest":"1271","latest":"1272"},"end":{"earliest":"1271","latest":"1272"}}]}},{"toponym":"Rutton'","citations":[{"label":"1291-2 Ass","year":1291}],"when":{"timespans":[{"start":{"earliest":"1291","latest":"1292"},"end":{"earliest":"1291","latest":"1292"}}]}},{"toponym":"Ryton'","citations":[{"label":"1291–1292, recurring Ass","year":1291},{"label":"1291-2 Ass","year":1291}],"when":{"timespans":[{"start":{"in":"1291"},"end":{"in":"1292"}},{"start":{"earliest":"1291","latest":"1292"},"end":{"earliest":"1291","latest":"1292"}}]}},{"toponym":"Riton' and Ryton","citations":[{"label":"1291-1600 unspecified sources","year":1291}],"when":{"timespans":[{"start":{"in":"1291"},"end":{"in":"1600"}}]}},{"toponym":"Riton Magna, Riton Parva","citations":[{"label":"1545 SBL","year":1545},{"label":"1584 SBL","year":1584}],"when":{"timespans":[{"start":{"in":"1545"},"end":{"in":"1545"}},{"start":{"in":"1584"},"end":{"in":"1584"}}]}},{"toponym":"Lytle Riton","citations":[{"label":"1581 Eyton","year":1581}],"when":{"timespans":[{"start":{"in":"1581"},"end":{"in":"1581"}}]}},{"toponym":"Great Riton, Litle Riton","citations":[{"label":"1588 SBL","year":1588}],"when":{"timespans":[{"start":{"in":"1588"},"end":{"in":"1588"}}]}},{"toponym":"Great Ryton","citations":[{"label":"1619 SBL","year":1619}],"when":{"timespans":[{"start":{"in":"1619"},"end":{"in":"1619"}}]}},{"toponym":"Ryton Magna, Ryton Parva","citations":[{"label":"1694 SBL","year":1694}],"when":{"timespans":[{"start":{"in":"1694"},"end":{"in":"1694"}}]}},{"toponym":"Rytonne the Lesse, Ruyton the Greate","citations":[{"label":"1430 SAC","year":1430}],"when":{"timespans":[{"start":{"in":"1430"},"end":{"in":"1430"}}]}},{"toponym":"Rytons","citations":[{"label":"1577 Saxton","year":1577}],"when":{"timespans":[{"start":{"in":"1577"},"end":{"in":"1577"}}]}},{"toponym":"Righton Magna","citations":[{"label":"1652 Eyton","year":1652}],"when":{"timespans":[{"start":{"in":"1652"},"end":{"in":"1652"}}]}},{"toponym":"Greate Righton","citations":[{"label":"1658 PR(L)","year":1658}],"when":{"timespans":[{"start":{"in":"1658"},"end":{"in":"1658"}}]}},{"toponym":"Ritton","citations":[{"label":"1675 Ogilby","year":1675}],"when":{"timespans":[{"start":{"in":"1675"},"end":{"in":"1675"}}]}},{"toponym":"Ritton Manner","citations":[{"label":"1695 Morden","year":1695}],"when":{"timespans":[{"start":{"in":"1695"},"end":{"in":"1695"}}]}},{"toponym":"Reyton","citations":[{"label":"1726 PR(L)","year":1726}],"when":{"timespans":[{"start":{"in":"1726"},"end":{"in":"1726"}}]}},{"toponym":"Royten","citations":[{"label":"1771 SBL","year":1771}],"when":{"timespans":[{"start":{"in":"1771"},"end":{"in":"1771"}}]}}],"types":[{"identifier":"http://vocab.getty.edu/aat/300232418","label":"administrative division","sourceLabels":[{"label":"township","lang":"en"}]}],"geometry":{"type":"GeometryCollection","geometries":[{"type":"Point","coordinates":[-2.756520398,52.62828804],"citations":[{"label":"English Place-Name Society survey (DEEP coordinates)"}]},{"type":"Point","coordinates":[-2.760921746576478,52.62646263816699],"citations":[{"label":"Unlock (EDINA) gazetteer, gazetteer record unlock:11159215"}]}]},"when":{"timespans":[{"start":{"in":"1208"},"end":{"in":"1783"}}]},"relations":[{"relationType":"gvp:broaderPartitive","relationTo":"http://placenames.org.uk/id/placename/70/006709","label":"within Condover"}]}]}