{"@context":"https://raw.githubusercontent.com/LinkedPasts/linked-places-format/main/linkedplaces-context-v1.1.jsonld","type":"FeatureCollection","license":"Digitisation of English Placenames MADS data is licensed to Jisc by the English Place Names Society and released under a Creative Commons Attribution-NonCommercial 4.0 International License.","note":"LPF v1.3, lossy; derived from the PLATO record; plato_commit=ca0afadabec1e23a145c0b03df77e8f151f79832","features":[{"@id":"http://placenames.org.uk/id/placename/70/007681","type":"Feature","properties":{"title":"Westley","ccodes":["GB"],"fclasses":["A","P"]},"names":[{"toponym":"Westley","lang":"en","citations":[{"label":"English Place-Name Society survey, volume 70: Shropshire"}]},{"toponym":"Wesselega","citations":[{"label":"1160–1620, recurring HAC","year":1160},{"label":"1160–1620, recurring PR(L)"},{"label":"1160-72 HAC","year":1160},{"label":"1620 PR(L)","year":1620}],"when":{"timespans":[{"start":{"in":"1160"},"end":{"in":"1620"}},{"start":{"earliest":"1160","latest":"1172"},"end":{"earliest":"1160","latest":"1172"}},{"start":{"in":"1620"},"end":{"in":"1620"}}]}},{"toponym":"Wesseleg', Wesseleg, Wesseley(e), Wesselegh'","citations":[{"label":"1160-1620 unspecified sources","year":1160}],"when":{"timespans":[{"start":{"in":"1160"},"end":{"in":"1620"}}]}},{"toponym":"Weseleg'","citations":[{"label":"1208-9 ForProc","year":1208}],"when":{"timespans":[{"start":{"earliest":"1208","latest":"1209"},"end":{"earliest":"1208","latest":"1209"}}]}},{"toponym":"Wasseley","citations":[{"label":"1230 P","year":1230}],"when":{"timespans":[{"start":{"in":"1230"},"end":{"in":"1230"}}]}},{"toponym":"Wasseleg","citations":[{"label":"1274 RH","year":1274}],"when":{"timespans":[{"start":{"in":"1274"},"end":{"in":"1274"}}]}},{"toponym":"Weslegh","citations":[{"label":"1255-6 Ass","year":1255}],"when":{"timespans":[{"start":{"earliest":"1255","latest":"1256"},"end":{"earliest":"1255","latest":"1256"}}]}},{"toponym":"Wesley","citations":[{"label":"1584 PR(L)","year":1584}],"when":{"timespans":[{"start":{"in":"1584"},"end":{"in":"1584"}},{"start":{"in":"1663"},"end":{"in":"1663"}}]}},{"toponym":"Wessley","citations":[{"label":"1627 PR(L)","year":1627}],"when":{"timespans":[{"start":{"in":"1627"},"end":{"in":"1627"}}]}},{"toponym":"Wesscleg'","citations":[{"label":"1255-6 Ass","year":1255}],"when":{"timespans":[{"start":{"earliest":"1255","latest":"1256"},"end":{"earliest":"1255","latest":"1256"}}]}},{"toponym":"Westley alias Weseleigh","citations":[{"label":"1576 SBL","year":1576}],"when":{"timespans":[{"start":{"in":"1576"},"end":{"in":"1576"}}]}},{"toponym":"Westley","citations":[{"label":"1598–1598, recurring SBL","year":1598},{"label":"1598 SBL","year":1598}],"when":{"timespans":[{"start":{"in":"1598"},"end":{"in":"1598"}},{"start":{"in":"1598"},"end":{"in":"1598"}}]}},{"toponym":"Westleye","citations":[{"label":"1600 PR(L)","year":1600}],"when":{"timespans":[{"start":{"in":"1600"},"end":{"in":"1600"}}]}},{"toponym":"Westeley","citations":[{"label":"1599 SBL","year":1599}],"when":{"timespans":[{"start":{"in":"1599"},"end":{"in":"1599"}}]}}],"types":[{"identifier":"http://vocab.getty.edu/aat/300232418","label":"administrative division","sourceLabels":[{"label":"township","lang":"en"}]}],"geometry":{"type":"GeometryCollection","geometries":[{"type":"Point","coordinates":[-2.783531719,52.65148904],"citations":[{"label":"English Place-Name Society survey (DEEP coordinates)"}]},{"type":"Point","coordinates":[-2.790955444374781,52.65323891174245],"citations":[{"label":"Unlock (EDINA) gazetteer, gazetteer record unlock:11318837"}]}]},"when":{"timespans":[{"start":{"in":"1160"},"end":{"in":"1663"}}]},"relations":[{"relationType":"gvp:broaderPartitive","relationTo":"http://placenames.org.uk/id/placename/70/006709","label":"within Condover"}]}]}