{"@context":"https://raw.githubusercontent.com/LinkedPasts/linked-places-format/main/linkedplaces-context-v1.1.jsonld","type":"FeatureCollection","license":"Digitisation of English Placenames MADS data is licensed to Jisc by the English Place Names Society and released under a Creative Commons Attribution-NonCommercial 4.0 International License.","note":"LPF v1.3, lossy; derived from the PLATO record; plato_commit=ca0afadabec1e23a145c0b03df77e8f151f79832","features":[{"@id":"https://w3id.org/whg-epns/70/008396","type":"Feature","properties":{"title":"Harnage","ccodes":["GB"],"fclasses":["A","P"]},"names":[{"toponym":"Harnage","lang":"en","citations":[{"label":"English Place-Name Society survey, volume 70: Shropshire"}]},{"toponym":"Hernegia, Hernege, Herenegia","citations":[{"label":"1232 Dugdale","year":1232}],"when":{"timespans":[{"start":{"in":"1232"},"end":{"in":"1232"}}]}},{"toponym":"Hernegg'","citations":[{"label":"1234 Cl","year":1234}],"when":{"timespans":[{"start":{"in":"1234"},"end":{"in":"1234"}}]}},{"toponym":"Hernege","citations":[{"label":"1535 SBL","year":1535}],"when":{"timespans":[{"start":{"in":"1535"},"end":{"in":"1535"}}]}},{"toponym":"Harenegge","citations":[{"label":"1254 Pat","year":1254},{"label":"1255-6 Ass","year":1255},{"label":"1261-2 ForProc","year":1261}],"when":{"timespans":[{"start":{"in":"1254"},"end":{"in":"1254"}},{"start":{"earliest":"1255","latest":"1256"},"end":{"earliest":"1255","latest":"1256"}},{"start":{"earliest":"1261","latest":"1262"},"end":{"earliest":"1261","latest":"1262"}}]}},{"toponym":"Harnegge","citations":[{"label":"1268 MGS","year":1268},{"label":"1271-2 Ass","year":1271}],"when":{"timespans":[{"start":{"in":"1268"},"end":{"in":"1268"}},{"start":{"earliest":"1271","latest":"1272"},"end":{"earliest":"1271","latest":"1272"}},{"start":{"earliest":"1291","latest":"1292"},"end":{"earliest":"1291","latest":"1292"}}]}},{"toponym":"Harnege","citations":[{"label":"1535 VE","year":1535}],"when":{"timespans":[{"start":{"in":"1535"},"end":{"in":"1535"}}]}},{"toponym":"Harnedge","citations":[{"label":"1566 SBL","year":1566},{"label":"1584 PR(L)","year":1584},{"label":"1670 SBL","year":1670}],"when":{"timespans":[{"start":{"in":"1566"},"end":{"in":"1566"}},{"start":{"in":"1584"},"end":{"in":"1584"}},{"start":{"in":"1670"},"end":{"in":"1670"}},{"start":{"in":"1677"},"end":{"in":"1677"}}]}},{"toponym":"Harnedge alias Kinges Harnedge","citations":[{"label":"1665 SBL","year":1665}],"when":{"timespans":[{"start":{"in":"1665"},"end":{"in":"1665"}}]}},{"toponym":"Arneg'","citations":[{"label":"1255 RH","year":1255}],"when":{"timespans":[{"start":{"in":"1255"},"end":{"in":"1255"}}]}},{"toponym":"Harenhegge","citations":[{"label":"1271-2 ForProc","year":1271}],"when":{"timespans":[{"start":{"earliest":"1271","latest":"1272"},"end":{"earliest":"1271","latest":"1272"}}]}},{"toponym":"Harenhegg","citations":[{"label":"c.1291 TN","year":1281}],"when":{"timespans":[{"start":{"earliest":"1281","latest":"1301"},"end":{"earliest":"1281","latest":"1301"}}]}},{"toponym":"Harnage","citations":[{"label":"1444 AD","year":1444},{"label":"1567 PR(L)","year":1567}],"when":{"timespans":[{"start":{"in":"1444"},"end":{"in":"1444"}},{"start":{"in":"1567"},"end":{"in":"1567"}}]}},{"toponym":"Harnage otherwise King's Harnedge","citations":[{"label":"1739 SBL","year":1739}],"when":{"timespans":[{"start":{"in":"1739"},"end":{"in":"1739"}},{"start":{"in":"1798"},"end":{"in":"1798"}}]}},{"toponym":"Harin(d)ge","citations":[{"label":"1573 SBL","year":1573}],"when":{"timespans":[{"start":{"in":"1573"},"end":{"in":"1573"}}]}},{"toponym":"Hernage","citations":[{"label":"1622 PR(L)","year":1622}],"when":{"timespans":[{"start":{"in":"1622"},"end":{"in":"1622"}}]}}],"types":[{"identifier":"http://vocab.getty.edu/aat/300232418","label":"administrative division","sourceLabels":[{"label":"township","lang":"en"}]}],"geometry":{"type":"GeometryCollection","geometries":[{"type":"Point","coordinates":[-2.639892111,52.63526898],"citations":[{"label":"English Place-Name Society survey (DEEP coordinates)"}]},{"type":"Point","coordinates":[-2.642860898641826,52.63615299293456],"citations":[{"label":"Unlock (EDINA) gazetteer, gazetteer record unlock:11166324"}]}]},"when":{"timespans":[{"start":{"in":"1232"},"end":{"in":"1798"}}]},"relations":[{"relationType":"gvp:broaderPartitive","relationTo":"https://w3id.org/whg-epns/70/008148","label":"within Cound"}]}]}