{"@context":"https://raw.githubusercontent.com/LinkedPasts/linked-places-format/main/linkedplaces-context-v1.1.jsonld","type":"FeatureCollection","license":"Digitisation of English Placenames MADS data is licensed to Jisc by the English Place Names Society and released under a Creative Commons Attribution-NonCommercial 4.0 International License.","note":"LPF v1.3, lossy; derived from the PLATO record; plato_commit=ca0afadabec1e23a145c0b03df77e8f151f79832","features":[{"@id":"https://w3id.org/whg-epns/70/010977","type":"Feature","properties":{"title":"Wilderley","ccodes":["GB"],"fclasses":["A","P"]},"names":[{"toponym":"Wilderley","lang":"en","citations":[{"label":"English Place-Name Society survey, volume 70: Shropshire"}]},{"toponym":"Wildredelega","citations":[{"label":"1086 DB","year":1086},{"label":"1204 HAC","year":1204}],"when":{"timespans":[{"start":{"in":"1086"},"end":{"in":"1086"}},{"start":{"in":"1204"},"end":{"in":"1204"}}]}},{"toponym":"Wildredel'","citations":[{"label":"1201 Cur","year":1201},{"label":"1261-2 ForProc","year":1261}],"when":{"timespans":[{"start":{"in":"1201"},"end":{"in":"1201"}},{"start":{"earliest":"1261","latest":"1262"},"end":{"earliest":"1261","latest":"1262"}}]}},{"toponym":"Wildredeleg","citations":[{"label":"1203-4 Ass","year":1203}],"when":{"timespans":[{"start":{"earliest":"1203","latest":"1204"},"end":{"earliest":"1203","latest":"1204"}}]}},{"toponym":"Wildredeleye","citations":[{"label":"l.13th ForProc","year":1275},{"label":"1306-7 Ass","year":1306}],"when":{"timespans":[{"start":{"earliest":"1275","latest":"1300"},"end":{"earliest":"1275","latest":"1300"}},{"start":{"earliest":"1306","latest":"1307"},"end":{"earliest":"1306","latest":"1307"}}]}},{"toponym":"Wyldredelegh'","citations":[{"label":"1271-2 ForProc","year":1271}],"when":{"timespans":[{"start":{"earliest":"1271","latest":"1272"},"end":{"earliest":"1271","latest":"1272"}}]}},{"toponym":"Wyldredelye","citations":[{"label":"1271-2 Ass","year":1271}],"when":{"timespans":[{"start":{"earliest":"1271","latest":"1272"},"end":{"earliest":"1271","latest":"1272"}}]}},{"toponym":"Widerleg'","citations":[{"label":"1195–1204, recurring P","year":1195},{"label":"1195–1204, recurring P"},{"label":"1195 P","year":1195},{"label":"1204 P","year":1204}],"when":{"timespans":[{"start":{"in":"1195"},"end":{"in":"1204"}},{"start":{"in":"1195"},"end":{"in":"1195"}},{"start":{"in":"1204"},"end":{"in":"1204"}}]}},{"toponym":"Wiudredelee","citations":[{"label":"1201 Cur","year":1201}],"when":{"timespans":[{"start":{"in":"1201"},"end":{"in":"1201"}}]}},{"toponym":"Wildrideleg'","citations":[{"label":"1203-4 Ass","year":1203}],"when":{"timespans":[{"start":{"earliest":"1203","latest":"1204"},"end":{"earliest":"1203","latest":"1204"}}]}},{"toponym":"Wildridleg","citations":[{"label":"1255 RH","year":1255}],"when":{"timespans":[{"start":{"in":"1255"},"end":{"in":"1255"}}]}},{"toponym":"Wyldridelee","citations":[{"label":"1261-2 ForProc","year":1261}],"when":{"timespans":[{"start":{"earliest":"1261","latest":"1262"},"end":{"earliest":"1261","latest":"1262"}}]}},{"toponym":"Wyldrideley","citations":[{"label":"1271-2 Ass","year":1271}],"when":{"timespans":[{"start":{"earliest":"1271","latest":"1272"},"end":{"earliest":"1271","latest":"1272"}}]}},{"toponym":"Wyldridelegh","citations":[{"label":"1301 SAC","year":1301}],"when":{"timespans":[{"start":{"in":"1301"},"end":{"in":"1301"}}]}},{"toponym":"Wildricheleg'","citations":[{"label":"1203-4 Ass","year":1203}],"when":{"timespans":[{"start":{"earliest":"1203","latest":"1204"},"end":{"earliest":"1203","latest":"1204"}}]}},{"toponym":"Wildritheleg","citations":[{"label":"c.1250-80 HAC","year":1250}],"when":{"timespans":[{"start":{"earliest":"1250","latest":"1280"},"end":{"earliest":"1250","latest":"1280"}}]}},{"toponym":"Wyldrichleye","citations":[{"label":"c.1291 TN","year":1281}],"when":{"timespans":[{"start":{"earliest":"1281","latest":"1301"},"end":{"earliest":"1281","latest":"1301"}}]}},{"toponym":"Wildridesle","citations":[{"label":"1203-4 Ass","year":1203}],"when":{"timespans":[{"start":{"earliest":"1203","latest":"1204"},"end":{"earliest":"1203","latest":"1204"}}]}},{"toponym":"Wyldredeslegh'","citations":[{"label":"1271-2 ForProc","year":1271}],"when":{"timespans":[{"start":{"earliest":"1271","latest":"1272"},"end":{"earliest":"1271","latest":"1272"}}]}},{"toponym":"Wardredelegh'","citations":[{"label":"1208-9 ForProc","year":1208}],"when":{"timespans":[{"start":{"earliest":"1208","latest":"1209"},"end":{"earliest":"1208","latest":"1209"}}]}},{"toponym":"Wilderdeleg'","citations":[{"label":"1242 Fees","year":1242}],"when":{"timespans":[{"start":{"in":"1242"},"end":{"in":"1242"}}]}},{"toponym":"Wylderdeleye","citations":[{"label":"1320 Ch","year":1320}],"when":{"timespans":[{"start":{"in":"1320"},"end":{"in":"1320"}}]}},{"toponym":"Wilderdeleye","citations":[{"label":"1334 SR","year":1334},{"label":"1346 FA","year":1346}],"when":{"timespans":[{"start":{"in":"1334"},"end":{"in":"1334"}},{"start":{"in":"1346"},"end":{"in":"1346"}},{"start":{"in":"1428"},"end":{"in":"1428"}}]}},{"toponym":"Wydridel'","citations":[{"label":"1255-6 Ass","year":1255}],"when":{"timespans":[{"start":{"earliest":"1255","latest":"1256"},"end":{"earliest":"1255","latest":"1256"}}]}},{"toponym":"Wildreley","citations":[{"label":"a.1244 HAC","year":1194}],"when":{"timespans":[{"start":{"earliest":"1194","latest":"1244"},"end":{"earliest":"1194","latest":"1244"}}]}},{"toponym":"Wyldrelye","citations":[{"label":"1271-2 Ass","year":1271}],"when":{"timespans":[{"start":{"earliest":"1271","latest":"1272"},"end":{"earliest":"1271","latest":"1272"}}]}},{"toponym":"Wuldredeleg', Woldredeleg'","citations":[{"label":"1261-2 ForProc","year":1261}],"when":{"timespans":[{"start":{"earliest":"1261","latest":"1262"},"end":{"earliest":"1261","latest":"1262"}}]}},{"toponym":"Wilderleye","citations":[{"label":"1291-2 Ass","year":1291}],"when":{"timespans":[{"start":{"earliest":"1291","latest":"1292"},"end":{"earliest":"1291","latest":"1292"}}]}},{"toponym":"Wilderley","citations":[{"label":"1445–1445, recurring Fine","year":1445},{"label":"1445 Fine","year":1445}],"when":{"timespans":[{"start":{"in":"1445"},"end":{"in":"1445"}},{"start":{"in":"1445"},"end":{"in":"1445"}}]}},{"toponym":"Welderdeleye","citations":[{"label":"1316 FA","year":1316}],"when":{"timespans":[{"start":{"in":"1316"},"end":{"in":"1316"}}]}},{"toponym":"Wilderley alias Wynderley","citations":[{"label":"1551 Pat","year":1551}],"when":{"timespans":[{"start":{"in":"1551"},"end":{"in":"1551"}}]}},{"toponym":"Wilderley alias Wynderleye","citations":[{"label":"1596 SBL","year":1596}],"when":{"timespans":[{"start":{"in":"1596"},"end":{"in":"1596"}}]}},{"toponym":"Wynderley alias Wilderley, Wildederley alias Wynderley","citations":[{"label":"1615 SBL","year":1615}],"when":{"timespans":[{"start":{"in":"1615"},"end":{"in":"1615"}}]}},{"toponym":"Wilderley, Winderley","citations":[{"label":"1674 SBL","year":1674}],"when":{"timespans":[{"start":{"in":"1674"},"end":{"in":"1674"}}]}}],"types":[{"identifier":"http://vocab.getty.edu/aat/300232418","label":"administrative division","sourceLabels":[{"label":"township","lang":"en"}]}],"geometry":{"type":"GeometryCollection","geometries":[{"type":"Point","coordinates":[-2.835975381,52.61067105],"citations":[{"label":"English Place-Name Society survey (DEEP coordinates)"}]},{"type":"Point","coordinates":[-2.834447539558179,52.6079854886586],"citations":[{"label":"Unlock (EDINA) gazetteer, gazetteer record unlock:11322902"}]}]},"when":{"timespans":[{"start":{"in":"1086"},"end":{"in":"1674"}}]},"relations":[{"relationType":"gvp:broaderPartitive","relationTo":"https://w3id.org/whg-epns/70/010548","label":"within Church Pulverbatch"}]}]}