{"@context":"https://raw.githubusercontent.com/LinkedPasts/linked-places-format/main/linkedplaces-context-v1.1.jsonld","type":"FeatureCollection","license":"Digitisation of English Placenames MADS data is licensed to Jisc by the English Place Names Society and released under a Creative Commons Attribution-NonCommercial 4.0 International License.","note":"LPF v1.3, lossy; derived from the PLATO record; plato_commit=ca0afadabec1e23a145c0b03df77e8f151f79832","features":[{"@id":"https://w3id.org/whg-epns/70/011156","type":"Feature","properties":{"title":"Wrentnall","ccodes":["GB"],"fclasses":["A","P"]},"names":[{"toponym":"Wrentnall","lang":"en","citations":[{"label":"English Place-Name Society survey, volume 70: Shropshire"}]},{"toponym":"Werentenehale","citations":[{"label":"1086 DB","year":1086}],"when":{"timespans":[{"start":{"in":"1086"},"end":{"in":"1086"}}]}},{"toponym":"Wrontenhale","citations":[{"label":"1271-2 Ass","year":1271}],"when":{"timespans":[{"start":{"earliest":"1271","latest":"1272"},"end":{"earliest":"1271","latest":"1272"}},{"start":{"earliest":"1291","latest":"1292"},"end":{"earliest":"1291","latest":"1292"}}]}},{"toponym":"Wrontenhall","citations":[{"label":"1346 FA","year":1346}],"when":{"timespans":[{"start":{"in":"1346"},"end":{"in":"1346"}}]}},{"toponym":"Wrentehale","citations":[{"label":"1364-6 ForProc","year":1364}],"when":{"timespans":[{"start":{"earliest":"1364","latest":"1366"},"end":{"earliest":"1364","latest":"1366"}}]}},{"toponym":"Wrentall","citations":[{"label":"1577 Saxton","year":1577}],"when":{"timespans":[{"start":{"in":"1577"},"end":{"in":"1577"}}]}},{"toponym":"Wrentenhale","citations":[{"label":"1365 ForProc","year":1365}],"when":{"timespans":[{"start":{"in":"1365"},"end":{"in":"1365"}},{"start":{"in":"1366"},"end":{"in":"1366"}}]}},{"toponym":"Wrentnall","citations":[{"label":"1528–1528, recurring SBL","year":1528},{"label":"1528 SBL","year":1528}],"when":{"timespans":[{"start":{"in":"1528"},"end":{"in":"1528"}},{"start":{"in":"1528"},"end":{"in":"1528"}}]}},{"toponym":"Wrentnor","citations":[{"label":"c.1597 SBL Plan 47","year":1587}],"when":{"timespans":[{"start":{"earliest":"1587","latest":"1607"},"end":{"earliest":"1587","latest":"1607"}}]}},{"toponym":"Wrentnole","citations":[{"label":"1601 SBL","year":1601}],"when":{"timespans":[{"start":{"in":"1601"},"end":{"in":"1601"}}]}}],"types":[{"identifier":"http://vocab.getty.edu/aat/300232418","label":"administrative division","sourceLabels":[{"label":"township","lang":"en"}]}],"geometry":{"type":"GeometryCollection","geometries":[{"type":"Point","coordinates":[-2.848119957,52.62766773],"citations":[{"label":"English Place-Name Society survey (DEEP coordinates)"}]},{"type":"Point","coordinates":[-2.849562771377514,52.62586016525808],"citations":[{"label":"Unlock (EDINA) gazetteer, gazetteer record unlock:11327611"}]}]},"when":{"timespans":[{"start":{"in":"1086"},"end":{"in":"1607"}}]},"relations":[{"relationType":"gvp:broaderPartitive","relationTo":"https://w3id.org/whg-epns/70/010548","label":"within Church Pulverbatch"}]}]}