{"@context":"https://raw.githubusercontent.com/LinkedPasts/linked-places-format/main/linkedplaces-context-v1.1.jsonld","type":"FeatureCollection","license":"Digitisation of English Placenames MADS data is licensed to Jisc by the English Place Names Society and released under a Creative Commons Attribution-NonCommercial 4.0 International License.","note":"LPF v1.3, lossy; derived from the PLATO record; plato_commit=fa0d247ccc0263f8f19c8d7cdcd163df96935d1e","features":[{"@id":"https://w3id.org/whg-epns/15/000396","type":"Feature","properties":{"title":"Great and Little Offley","ccodes":["GB"],"fclasses":["A","P"]},"names":[{"toponym":"Great and Little Offley","lang":"en","citations":[{"label":"English Place-Name Society survey, volume 15: Hertfordshire"}]},{"toponym":"Offanlege","citations":[{"label":"944-6 BCS","year":944}],"when":{"timespans":[{"start":{"earliest":"0944","latest":"0946"},"end":{"earliest":"0944","latest":"0946"}}]}},{"toponym":"Offelei, Offelei altera","citations":[{"label":"1086 DB","year":1086}],"when":{"timespans":[{"start":{"in":"1086"},"end":{"in":"1086"}}]}},{"toponym":"Offelege","citations":[{"label":"Cur","year":1200},{"label":"FA"},{"label":"1200 Cur","year":1200},{"label":"1303 FA","year":1303}],"when":{"timespans":[{"start":{"in":"1200"},"end":{"in":"1303"}},{"start":{"in":"1200"},"end":{"in":"1200"}},{"start":{"in":"1303"},"end":{"in":"1303"}}]}},{"toponym":"Offeleye, Offelegh, Offele","citations":[{"label":"1200-1303 unspecified sources","year":1200}],"when":{"timespans":[{"start":{"in":"1200"},"end":{"in":"1303"}}]}},{"toponym":"Offele Parva","citations":[{"label":"1307 SR","year":1307}],"when":{"timespans":[{"start":{"in":"1307"},"end":{"in":"1307"}}]}},{"toponym":"Great Offle","citations":[{"label":"1467 Pat","year":1467}],"when":{"timespans":[{"start":{"in":"1467"},"end":{"in":"1467"}}]}},{"toponym":"Offly","citations":[{"label":"1638 Terrier","year":1638}],"when":{"timespans":[{"start":{"in":"1638"},"end":{"in":"1638"}}]}},{"toponym":"Oftley","citations":[{"label":"1669 Sess","year":1669}],"when":{"timespans":[{"start":{"in":"1669"},"end":{"in":"1669"}}]}},{"toponym":"Uffeleye","citations":[{"label":"1339 Cl","year":1339},{"label":"1382 IpmR","year":1382}],"when":{"timespans":[{"start":{"in":"1339"},"end":{"in":"1339"}},{"start":{"in":"1382"},"end":{"in":"1382"}}]}},{"toponym":"Affley","citations":[{"label":"1608 Speed","year":1608}],"when":{"timespans":[{"start":{"in":"1608"},"end":{"in":"1608"}}]}}],"types":[{"identifier":"http://vocab.getty.edu/aat/300232418","label":"administrative division","sourceLabels":[{"label":"township","lang":"en"}]}],"geometry":{"type":"Point","coordinates":[-0.335959,51.9342],"citations":[{"label":"Key to English Place-Names (KEPN), gazetteer record 4579"}]},"when":{"timespans":[{"start":{"in":"0944"},"end":{"in":"1669"}}]},"relations":[{"relationType":"gvp:broaderPartitive","relationTo":"https://w3id.org/whg-epns/15/000395","label":"within Offley"}]}]}