{"@context":"https://raw.githubusercontent.com/LinkedPasts/linked-places-format/main/linkedplaces-context-v1.1.jsonld","type":"FeatureCollection","license":"Digitisation of English Placenames MADS data is licensed to Jisc by the English Place Names Society and released under a Creative Commons Attribution-NonCommercial 4.0 International License.","note":"LPF v1.3, lossy; derived from the PLATO record; plato_commit=fa0d247ccc0263f8f19c8d7cdcd163df96935d1e","features":[{"@id":"https://w3id.org/whg-epns/15/001485","type":"Feature","properties":{"title":"Markyate","ccodes":["GB"],"fclasses":["A","P"]},"names":[{"toponym":"Markyate","lang":"en","citations":[{"label":"English Place-Name Society survey, volume 15: Hertfordshire"}]}],"types":[{"identifier":"http://vocab.getty.edu/aat/300232418","label":"administrative division","sourceLabels":[{"label":"parish","lang":"en"}]}],"geometry":{"type":"GeometryCollection","geometries":[{"type":"Point","coordinates":[-0.46345,51.83846],"citations":[{"label":"GeoNames, gazetteer record geonames:2643011"}]},{"type":"Point","coordinates":[-0.4540967973042618,51.83649724321667],"citations":[{"label":"Unlock (EDINA) gazetteer, gazetteer record unlock:11213822"}]},{"type":"Point","coordinates":[-0.455,51.836],"citations":[{"label":"Key to English Place-Names (KEPN), gazetteer record 0161"}]}]},"links":[{"type":"closeMatch","identifier":"https://sws.geonames.org/2643011/"}],"relations":[{"relationType":"gvp:broaderPartitive","relationTo":"https://w3id.org/whg-epns/15/000625","label":"within Dacorum Hundred"}]}]}