{"@context":"https://raw.githubusercontent.com/LinkedPasts/linked-places-format/main/linkedplaces-context-v1.1.jsonld","type":"FeatureCollection","license":"Digitisation of English Placenames MADS data is licensed to Jisc by the English Place Names Society and released under a Creative Commons Attribution-NonCommercial 4.0 International License.","note":"LPF v1.3, lossy; derived from the PLATO record; plato_commit=ca0afadabec1e23a145c0b03df77e8f151f79832","features":[{"@id":"http://placenames.org.uk/id/placename/15/001514","type":"Feature","properties":{"title":"Nettleden","ccodes":["GB"],"fclasses":["A","P"]},"names":[{"toponym":"Nettleden","lang":"en","citations":[{"label":"English Place-Name Society survey, volume 15: Hertfordshire"}]},{"toponym":"Netteleydene, Neteleydene","citations":[{"label":"c. 1200 Miss","year":1190}],"when":{"timespans":[{"start":{"earliest":"1190","latest":"1210"},"end":{"earliest":"1190","latest":"1210"}}]}},{"toponym":"Netteleyden","citations":[{"label":"1309 Ch","year":1309}],"when":{"timespans":[{"start":{"in":"1309"},"end":{"in":"1309"}}]}},{"toponym":"Netleden","citations":[{"label":"1432 Ct","year":1432}],"when":{"timespans":[{"start":{"in":"1432"},"end":{"in":"1432"}}]}},{"toponym":"Netley Dene","citations":[{"label":"c. 1450 ECP","year":1440}],"when":{"timespans":[{"start":{"earliest":"1440","latest":"1460"},"end":{"earliest":"1440","latest":"1460"}}]}},{"toponym":"Neteleya, Neteleia","citations":[{"label":"c. 1200 Miss","year":1190}],"when":{"timespans":[{"start":{"earliest":"1190","latest":"1210"},"end":{"earliest":"1190","latest":"1210"}}]}},{"toponym":"Netylden","citations":[{"label":"1535 VE","year":1535}],"when":{"timespans":[{"start":{"in":"1535"},"end":{"in":"1535"}}]}},{"toponym":"Netelldene","citations":[{"label":"1559 Brownlow","year":1559}],"when":{"timespans":[{"start":{"in":"1559"},"end":{"in":"1559"}}]}}],"types":[{"identifier":"http://vocab.getty.edu/aat/300232418","label":"administrative division","sourceLabels":[{"label":"township","lang":"en"}]}],"geometry":{"type":"GeometryCollection","geometries":[{"type":"Point","coordinates":[-0.5284058136978709,51.78349417198684],"citations":[{"label":"Unlock (EDINA) gazetteer, gazetteer record unlock:11228271"}]},{"type":"Point","coordinates":[-0.515472,51.7838],"citations":[{"label":"Key to English Place-Names (KEPN), gazetteer record 4593"}]}]},"when":{"timespans":[{"start":{"in":"1190"},"end":{"in":"1559"}}]},"relations":[{"relationType":"gvp:broaderPartitive","relationTo":"http://placenames.org.uk/id/placename/15/001513","label":"within Nettleden"}]}]}