{"@context":"https://raw.githubusercontent.com/LinkedPasts/linked-places-format/main/linkedplaces-context-v1.1.jsonld","type":"FeatureCollection","license":"Digitisation of English Placenames MADS data is licensed to Jisc by the English Place Names Society and released under a Creative Commons Attribution-NonCommercial 4.0 International License.","note":"LPF v1.3, lossy; derived from the PLATO record; plato_commit=ca0afadabec1e23a145c0b03df77e8f151f79832","features":[{"@id":"https://w3id.org/whg-epns/15/001526","type":"Feature","properties":{"title":"Northchurch","ccodes":["GB"],"fclasses":["A","P"]},"names":[{"toponym":"Northchurch","lang":"en","citations":[{"label":"English Place-Name Society survey, volume 15: Hertfordshire"}]},{"toponym":"Ecclesia Sancte Marie de Berchamsteda","citations":[{"label":"1209-35 Wells","year":1209}],"when":{"timespans":[{"start":{"earliest":"1209","latest":"1235"},"end":{"earliest":"1209","latest":"1235"}}]}},{"toponym":"Ecclesia de North Berchamstede","citations":[{"label":"1254 Val","year":1254},{"label":"1291 Tax","year":1291}],"when":{"timespans":[{"start":{"in":"1254"},"end":{"in":"1254"}},{"start":{"in":"1291"},"end":{"in":"1291"}}]}},{"toponym":"Northberkhampstede","citations":[{"label":"1321 Cl","year":1321}],"when":{"timespans":[{"start":{"in":"1321"},"end":{"in":"1321"}}]}},{"toponym":"Northberkhamstede","citations":[{"label":"1321 Pat","year":1321}],"when":{"timespans":[{"start":{"in":"1321"},"end":{"in":"1321"}},{"start":{"in":"1324"},"end":{"in":"1324"}}]}},{"toponym":"West Berkhampstede","citations":[{"label":"1355 FF","year":1355}],"when":{"timespans":[{"start":{"in":"1355"},"end":{"in":"1355"}}]}},{"toponym":"North Barkhamstede","citations":[{"label":"1378 FF","year":1378}],"when":{"timespans":[{"start":{"in":"1378"},"end":{"in":"1378"}}]}},{"toponym":"le Northcherche","citations":[{"label":"1347 BPR","year":1347}],"when":{"timespans":[{"start":{"in":"1347"},"end":{"in":"1347"}}]}},{"toponym":"le Northchurche","citations":[{"label":"1357 Rental","year":1357}],"when":{"timespans":[{"start":{"in":"1357"},"end":{"in":"1357"}}]}},{"toponym":"North Cherche","citations":[{"label":"1392 IpmR","year":1392}],"when":{"timespans":[{"start":{"in":"1392"},"end":{"in":"1392"}}]}},{"toponym":"Norchurch(e)","citations":[{"label":"1546 FF","year":1546},{"label":"1565 AOMB","year":1565}],"when":{"timespans":[{"start":{"in":"1546"},"end":{"in":"1546"}},{"start":{"in":"1565"},"end":{"in":"1565"}}]}},{"toponym":"Northbarckhamsted al. Northchurche","citations":[{"label":"1556 FF","year":1556}],"when":{"timespans":[{"start":{"in":"1556"},"end":{"in":"1556"}}]}},{"toponym":"Barkhampsted Marie al. Northchurch","citations":[{"label":"1570 FF","year":1570}],"when":{"timespans":[{"start":{"in":"1570"},"end":{"in":"1570"}}]}}],"types":[{"identifier":"http://vocab.getty.edu/aat/300232418","label":"administrative division","sourceLabels":[{"label":"township","lang":"en"}]}],"geometry":{"type":"GeometryCollection","geometries":[{"type":"Point","coordinates":[-0.58519,51.77113],"citations":[{"label":"GeoNames, gazetteer record geonames:2641394"}]},{"type":"Point","coordinates":[-0.5869419823783328,51.76622692805302],"citations":[{"label":"Unlock (EDINA) gazetteer, gazetteer record unlock:11233329"}]},{"type":"Point","coordinates":[-0.588492,51.7667],"citations":[{"label":"Key to English Place-Names (KEPN), gazetteer record 4595"}]}]},"when":{"timespans":[{"start":{"in":"1209"},"end":{"in":"1570"}}]},"links":[{"type":"closeMatch","identifier":"https://sws.geonames.org/2641394/"}],"relations":[{"relationType":"gvp:broaderPartitive","relationTo":"https://w3id.org/whg-epns/15/001525","label":"within Northchurch"}]}]}