{"@context":"https://raw.githubusercontent.com/LinkedPasts/linked-places-format/main/linkedplaces-context-v1.1.jsonld","type":"FeatureCollection","license":"Digitisation of English Placenames MADS data is licensed to Jisc by the English Place Names Society and released under a Creative Commons Attribution-NonCommercial 4.0 International License.","note":"LPF v1.3, lossy; derived from the PLATO record; plato_commit=fa0d247ccc0263f8f19c8d7cdcd163df96935d1e","features":[{"@id":"https://w3id.org/whg-epns/15/001620","type":"Feature","properties":{"title":"Tring","ccodes":["GB"],"fclasses":["A","P"]},"names":[{"toponym":"Tring","lang":"en","citations":[{"label":"English Place-Name Society survey, volume 15: Hertfordshire"}]}],"types":[{"identifier":"http://vocab.getty.edu/aat/300232418","label":"administrative division","sourceLabels":[{"label":"parish","lang":"en"}]}],"geometry":{"type":"GeometryCollection","geometries":[{"type":"Point","coordinates":[-0.65824,51.79471],"citations":[{"label":"GeoNames, gazetteer record geonames:2635459"}]},{"type":"Point","coordinates":[-0.6583180368937521,51.80303393529664],"citations":[{"label":"Unlock (EDINA) gazetteer, gazetteer record unlock:11306165"}]},{"type":"Point","coordinates":[-0.660128,51.7945],"citations":[{"label":"Key to English Place-Names (KEPN), gazetteer record 4598"}]}]},"links":[{"type":"closeMatch","identifier":"https://sws.geonames.org/2635459/"}],"relations":[{"relationType":"gvp:broaderPartitive","relationTo":"https://w3id.org/whg-epns/15/000625","label":"within Dacorum Hundred"}]}]}