{"@context":"https://raw.githubusercontent.com/LinkedPasts/linked-places-format/main/linkedplaces-context-v1.1.jsonld","type":"FeatureCollection","license":"Digitisation of English Placenames MADS data is licensed to Jisc by the English Place Names Society and released under a Creative Commons Attribution-NonCommercial 4.0 International License.","note":"LPF v1.3, lossy; derived from the PLATO record; plato_commit=ca0afadabec1e23a145c0b03df77e8f151f79832","features":[{"@id":"https://w3id.org/whg-epns/15/002627","type":"Feature","properties":{"title":"Redbourn","ccodes":["GB"],"fclasses":["A","P"]},"names":[{"toponym":"Redbourn","lang":"en","citations":[{"label":"English Place-Name Society survey, volume 15: Hertfordshire"}]},{"toponym":"(æt) Reodburne","citations":[{"label":"11th KCD","year":1000}],"when":{"timespans":[{"start":{"earliest":"1000","latest":"1100"},"end":{"earliest":"1000","latest":"1100"}}]}},{"toponym":"Redborne","citations":[{"label":"1086–1086, recurring DB","year":1086},{"label":"1086 DB","year":1086}],"when":{"timespans":[{"start":{"in":"1086"},"end":{"in":"1086"}},{"start":{"in":"1086"},"end":{"in":"1086"}}]}},{"toponym":"Redburne, Redbourne","citations":[{"label":"1086-1600 unspecified sources","year":1086}],"when":{"timespans":[{"start":{"in":"1086"},"end":{"in":"1600"}}]}},{"toponym":"Redeburn","citations":[{"label":"1291 Tax","year":1291},{"label":"1300 Ch","year":1300}],"when":{"timespans":[{"start":{"in":"1291"},"end":{"in":"1291"}},{"start":{"in":"1300"},"end":{"in":"1300"}}]}},{"toponym":"Redebourn","citations":[{"label":"1337 BM","year":1337}],"when":{"timespans":[{"start":{"in":"1337"},"end":{"in":"1337"}}]}},{"toponym":"Reddeburne","citations":[{"label":"1428 FA","year":1428}],"when":{"timespans":[{"start":{"in":"1428"},"end":{"in":"1428"}}]}},{"toponym":"Redbourne Strete","citations":[{"label":"1549 Pat","year":1549}],"when":{"timespans":[{"start":{"in":"1549"},"end":{"in":"1549"}}]}},{"toponym":"Radburnam","citations":[{"label":"11th Gesta","year":1000}],"when":{"timespans":[{"start":{"earliest":"1000","latest":"1100"},"end":{"earliest":"1000","latest":"1100"}}]}},{"toponym":"Radbourne","citations":[{"label":"t. Hy 5 AD","year":1413},{"label":"1500 ECP","year":1500}],"when":{"timespans":[{"start":{"earliest":"1413","latest":"1422"},"end":{"earliest":"1413","latest":"1422"}},{"start":{"in":"1500"},"end":{"in":"1500"}}]}},{"toponym":"Radburne","citations":[{"label":"1558 FF","year":1558}],"when":{"timespans":[{"start":{"in":"1558"},"end":{"in":"1558"}}]}},{"toponym":"Rodborne","citations":[{"label":"1346 AD","year":1346}],"when":{"timespans":[{"start":{"in":"1346"},"end":{"in":"1346"}}]}}],"types":[{"identifier":"http://vocab.getty.edu/aat/300232418","label":"administrative division","sourceLabels":[{"label":"township","lang":"en"}]}],"geometry":{"type":"GeometryCollection","geometries":[{"type":"Point","coordinates":[-0.39594,51.79896],"citations":[{"label":"GeoNames, gazetteer record geonames:2639567"}]},{"type":"Point","coordinates":[-0.3973352143410354,51.79976600780513],"citations":[{"label":"Unlock (EDINA) gazetteer, gazetteer record unlock:11253867"}]},{"type":"Point","coordinates":[-0.398909,51.8002],"citations":[{"label":"Key to English Place-Names (KEPN), gazetteer record 4615"}]}]},"when":{"timespans":[{"start":{"in":"1000"},"end":{"in":"1600"}}]},"links":[{"type":"closeMatch","identifier":"https://sws.geonames.org/2639567/"}],"relations":[{"relationType":"gvp:broaderPartitive","relationTo":"https://w3id.org/whg-epns/15/002626","label":"within Redbourn"}]}]}