{"@context":"https://raw.githubusercontent.com/LinkedPasts/linked-places-format/main/linkedplaces-context-v1.1.jsonld","type":"FeatureCollection","license":"Digitisation of English Placenames MADS data is licensed to Jisc by the English Place Names Society and released under a Creative Commons Attribution-NonCommercial 4.0 International License.","note":"LPF v1.3, lossy; derived from the PLATO record; plato_commit=fa0d247ccc0263f8f19c8d7cdcd163df96935d1e","features":[{"@id":"https://w3id.org/whg-epns/15/003518","type":"Feature","properties":{"title":"Sarratt","ccodes":["GB"],"fclasses":["A","P"]},"names":[{"toponym":"Sarratt","lang":"en","citations":[{"label":"English Place-Name Society survey, volume 15: Hertfordshire"}]},{"toponym":"Syreth","citations":[{"label":"1077-93 Gesta","year":1077}],"when":{"timespans":[{"start":{"earliest":"1077","latest":"1093"},"end":{"earliest":"1077","latest":"1093"}}]}},{"toponym":"Siret","citations":[{"label":"1166 RBE","year":1166}],"when":{"timespans":[{"start":{"in":"1166"},"end":{"in":"1166"}}]}},{"toponym":"Syret","citations":[{"label":"12th StAlbansN","year":1100}],"when":{"timespans":[{"start":{"earliest":"1100","latest":"1200"},"end":{"earliest":"1100","latest":"1200"}}]}},{"toponym":"Sareth","citations":[{"label":"1094 AD","year":1094},{"label":"1183-95 Gesta","year":1183},{"label":"1262 Ass","year":1262},{"label":"1296 SR","year":1296}],"when":{"timespans":[{"start":{"in":"1094"},"end":{"in":"1094"}},{"start":{"earliest":"1183","latest":"1195"},"end":{"earliest":"1183","latest":"1195"}},{"start":{"in":"1262"},"end":{"in":"1262"}},{"start":{"in":"1296"},"end":{"in":"1296"}}]}},{"toponym":"La Sareth","citations":[{"label":"c. 1275 Gesta","year":1265}],"when":{"timespans":[{"start":{"earliest":"1265","latest":"1285"},"end":{"earliest":"1265","latest":"1285"}}]}},{"toponym":"Saret","citations":[{"label":"c. 1220 ANG","year":1210},{"label":"1258 FF","year":1258},{"label":"1259 MP","year":1259},{"label":"1294 SR","year":1294},{"label":"1301 Gesta","year":1301}],"when":{"timespans":[{"start":{"earliest":"1210","latest":"1230"},"end":{"earliest":"1210","latest":"1230"}},{"start":{"in":"1258"},"end":{"in":"1258"}},{"start":{"in":"1259"},"end":{"in":"1259"}},{"start":{"in":"1294"},"end":{"in":"1294"}},{"start":{"in":"1301"},"end":{"in":"1301"}}]}},{"toponym":"Sharete","citations":[{"label":"1248 Ass","year":1248}],"when":{"timespans":[{"start":{"in":"1248"},"end":{"in":"1248"}}]}},{"toponym":"La Sarette, Sarette","citations":[{"label":"1255 Ass","year":1255},{"label":"1263 FF","year":1263},{"label":"1303 FA","year":1303}],"when":{"timespans":[{"start":{"in":"1255"},"end":{"in":"1255"}},{"start":{"in":"1263"},"end":{"in":"1263"}},{"start":{"in":"1314"},"end":{"in":"1314"}},{"start":{"in":"1303"},"end":{"in":"1303"}},{"start":{"in":"1428"},"end":{"in":"1428"}}]}},{"toponym":"Sarette by Bovyndon","citations":[{"label":"1315 Pat","year":1315}],"when":{"timespans":[{"start":{"in":"1315"},"end":{"in":"1315"}}]}},{"toponym":"Sereth, Seret","citations":[{"label":"t. Hy 2 Dugd","year":1154},{"label":"c. 1200 Miss","year":1190}],"when":{"timespans":[{"start":{"earliest":"1154","latest":"1189"},"end":{"earliest":"1154","latest":"1189"}},{"start":{"earliest":"1190","latest":"1210"},"end":{"earliest":"1190","latest":"1210"}}]}},{"toponym":"Serret, Seret","citations":[{"label":"t. Ric 1 Ch","year":1189}],"when":{"timespans":[{"start":{"earliest":"1189","latest":"1199"},"end":{"earliest":"1189","latest":"1199"}}]}},{"toponym":"Seret","citations":[{"label":"1237 FF","year":1237}],"when":{"timespans":[{"start":{"in":"1237"},"end":{"in":"1237"}}]}},{"toponym":"Serrett","citations":[{"label":"1281 FF","year":1281}],"when":{"timespans":[{"start":{"in":"1281"},"end":{"in":"1281"}}]}},{"toponym":"Sherrat","citations":[{"label":"1529-32 ECP","year":1529}],"when":{"timespans":[{"start":{"earliest":"1529","latest":"1532"},"end":{"earliest":"1529","latest":"1532"}}]}},{"toponym":"Serreyt","citations":[{"label":"1538 Recov","year":1538}],"when":{"timespans":[{"start":{"in":"1538"},"end":{"in":"1538"}}]}}],"types":[{"identifier":"http://vocab.getty.edu/aat/300232418","label":"administrative division","sourceLabels":[{"label":"township","lang":"en"}]}],"geometry":{"type":"GeometryCollection","geometries":[{"type":"Point","coordinates":[-0.494,51.68458],"citations":[{"label":"GeoNames, gazetteer record geonames:2638501"}]},{"type":"Point","coordinates":[-0.4882299599911693,51.68406270427955],"citations":[{"label":"Unlock (EDINA) gazetteer, gazetteer record unlock:11278231"}]},{"type":"Point","coordinates":[-0.489788,51.6845],"citations":[{"label":"Key to English Place-Names (KEPN), gazetteer record 4619"}]}]},"when":{"timespans":[{"start":{"in":"1077"},"end":{"in":"1538"}}]},"links":[{"type":"closeMatch","identifier":"https://sws.geonames.org/2638501/"}],"relations":[{"relationType":"gvp:broaderPartitive","relationTo":"https://w3id.org/whg-epns/15/003517","label":"within Sarratt"}]}]}