{"@context":"https://raw.githubusercontent.com/LinkedPasts/linked-places-format/main/linkedplaces-context-v1.1.jsonld","type":"FeatureCollection","license":"Digitisation of English Placenames MADS data is licensed to Jisc by the English Place Names Society and released under a Creative Commons Attribution-NonCommercial 4.0 International License.","note":"LPF v1.3, lossy; derived from the PLATO record; plato_commit=ca0afadabec1e23a145c0b03df77e8f151f79832","features":[{"@id":"http://placenames.org.uk/id/placename/15/005316","type":"Feature","properties":{"title":"Odsey Hundred","ccodes":["GB"],"fclasses":["A"]},"names":[{"toponym":"Odsey Hundred","lang":"en","citations":[{"label":"English Place-Name Society survey, volume 15: Hertfordshire"}]},{"toponym":"Odesei","citations":[{"label":"1086 DB","year":1086}],"when":{"timespans":[{"start":{"in":"1086"},"end":{"in":"1086"}}]}},{"toponym":"Odesi","citations":[{"label":"1160 P","year":1160}],"when":{"timespans":[{"start":{"in":"1160"},"end":{"in":"1160"}}]}},{"toponym":"Odeseye","citations":[{"label":"1230 P","year":1230},{"label":"1240 RBE","year":1240}],"when":{"timespans":[{"start":{"in":"1230"},"end":{"in":"1230"}},{"start":{"in":"1240"},"end":{"in":"1240"}}]}},{"toponym":"Odeseth","citations":[{"label":"1135 Ch","year":1135}],"when":{"timespans":[{"start":{"in":"1135"},"end":{"in":"1135"}}]}},{"toponym":"Odeseche","citations":[{"label":"1191 P","year":1191}],"when":{"timespans":[{"start":{"in":"1191"},"end":{"in":"1191"}},{"start":{"in":"1193"},"end":{"in":"1193"}}]}},{"toponym":"Odeshele","citations":[{"label":"1165 P","year":1165}],"when":{"timespans":[{"start":{"in":"1165"},"end":{"in":"1165"}}]}},{"toponym":"Odeshela","citations":[{"label":"1166 P","year":1166}],"when":{"timespans":[{"start":{"in":"1166"},"end":{"in":"1166"}}]}},{"toponym":"Odesela","citations":[{"label":"1166 P","year":1166}],"when":{"timespans":[{"start":{"in":"1166"},"end":{"in":"1166"}},{"start":{"in":"1178"},"end":{"in":"1178"}}]}},{"toponym":"Odeseles","citations":[{"label":"1275 RH","year":1275},{"label":"1278 QW","year":1278}],"when":{"timespans":[{"start":{"in":"1275"},"end":{"in":"1275"}},{"start":{"in":"1278"},"end":{"in":"1278"}}]}},{"toponym":"Oddishel","citations":[{"label":"1247 FF","year":1247}],"when":{"timespans":[{"start":{"in":"1247"},"end":{"in":"1247"}}]}},{"toponym":"Oddeseth","citations":[{"label":"1248 Ass","year":1248}],"when":{"timespans":[{"start":{"in":"1248"},"end":{"in":"1248"}}]}},{"toponym":"Oddessete","citations":[{"label":"1248 Fees","year":1248}],"when":{"timespans":[{"start":{"in":"1248"},"end":{"in":"1248"}}]}},{"toponym":"Oddeseye","citations":[{"label":"1252 Ch","year":1252},{"label":"1275 RH","year":1275},{"label":"1346 FA","year":1346}],"when":{"timespans":[{"start":{"in":"1252"},"end":{"in":"1252"}},{"start":{"in":"1275"},"end":{"in":"1275"}},{"start":{"in":"1346"},"end":{"in":"1346"}}]}},{"toponym":"Oddesele(s)","citations":[{"label":"1255 Ass","year":1255},{"label":"1330 Gesta","year":1330}],"when":{"timespans":[{"start":{"in":"1255"},"end":{"in":"1255"}},{"start":{"in":"1287"},"end":{"in":"1287"}},{"start":{"in":"1316"},"end":{"in":"1316"}},{"start":{"in":"1342"},"end":{"in":"1342"}},{"start":{"in":"1330"},"end":{"in":"1330"}}]}},{"toponym":"Odesethehill","citations":[{"label":"1406 Ct","year":1406}],"when":{"timespans":[{"start":{"in":"1406"},"end":{"in":"1406"}}]}},{"toponym":"Oddesethull","citations":[{"label":"1469 StJohns","year":1469}],"when":{"timespans":[{"start":{"in":"1469"},"end":{"in":"1469"}}]}},{"toponym":"Hodseidyche","citations":[{"label":"1449 StJohns","year":1449}],"when":{"timespans":[{"start":{"in":"1449"},"end":{"in":"1449"}}]}},{"toponym":"Odsetheway","citations":[{"label":"1450 StJohns","year":1450}],"when":{"timespans":[{"start":{"in":"1450"},"end":{"in":"1450"}}]}}],"types":[{"identifier":"http://vocab.getty.edu/aat/300232418","label":"administrative division","sourceLabels":[{"label":"hundred / wapentake","lang":"en"}]}],"geometry":null,"when":{"timespans":[{"start":{"in":"1086"},"end":{"in":"1469"}}]},"relations":[{"relationType":"gvp:broaderPartitive","relationTo":"http://placenames.org.uk/id/placename/15/000001","label":"within Hertfordshire"}]}]}