{"@context":"https://raw.githubusercontent.com/LinkedPasts/linked-places-format/main/linkedplaces-context-v1.1.jsonld","type":"FeatureCollection","license":"Digitisation of English Placenames MADS data is licensed to Jisc by the English Place Names Society and released under a Creative Commons Attribution-NonCommercial 4.0 International License.","note":"LPF v1.3, lossy; derived from the PLATO record; plato_commit=ca0afadabec1e23a145c0b03df77e8f151f79832","features":[{"@id":"http://placenames.org.uk/id/placename/15/005721","type":"Feature","properties":{"title":"Radwell","ccodes":["GB"],"fclasses":["A","P"]},"names":[{"toponym":"Radwell","lang":"en","citations":[{"label":"English Place-Name Society survey, volume 15: Hertfordshire"}]},{"toponym":"to readan wylles heafdon, of readan wylles heafdon","citations":[{"label":"1007 Crawford","year":1007}],"when":{"timespans":[{"start":{"in":"1007"},"end":{"in":"1007"}}]}},{"toponym":"molendin. de Radewellesheved","citations":[{"label":"14th Hosp","year":1300}],"when":{"timespans":[{"start":{"earliest":"1300","latest":"1400"},"end":{"earliest":"1300","latest":"1400"}}]}},{"toponym":"Radeuuelle","citations":[{"label":"1086 DB","year":1086}],"when":{"timespans":[{"start":{"in":"1086"},"end":{"in":"1086"}}]}},{"toponym":"Radewelle","citations":[{"label":"1185–1303, recurring Templars","year":1185},{"label":"1185–1303, recurring FA"},{"label":"1185 Templars","year":1185},{"label":"1303 FA","year":1303}],"when":{"timespans":[{"start":{"in":"1185"},"end":{"in":"1303"}},{"start":{"in":"1185"},"end":{"in":"1185"}},{"start":{"in":"1303"},"end":{"in":"1303"}}]}},{"toponym":"Radewelle juxta Baldok","citations":[{"label":"1347 FF","year":1347}],"when":{"timespans":[{"start":{"in":"1347"},"end":{"in":"1347"}}]}}],"types":[{"identifier":"http://vocab.getty.edu/aat/300232418","label":"administrative division","sourceLabels":[{"label":"township","lang":"en"}]}],"geometry":{"type":"GeometryCollection","geometries":[{"type":"Point","coordinates":[-0.20127,52.01849],"citations":[{"label":"GeoNames, gazetteer record geonames:2639712"}]},{"type":"Point","coordinates":[-0.2152006084725281,52.00397936347113],"citations":[{"label":"Unlock (EDINA) gazetteer, gazetteer record unlock:11252001"}]},{"type":"Point","coordinates":[-0.202243,52.0042],"citations":[{"label":"Key to English Place-Names (KEPN), gazetteer record 4657"}]}]},"when":{"timespans":[{"start":{"in":"1007"},"end":{"in":"1400"}}]},"links":[{"type":"closeMatch","identifier":"https://sws.geonames.org/2639712/"}],"relations":[{"relationType":"gvp:broaderPartitive","relationTo":"http://placenames.org.uk/id/placename/15/005720","label":"within Radwell"}]}]}