{"@context":"https://raw.githubusercontent.com/LinkedPasts/linked-places-format/main/linkedplaces-context-v1.1.jsonld","type":"FeatureCollection","license":"Digitisation of English Placenames MADS data is licensed to Jisc by the English Place Names Society and released under a Creative Commons Attribution-NonCommercial 4.0 International License.","note":"LPF v1.3, lossy; derived from the PLATO record; plato_commit=ca0afadabec1e23a145c0b03df77e8f151f79832","features":[{"@id":"http://placenames.org.uk/id/placename/15/006134","type":"Feature","properties":{"title":"Aspenden","ccodes":["GB"],"fclasses":["A","P"]},"names":[{"toponym":"Aspenden","lang":"en","citations":[{"label":"English Place-Name Society survey, volume 15: Hertfordshire"}]}],"types":[{"identifier":"http://vocab.getty.edu/aat/300232418","label":"administrative division","sourceLabels":[{"label":"parish","lang":"en"}]}],"geometry":{"type":"GeometryCollection","geometries":[{"type":"Point","coordinates":[-0.02867,51.93627],"citations":[{"label":"GeoNames, gazetteer record geonames:2656890"}]},{"type":"Point","coordinates":[-0.02867222279707968,51.93805308662952],"citations":[{"label":"Unlock (EDINA) gazetteer, gazetteer record unlock:11064895"}]},{"type":"Point","coordinates":[-0.0302939,51.9385],"citations":[{"label":"Key to English Place-Names (KEPN), gazetteer record 4666"}]}]},"links":[{"type":"closeMatch","identifier":"https://sws.geonames.org/2656890/"}],"relations":[{"relationType":"gvp:broaderPartitive","relationTo":"http://placenames.org.uk/id/placename/15/006031","label":"within Edwinstree Hundred"}]}]}