{"@context":"https://raw.githubusercontent.com/LinkedPasts/linked-places-format/main/linkedplaces-context-v1.1.jsonld","type":"FeatureCollection","license":"Digitisation of English Placenames MADS data is licensed to Jisc by the English Place Names Society and released under a Creative Commons Attribution-NonCommercial 4.0 International License.","note":"LPF v1.3, lossy; derived from the PLATO record; plato_commit=ca0afadabec1e23a145c0b03df77e8f151f79832","features":[{"@id":"https://w3id.org/whg-epns/15/006234","type":"Feature","properties":{"title":"Barley","ccodes":["GB"],"fclasses":["A","P"]},"names":[{"toponym":"Barley","lang":"en","citations":[{"label":"English Place-Name Society survey, volume 15: Hertfordshire"}]}],"types":[{"identifier":"http://vocab.getty.edu/aat/300232418","label":"administrative division","sourceLabels":[{"label":"parish","lang":"en"}]}],"geometry":{"type":"GeometryCollection","geometries":[{"type":"Point","coordinates":[0.03862,52.0262],"citations":[{"label":"GeoNames, gazetteer record geonames:2656321"}]},{"type":"Point","coordinates":[0.04811728878213103,52.02667329726138],"citations":[{"label":"Unlock (EDINA) gazetteer, gazetteer record unlock:11070160"}]},{"type":"Point","coordinates":[0.0464831,52.0271],"citations":[{"label":"Key to English Place-Names (KEPN), gazetteer record 4668"}]}]},"links":[{"type":"closeMatch","identifier":"https://sws.geonames.org/2656321/"}],"relations":[{"relationType":"gvp:broaderPartitive","relationTo":"https://w3id.org/whg-epns/15/006031","label":"within Edwinstree Hundred"}]}]}