{"@context":"https://raw.githubusercontent.com/LinkedPasts/linked-places-format/main/linkedplaces-context-v1.1.jsonld","type":"FeatureCollection","license":"Digitisation of English Placenames MADS data is licensed to Jisc by the English Place Names Society and released under a Creative Commons Attribution-NonCommercial 4.0 International License.","note":"LPF v1.3, lossy; derived from the PLATO record; plato_commit=ca0afadabec1e23a145c0b03df77e8f151f79832","features":[{"@id":"https://w3id.org/whg-epns/15/006760","type":"Feature","properties":{"title":"Wyddial","ccodes":["GB"],"fclasses":["A","P"]},"names":[{"toponym":"Wyddial","lang":"en","citations":[{"label":"English Place-Name Society survey, volume 15: Hertfordshire"}]},{"toponym":"Widihale","citations":[{"label":"1086–1324, recurring DB","year":1086},{"label":"1086–1324, recurring Ipm"},{"label":"1086 DB","year":1086},{"label":"1324 Ipm","year":1324}],"when":{"timespans":[{"start":{"in":"1086"},"end":{"in":"1324"}},{"start":{"in":"1086"},"end":{"in":"1086"}},{"start":{"in":"1324"},"end":{"in":"1324"}}]}},{"toponym":"Wydihale","citations":[{"label":"1086-1324 unspecified sources","year":1086}],"when":{"timespans":[{"start":{"in":"1086"},"end":{"in":"1324"}}]}},{"toponym":"Wydyhale and Widihall","citations":[{"label":"1208 Abbr","year":1208}],"when":{"timespans":[{"start":{"in":"1208"},"end":{"in":"1208"}}]}},{"toponym":"Widiale","citations":[{"label":"1281 FF","year":1281}],"when":{"timespans":[{"start":{"in":"1281"},"end":{"in":"1281"}}]}},{"toponym":"Widealla","citations":[{"label":"12th France","year":1100}],"when":{"timespans":[{"start":{"earliest":"1100","latest":"1200"},"end":{"earliest":"1100","latest":"1200"}}]}},{"toponym":"Widahale","citations":[{"label":"c. 1180 Gesta","year":1170}],"when":{"timespans":[{"start":{"earliest":"1170","latest":"1190"},"end":{"earliest":"1170","latest":"1190"}}]}},{"toponym":"Widehale","citations":[{"label":"1197-1221 AD","year":1197},{"label":"1231 FF","year":1231}],"when":{"timespans":[{"start":{"earliest":"1197","latest":"1221"},"end":{"earliest":"1197","latest":"1221"}},{"start":{"in":"1231"},"end":{"in":"1231"}}]}},{"toponym":"Wydehale","citations":[{"label":"1218 Dugd","year":1218},{"label":"1228 FF","year":1228}],"when":{"timespans":[{"start":{"in":"1218"},"end":{"in":"1218"}},{"start":{"in":"1228"},"end":{"in":"1228"}}]}},{"toponym":"Wydehall","citations":[{"label":"1278 Ass","year":1278}],"when":{"timespans":[{"start":{"in":"1278"},"end":{"in":"1278"}}]}},{"toponym":"Withial","citations":[{"label":"1257 Pat","year":1257}],"when":{"timespans":[{"start":{"in":"1257"},"end":{"in":"1257"}}]}},{"toponym":"Wythihale","citations":[{"label":"1353 Pat","year":1353},{"label":"1377 FF","year":1377}],"when":{"timespans":[{"start":{"in":"1353"},"end":{"in":"1353"}},{"start":{"in":"1377"},"end":{"in":"1377"}}]}},{"toponym":"Widhale","citations":[{"label":"t. Ed 3 FA","year":1327}],"when":{"timespans":[{"start":{"earliest":"1327","latest":"1377"},"end":{"earliest":"1327","latest":"1377"}}]}},{"toponym":"Wydhale","citations":[{"label":"1330 Ipm","year":1330}],"when":{"timespans":[{"start":{"in":"1330"},"end":{"in":"1330"}}]}},{"toponym":"Wedyhale","citations":[{"label":"1383 IpmR","year":1383}],"when":{"timespans":[{"start":{"in":"1383"},"end":{"in":"1383"}}]}},{"toponym":"Wedyale","citations":[{"label":"1398 FF","year":1398},{"label":"1428 FA","year":1428}],"when":{"timespans":[{"start":{"in":"1398"},"end":{"in":"1398"}},{"start":{"in":"1428"},"end":{"in":"1428"}}]}},{"toponym":"Wethyhall al. Wedyall","citations":[{"label":"1527 FF","year":1527}],"when":{"timespans":[{"start":{"in":"1527"},"end":{"in":"1527"}}]}},{"toponym":"Witheall","citations":[{"label":"t. Eliz ChancP","year":1558}],"when":{"timespans":[{"start":{"earliest":"1558","latest":"1603"},"end":{"earliest":"1558","latest":"1603"}}]}},{"toponym":"Widjel","citations":[{"label":"1662 Fuller","year":1662}],"when":{"timespans":[{"start":{"in":"1662"},"end":{"in":"1662"}}]}},{"toponym":"Withiall","citations":[{"label":"1675 Ogilby","year":1675}],"when":{"timespans":[{"start":{"in":"1675"},"end":{"in":"1675"}}]}}],"types":[{"identifier":"http://vocab.getty.edu/aat/300232418","label":"administrative division","sourceLabels":[{"label":"township","lang":"en"}]}],"geometry":{"type":"GeometryCollection","geometries":[{"type":"Point","coordinates":[-0.00369,51.96452],"citations":[{"label":"GeoNames, gazetteer record geonames:2633461"}]},{"type":"Point","coordinates":[0.001606242235771394,51.96452141257845],"citations":[{"label":"Unlock (EDINA) gazetteer, gazetteer record unlock:11327796"}]},{"type":"Point","coordinates":[-1.99914e-05,51.965],"citations":[{"label":"Key to English Place-Names (KEPN), gazetteer record 4681"}]}]},"when":{"timespans":[{"start":{"in":"1086"},"end":{"in":"1675"}}]},"links":[{"type":"closeMatch","identifier":"https://sws.geonames.org/2633461/"}],"relations":[{"relationType":"gvp:broaderPartitive","relationTo":"https://w3id.org/whg-epns/15/006759","label":"within Wyddial"}]}]}