{"@context":"https://raw.githubusercontent.com/LinkedPasts/linked-places-format/main/linkedplaces-context-v1.1.jsonld","type":"FeatureCollection","license":"Digitisation of English Placenames MADS data is licensed to Jisc by the English Place Names Society and released under a Creative Commons Attribution-NonCommercial 4.0 International License.","note":"LPF v1.3, lossy; derived from the PLATO record; plato_commit=fa0d247ccc0263f8f19c8d7cdcd163df96935d1e","features":[{"@id":"https://w3id.org/whg-epns/15/006807","type":"Feature","properties":{"title":"Braughing","ccodes":["GB"],"fclasses":["A","P"]},"names":[{"toponym":"Braughing","lang":"en","citations":[{"label":"English Place-Name Society survey, volume 15: Hertfordshire"}]},{"toponym":"Breahingas","citations":[{"label":"825-8 Bodl (James 23)","year":825}],"when":{"timespans":[{"start":{"earliest":"0825","latest":"0828"},"end":{"earliest":"0825","latest":"0828"}}]}},{"toponym":"(ad) Brahcingum","citations":[{"label":"944-6 BCS","year":944}],"when":{"timespans":[{"start":{"earliest":"0944","latest":"0946"},"end":{"earliest":"0944","latest":"0946"}}]}},{"toponym":"Brachinges","citations":[{"label":"1086 DB","year":1086}],"when":{"timespans":[{"start":{"in":"1086"},"end":{"in":"1086"}}]}},{"toponym":"Brackinges","citations":[{"label":"12th AD","year":1100}],"when":{"timespans":[{"start":{"earliest":"1100","latest":"1200"},"end":{"earliest":"1100","latest":"1200"}}]}},{"toponym":"Bracchinges","citations":[{"label":"12th AD","year":1100}],"when":{"timespans":[{"start":{"earliest":"1100","latest":"1200"},"end":{"earliest":"1100","latest":"1200"}}]}},{"toponym":"Brakinges","citations":[{"label":"1210-12 RBE","year":1210}],"when":{"timespans":[{"start":{"earliest":"1210","latest":"1212"},"end":{"earliest":"1210","latest":"1212"}}]}},{"toponym":"Braghinges","citations":[{"label":"1255 Ass","year":1255}],"when":{"timespans":[{"start":{"in":"1255"},"end":{"in":"1255"}}]}},{"toponym":"Braching(e)","citations":[{"label":"1135-53 AD","year":1135}],"when":{"timespans":[{"start":{"earliest":"1135","latest":"1153"},"end":{"earliest":"1135","latest":"1153"}},{"start":{"earliest":"1148","latest":"1170"},"end":{"earliest":"1148","latest":"1170"}}]}},{"toponym":"Bracking(e)","citations":[{"label":"1135-48 AD","year":1135},{"label":"1198 FF","year":1198}],"when":{"timespans":[{"start":{"earliest":"1135","latest":"1148"},"end":{"earliest":"1135","latest":"1148"}},{"start":{"in":"1198"},"end":{"in":"1198"}}]}},{"toponym":"Braking'","citations":[{"label":"1212 Fees","year":1212},{"label":"1251 FF","year":1251}],"when":{"timespans":[{"start":{"in":"1212"},"end":{"in":"1212"}},{"start":{"in":"1222"},"end":{"in":"1222"}},{"start":{"in":"1251"},"end":{"in":"1251"}}]}},{"toponym":"Brackhinge","citations":[{"label":"1248 Ass","year":1248}],"when":{"timespans":[{"start":{"in":"1248"},"end":{"in":"1248"}}]}},{"toponym":"Brahingefeld","citations":[{"label":"12th AD","year":1100}],"when":{"timespans":[{"start":{"earliest":"1100","latest":"1200"},"end":{"earliest":"1100","latest":"1200"}}]}},{"toponym":"Brahing'","citations":[{"label":"1200 Cur","year":1200}],"when":{"timespans":[{"start":{"in":"1200"},"end":{"in":"1200"}}]}},{"toponym":"Brahhyng","citations":[{"label":"1311 Ch","year":1311},{"label":"1346 FA","year":1346}],"when":{"timespans":[{"start":{"in":"1311"},"end":{"in":"1311"}},{"start":{"in":"1346"},"end":{"in":"1346"}}]}},{"toponym":"Braghing(g)e","citations":[{"label":"c. 1200 Fees","year":1190},{"label":"1313 BM","year":1313},{"label":"1317 Pat","year":1317},{"label":"1346 FA","year":1346}],"when":{"timespans":[{"start":{"earliest":"1190","latest":"1210"},"end":{"earliest":"1190","latest":"1210"}},{"start":{"in":"1313"},"end":{"in":"1313"}},{"start":{"in":"1317"},"end":{"in":"1317"}},{"start":{"in":"1346"},"end":{"in":"1346"}}]}},{"toponym":"Braghyng","citations":[{"label":"1428 FA","year":1428}],"when":{"timespans":[{"start":{"in":"1428"},"end":{"in":"1428"}}]}},{"toponym":"Brauhing(e)","citations":[{"label":"1268 FF","year":1268},{"label":"1294 SR","year":1294},{"label":"1303 FA","year":1303}],"when":{"timespans":[{"start":{"in":"1268"},"end":{"in":"1268"}},{"start":{"in":"1294"},"end":{"in":"1294"}},{"start":{"in":"1303"},"end":{"in":"1303"}}]}},{"toponym":"Brawinge","citations":[{"label":"1307 Pat","year":1307}],"when":{"timespans":[{"start":{"in":"1307"},"end":{"in":"1307"}}]}},{"toponym":"Brawynge","citations":[{"label":"1309-20 Ch","year":1309},{"label":"1339 Cl","year":1339}],"when":{"timespans":[{"start":{"earliest":"1309","latest":"1320"},"end":{"earliest":"1309","latest":"1320"}},{"start":{"in":"1339"},"end":{"in":"1339"}}]}},{"toponym":"Brakking al. Brawghyng","citations":[{"label":"1540 FF","year":1540}],"when":{"timespans":[{"start":{"in":"1540"},"end":{"in":"1540"}}]}},{"toponym":"Browghing","citations":[{"label":"1535 VE","year":1535}],"when":{"timespans":[{"start":{"in":"1535"},"end":{"in":"1535"}}]}},{"toponym":"Braughing","citations":[{"label":"1545 SR","year":1545}],"when":{"timespans":[{"start":{"in":"1545"},"end":{"in":"1545"}}]}},{"toponym":"Braffyng","citations":[{"label":"1571 FF","year":1571}],"when":{"timespans":[{"start":{"in":"1571"},"end":{"in":"1571"}}]}},{"toponym":"Braffyn(g)","citations":[{"label":"t. Jas 1 ECP","year":1603},{"label":"1749 Barley ParReg","year":1749}],"when":{"timespans":[{"start":{"earliest":"1603","latest":"1625"},"end":{"earliest":"1603","latest":"1625"}},{"start":{"in":"1749"},"end":{"in":"1749"}}]}},{"toponym":"Braffin al. Braughin","citations":[{"label":"1683 FF","year":1683}],"when":{"timespans":[{"start":{"in":"1683"},"end":{"in":"1683"}}]}},{"toponym":"Broffine","citations":[{"label":"1605 Sess","year":1605}],"when":{"timespans":[{"start":{"in":"1605"},"end":{"in":"1605"}}]}}],"types":[{"identifier":"http://vocab.getty.edu/aat/300232418","label":"administrative division","sourceLabels":[{"label":"township","lang":"en"}]}],"geometry":{"type":"GeometryCollection","geometries":[{"type":"Point","coordinates":[0.02789,51.90684],"citations":[{"label":"GeoNames, gazetteer record geonames:2654863"}]},{"type":"Point","coordinates":[0.02786228292702925,51.90111968193862],"citations":[{"label":"Unlock (EDINA) gazetteer, gazetteer record unlock:11085951"}]},{"type":"Point","coordinates":[0.0266402,51.9106],"citations":[{"label":"Key to English Place-Names (KEPN), gazetteer record 4683"}]}]},"when":{"timespans":[{"start":{"in":"0825"},"end":{"in":"1749"}}]},"links":[{"type":"closeMatch","identifier":"https://sws.geonames.org/2654863/"}],"relations":[{"relationType":"gvp:broaderPartitive","relationTo":"https://w3id.org/whg-epns/15/006806","label":"within Braughing"}]}]}