{"@context":"https://raw.githubusercontent.com/LinkedPasts/linked-places-format/main/linkedplaces-context-v1.1.jsonld","type":"FeatureCollection","license":"Digitisation of English Placenames MADS data is licensed to Jisc by the English Place Names Society and released under a Creative Commons Attribution-NonCommercial 4.0 International License.","note":"LPF v1.3, lossy; derived from the PLATO record; plato_commit=ca0afadabec1e23a145c0b03df77e8f151f79832","features":[{"@id":"https://w3id.org/whg-epns/15/008007","type":"Feature","properties":{"title":"Little Berkhamsted","ccodes":["GB"],"fclasses":["A","P"]},"names":[{"toponym":"Little Berkhamsted","lang":"en","citations":[{"label":"English Place-Name Society survey, volume 15: Hertfordshire"}]},{"toponym":"Berchehāstede","citations":[{"label":"1086 DB","year":1086}],"when":{"timespans":[{"start":{"in":"1086"},"end":{"in":"1086"}}]}},{"toponym":"Berkamsted","citations":[{"label":"1211 Fees","year":1211}],"when":{"timespans":[{"start":{"in":"1211"},"end":{"in":"1211"}}]}},{"toponym":"Parvam Berkamstede","citations":[{"label":"1244 Fees","year":1244}],"when":{"timespans":[{"start":{"in":"1244"},"end":{"in":"1244"}}]}},{"toponym":"Little Berchamstede","citations":[{"label":"1253 Ch","year":1253}],"when":{"timespans":[{"start":{"in":"1253"},"end":{"in":"1253"}}]}},{"toponym":"Berkhamstede Mules","citations":[{"label":"1313 FF","year":1313}],"when":{"timespans":[{"start":{"in":"1313"},"end":{"in":"1313"}}]}},{"toponym":"Berkhamstede Moeles","citations":[{"label":"1350 Ipm","year":1350}],"when":{"timespans":[{"start":{"in":"1350"},"end":{"in":"1350"}}]}},{"toponym":"Barkehamsted Parva","citations":[{"label":"1539 LP","year":1539}],"when":{"timespans":[{"start":{"in":"1539"},"end":{"in":"1539"}}]}}],"types":[{"identifier":"http://vocab.getty.edu/aat/300232418","label":"administrative division","sourceLabels":[{"label":"township","lang":"en"}]}],"geometry":{"type":"GeometryCollection","geometries":[{"type":"Point","coordinates":[-0.12504,51.75845],"citations":[{"label":"GeoNames, gazetteer record geonames:7290810"}]},{"type":"Point","coordinates":[-0.12538,51.7512],"citations":[{"label":"Key to English Place-Names (KEPN), gazetteer record 4706"}]}]},"when":{"timespans":[{"start":{"in":"1086"},"end":{"in":"1539"}}]},"links":[{"type":"closeMatch","identifier":"https://sws.geonames.org/7290810/"}],"relations":[{"relationType":"gvp:broaderPartitive","relationTo":"https://w3id.org/whg-epns/15/008006","label":"within Little Berkhamsted"}]}]}