{"@context":"https://raw.githubusercontent.com/LinkedPasts/linked-places-format/main/linkedplaces-context-v1.1.jsonld","type":"FeatureCollection","license":"Digitisation of English Placenames MADS data is licensed to Jisc by the English Place Names Society and released under a Creative Commons Attribution-NonCommercial 4.0 International License.","note":"LPF v1.3, lossy; derived from the PLATO record; plato_commit=fa0d247ccc0263f8f19c8d7cdcd163df96935d1e","features":[{"@id":"https://w3id.org/whg-epns/15/008682","type":"Feature","properties":{"title":"Wormley","ccodes":["GB"],"fclasses":["A","P"]},"names":[{"toponym":"Wormley","lang":"en","citations":[{"label":"English Place-Name Society survey, volume 15: Hertfordshire"}]},{"toponym":"Wrmeleia","citations":[{"label":"c. 1060 WDB","year":1050}],"when":{"timespans":[{"start":{"earliest":"1050","latest":"1070"},"end":{"earliest":"1050","latest":"1070"}}]}},{"toponym":"Uurmelea","citations":[{"label":"1066 CottCh","year":1066}],"when":{"timespans":[{"start":{"in":"1066"},"end":{"in":"1066"}}]}},{"toponym":"Wurmele","citations":[{"label":"13th WalthamB","year":1200},{"label":"1222 Pat","year":1222}],"when":{"timespans":[{"start":{"earliest":"1200","latest":"1300"},"end":{"earliest":"1200","latest":"1300"}},{"start":{"in":"1222"},"end":{"in":"1222"}}]}},{"toponym":"Wormele","citations":[{"label":"1253 Ch","year":1253},{"label":"1280 Pat","year":1280},{"label":"1322 FF","year":1322}],"when":{"timespans":[{"start":{"in":"1253"},"end":{"in":"1253"}},{"start":{"in":"1280"},"end":{"in":"1280"}},{"start":{"in":"1322"},"end":{"in":"1322"}}]}},{"toponym":"Wrmele","citations":[{"label":"1307 FF","year":1307}],"when":{"timespans":[{"start":{"in":"1307"},"end":{"in":"1307"}}]}},{"toponym":"Wermelai","citations":[{"label":"DB","year":1086},{"label":"Ch"},{"label":"1086 DB","year":1086},{"label":"1317 Ch","year":1317}],"when":{"timespans":[{"start":{"in":"1086"},"end":{"in":"1317"}},{"start":{"in":"1086"},"end":{"in":"1086"}},{"start":{"in":"1317"},"end":{"in":"1317"}}]}},{"toponym":"Wermele, Wermeleye, Wermelegh","citations":[{"label":"1086-1317 unspecified sources","year":1086}],"when":{"timespans":[{"start":{"in":"1086"},"end":{"in":"1317"}}]}},{"toponym":"Wirmeleia","citations":[{"label":"13th WalthamB","year":1200}],"when":{"timespans":[{"start":{"earliest":"1200","latest":"1300"},"end":{"earliest":"1200","latest":"1300"}}]}}],"types":[{"identifier":"http://vocab.getty.edu/aat/300232418","label":"administrative division","sourceLabels":[{"label":"township","lang":"en"}]}],"geometry":{"type":"GeometryCollection","geometries":[{"type":"Point","coordinates":[-0.0242,51.7324],"citations":[{"label":"GeoNames, gazetteer record geonames:2633535"}]},{"type":"Point","coordinates":[-0.02320764893660014,51.73111650222911],"citations":[{"label":"Unlock (EDINA) gazetteer, gazetteer record unlock:11327308"}]},{"type":"Point","coordinates":[-0.0248213,51.7316],"citations":[{"label":"Key to English Place-Names (KEPN), gazetteer record 4710"}]}]},"when":{"timespans":[{"start":{"in":"1050"},"end":{"in":"1322"}}]},"links":[{"type":"closeMatch","identifier":"https://sws.geonames.org/2633535/"}],"relations":[{"relationType":"gvp:broaderPartitive","relationTo":"https://w3id.org/whg-epns/15/008681","label":"within Wormley"}]}]}