{"@context":"https://raw.githubusercontent.com/LinkedPasts/linked-places-format/main/linkedplaces-context-v1.1.jsonld","type":"FeatureCollection","license":"Digitisation of English Placenames MADS data is licensed to Jisc by the English Place Names Society and released under a Creative Commons Attribution-NonCommercial 4.0 International License.","note":"LPF v1.3, lossy; derived from the PLATO record; plato_commit=fa0d247ccc0263f8f19c8d7cdcd163df96935d1e","features":[{"@id":"https://w3id.org/whg-epns/15/008681","type":"Feature","properties":{"title":"Wormley","ccodes":["GB"],"fclasses":["A","P"]},"names":[{"toponym":"Wormley","lang":"en","citations":[{"label":"English Place-Name Society survey, volume 15: Hertfordshire"}]}],"types":[{"identifier":"http://vocab.getty.edu/aat/300232418","label":"administrative division","sourceLabels":[{"label":"parish","lang":"en"}]}],"geometry":{"type":"GeometryCollection","geometries":[{"type":"Point","coordinates":[-0.0242,51.7324],"citations":[{"label":"GeoNames, gazetteer record geonames:2633535"}]},{"type":"Point","coordinates":[-0.02320764893660014,51.73111650222911],"citations":[{"label":"Unlock (EDINA) gazetteer, gazetteer record unlock:11327308"}]},{"type":"Point","coordinates":[-0.0248213,51.7316],"citations":[{"label":"Key to English Place-Names (KEPN), gazetteer record 4710"}]}]},"links":[{"type":"closeMatch","identifier":"https://sws.geonames.org/2633535/"}],"relations":[{"relationType":"gvp:broaderPartitive","relationTo":"https://w3id.org/whg-epns/15/007761","label":"within Hertford Hundred"}]}]}