{"@context":"https://raw.githubusercontent.com/LinkedPasts/linked-places-format/main/linkedplaces-context-v1.1.jsonld","type":"FeatureCollection","license":"Digitisation of English Placenames MADS data is licensed to Jisc by the English Place Names Society and released under a Creative Commons Attribution-NonCommercial 4.0 International License.","note":"LPF v1.3, lossy; derived from the PLATO record; plato_commit=ca0afadabec1e23a145c0b03df77e8f151f79832","features":[{"@id":"https://w3id.org/whg-epns/14/000028","type":"Feature","properties":{"title":"Kilnsea","ccodes":["GB"],"fclasses":["A","P"]},"names":[{"toponym":"Kilnsea","lang":"en","citations":[{"label":"English Place-Name Society survey, volume 14: East Riding of Yorkshire"}]},{"toponym":"Chilnesse","citations":[{"label":"1086 DB","year":1086}],"when":{"timespans":[{"start":{"in":"1086"},"end":{"in":"1086"}}]}},{"toponym":"Chinlesei","citations":[{"label":"1115 YCh","year":1115},{"label":"1160-2 YCh","year":1160}],"when":{"timespans":[{"start":{"in":"1115"},"end":{"in":"1115"}},{"start":{"earliest":"1160","latest":"1162"},"end":{"earliest":"1160","latest":"1162"}}]}},{"toponym":"Kilnese, Kylnese","citations":[{"label":"t. Hy 3 BM","year":1216},{"label":"1228–1359, recurring RegAlb","year":1228},{"label":"1228–1359, recurring SR"},{"label":"1228 RegAlb","year":1228},{"label":"1359 SR","year":1359}],"when":{"timespans":[{"start":{"earliest":"1216","latest":"1272"},"end":{"earliest":"1216","latest":"1272"}},{"start":{"in":"1228"},"end":{"in":"1359"}},{"start":{"in":"1228"},"end":{"in":"1228"}},{"start":{"in":"1359"},"end":{"in":"1359"}}]}},{"toponym":"Kilnesse","citations":[{"label":"1246 Ass","year":1246},{"label":"1260 Rental","year":1260},{"label":"1276 Abbr","year":1276},{"label":"1293 QW","year":1293}],"when":{"timespans":[{"start":{"in":"1246"},"end":{"in":"1246"}},{"start":{"in":"1260"},"end":{"in":"1260"}},{"start":{"in":"1276"},"end":{"in":"1276"}},{"start":{"in":"1293"},"end":{"in":"1293"}}]}},{"toponym":"Kilnesey","citations":[{"label":"1273–1519, recurring Meaux","year":1273},{"label":"1273–1519, recurring FF"},{"label":"1273 Meaux","year":1273},{"label":"1519 FF","year":1519}],"when":{"timespans":[{"start":{"in":"1273"},"end":{"in":"1519"}},{"start":{"in":"1273"},"end":{"in":"1273"}},{"start":{"in":"1519"},"end":{"in":"1519"}}]}},{"toponym":"Kylnsey","citations":[{"label":"1556 FF","year":1556}],"when":{"timespans":[{"start":{"in":"1556"},"end":{"in":"1556"}}]}},{"toponym":"Kilnse, Kylnse","citations":[{"label":"1301 Pat","year":1301},{"label":"1333 SR","year":1333},{"label":"1364 Pat","year":1364}],"when":{"timespans":[{"start":{"in":"1301"},"end":{"in":"1301"}},{"start":{"in":"1333"},"end":{"in":"1333"}},{"start":{"in":"1364"},"end":{"in":"1364"}}]}},{"toponym":"Kelnsey","citations":[{"label":"a. 1678 Map","year":1628}],"when":{"timespans":[{"start":{"earliest":"1628","latest":"1678"},"end":{"earliest":"1628","latest":"1678"}}]}},{"toponym":"Kelsay","citations":[{"label":"1725 Sheppard","year":1725}],"when":{"timespans":[{"start":{"in":"1725"},"end":{"in":"1725"}}]}}],"types":[{"identifier":"http://vocab.getty.edu/aat/300232418","label":"administrative division","sourceLabels":[{"label":"township","lang":"en"}]}],"geometry":{"type":"GeometryCollection","geometries":[{"type":"Point","coordinates":[0.13922,53.62041],"citations":[{"label":"GeoNames, gazetteer record geonames:2645566"}]},{"type":"Point","coordinates":[0.1247660036408112,53.62591822633463],"citations":[{"label":"Unlock (EDINA) gazetteer, gazetteer record unlock:11186402"}]},{"type":"Point","coordinates":[0.122601,53.6172],"citations":[{"label":"Key to English Place-Names (KEPN), gazetteer record 8383"}]}]},"when":{"timespans":[{"start":{"in":"1086"},"end":{"in":"1725"}}]},"links":[{"type":"closeMatch","identifier":"https://sws.geonames.org/2645566/"}],"relations":[{"relationType":"gvp:broaderPartitive","relationTo":"https://w3id.org/whg-epns/14/000027","label":"within Kilnsea"}]}]}