{"@context":"https://raw.githubusercontent.com/LinkedPasts/linked-places-format/main/linkedplaces-context-v1.1.jsonld","type":"FeatureCollection","license":"Digitisation of English Placenames MADS data is licensed to Jisc by the English Place Names Society and released under a Creative Commons Attribution-NonCommercial 4.0 International License.","note":"LPF v1.3, lossy; derived from the PLATO record; plato_commit=ca0afadabec1e23a145c0b03df77e8f151f79832","features":[{"@id":"https://w3id.org/whg-epns/14/000389","type":"Feature","properties":{"title":"Halsham","ccodes":["GB"],"fclasses":["A","P"]},"names":[{"toponym":"Halsham","lang":"en","citations":[{"label":"English Place-Name Society survey, volume 14: East Riding of Yorkshire"}]},{"toponym":"Halsaham","citations":[{"label":"1033 RegAlb","year":1033}],"when":{"timespans":[{"start":{"in":"1033"},"end":{"in":"1033"}}]}},{"toponym":"Halsem","citations":[{"label":"1086 DB","year":1086},{"label":"1288 YI","year":1288}],"when":{"timespans":[{"start":{"in":"1086"},"end":{"in":"1086"}},{"start":{"in":"1288"},"end":{"in":"1288"}},{"start":{"in":"1294"},"end":{"in":"1294"}}]}},{"toponym":"Halsam","citations":[{"label":"1086 DB","year":1086},{"label":"1180–1482, recurring Melsa","year":1180},{"label":"1180–1482, recurring Test"},{"label":"1180-97 Melsa","year":1180},{"label":"1482 Test","year":1482}],"when":{"timespans":[{"start":{"in":"1086"},"end":{"in":"1086"}},{"start":{"in":"1180"},"end":{"in":"1482"}},{"start":{"earliest":"1180","latest":"1197"},"end":{"earliest":"1180","latest":"1197"}},{"start":{"in":"1482"},"end":{"in":"1482"}}]}},{"toponym":"Est Halsam","citations":[{"label":"13th Bridl","year":1200}],"when":{"timespans":[{"start":{"earliest":"1200","latest":"1300"},"end":{"earliest":"1200","latest":"1300"}}]}},{"toponym":"West Halsam","citations":[{"label":"c. 1265 KF","year":1255},{"label":"1290 YI","year":1290}],"when":{"timespans":[{"start":{"earliest":"1255","latest":"1275"},"end":{"earliest":"1255","latest":"1275"}},{"start":{"in":"1290"},"end":{"in":"1290"}}]}},{"toponym":"Halsam in Holdernes","citations":[{"label":"1407 Test","year":1407}],"when":{"timespans":[{"start":{"in":"1407"},"end":{"in":"1407"}}]}},{"toponym":"Halsham","citations":[{"label":"1190–1828, recurring YCh","year":1190},{"label":"1190–1828, recurring Langd"},{"label":"1190 YCh","year":1190},{"label":"1828 Langd","year":1828}],"when":{"timespans":[{"start":{"in":"1190"},"end":{"in":"1828"}},{"start":{"in":"1190"},"end":{"in":"1190"}},{"start":{"in":"1828"},"end":{"in":"1828"}}]}},{"toponym":"Halsham in Holdernes","citations":[{"label":"12th Meaux","year":1100}],"when":{"timespans":[{"start":{"earliest":"1100","latest":"1200"},"end":{"earliest":"1100","latest":"1200"}}]}},{"toponym":"Est Halsham, West Halsham","citations":[{"label":"1285–1350, recurring Ch","year":1285},{"label":"1285–1350, recurring Ipm"},{"label":"1285 Ch","year":1285},{"label":"1350 Ipm","year":1350}],"when":{"timespans":[{"start":{"in":"1285"},"end":{"in":"1350"}},{"start":{"in":"1285"},"end":{"in":"1285"}},{"start":{"in":"1350"},"end":{"in":"1350"}}]}},{"toponym":"Halscham","citations":[{"label":"1185-95 Bridl","year":1185}],"when":{"timespans":[{"start":{"earliest":"1185","latest":"1195"},"end":{"earliest":"1185","latest":"1195"}}]}},{"toponym":"Est Halsaim, West Halsaim, Halsaim, Est Halsaym, West Halsaym, Halsaym","citations":[{"label":"early 13th YD","year":1200},{"label":"1285 KI","year":1285},{"label":"1297 LS","year":1297}],"when":{"timespans":[{"start":{"earliest":"1200","latest":"1225"},"end":{"earliest":"1200","latest":"1225"}},{"start":{"in":"1285"},"end":{"in":"1285"}},{"start":{"in":"1297"},"end":{"in":"1297"}}]}},{"toponym":"Hausaim","citations":[{"label":"early 13th YD","year":1200}],"when":{"timespans":[{"start":{"earliest":"1200","latest":"1225"},"end":{"earliest":"1200","latest":"1225"}}]}},{"toponym":"Haussam","citations":[{"label":"1204 Ass","year":1204}],"when":{"timespans":[{"start":{"in":"1204"},"end":{"in":"1204"}}]}},{"toponym":"Hausham","citations":[{"label":"1212 FF","year":1212}],"when":{"timespans":[{"start":{"in":"1212"},"end":{"in":"1212"}},{"start":{"in":"1234"},"end":{"in":"1234"}}]}},{"toponym":"Halseham","citations":[{"label":"1429 Test","year":1429}],"when":{"timespans":[{"start":{"in":"1429"},"end":{"in":"1429"}}]}},{"toponym":"Holsham","citations":[{"label":"1433 HMC(Bev)","year":1433}],"when":{"timespans":[{"start":{"in":"1433"},"end":{"in":"1433"}}]}}],"types":[{"identifier":"http://vocab.getty.edu/aat/300232418","label":"administrative division","sourceLabels":[{"label":"township","lang":"en"}]}],"geometry":{"type":"GeometryCollection","geometries":[{"type":"Point","coordinates":[-0.0745,53.72985],"citations":[{"label":"GeoNames, gazetteer record geonames:2647606"}]},{"type":"Point","coordinates":[-0.06718233161625593,53.72807057119228],"citations":[{"label":"Unlock (EDINA) gazetteer, gazetteer record unlock:11164636"}]},{"type":"Point","coordinates":[-0.0688785,53.7283],"citations":[{"label":"Key to English Place-Names (KEPN), gazetteer record 8398"}]}]},"when":{"timespans":[{"start":{"in":"1033"},"end":{"in":"1828"}}]},"links":[{"type":"closeMatch","identifier":"https://sws.geonames.org/2647606/"}],"relations":[{"relationType":"gvp:broaderPartitive","relationTo":"https://w3id.org/whg-epns/14/000388","label":"within Halsham"}]}]}