{"@context":"https://raw.githubusercontent.com/LinkedPasts/linked-places-format/main/linkedplaces-context-v1.1.jsonld","type":"FeatureCollection","license":"Digitisation of English Placenames MADS data is licensed to Jisc by the English Place Names Society and released under a Creative Commons Attribution-NonCommercial 4.0 International License.","note":"LPF v1.3, lossy; derived from the PLATO record; plato_commit=fa0d247ccc0263f8f19c8d7cdcd163df96935d1e","features":[{"@id":"https://w3id.org/whg-epns/14/000482","type":"Feature","properties":{"title":"Burstwick","ccodes":["GB"],"fclasses":["A","P"]},"names":[{"toponym":"Burstwick","lang":"en","citations":[{"label":"English Place-Name Society survey, volume 14: East Riding of Yorkshire"}]}],"types":[{"identifier":"http://vocab.getty.edu/aat/300232418","label":"administrative division","sourceLabels":[{"label":"parish","lang":"en"}]}],"geometry":{"type":"GeometryCollection","geometries":[{"type":"Point","coordinates":[-0.13956,53.73211],"citations":[{"label":"GeoNames, gazetteer record geonames:2654220"}]},{"type":"Point","coordinates":[-0.142934396317746,53.7292687935319],"citations":[{"label":"Unlock (EDINA) gazetteer, gazetteer record unlock:11094044"}]},{"type":"Point","coordinates":[-0.144622,53.7295],"citations":[{"label":"Key to English Place-Names (KEPN), gazetteer record 8401"}]}]},"links":[{"type":"closeMatch","identifier":"https://sws.geonames.org/2654220/"}],"relations":[{"relationType":"gvp:broaderPartitive","relationTo":"https://w3id.org/whg-epns/14/000024","label":"within South Division"}]}]}