{"@context":"https://raw.githubusercontent.com/LinkedPasts/linked-places-format/main/linkedplaces-context-v1.1.jsonld","type":"FeatureCollection","license":"Digitisation of English Placenames MADS data is licensed to Jisc by the English Place Names Society and released under a Creative Commons Attribution-NonCommercial 4.0 International License.","note":"LPF v1.3, lossy; derived from the PLATO record; plato_commit=fa0d247ccc0263f8f19c8d7cdcd163df96935d1e","features":[{"@id":"https://w3id.org/whg-epns/14/000799","type":"Feature","properties":{"title":"Sutton on Hull","ccodes":["GB"],"fclasses":["A","P"]},"names":[{"toponym":"Sutton on Hull","lang":"en","citations":[{"label":"English Place-Name Society survey, volume 14: East Riding of Yorkshire"}]}],"types":[{"identifier":"http://vocab.getty.edu/aat/300232418","label":"administrative division","sourceLabels":[{"label":"parish","lang":"en"}]}],"geometry":{"type":"GeometryCollection","geometries":[{"type":"Point","coordinates":[-0.30504,53.77986],"citations":[{"label":"GeoNames, gazetteer record geonames:2636478"}]},{"type":"Point","coordinates":[-0.294304,53.7767],"citations":[{"label":"Key to English Place-Names (KEPN), gazetteer record 8409"}]}]},"links":[{"type":"closeMatch","identifier":"https://sws.geonames.org/2636478/"}],"relations":[{"relationType":"gvp:broaderPartitive","relationTo":"https://w3id.org/whg-epns/14/000685","label":"within Middle Division"}]}]}