{"@context":"https://raw.githubusercontent.com/LinkedPasts/linked-places-format/main/linkedplaces-context-v1.1.jsonld","type":"FeatureCollection","license":"Digitisation of English Placenames MADS data is licensed to Jisc by the English Place Names Society and released under a Creative Commons Attribution-NonCommercial 4.0 International License.","note":"LPF v1.3, lossy; derived from the PLATO record; plato_commit=ca0afadabec1e23a145c0b03df77e8f151f79832","features":[{"@id":"http://placenames.org.uk/id/placename/14/000745","type":"Feature","properties":{"title":"Preston","ccodes":["GB"],"fclasses":["A","P"]},"names":[{"toponym":"Preston","lang":"en","citations":[{"label":"English Place-Name Society survey, volume 14: East Riding of Yorkshire"}]}],"types":[{"identifier":"http://vocab.getty.edu/aat/300232418","label":"administrative division","sourceLabels":[{"label":"parish","lang":"en"}]}],"geometry":{"type":"GeometryCollection","geometries":[{"type":"Point","coordinates":[-0.19775,53.75663],"citations":[{"label":"GeoNames, gazetteer record geonames:2639913"}]},{"type":"Point","coordinates":[-0.2023895409980092,53.75714692424513],"citations":[{"label":"Unlock (EDINA) gazetteer, gazetteer record unlock:11249861"}]},{"type":"Point","coordinates":[-0.204071,53.7574],"citations":[{"label":"Key to English Place-Names (KEPN), gazetteer record 8408"}]}]},"links":[{"type":"closeMatch","identifier":"https://sws.geonames.org/2639913/"}],"relations":[{"relationType":"gvp:broaderPartitive","relationTo":"http://placenames.org.uk/id/placename/14/000685","label":"within Middle Division"}]}]}