{"@context":"https://raw.githubusercontent.com/LinkedPasts/linked-places-format/main/linkedplaces-context-v1.1.jsonld","type":"FeatureCollection","license":"Digitisation of English Placenames MADS data is licensed to Jisc by the English Place Names Society and released under a Creative Commons Attribution-NonCommercial 4.0 International License.","note":"LPF v1.3, lossy; derived from the PLATO record; plato_commit=fa0d247ccc0263f8f19c8d7cdcd163df96935d1e","features":[{"@id":"https://w3id.org/whg-epns/14/001447","type":"Feature","properties":{"title":"Mappleton","ccodes":["GB"],"fclasses":["A","P"]},"names":[{"toponym":"Mappleton","lang":"en","citations":[{"label":"English Place-Name Society survey, volume 14: East Riding of Yorkshire"}]},{"toponym":"Mapleton(e)","citations":[{"label":"1086 DB","year":1086},{"label":"1115 YCh","year":1115},{"label":"1154-80 YCh","year":1154},{"label":"1286 Ch","year":1286},{"label":"1599 BM","year":1599}],"when":{"timespans":[{"start":{"in":"1086"},"end":{"in":"1086"}},{"start":{"in":"1115"},"end":{"in":"1115"}},{"start":{"earliest":"1154","latest":"1180"},"end":{"earliest":"1154","latest":"1180"}},{"start":{"in":"1286"},"end":{"in":"1286"}},{"start":{"in":"1599"},"end":{"in":"1599"}}]}},{"toponym":"Mapeltun, Mapelton(a)","citations":[{"label":"12th Nunkeel","year":1100},{"label":"YCh","year":1160},{"label":"SR"},{"label":"1160-2 YCh","year":1160},{"label":"1359 SR","year":1359}],"when":{"timespans":[{"start":{"earliest":"1100","latest":"1200"},"end":{"earliest":"1100","latest":"1200"}},{"start":{"in":"1160"},"end":{"in":"1359"}},{"start":{"earliest":"1160","latest":"1162"},"end":{"earliest":"1160","latest":"1162"}},{"start":{"in":"1359"},"end":{"in":"1359"}}]}},{"toponym":"Mapiltun, Mapilton","citations":[{"label":"1203 Ass","year":1203},{"label":"Ebor","year":1230},{"label":"FF"},{"label":"1230 Ebor","year":1230},{"label":"1494 FF","year":1494}],"when":{"timespans":[{"start":{"in":"1203"},"end":{"in":"1203"}},{"start":{"in":"1230"},"end":{"in":"1494"}},{"start":{"in":"1230"},"end":{"in":"1230"}},{"start":{"in":"1494"},"end":{"in":"1494"}}]}},{"toponym":"Mapiltun in Holdernesse","citations":[{"label":"1370 FF","year":1370}],"when":{"timespans":[{"start":{"in":"1370"},"end":{"in":"1370"}}]}},{"toponym":"Mappelton","citations":[{"label":"1259 Ass","year":1259}],"when":{"timespans":[{"start":{"in":"1259"},"end":{"in":"1259"}}]}},{"toponym":"Mappylton","citations":[{"label":"1422 BM","year":1422}],"when":{"timespans":[{"start":{"in":"1422"},"end":{"in":"1422"}}]}}],"types":[{"identifier":"http://vocab.getty.edu/aat/300232418","label":"administrative division","sourceLabels":[{"label":"township","lang":"en"}]}],"geometry":{"type":"GeometryCollection","geometries":[{"type":"Point","coordinates":[-0.13664,53.87687],"citations":[{"label":"GeoNames, gazetteer record geonames:2643079"}]},{"type":"Point","coordinates":[-0.1361703308746708,53.88200124348666],"citations":[{"label":"Unlock (EDINA) gazetteer, gazetteer record unlock:11213411"}]},{"type":"Point","coordinates":[-0.138265,53.8732],"citations":[{"label":"Key to English Place-Names (KEPN), gazetteer record 8438"}]}]},"when":{"timespans":[{"start":{"in":"1086"},"end":{"in":"1599"}}]},"links":[{"type":"closeMatch","identifier":"https://sws.geonames.org/2643079/"}],"relations":[{"relationType":"gvp:broaderPartitive","relationTo":"https://w3id.org/whg-epns/14/001398","label":"within Mappleton"}]}]}