{"@context":"https://raw.githubusercontent.com/LinkedPasts/linked-places-format/main/linkedplaces-context-v1.1.jsonld","type":"FeatureCollection","license":"Digitisation of English Placenames MADS data is licensed to Jisc by the English Place Names Society and released under a Creative Commons Attribution-NonCommercial 4.0 International License.","note":"LPF v1.3, lossy; derived from the PLATO record; plato_commit=ca0afadabec1e23a145c0b03df77e8f151f79832","features":[{"@id":"http://placenames.org.uk/id/placename/14/001640","type":"Feature","properties":{"title":"Long Riston","ccodes":["GB"],"fclasses":["A","P"]},"names":[{"toponym":"Long Riston","lang":"en","citations":[{"label":"English Place-Name Society survey, volume 14: East Riding of Yorkshire"}]},{"toponym":"Ristun(e)","citations":[{"label":"1086 DB","year":1086},{"label":"1145-66 LeonardR","year":1145},{"label":"1160-75 YCh","year":1160}],"when":{"timespans":[{"start":{"in":"1086"},"end":{"in":"1086"}},{"start":{"earliest":"1145","latest":"1166"},"end":{"earliest":"1145","latest":"1166"}},{"start":{"earliest":"1160","latest":"1175"},"end":{"earliest":"1160","latest":"1175"}}]}},{"toponym":"Riston(a), Ryston(a)","citations":[{"label":"12th Meaux","year":1100},{"label":"1199–1583, recurring BM","year":1199},{"label":"1199–1583, recurring YD"},{"label":"t. John BM","year":1199},{"label":"1583 YD","year":1583}],"when":{"timespans":[{"start":{"earliest":"1100","latest":"1200"},"end":{"earliest":"1100","latest":"1200"}},{"start":{"in":"1199"},"end":{"in":"1583"}},{"start":{"earliest":"1199","latest":"1216"},"end":{"earliest":"1199","latest":"1216"}},{"start":{"in":"1583"},"end":{"in":"1583"}}]}},{"toponym":"Ryston(a) in Holdernes, Ryston(a) in Holdernesse","citations":[{"label":"1416–1538, recurring BM","year":1416},{"label":"1416–1538, recurring FF"},{"label":"1416 BM","year":1416},{"label":"1538 FF","year":1538}],"when":{"timespans":[{"start":{"in":"1416"},"end":{"in":"1538"}},{"start":{"in":"1416"},"end":{"in":"1416"}},{"start":{"in":"1538"},"end":{"in":"1538"}}]}},{"toponym":"Long Ryston(a)","citations":[{"label":"1828 Langd","year":1828}],"when":{"timespans":[{"start":{"in":"1828"},"end":{"in":"1828"}}]}},{"toponym":"Rustunia","citations":[{"label":"1145-66 YCh","year":1145}],"when":{"timespans":[{"start":{"earliest":"1145","latest":"1166"},"end":{"earliest":"1145","latest":"1166"}}]}},{"toponym":"Reston(a)","citations":[{"label":"1150-60 Melsa","year":1150},{"label":"1272–1316, recurring BM","year":1272},{"label":"1272–1316, recurring Ch"},{"label":"1272–1316, recurring NomVill"},{"label":"t. Ed i BM","year":1272},{"label":"t. Ed i Ch","year":1272},{"label":"1316 NomVill","year":1316}],"when":{"timespans":[{"start":{"earliest":"1150","latest":"1160"},"end":{"earliest":"1150","latest":"1160"}},{"start":{"in":"1272"},"end":{"in":"1316"}},{"start":{"earliest":"1272","latest":"1307"},"end":{"earliest":"1272","latest":"1307"}},{"start":{"earliest":"1272","latest":"1307"},"end":{"earliest":"1272","latest":"1307"}},{"start":{"in":"1316"},"end":{"in":"1316"}}]}},{"toponym":"Russton","citations":[{"label":"1465 Pat","year":1465}],"when":{"timespans":[{"start":{"in":"1465"},"end":{"in":"1465"}}]}},{"toponym":"Long Ruston","citations":[{"label":"1611 YAJ","year":1611}],"when":{"timespans":[{"start":{"in":"1611"},"end":{"in":"1611"}}]}},{"toponym":"Rouston in Holdernes","citations":[{"label":"1524 Test","year":1524}],"when":{"timespans":[{"start":{"in":"1524"},"end":{"in":"1524"}}]}},{"toponym":"Longrouston","citations":[{"label":"1610 Speed","year":1610}],"when":{"timespans":[{"start":{"in":"1610"},"end":{"in":"1610"}}]}}],"types":[{"identifier":"http://vocab.getty.edu/aat/300232418","label":"administrative division","sourceLabels":[{"label":"township","lang":"en"}]}],"geometry":{"type":"GeometryCollection","geometries":[{"type":"Point","coordinates":[-0.28895,53.865],"citations":[{"label":"GeoNames, gazetteer record geonames:2643643"}]},{"type":"Point","coordinates":[-0.2889754312143103,53.86629686292076],"citations":[{"label":"Unlock (EDINA) gazetteer, gazetteer record unlock:11205664"}]},{"type":"Point","coordinates":[-0.290651,53.8665],"citations":[{"label":"Key to English Place-Names (KEPN), gazetteer record 8448"}]}]},"when":{"timespans":[{"start":{"in":"1086"},"end":{"in":"1828"}}]},"links":[{"type":"closeMatch","identifier":"https://sws.geonames.org/2643643/"}],"relations":[{"relationType":"gvp:broaderPartitive","relationTo":"http://placenames.org.uk/id/placename/14/001639","label":"within Long Riston"}]}]}