{"@context":"https://raw.githubusercontent.com/LinkedPasts/linked-places-format/main/linkedplaces-context-v1.1.jsonld","type":"FeatureCollection","license":"Digitisation of English Placenames MADS data is licensed to Jisc by the English Place Names Society and released under a Creative Commons Attribution-NonCommercial 4.0 International License.","note":"LPF v1.3, lossy; derived from the PLATO record; plato_commit=ca0afadabec1e23a145c0b03df77e8f151f79832","features":[{"@id":"http://placenames.org.uk/id/placename/14/002076","type":"Feature","properties":{"title":"Dickering Wapentake","ccodes":["GB"],"fclasses":["A"]},"names":[{"toponym":"Dickering Wapentake","lang":"en","citations":[{"label":"English Place-Name Society survey, volume 14: East Riding of Yorkshire"}]},{"toponym":"wapentac' de Dikering, wapentac' de Dykering, wapentac' de Dykeryng, wap' de Dikering, wap' de Dykering, wap' de Dykeryng","citations":[{"label":"1166 P","year":1166},{"label":"1204–1353, recurring Ass","year":1204},{"label":"1204–1353, recurring Ipm"},{"label":"1204 Ass","year":1204},{"label":"1353 Ipm","year":1353}],"when":{"timespans":[{"start":{"in":"1166"},"end":{"in":"1166"}},{"start":{"in":"1200"},"end":{"in":"1200"}},{"start":{"in":"1204"},"end":{"in":"1353"}},{"start":{"in":"1204"},"end":{"in":"1204"}},{"start":{"in":"1353"},"end":{"in":"1353"}}]}},{"toponym":"decanatus de Dykering","citations":[{"label":"1275–1275, recurring Ebor","year":1275},{"label":"1275 Ebor","year":1275}],"when":{"timespans":[{"start":{"in":"1275"},"end":{"in":"1275"}},{"start":{"in":"1275"},"end":{"in":"1275"}}]}},{"toponym":"capitulo de Dicaringa, Dicaringa","citations":[{"label":"1170-85 YCh","year":1170}],"when":{"timespans":[{"start":{"earliest":"1170","latest":"1185"},"end":{"earliest":"1170","latest":"1185"}}]}},{"toponym":"Dicheringa","citations":[{"label":"1180- 90 YCh","year":1180}],"when":{"timespans":[{"start":{"earliest":"1180","latest":"1190"},"end":{"earliest":"1180","latest":"1190"}}]}},{"toponym":"Dikeringe, Dykeringe, Dikeringe wapentacum, Dykeringe wapentacum","citations":[{"label":"1180 P","year":1180}],"when":{"timespans":[{"start":{"in":"1180"},"end":{"in":"1180"}}]}},{"toponym":"Dykeringe decanus","citations":[{"label":"1270 Ebor","year":1270},{"label":"1298 YI","year":1298}],"when":{"timespans":[{"start":{"in":"1270"},"end":{"in":"1270"}},{"start":{"in":"1298"},"end":{"in":"1298"}}]}},{"toponym":"ballivus de Dikeringge, wappentak' de Dikeringge, Dikeringge","citations":[{"label":"1216-22 BM","year":1216},{"label":"1297 LS","year":1297}],"when":{"timespans":[{"start":{"earliest":"1216","latest":"1222"},"end":{"earliest":"1216","latest":"1222"}},{"start":{"in":"1297"},"end":{"in":"1297"}}]}},{"toponym":"Dickering', Dyckering'","citations":[{"label":"1226-8 Fees","year":1226},{"label":"1518 Test","year":1518},{"label":"1828 Langd","year":1828}],"when":{"timespans":[{"start":{"earliest":"1226","latest":"1228"},"end":{"earliest":"1226","latest":"1228"}},{"start":{"in":"1518"},"end":{"in":"1518"}},{"start":{"in":"1828"},"end":{"in":"1828"}}]}},{"toponym":"Dekering(e), Dekeryng","citations":[{"label":"1278 YI","year":1278},{"label":"1279 Ebor","year":1279},{"label":"1285 KI","year":1285},{"label":"1441 Bridl","year":1441},{"label":"1531 Test","year":1531}],"when":{"timespans":[{"start":{"in":"1278"},"end":{"in":"1278"}},{"start":{"in":"1279"},"end":{"in":"1279"}},{"start":{"in":"1285"},"end":{"in":"1285"}},{"start":{"in":"1441"},"end":{"in":"1441"}},{"start":{"in":"1531"},"end":{"in":"1531"}}]}},{"toponym":"Dikring","citations":[{"label":"1305 BevAct","year":1305}],"when":{"timespans":[{"start":{"in":"1305"},"end":{"in":"1305"}}]}},{"toponym":"Dykrynge","citations":[{"label":"1339-49 Melsa","year":1339}],"when":{"timespans":[{"start":{"earliest":"1339","latest":"1349"},"end":{"earliest":"1339","latest":"1349"}}]}}],"types":[{"identifier":"http://vocab.getty.edu/aat/300232418","label":"administrative division","sourceLabels":[{"label":"hundred / wapentake","lang":"en"}]}],"geometry":null,"when":{"timespans":[{"start":{"in":"1166"},"end":{"in":"1828"}}]},"relations":[{"relationType":"gvp:broaderPartitive","relationTo":"http://placenames.org.uk/id/placename/14/000001","label":"within East Riding of Yorkshire"}]}]}