{"@context":"https://raw.githubusercontent.com/LinkedPasts/linked-places-format/main/linkedplaces-context-v1.1.jsonld","type":"FeatureCollection","license":"Digitisation of English Placenames MADS data is licensed to Jisc by the English Place Names Society and released under a Creative Commons Attribution-NonCommercial 4.0 International License.","note":"LPF v1.3, lossy; derived from the PLATO record; plato_commit=ca0afadabec1e23a145c0b03df77e8f151f79832","features":[{"@id":"http://placenames.org.uk/id/placename/14/002270","type":"Feature","properties":{"title":"Lowthorpe","ccodes":["GB"],"fclasses":["A","P"]},"names":[{"toponym":"Lowthorpe","lang":"en","citations":[{"label":"English Place-Name Society survey, volume 14: East Riding of Yorkshire"}]}],"types":[{"identifier":"http://vocab.getty.edu/aat/300232418","label":"administrative division","sourceLabels":[{"label":"parish","lang":"en"}]}],"geometry":{"type":"GeometryCollection","geometries":[{"type":"Point","coordinates":[-0.34593,54.02942],"citations":[{"label":"GeoNames, gazetteer record geonames:2643471"}]},{"type":"Point","coordinates":[-0.3433850888483929,54.02887934368006],"citations":[{"label":"Unlock (EDINA) gazetteer, gazetteer record unlock:11209218"}]},{"type":"Point","coordinates":[-0.345062,54.0291],"citations":[{"label":"Key to English Place-Names (KEPN), gazetteer record 8479"}]}]},"links":[{"type":"closeMatch","identifier":"https://sws.geonames.org/2643471/"}],"relations":[{"relationType":"gvp:broaderPartitive","relationTo":"http://placenames.org.uk/id/placename/14/002076","label":"within Dickering Wapentake"}]}]}