{"@context":"https://raw.githubusercontent.com/LinkedPasts/linked-places-format/main/linkedplaces-context-v1.1.jsonld","type":"FeatureCollection","license":"Digitisation of English Placenames MADS data is licensed to Jisc by the English Place Names Society and released under a Creative Commons Attribution-NonCommercial 4.0 International License.","note":"LPF v1.3, lossy; derived from the PLATO record; plato_commit=ca0afadabec1e23a145c0b03df77e8f151f79832","features":[{"@id":"http://placenames.org.uk/id/placename/14/002271","type":"Feature","properties":{"title":"Lowthorpe","ccodes":["GB"],"fclasses":["A","P"]},"names":[{"toponym":"Lowthorpe","lang":"en","citations":[{"label":"English Place-Name Society survey, volume 14: East Riding of Yorkshire"}]},{"toponym":"Laugetorp, Loghetorp, Logetorp","citations":[{"label":"1086 DB","year":1086}],"when":{"timespans":[{"start":{"in":"1086"},"end":{"in":"1086"}}]}},{"toponym":"Loutorp, Louthorp(e)","citations":[{"label":"1100–1376, recurring Bridl","year":1100},{"label":"1100–1376, recurring Percy"},{"label":"12th Bridl","year":1100},{"label":"1376 Percy","year":1376}],"when":{"timespans":[{"start":{"in":"1100"},"end":{"in":"1376"}},{"start":{"earliest":"1100","latest":"1200"},"end":{"earliest":"1100","latest":"1200"}},{"start":{"earliest":"1175","latest":"1200"},"end":{"earliest":"1175","latest":"1200"}},{"start":{"earliest":"1200","latest":"1300"},"end":{"earliest":"1200","latest":"1300"}},{"start":{"in":"1376"},"end":{"in":"1376"}}]}},{"toponym":"Luuetorp","citations":[{"label":"1192 P","year":1192}],"when":{"timespans":[{"start":{"in":"1192"},"end":{"in":"1192"}},{"start":{"in":"1198"},"end":{"in":"1198"}}]}},{"toponym":"Lovetorp","citations":[{"label":"1218 FF","year":1218}],"when":{"timespans":[{"start":{"in":"1218"},"end":{"in":"1218"}}]}},{"toponym":"Laut(h)orp","citations":[{"label":"1219 Ass","year":1219},{"label":"1304 Meaux","year":1304}],"when":{"timespans":[{"start":{"in":"1219"},"end":{"in":"1219"}},{"start":{"in":"1244"},"end":{"in":"1244"}},{"start":{"in":"1246"},"end":{"in":"1246"}},{"start":{"in":"1304"},"end":{"in":"1304"}}]}},{"toponym":"Lowthorp(e)","citations":[{"label":"1285 KI","year":1285},{"label":"1303 KF","year":1303},{"label":"1349–1500, recurring FF","year":1349},{"label":"1349–1500, recurring Test"},{"label":"1349 FF","year":1349},{"label":"1500 Test","year":1500}],"when":{"timespans":[{"start":{"in":"1285"},"end":{"in":"1285"}},{"start":{"in":"1303"},"end":{"in":"1303"}},{"start":{"in":"1349"},"end":{"in":"1500"}},{"start":{"in":"1349"},"end":{"in":"1349"}},{"start":{"in":"1500"},"end":{"in":"1500"}}]}},{"toponym":"Lawthorp(e)","citations":[{"label":"1523 Sanct","year":1523},{"label":"1547 FF","year":1547}],"when":{"timespans":[{"start":{"in":"1523"},"end":{"in":"1523"}},{"start":{"in":"1547"},"end":{"in":"1547"}}]}}],"types":[{"identifier":"http://vocab.getty.edu/aat/300232418","label":"administrative division","sourceLabels":[{"label":"township","lang":"en"}]}],"geometry":{"type":"GeometryCollection","geometries":[{"type":"Point","coordinates":[-0.34593,54.02942],"citations":[{"label":"GeoNames, gazetteer record geonames:2643471"}]},{"type":"Point","coordinates":[-0.3433850888483929,54.02887934368006],"citations":[{"label":"Unlock (EDINA) gazetteer, gazetteer record unlock:11209218"}]},{"type":"Point","coordinates":[-0.345062,54.0291],"citations":[{"label":"Key to English Place-Names (KEPN), gazetteer record 8479"}]}]},"when":{"timespans":[{"start":{"in":"1086"},"end":{"in":"1547"}}]},"links":[{"type":"closeMatch","identifier":"https://sws.geonames.org/2643471/"}],"relations":[{"relationType":"gvp:broaderPartitive","relationTo":"http://placenames.org.uk/id/placename/14/002270","label":"within Lowthorpe"}]}]}