{"@context":"https://raw.githubusercontent.com/LinkedPasts/linked-places-format/main/linkedplaces-context-v1.1.jsonld","type":"FeatureCollection","license":"Digitisation of English Placenames MADS data is licensed to Jisc by the English Place Names Society and released under a Creative Commons Attribution-NonCommercial 4.0 International License.","note":"LPF v1.3, lossy; derived from the PLATO record; plato_commit=fa0d247ccc0263f8f19c8d7cdcd163df96935d1e","features":[{"@id":"https://w3id.org/whg-epns/14/002562","type":"Feature","properties":{"title":"Speeton","ccodes":["GB"],"fclasses":["A","P"]},"names":[{"toponym":"Speeton","lang":"en","citations":[{"label":"English Place-Name Society survey, volume 14: East Riding of Yorkshire"}]},{"toponym":"Spretone","citations":[{"label":"1086 DB","year":1086}],"when":{"timespans":[{"start":{"in":"1086"},"end":{"in":"1086"}}]}},{"toponym":"Specton(e)","citations":[{"label":"1086 DB","year":1086},{"label":"1166 YCh","year":1166}],"when":{"timespans":[{"start":{"in":"1086"},"end":{"in":"1086"}},{"start":{"in":"1166"},"end":{"in":"1166"}}]}},{"toponym":"Spetune, Speton(a)","citations":[{"label":"12th YD","year":1100},{"label":"YCh","year":1155},{"label":"NCWills"},{"label":"1155-7 YCh","year":1155},{"label":"1579 NCWills","year":1579}],"when":{"timespans":[{"start":{"earliest":"1100","latest":"1200"},"end":{"earliest":"1100","latest":"1200"}},{"start":{"in":"1155"},"end":{"in":"1579"}},{"start":{"earliest":"1155","latest":"1157"},"end":{"earliest":"1155","latest":"1157"}},{"start":{"in":"1579"},"end":{"in":"1579"}}]}},{"toponym":"Speyton","citations":[{"label":"1549 FF","year":1549}],"when":{"timespans":[{"start":{"in":"1549"},"end":{"in":"1549"}}]}},{"toponym":"Spighton","citations":[{"label":"1586 FF","year":1586}],"when":{"timespans":[{"start":{"in":"1586"},"end":{"in":"1586"}}]}}],"types":[{"identifier":"http://vocab.getty.edu/aat/300232418","label":"administrative division","sourceLabels":[{"label":"township","lang":"en"}]}],"geometry":{"type":"GeometryCollection","geometries":[{"type":"Point","coordinates":[-0.24221,54.15575],"citations":[{"label":"GeoNames, gazetteer record geonames:2637244"}]},{"type":"Point","coordinates":[-0.2465236105836367,54.15336393760197],"citations":[{"label":"Unlock (EDINA) gazetteer, gazetteer record unlock:11288829"}]},{"type":"Point","coordinates":[-0.232914,54.1533],"citations":[{"label":"Key to English Place-Names (KEPN), gazetteer record 8493"}]}]},"when":{"timespans":[{"start":{"in":"1086"},"end":{"in":"1586"}}]},"links":[{"type":"closeMatch","identifier":"https://sws.geonames.org/2637244/"}],"relations":[{"relationType":"gvp:broaderPartitive","relationTo":"https://w3id.org/whg-epns/14/002467","label":"within Bridlington"}]}]}