{"@context":"https://raw.githubusercontent.com/LinkedPasts/linked-places-format/main/linkedplaces-context-v1.1.jsonld","type":"FeatureCollection","license":"Digitisation of English Placenames MADS data is licensed to Jisc by the English Place Names Society and released under a Creative Commons Attribution-NonCommercial 4.0 International License.","note":"LPF v1.3, lossy; derived from the PLATO record; plato_commit=ca0afadabec1e23a145c0b03df77e8f151f79832","features":[{"@id":"http://placenames.org.uk/id/placename/14/002692","type":"Feature","properties":{"title":"Filey","ccodes":["GB"],"fclasses":["A","P"]},"names":[{"toponym":"Filey","lang":"en","citations":[{"label":"English Place-Name Society survey, volume 14: East Riding of Yorkshire"}]},{"toponym":"Fiuelac","citations":[{"label":"1086 DB","year":1086}],"when":{"timespans":[{"start":{"in":"1086"},"end":{"in":"1086"}}]}},{"toponym":"Fiuelei(a), Fyuelei(a), Fivelei(a), Fiveley, Fivelay(e)","citations":[{"label":"a. 1080 Whitby","year":1030},{"label":"1114-24 Bridl","year":1114},{"label":"1128-32 BM","year":1128},{"label":"1155-7 YCh","year":1155},{"label":"1201 Cur","year":1201},{"label":"1285 KI","year":1285},{"label":"1297 LS","year":1297},{"label":"1348 FF","year":1348}],"when":{"timespans":[{"start":{"earliest":"1030","latest":"1080"},"end":{"earliest":"1030","latest":"1080"}},{"start":{"earliest":"1081","latest":"1096"},"end":{"earliest":"1081","latest":"1096"}},{"start":{"earliest":"1114","latest":"1124"},"end":{"earliest":"1114","latest":"1124"}},{"start":{"earliest":"1128","latest":"1132"},"end":{"earliest":"1128","latest":"1132"}},{"start":{"earliest":"1155","latest":"1157"},"end":{"earliest":"1155","latest":"1157"}},{"start":{"in":"1201"},"end":{"in":"1201"}},{"start":{"in":"1285"},"end":{"in":"1285"}},{"start":{"in":"1297"},"end":{"in":"1297"}},{"start":{"in":"1348"},"end":{"in":"1348"}}]}},{"toponym":"Fiuele, Fivele, Fyvele","citations":[{"label":"12th Bridl","year":1100},{"label":"1256 Pat","year":1256},{"label":"1276–1402, recurring RH","year":1276},{"label":"1276–1402, recurring YI"},{"label":"1276 RH","year":1276},{"label":"1402 YI","year":1402}],"when":{"timespans":[{"start":{"earliest":"1100","latest":"1200"},"end":{"earliest":"1100","latest":"1200"}},{"start":{"earliest":"1200","latest":"1300"},"end":{"earliest":"1200","latest":"1300"}},{"start":{"in":"1256"},"end":{"in":"1256"}},{"start":{"in":"1258"},"end":{"in":"1258"}},{"start":{"in":"1276"},"end":{"in":"1402"}},{"start":{"in":"1276"},"end":{"in":"1276"}},{"start":{"in":"1402"},"end":{"in":"1402"}}]}},{"toponym":"Fyuelee","citations":[{"label":"1316 NomVill","year":1316}],"when":{"timespans":[{"start":{"in":"1316"},"end":{"in":"1316"}}]}},{"toponym":"Phyvelay","citations":[{"label":"1139-47 YCh","year":1139},{"label":"1301 Ch","year":1301}],"when":{"timespans":[{"start":{"earliest":"1139","latest":"1147"},"end":{"earliest":"1139","latest":"1147"}},{"start":{"in":"1301"},"end":{"in":"1301"}}]}},{"toponym":"Fifle","citations":[{"label":"1148 LeonardN","year":1148},{"label":"1160-76 YCh","year":1160},{"label":"13th Malton","year":1200}],"when":{"timespans":[{"start":{"in":"1148"},"end":{"in":"1148"}},{"start":{"earliest":"1160","latest":"1176"},"end":{"earliest":"1160","latest":"1176"}},{"start":{"earliest":"1200","latest":"1300"},"end":{"earliest":"1200","latest":"1300"}}]}},{"toponym":"Fiflea","citations":[{"label":"1195 P","year":1195}],"when":{"timespans":[{"start":{"in":"1195"},"end":{"in":"1195"}},{"start":{"in":"1196"},"end":{"in":"1196"}}]}},{"toponym":"Fiflei, Fifley","citations":[{"label":"1156 LeonardN","year":1156}],"when":{"timespans":[{"start":{"in":"1156"},"end":{"in":"1156"}},{"start":{"in":"1173"},"end":{"in":"1173"}}]}},{"toponym":"Fiflee","citations":[{"label":"late 13th Misc","year":1275}],"when":{"timespans":[{"start":{"earliest":"1275","latest":"1300"},"end":{"earliest":"1275","latest":"1300"}}]}},{"toponym":"Fiuel'","citations":[{"label":"1160-5 Bridl","year":1160}],"when":{"timespans":[{"start":{"earliest":"1160","latest":"1165"},"end":{"earliest":"1160","latest":"1165"}}]}},{"toponym":"Fiu(e)leg","citations":[{"label":"1241 FF","year":1241}],"when":{"timespans":[{"start":{"in":"1241"},"end":{"in":"1241"}}]}},{"toponym":"Fiweley","citations":[{"label":"1278 YI","year":1278}],"when":{"timespans":[{"start":{"in":"1278"},"end":{"in":"1278"}}]}},{"toponym":"Filey, Fyley","citations":[{"label":"1447–1650, recurring Ch","year":1447},{"label":"1447–1650, recurring ParlSurv"},{"label":"1447 Ch","year":1447},{"label":"1650 ParlSurv","year":1650}],"when":{"timespans":[{"start":{"in":"1447"},"end":{"in":"1650"}},{"start":{"in":"1447"},"end":{"in":"1447"}},{"start":{"in":"1650"},"end":{"in":"1650"}}]}},{"toponym":"Fyley als. Fiveley","citations":[{"label":"1613 FF","year":1613}],"when":{"timespans":[{"start":{"in":"1613"},"end":{"in":"1613"}}]}},{"toponym":"Fyeley","citations":[{"label":"1565 FF","year":1565}],"when":{"timespans":[{"start":{"in":"1565"},"end":{"in":"1565"}}]}}],"types":[{"identifier":"http://vocab.getty.edu/aat/300232418","label":"administrative division","sourceLabels":[{"label":"township","lang":"en"}]}],"geometry":{"type":"GeometryCollection","geometries":[{"type":"Point","coordinates":[-0.28917,54.21],"citations":[{"label":"GeoNames, gazetteer record geonames:2649463"}]},{"type":"Point","coordinates":[-0.2902203921043283,54.2079306659605],"citations":[{"label":"Unlock (EDINA) gazetteer, gazetteer record unlock:11144319"}]},{"type":"Point","coordinates":[-0.291912,54.2081],"citations":[{"label":"Key to English Place-Names (KEPN), gazetteer record 8501"}]}]},"when":{"timespans":[{"start":{"in":"1030"},"end":{"in":"1650"}}]},"links":[{"type":"closeMatch","identifier":"https://sws.geonames.org/2649463/"}],"relations":[{"relationType":"gvp:broaderPartitive","relationTo":"http://placenames.org.uk/id/placename/14/002691","label":"within Filey"}]}]}