{"@context":"https://raw.githubusercontent.com/LinkedPasts/linked-places-format/main/linkedplaces-context-v1.1.jsonld","type":"FeatureCollection","license":"Digitisation of English Placenames MADS data is licensed to Jisc by the English Place Names Society and released under a Creative Commons Attribution-NonCommercial 4.0 International License.","note":"LPF v1.3, lossy; derived from the PLATO record; plato_commit=fa0d247ccc0263f8f19c8d7cdcd163df96935d1e","features":[{"@id":"https://w3id.org/whg-epns/14/002819","type":"Feature","properties":{"title":"Folkton","ccodes":["GB"],"fclasses":["A","P"]},"names":[{"toponym":"Folkton","lang":"en","citations":[{"label":"English Place-Name Society survey, volume 14: East Riding of Yorkshire"}]}],"types":[{"identifier":"http://vocab.getty.edu/aat/300232418","label":"administrative division","sourceLabels":[{"label":"parish","lang":"en"}]}],"geometry":{"type":"GeometryCollection","geometries":[{"type":"Point","coordinates":[-0.38792,54.20019],"citations":[{"label":"GeoNames, gazetteer record geonames:2649254"}]},{"type":"Point","coordinates":[-0.3825358302171989,54.20021598794742],"citations":[{"label":"Unlock (EDINA) gazetteer, gazetteer record unlock:11146075"}]},{"type":"Point","coordinates":[-0.384216,54.2004],"citations":[{"label":"Key to English Place-Names (KEPN), gazetteer record 8508"}]}]},"links":[{"type":"closeMatch","identifier":"https://sws.geonames.org/2649254/"}],"relations":[{"relationType":"gvp:broaderPartitive","relationTo":"https://w3id.org/whg-epns/14/002076","label":"within Dickering Wapentake"}]}]}