{"@context":"https://raw.githubusercontent.com/LinkedPasts/linked-places-format/main/linkedplaces-context-v1.1.jsonld","type":"FeatureCollection","license":"Digitisation of English Placenames MADS data is licensed to Jisc by the English Place Names Society and released under a Creative Commons Attribution-NonCommercial 4.0 International License.","note":"LPF v1.3, lossy; derived from the PLATO record; plato_commit=ca0afadabec1e23a145c0b03df77e8f151f79832","features":[{"@id":"http://placenames.org.uk/id/placename/14/002958","type":"Feature","properties":{"title":"Yedingham","ccodes":["GB"],"fclasses":["A","P"]},"names":[{"toponym":"Yedingham","lang":"en","citations":[{"label":"English Place-Name Society survey, volume 14: East Riding of Yorkshire"}]}],"types":[{"identifier":"http://vocab.getty.edu/aat/300232418","label":"administrative division","sourceLabels":[{"label":"parish","lang":"en"}]}],"geometry":{"type":"GeometryCollection","geometries":[{"type":"Point","coordinates":[-0.61667,54.2],"citations":[{"label":"GeoNames, gazetteer record geonames:2633390"}]},{"type":"Point","coordinates":[-0.6277537114552727,54.20325894276908],"citations":[{"label":"Unlock (EDINA) gazetteer, gazetteer record unlock:11328467"}]},{"type":"Point","coordinates":[-0.629404,54.2034],"citations":[{"label":"Key to English Place-Names (KEPN), gazetteer record 8512"}]}]},"links":[{"type":"closeMatch","identifier":"https://sws.geonames.org/2633390/"}],"relations":[{"relationType":"gvp:broaderPartitive","relationTo":"http://placenames.org.uk/id/placename/14/002933","label":"within Buckrose Wapentake"}]}]}