{"@context":"https://raw.githubusercontent.com/LinkedPasts/linked-places-format/main/linkedplaces-context-v1.1.jsonld","type":"FeatureCollection","license":"Digitisation of English Placenames MADS data is licensed to Jisc by the English Place Names Society and released under a Creative Commons Attribution-NonCommercial 4.0 International License.","note":"LPF v1.3, lossy; derived from the PLATO record; plato_commit=fa0d247ccc0263f8f19c8d7cdcd163df96935d1e","features":[{"@id":"https://w3id.org/whg-epns/14/003032","type":"Feature","properties":{"title":"Helperthorpe","ccodes":["GB"],"fclasses":["A","P"]},"names":[{"toponym":"Helperthorpe","lang":"en","citations":[{"label":"English Place-Name Society survey, volume 14: East Riding of Yorkshire"}]},{"toponym":"Elpetorp","citations":[{"label":"1086 DB","year":1086}],"when":{"timespans":[{"start":{"in":"1086"},"end":{"in":"1086"}}]}},{"toponym":"Helpetorp","citations":[{"label":"1196 P","year":1196}],"when":{"timespans":[{"start":{"in":"1196"},"end":{"in":"1196"}}]}},{"toponym":"Helptorp","citations":[{"label":"c. 1300 YD","year":1290}],"when":{"timespans":[{"start":{"earliest":"1290","latest":"1310"},"end":{"earliest":"1290","latest":"1310"}}]}},{"toponym":"Helprethorp'","citations":[{"label":"1109-19 RegAlb","year":1109}],"when":{"timespans":[{"start":{"earliest":"1109","latest":"1119"},"end":{"earliest":"1109","latest":"1119"}}]}},{"toponym":"Helpert(h)orp(e)","citations":[{"label":"1160-70 YCh","year":1160},{"label":"1193 P","year":1193},{"label":"Ass","year":1204},{"label":"1204 Ass","year":1204}],"when":{"timespans":[{"start":{"earliest":"1160","latest":"1170"},"end":{"earliest":"1160","latest":"1170"}},{"start":{"in":"1193"},"end":{"in":"1193"}},{"start":{"in":"1204"},"end":{"in":"1204"}},{"start":{"in":"1204"},"end":{"in":"1204"}}]}},{"toponym":"Helpert(h)orp(e) in Crandale","citations":[{"label":"1345 FF","year":1345}],"when":{"timespans":[{"start":{"in":"1345"},"end":{"in":"1345"}}]}},{"toponym":"Helpirt(h)orp(e)","citations":[{"label":"1298 Ebor","year":1298},{"label":"1298 Hom","year":1298},{"label":"1369 FF","year":1369}],"when":{"timespans":[{"start":{"in":"1298"},"end":{"in":"1298"}},{"start":{"in":"1298"},"end":{"in":"1298"}},{"start":{"in":"1369"},"end":{"in":"1369"}}]}},{"toponym":"Hellesperethorp","citations":[{"label":"1166 P","year":1166}],"when":{"timespans":[{"start":{"in":"1166"},"end":{"in":"1166"}}]}}],"types":[{"identifier":"http://vocab.getty.edu/aat/300232418","label":"administrative division","sourceLabels":[{"label":"township","lang":"en"}]}],"geometry":{"type":"GeometryCollection","geometries":[{"type":"Point","coordinates":[-0.54361,54.11958],"citations":[{"label":"GeoNames, gazetteer record geonames:2647148"}]},{"type":"Point","coordinates":[-0.5386444384868002,54.12130645923959],"citations":[{"label":"Unlock (EDINA) gazetteer, gazetteer record unlock:11169715"}]},{"type":"Point","coordinates":[-0.540302,54.1215],"citations":[{"label":"Key to English Place-Names (KEPN), gazetteer record 8517"}]}]},"when":{"timespans":[{"start":{"in":"1086"},"end":{"in":"1369"}}]},"links":[{"type":"closeMatch","identifier":"https://sws.geonames.org/2647148/"}],"relations":[{"relationType":"gvp:broaderPartitive","relationTo":"https://w3id.org/whg-epns/14/003031","label":"within Helperthorpe"}]}]}