{"@context":"https://raw.githubusercontent.com/LinkedPasts/linked-places-format/main/linkedplaces-context-v1.1.jsonld","type":"FeatureCollection","license":"Digitisation of English Placenames MADS data is licensed to Jisc by the English Place Names Society and released under a Creative Commons Attribution-NonCommercial 4.0 International License.","note":"LPF v1.3, lossy; derived from the PLATO record; plato_commit=ca0afadabec1e23a145c0b03df77e8f151f79832","features":[{"@id":"https://w3id.org/whg-epns/14/003358","type":"Feature","properties":{"title":"Wharram le Street","ccodes":["GB"],"fclasses":["A","P"]},"names":[{"toponym":"Wharram le Street","lang":"en","citations":[{"label":"English Place-Name Society survey, volume 14: East Riding of Yorkshire"}]},{"toponym":"Warham, Warran","citations":[{"label":"1086 DB","year":1086}],"when":{"timespans":[{"start":{"in":"1086"},"end":{"in":"1086"}}]}},{"toponym":"Warrum","citations":[{"label":"1119-35 Nostell","year":1119},{"label":"1154–1293, recurring Meaux","year":1154},{"label":"1154–1293, recurring RH"},{"label":"1154-1293 Meaux","year":1154},{"label":"1276 RH","year":1276}],"when":{"timespans":[{"start":{"earliest":"1119","latest":"1135"},"end":{"earliest":"1119","latest":"1135"}},{"start":{"in":"1154"},"end":{"in":"1293"}},{"start":{"earliest":"1154","latest":"1293"},"end":{"earliest":"1154","latest":"1293"}},{"start":{"in":"1276"},"end":{"in":"1276"}}]}},{"toponym":"Warrum in the Strete","citations":[{"label":"1333 SR","year":1333}],"when":{"timespans":[{"start":{"in":"1333"},"end":{"in":"1333"}}]}},{"toponym":"Warram","citations":[{"label":"1154–1300, recurring Meaux","year":1154},{"label":"1154–1300, recurring Meaux"},{"label":"1154 Meaux","year":1154},{"label":"13th Meaux","year":1200}],"when":{"timespans":[{"start":{"in":"1154"},"end":{"in":"1300"}},{"start":{"in":"1154"},"end":{"in":"1154"}},{"start":{"earliest":"1200","latest":"1300"},"end":{"earliest":"1200","latest":"1300"}}]}},{"toponym":"Warram majori","citations":[{"label":"c. 1160-70 YCh","year":1160}],"when":{"timespans":[{"start":{"earliest":"1160","latest":"1170"},"end":{"earliest":"1160","latest":"1170"}}]}},{"toponym":"Warham","citations":[{"label":"1154-91 Nostell","year":1154},{"label":"1199 FF","year":1199}],"when":{"timespans":[{"start":{"earliest":"1154","latest":"1191"},"end":{"earliest":"1154","latest":"1191"}},{"start":{"earliest":"1164","latest":"1181"},"end":{"earliest":"1164","latest":"1181"}},{"start":{"in":"1199"},"end":{"in":"1199"}}]}},{"toponym":"Warhom","citations":[{"label":"1285 KI","year":1285},{"label":"1303 YI","year":1303}],"when":{"timespans":[{"start":{"in":"1285"},"end":{"in":"1285"}},{"start":{"in":"1303"},"end":{"in":"1303"}}]}},{"toponym":"Wharrom","citations":[{"label":"1197–1376, recurring Melsa","year":1197},{"label":"1197–1376, recurring Percy"},{"label":"1197-1210 Melsa","year":1197},{"label":"1376 Percy","year":1376}],"when":{"timespans":[{"start":{"in":"1197"},"end":{"in":"1376"}},{"start":{"earliest":"1197","latest":"1210"},"end":{"earliest":"1197","latest":"1210"}},{"start":{"in":"1376"},"end":{"in":"1376"}}]}},{"toponym":"Wharrome in Strata","citations":[{"label":"1508 Test","year":1508}],"when":{"timespans":[{"start":{"in":"1508"},"end":{"in":"1508"}}]}},{"toponym":"Hwarru'","citations":[{"label":"1230 P","year":1230},{"label":"1308 BevAct","year":1308}],"when":{"timespans":[{"start":{"in":"1230"},"end":{"in":"1230"}},{"start":{"in":"1308"},"end":{"in":"1308"}}]}},{"toponym":"Wharrum","citations":[{"label":"1234 FF","year":1234},{"label":"1238–1560, recurring Ch","year":1238},{"label":"1238–1560, recurring FF"},{"label":"1238 Ch","year":1238},{"label":"1560 FF","year":1560}],"when":{"timespans":[{"start":{"in":"1234"},"end":{"in":"1234"}},{"start":{"in":"1238"},"end":{"in":"1560"}},{"start":{"in":"1238"},"end":{"in":"1238"}},{"start":{"in":"1560"},"end":{"in":"1560"}}]}},{"toponym":"Wharrum magna","citations":[{"label":"1301 Bodl","year":1301}],"when":{"timespans":[{"start":{"in":"1301"},"end":{"in":"1301"}}]}},{"toponym":"Est Wharrum","citations":[{"label":"1303 KF","year":1303}],"when":{"timespans":[{"start":{"in":"1303"},"end":{"in":"1303"}}]}},{"toponym":"Wharrum in le Strete","citations":[{"label":"1560 FF","year":1560}],"when":{"timespans":[{"start":{"in":"1560"},"end":{"in":"1560"}}]}},{"toponym":"Quarrum","citations":[{"label":"1300 YI","year":1300}],"when":{"timespans":[{"start":{"in":"1300"},"end":{"in":"1300"}}]}},{"toponym":"Quarum in Lestrate","citations":[{"label":"1585 FF","year":1585}],"when":{"timespans":[{"start":{"in":"1585"},"end":{"in":"1585"}}]}},{"toponym":"Warrom","citations":[{"label":"1238 Meaux","year":1238},{"label":"1293 QW","year":1293},{"label":"1299 YI","year":1299}],"when":{"timespans":[{"start":{"in":"1238"},"end":{"in":"1238"}},{"start":{"in":"1293"},"end":{"in":"1293"}},{"start":{"in":"1299"},"end":{"in":"1299"}}]}},{"toponym":"Warrom in le Streete","citations":[{"label":"1349 Meaux","year":1349}],"when":{"timespans":[{"start":{"in":"1349"},"end":{"in":"1349"}}]}},{"toponym":"Estwarum","citations":[{"label":"1292 Nostell","year":1292}],"when":{"timespans":[{"start":{"in":"1292"},"end":{"in":"1292"}}]}},{"toponym":"Wharram(e) in the Strete","citations":[{"label":"1583 FF","year":1583}],"when":{"timespans":[{"start":{"in":"1583"},"end":{"in":"1583"}}]}},{"toponym":"Wharram(e) in le Strete","citations":[{"label":"1605 FF","year":1605}],"when":{"timespans":[{"start":{"in":"1605"},"end":{"in":"1605"}}]}}],"types":[{"identifier":"http://vocab.getty.edu/aat/300232418","label":"administrative division","sourceLabels":[{"label":"township","lang":"en"}]}],"geometry":{"type":"GeometryCollection","geometries":[{"type":"Point","coordinates":[-0.67873,54.08197],"citations":[{"label":"GeoNames, gazetteer record geonames:2634182"}]},{"type":"Point","coordinates":[-0.6774655382840741,54.08695475770796],"citations":[{"label":"Unlock (EDINA) gazetteer, gazetteer record unlock:11319541"}]},{"type":"Point","coordinates":[-0.679105,54.0872],"citations":[{"label":"Key to English Place-Names (KEPN), gazetteer record 8526"}]}]},"when":{"timespans":[{"start":{"in":"1086"},"end":{"in":"1605"}}]},"links":[{"type":"closeMatch","identifier":"https://sws.geonames.org/2634182/"}],"relations":[{"relationType":"gvp:broaderPartitive","relationTo":"https://w3id.org/whg-epns/14/003357","label":"within Wharram le Street"}]}]}