{"@context":"https://raw.githubusercontent.com/LinkedPasts/linked-places-format/main/linkedplaces-context-v1.1.jsonld","type":"FeatureCollection","license":"Digitisation of English Placenames MADS data is licensed to Jisc by the English Place Names Society and released under a Creative Commons Attribution-NonCommercial 4.0 International License.","note":"LPF v1.3, lossy; derived from the PLATO record; plato_commit=ca0afadabec1e23a145c0b03df77e8f151f79832","features":[{"@id":"https://w3id.org/whg-epns/14/003610","type":"Feature","properties":{"title":"Kirkham","ccodes":["GB"],"fclasses":["A","P"]},"names":[{"toponym":"Kirkham","lang":"en","citations":[{"label":"English Place-Name Society survey, volume 14: East Riding of Yorkshire"}]}],"types":[{"identifier":"http://vocab.getty.edu/aat/300232418","label":"administrative division","sourceLabels":[{"label":"parish","lang":"en"}]}],"geometry":{"type":"GeometryCollection","geometries":[{"type":"Point","coordinates":[-0.87294,54.08288],"citations":[{"label":"GeoNames, gazetteer record geonames:2645279"}]},{"type":"Point","coordinates":[-0.8764247950753218,54.07998817364619],"citations":[{"label":"Unlock (EDINA) gazetteer, gazetteer record unlock:11187933"}]},{"type":"Point","coordinates":[-0.878039,54.0802],"citations":[{"label":"Key to English Place-Names (KEPN), gazetteer record 8540"}]}]},"links":[{"type":"closeMatch","identifier":"https://sws.geonames.org/2645279/"}],"relations":[{"relationType":"gvp:broaderPartitive","relationTo":"https://w3id.org/whg-epns/14/002933","label":"within Buckrose Wapentake"}]}]}