{"@context":"https://raw.githubusercontent.com/LinkedPasts/linked-places-format/main/linkedplaces-context-v1.1.jsonld","type":"FeatureCollection","license":"Digitisation of English Placenames MADS data is licensed to Jisc by the English Place Names Society and released under a Creative Commons Attribution-NonCommercial 4.0 International License.","note":"LPF v1.3, lossy; derived from the PLATO record; plato_commit=ca0afadabec1e23a145c0b03df77e8f151f79832","features":[{"@id":"http://placenames.org.uk/id/placename/14/003856","type":"Feature","properties":{"title":"Skerne","ccodes":["GB"],"fclasses":["A","P"]},"names":[{"toponym":"Skerne","lang":"en","citations":[{"label":"English Place-Name Society survey, volume 14: East Riding of Yorkshire"}]},{"toponym":"Schirne","citations":[{"label":"1086 DB","year":1086}],"when":{"timespans":[{"start":{"in":"1086"},"end":{"in":"1086"}}]}},{"toponym":"Schyrne","citations":[{"label":"1246 FF","year":1246}],"when":{"timespans":[{"start":{"in":"1246"},"end":{"in":"1246"}}]}},{"toponym":"Schirn","citations":[{"label":"1205 ChR","year":1205}],"when":{"timespans":[{"start":{"in":"1205"},"end":{"in":"1205"}}]}},{"toponym":"Schyren","citations":[{"label":"1304 Ipm","year":1304}],"when":{"timespans":[{"start":{"in":"1304"},"end":{"in":"1304"}}]}},{"toponym":"Skirn(a), Skirne, Skyrne","citations":[{"label":"c. 1200 Meaux","year":1190},{"label":"1222–1349, recurring FF","year":1222},{"label":"1222–1349, recurring Meaux"},{"label":"1222 FF","year":1222},{"label":"1349 Meaux","year":1349}],"when":{"timespans":[{"start":{"earliest":"1190","latest":"1210"},"end":{"earliest":"1190","latest":"1210"}},{"start":{"in":"1204"},"end":{"in":"1204"}},{"start":{"in":"1222"},"end":{"in":"1349"}},{"start":{"in":"1222"},"end":{"in":"1222"}},{"start":{"in":"1349"},"end":{"in":"1349"}}]}},{"toponym":"Skiren(a), Skyren(a)","citations":[{"label":"1197-1210 Melsa","year":1197},{"label":"early 13th Meaux","year":1200},{"label":"1259–1410, recurring Ass","year":1259},{"label":"1259–1410, recurring Melsa"},{"label":"1259 Ass","year":1259},{"label":"c. 1400 Melsa","year":1390}],"when":{"timespans":[{"start":{"earliest":"1197","latest":"1210"},"end":{"earliest":"1197","latest":"1210"}},{"start":{"earliest":"1200","latest":"1225"},"end":{"earliest":"1200","latest":"1225"}},{"start":{"in":"1259"},"end":{"in":"1410"}},{"start":{"in":"1259"},"end":{"in":"1259"}},{"start":{"earliest":"1390","latest":"1410"},"end":{"earliest":"1390","latest":"1410"}}]}},{"toponym":"Sciren(a)","citations":[{"label":"1280 Ebor","year":1280}],"when":{"timespans":[{"start":{"in":"1280"},"end":{"in":"1280"}}]}},{"toponym":"Skirin, Skyrin","citations":[{"label":"13th Percy","year":1200},{"label":"1246 Ass","year":1246},{"label":"1294 YI","year":1294},{"label":"1390 Meaux","year":1390}],"when":{"timespans":[{"start":{"earliest":"1200","latest":"1300"},"end":{"earliest":"1200","latest":"1300"}},{"start":{"in":"1246"},"end":{"in":"1246"}},{"start":{"in":"1294"},"end":{"in":"1294"}},{"start":{"in":"1390"},"end":{"in":"1390"}}]}},{"toponym":"Sckirin","citations":[{"label":"1304 YI","year":1304}],"when":{"timespans":[{"start":{"in":"1304"},"end":{"in":"1304"}}]}},{"toponym":"Skiron'","citations":[{"label":"1293 QW","year":1293}],"when":{"timespans":[{"start":{"in":"1293"},"end":{"in":"1293"}}]}},{"toponym":"Skeren","citations":[{"label":"1409 AD","year":1409}],"when":{"timespans":[{"start":{"in":"1409"},"end":{"in":"1409"}}]}},{"toponym":"Skern(e)","citations":[{"label":"1531 Test","year":1531},{"label":"1545 FF","year":1545}],"when":{"timespans":[{"start":{"in":"1531"},"end":{"in":"1531"}},{"start":{"in":"1545"},"end":{"in":"1545"}}]}},{"toponym":"Skyerne","citations":[{"label":"1423 YD","year":1423}],"when":{"timespans":[{"start":{"in":"1423"},"end":{"in":"1423"}}]}}],"types":[{"identifier":"http://vocab.getty.edu/aat/300232418","label":"administrative division","sourceLabels":[{"label":"township","lang":"en"}]}],"geometry":{"type":"GeometryCollection","geometries":[{"type":"Point","coordinates":[-0.40589,53.98219],"citations":[{"label":"GeoNames, gazetteer record geonames:2637737"}]},{"type":"Point","coordinates":[-0.4061497906473147,53.98477898854729],"citations":[{"label":"Unlock (EDINA) gazetteer, gazetteer record unlock:11284646"}]},{"type":"Point","coordinates":[-0.407817,53.985],"citations":[{"label":"Key to English Place-Names (KEPN), gazetteer record 8555"}]}]},"when":{"timespans":[{"start":{"in":"1086"},"end":{"in":"1545"}}]},"links":[{"type":"closeMatch","identifier":"https://sws.geonames.org/2637737/"}],"relations":[{"relationType":"gvp:broaderPartitive","relationTo":"http://placenames.org.uk/id/placename/14/003855","label":"within Skerne"}]}]}