{"@context":"https://raw.githubusercontent.com/LinkedPasts/linked-places-format/main/linkedplaces-context-v1.1.jsonld","type":"FeatureCollection","license":"Digitisation of English Placenames MADS data is licensed to Jisc by the English Place Names Society and released under a Creative Commons Attribution-NonCommercial 4.0 International License.","note":"LPF v1.3, lossy; derived from the PLATO record; plato_commit=ca0afadabec1e23a145c0b03df77e8f151f79832","features":[{"@id":"http://placenames.org.uk/id/placename/14/003987","type":"Feature","properties":{"title":"Kilnwick","ccodes":["GB"],"fclasses":["A","P"]},"names":[{"toponym":"Kilnwick","lang":"en","citations":[{"label":"English Place-Name Society survey, volume 14: East Riding of Yorkshire"}]},{"toponym":"Chileuuit, Chileuuid","citations":[{"label":"1086 DB","year":1086}],"when":{"timespans":[{"start":{"in":"1086"},"end":{"in":"1086"}}]}},{"toponym":"Killingwic, Killingwik(e), Kyllingwic","citations":[{"label":"1163-89 YD","year":1163},{"label":"1200 P","year":1200},{"label":"1219 Ass","year":1219},{"label":"1232–1414, recurring Pat","year":1232},{"label":"1232–1414, recurring Test"},{"label":"1232 Pat","year":1232},{"label":"1414 Test","year":1414}],"when":{"timespans":[{"start":{"earliest":"1163","latest":"1189"},"end":{"earliest":"1163","latest":"1189"}},{"start":{"in":"1200"},"end":{"in":"1200"}},{"start":{"in":"1219"},"end":{"in":"1219"}},{"start":{"in":"1232"},"end":{"in":"1414"}},{"start":{"in":"1232"},"end":{"in":"1232"}},{"start":{"in":"1414"},"end":{"in":"1414"}}]}},{"toponym":"Killingwic sub Waldo","citations":[{"label":"13th YD","year":1200}],"when":{"timespans":[{"start":{"earliest":"1200","latest":"1300"},"end":{"earliest":"1200","latest":"1300"}}]}},{"toponym":"Killingwic juxta Watton","citations":[{"label":"1300 Ch","year":1300}],"when":{"timespans":[{"start":{"in":"1300"},"end":{"in":"1300"}}]}},{"toponym":"Killewic'","citations":[{"label":"1200 Cur","year":1200},{"label":"1201 FF","year":1201}],"when":{"timespans":[{"start":{"in":"1200"},"end":{"in":"1200"}},{"start":{"in":"1201"},"end":{"in":"1201"}}]}},{"toponym":"Killincwic","citations":[{"label":"early 13th YD","year":1200}],"when":{"timespans":[{"start":{"earliest":"1200","latest":"1225"},"end":{"earliest":"1200","latest":"1225"}}]}},{"toponym":"Killigwic, Killinwic","citations":[{"label":"13th YD","year":1200}],"when":{"timespans":[{"start":{"earliest":"1200","latest":"1300"},"end":{"earliest":"1200","latest":"1300"}}]}},{"toponym":"Kilnewic, Kylnewic, Kylnewyk","citations":[{"label":"13th YD","year":1200},{"label":"1226 FF","year":1226},{"label":"1231 Ass","year":1231},{"label":"1240 YD","year":1240},{"label":"1279 YI","year":1279}],"when":{"timespans":[{"start":{"earliest":"1200","latest":"1300"},"end":{"earliest":"1200","latest":"1300"}},{"start":{"in":"1226"},"end":{"in":"1226"}},{"start":{"in":"1231"},"end":{"in":"1231"}},{"start":{"in":"1240"},"end":{"in":"1240"}},{"start":{"in":"1279"},"end":{"in":"1279"}}]}},{"toponym":"Kilingwyk, Kylingwyk","citations":[{"label":"1373 Pat","year":1373}],"when":{"timespans":[{"start":{"in":"1373"},"end":{"in":"1373"}}]}},{"toponym":"Kylingwyk iuxta Watton'","citations":[{"label":"1342 SR","year":1342}],"when":{"timespans":[{"start":{"in":"1342"},"end":{"in":"1342"}}]}},{"toponym":"Kelyngwike","citations":[{"label":"1449 Test","year":1449}],"when":{"timespans":[{"start":{"in":"1449"},"end":{"in":"1449"}}]}},{"toponym":"Kylineweke","citations":[{"label":"1524 FF","year":1524}],"when":{"timespans":[{"start":{"in":"1524"},"end":{"in":"1524"}}]}}],"types":[{"identifier":"http://vocab.getty.edu/aat/300232418","label":"administrative division","sourceLabels":[{"label":"township","lang":"en"}]}],"geometry":{"type":"GeometryCollection","geometries":[{"type":"Point","coordinates":[-0.48095,53.93256],"citations":[{"label":"GeoNames, gazetteer record geonames:2645564"}]},{"type":"Point","coordinates":[-0.4843375103768707,53.93185222537581],"citations":[{"label":"Unlock (EDINA) gazetteer, gazetteer record unlock:11186412"}]},{"type":"Point","coordinates":[-0.485993,53.9321],"citations":[{"label":"Key to English Place-Names (KEPN), gazetteer record 8560"}]}]},"when":{"timespans":[{"start":{"in":"1086"},"end":{"in":"1524"}}]},"links":[{"type":"closeMatch","identifier":"https://sws.geonames.org/2645564/"}],"relations":[{"relationType":"gvp:broaderPartitive","relationTo":"http://placenames.org.uk/id/placename/14/003969","label":"within Kilnwick"}]}]}