{"@context":"https://raw.githubusercontent.com/LinkedPasts/linked-places-format/main/linkedplaces-context-v1.1.jsonld","type":"FeatureCollection","license":"Digitisation of English Placenames MADS data is licensed to Jisc by the English Place Names Society and released under a Creative Commons Attribution-NonCommercial 4.0 International License.","note":"LPF v1.3, lossy; derived from the PLATO record; plato_commit=ca0afadabec1e23a145c0b03df77e8f151f79832","features":[{"@id":"http://placenames.org.uk/id/placename/14/003942","type":"Feature","properties":{"title":"Watton","ccodes":["GB"],"fclasses":["A","P"]},"names":[{"toponym":"Watton","lang":"en","citations":[{"label":"English Place-Name Society survey, volume 14: East Riding of Yorkshire"}]},{"toponym":"Ueta dun","citations":[{"label":"c. 730 Bede","year":720}],"when":{"timespans":[{"start":{"earliest":"0720","latest":"0740"},"end":{"earliest":"0720","latest":"0740"}}]}},{"toponym":"Guetadun uel Wetandun","citations":[{"label":"c. 730 Bede","year":720}],"when":{"timespans":[{"start":{"earliest":"0720","latest":"0740"},"end":{"earliest":"0720","latest":"0740"}}]}},{"toponym":"nunmynstre þæt is genemned Weatadun, Weatadun","citations":[{"label":"c. 1000 OEBede","year":990}],"when":{"timespans":[{"start":{"earliest":"0990","latest":"1010"},"end":{"earliest":"0990","latest":"1010"}}]}},{"toponym":"wǽta dún, wetadun, wetadún","citations":[{"label":"c. 1000 OEBede","year":990}],"when":{"timespans":[{"start":{"earliest":"0990","latest":"1010"},"end":{"earliest":"0990","latest":"1010"}}]}},{"toponym":"Watun, Waton","citations":[{"label":"1086 DB","year":1086},{"label":"1161-75 YCh","year":1161},{"label":"1178- 90 LeonardR","year":1178},{"label":"1351 Ipm","year":1351}],"when":{"timespans":[{"start":{"in":"1086"},"end":{"in":"1086"}},{"start":{"earliest":"1161","latest":"1175"},"end":{"earliest":"1161","latest":"1175"}},{"start":{"earliest":"1178","latest":"1190"},"end":{"earliest":"1178","latest":"1190"}},{"start":{"in":"1351"},"end":{"in":"1351"}}]}},{"toponym":"Wattune","citations":[{"label":"1086 DB","year":1086}],"when":{"timespans":[{"start":{"in":"1086"},"end":{"in":"1086"}}]}},{"toponym":"Wattun(a), Wattune, Watton(a)","citations":[{"label":"12th Dugd","year":1100},{"label":"1150–1520, recurring YCh","year":1150},{"label":"1150–1520, recurring Test"},{"label":"1150-3 YCh","year":1150},{"label":"1520 Test","year":1520}],"when":{"timespans":[{"start":{"earliest":"1100","latest":"1200"},"end":{"earliest":"1100","latest":"1200"}},{"start":{"in":"1150"},"end":{"in":"1520"}},{"start":{"earliest":"1150","latest":"1153"},"end":{"earliest":"1150","latest":"1153"}},{"start":{"in":"1170"},"end":{"in":"1170"}},{"start":{"in":"1520"},"end":{"in":"1520"}}]}},{"toponym":"Vatton","citations":[{"label":"1304 BevAct","year":1304}],"when":{"timespans":[{"start":{"in":"1304"},"end":{"in":"1304"}}]}},{"toponym":"Wadton","citations":[{"label":"1229 FF","year":1229}],"when":{"timespans":[{"start":{"in":"1229"},"end":{"in":"1229"}}]}}],"types":[{"identifier":"http://vocab.getty.edu/aat/300232418","label":"administrative division","sourceLabels":[{"label":"township","lang":"en"}]}],"geometry":{"type":"GeometryCollection","geometries":[{"type":"Point","coordinates":[-0.45,53.93333],"citations":[{"label":"GeoNames, gazetteer record geonames:2634661"}]},{"type":"Point","coordinates":[-0.4535517483301153,53.94044953340529],"citations":[{"label":"Unlock (EDINA) gazetteer, gazetteer record unlock:11314755"}]},{"type":"Point","coordinates":[-0.455211,53.9407],"citations":[{"label":"Key to English Place-Names (KEPN), gazetteer record 8559"}]}]},"when":{"timespans":[{"start":{"in":"0720"},"end":{"in":"1520"}}]},"links":[{"type":"closeMatch","identifier":"https://sws.geonames.org/2634661/"}],"relations":[{"relationType":"gvp:broaderPartitive","relationTo":"http://placenames.org.uk/id/placename/14/003941","label":"within Watton"}]}]}