{"@context":"https://raw.githubusercontent.com/LinkedPasts/linked-places-format/main/linkedplaces-context-v1.1.jsonld","type":"FeatureCollection","license":"Digitisation of English Placenames MADS data is licensed to Jisc by the English Place Names Society and released under a Creative Commons Attribution-NonCommercial 4.0 International License.","note":"LPF v1.3, lossy; derived from the PLATO record; plato_commit=ca0afadabec1e23a145c0b03df77e8f151f79832","features":[{"@id":"https://w3id.org/whg-epns/14/004074","type":"Feature","properties":{"title":"Holme on the Wolds","ccodes":["GB"],"fclasses":["A","P"]},"names":[{"toponym":"Holme on the Wolds","lang":"en","citations":[{"label":"English Place-Name Society survey, volume 14: East Riding of Yorkshire"}]},{"toponym":"Hougon","citations":[{"label":"1086 DB","year":1086}],"when":{"timespans":[{"start":{"in":"1086"},"end":{"in":"1086"}}]}},{"toponym":"Hogum","citations":[{"label":"1100 YCh","year":1100}],"when":{"timespans":[{"start":{"in":"1100"},"end":{"in":"1100"}}]}},{"toponym":"Haum","citations":[{"label":"1130-8 YCh","year":1130}],"when":{"timespans":[{"start":{"earliest":"1130","latest":"1138"},"end":{"earliest":"1130","latest":"1138"}}]}},{"toponym":"Houm(e), Howm(e)","citations":[{"label":"c. 1150 BM","year":1140},{"label":"1244–1371, recurring Ass","year":1244},{"label":"1244–1371, recurring BM"},{"label":"1244 Ass","year":1244},{"label":"1371 BM","year":1371}],"when":{"timespans":[{"start":{"earliest":"1140","latest":"1160"},"end":{"earliest":"1140","latest":"1160"}},{"start":{"in":"1244"},"end":{"in":"1371"}},{"start":{"in":"1244"},"end":{"in":"1244"}},{"start":{"in":"1371"},"end":{"in":"1371"}}]}},{"toponym":"Houhum","citations":[{"label":"1194-1214 YD","year":1194},{"label":"1246 FF","year":1246}],"when":{"timespans":[{"start":{"earliest":"1194","latest":"1214"},"end":{"earliest":"1194","latest":"1214"}},{"start":{"in":"1246"},"end":{"in":"1246"}}]}},{"toponym":"Hohhum","citations":[{"label":"1203 Cur","year":1203}],"when":{"timespans":[{"start":{"in":"1203"},"end":{"in":"1203"}}]}},{"toponym":"Hohum","citations":[{"label":"1251 FF","year":1251}],"when":{"timespans":[{"start":{"in":"1251"},"end":{"in":"1251"}}]}},{"toponym":"Howhum","citations":[{"label":"1332 SR","year":1332}],"when":{"timespans":[{"start":{"in":"1332"},"end":{"in":"1332"}}]}},{"toponym":"Houum, Howum","citations":[{"label":"1202 FF","year":1202},{"label":"1210–1309, recurring Dugd","year":1210},{"label":"1210–1309, recurring Ch"},{"label":"1210-20 Dugd","year":1210},{"label":"1309 Ch","year":1309}],"when":{"timespans":[{"start":{"in":"1202"},"end":{"in":"1202"}},{"start":{"in":"1210"},"end":{"in":"1309"}},{"start":{"earliest":"1210","latest":"1220"},"end":{"earliest":"1210","latest":"1220"}},{"start":{"in":"1309"},"end":{"in":"1309"}}]}},{"toponym":"Houwum","citations":[{"label":"1301 Ebor","year":1301}],"when":{"timespans":[{"start":{"in":"1301"},"end":{"in":"1301"}}]}},{"toponym":"Howom","citations":[{"label":"1249 Ch","year":1249},{"label":"1379 Poll","year":1379}],"when":{"timespans":[{"start":{"in":"1249"},"end":{"in":"1249"}},{"start":{"in":"1379"},"end":{"in":"1379"}}]}},{"toponym":"Houn","citations":[{"label":"1276 RH","year":1276}],"when":{"timespans":[{"start":{"in":"1276"},"end":{"in":"1276"}}]}},{"toponym":"Holme super Wolde","citations":[{"label":"1578 BM","year":1578}],"when":{"timespans":[{"start":{"in":"1578"},"end":{"in":"1578"}}]}},{"toponym":"Holme on the Woulds","citations":[{"label":"1650 ParlSurv","year":1650}],"when":{"timespans":[{"start":{"in":"1650"},"end":{"in":"1650"}}]}}],"types":[{"identifier":"http://vocab.getty.edu/aat/300232418","label":"administrative division","sourceLabels":[{"label":"township","lang":"en"}]}],"geometry":{"type":"GeometryCollection","geometries":[{"type":"Point","coordinates":[-0.5309658453303814,53.90546246268991],"citations":[{"label":"Unlock (EDINA) gazetteer, gazetteer record unlock:11177640"}]},{"type":"Point","coordinates":[-0.532614,53.9057],"citations":[{"label":"Key to English Place-Names (KEPN), gazetteer record 8566"}]}]},"when":{"timespans":[{"start":{"in":"1086"},"end":{"in":"1650"}}]},"relations":[{"relationType":"gvp:broaderPartitive","relationTo":"https://w3id.org/whg-epns/14/004073","label":"within Holme on the Wolds"}]}]}