{"@context":"https://raw.githubusercontent.com/LinkedPasts/linked-places-format/main/linkedplaces-context-v1.1.jsonld","type":"FeatureCollection","license":"Digitisation of English Placenames MADS data is licensed to Jisc by the English Place Names Society and released under a Creative Commons Attribution-NonCommercial 4.0 International License.","note":"LPF v1.3, lossy; derived from the PLATO record; plato_commit=fa0d247ccc0263f8f19c8d7cdcd163df96935d1e","features":[{"@id":"https://w3id.org/whg-epns/14/004147","type":"Feature","properties":{"title":"Bainton","ccodes":["GB"],"fclasses":["A","P"]},"names":[{"toponym":"Bainton","lang":"en","citations":[{"label":"English Place-Name Society survey, volume 14: East Riding of Yorkshire"}]},{"toponym":"Bagenton(e)","citations":[{"label":"1086 DB","year":1086}],"when":{"timespans":[{"start":{"in":"1086"},"end":{"in":"1086"}}]}},{"toponym":"Baynton(e), Bayntona, Bainton(e)","citations":[{"label":"1100-15 YCh","year":1100},{"label":"Melsa","year":1160},{"label":"Test"},{"label":"1160-80 Melsa","year":1160},{"label":"1522 Test","year":1522}],"when":{"timespans":[{"start":{"earliest":"1100","latest":"1115"},"end":{"earliest":"1100","latest":"1115"}},{"start":{"in":"1160"},"end":{"in":"1522"}},{"start":{"earliest":"1160","latest":"1180"},"end":{"earliest":"1160","latest":"1180"}},{"start":{"in":"1522"},"end":{"in":"1522"}}]}},{"toponym":"Baynton(e) super Waldas","citations":[{"label":"1301 Pat","year":1301}],"when":{"timespans":[{"start":{"in":"1301"},"end":{"in":"1301"}}]}},{"toponym":"Baynton(e) upon the Wold","citations":[{"label":"1600 FF","year":1600}],"when":{"timespans":[{"start":{"in":"1600"},"end":{"in":"1600"}}]}},{"toponym":"Baingtun, Bayngtun, Bayngton(e)","citations":[{"label":"1150-60 Guisb","year":1150},{"label":"1150-65 YCh","year":1150},{"label":"1281 Ebor","year":1281}],"when":{"timespans":[{"start":{"earliest":"1150","latest":"1160"},"end":{"earliest":"1150","latest":"1160"}},{"start":{"earliest":"1150","latest":"1165"},"end":{"earliest":"1150","latest":"1165"}},{"start":{"in":"1281"},"end":{"in":"1281"}},{"start":{"in":"1302"},"end":{"in":"1302"}}]}},{"toponym":"Baenton","citations":[{"label":"1191-6 P","year":1191}],"when":{"timespans":[{"start":{"earliest":"1191","latest":"1196"},"end":{"earliest":"1191","latest":"1196"}}]}},{"toponym":"Banton","citations":[{"label":"1191 P","year":1191}],"when":{"timespans":[{"start":{"in":"1191"},"end":{"in":"1191"}}]}},{"toponym":"Beniton","citations":[{"label":"1192 P","year":1192}],"when":{"timespans":[{"start":{"in":"1192"},"end":{"in":"1192"}}]}},{"toponym":"Beinton","citations":[{"label":"1230 Ebor","year":1230},{"label":"1248 Pat","year":1248}],"when":{"timespans":[{"start":{"in":"1230"},"end":{"in":"1230"}},{"start":{"in":"1248"},"end":{"in":"1248"}}]}},{"toponym":"Bayneton, Baineton","citations":[{"label":"1301 Abbr","year":1301},{"label":"1464 Pat","year":1464}],"when":{"timespans":[{"start":{"in":"1301"},"end":{"in":"1301"}},{"start":{"in":"1464"},"end":{"in":"1464"}}]}},{"toponym":"Bayneton on the Wold","citations":[{"label":"1592 YD","year":1592}],"when":{"timespans":[{"start":{"in":"1592"},"end":{"in":"1592"}}]}}],"types":[{"identifier":"http://vocab.getty.edu/aat/300232418","label":"administrative division","sourceLabels":[{"label":"township","lang":"en"}]}],"geometry":{"type":"GeometryCollection","geometries":[{"type":"Point","coordinates":[-0.5267,53.95997],"citations":[{"label":"GeoNames, gazetteer record geonames:7298430"}]},{"type":"Point","coordinates":[-0.5290706765708505,53.95937758091449],"citations":[{"label":"Unlock (EDINA) gazetteer, gazetteer record unlock:11067395"}]},{"type":"Point","coordinates":[-0.530722,53.9596],"citations":[{"label":"Key to English Place-Names (KEPN), gazetteer record 8569"}]}]},"when":{"timespans":[{"start":{"in":"1086"},"end":{"in":"1600"}}]},"links":[{"type":"closeMatch","identifier":"https://sws.geonames.org/7298430/"}],"relations":[{"relationType":"gvp:broaderPartitive","relationTo":"https://w3id.org/whg-epns/14/004146","label":"within Bainton"}]}]}