{"@context":"https://raw.githubusercontent.com/LinkedPasts/linked-places-format/main/linkedplaces-context-v1.1.jsonld","type":"FeatureCollection","license":"Digitisation of English Placenames MADS data is licensed to Jisc by the English Place Names Society and released under a Creative Commons Attribution-NonCommercial 4.0 International License.","note":"LPF v1.3, lossy; derived from the PLATO record; plato_commit=fa0d247ccc0263f8f19c8d7cdcd163df96935d1e","features":[{"@id":"https://w3id.org/whg-epns/14/004585","type":"Feature","properties":{"title":"Yapham","ccodes":["GB"],"fclasses":["A","P"]},"names":[{"toponym":"Yapham","lang":"en","citations":[{"label":"English Place-Name Society survey, volume 14: East Riding of Yorkshire"}]},{"toponym":"Iapun","citations":[{"label":"1086 DB","year":1086}],"when":{"timespans":[{"start":{"in":"1086"},"end":{"in":"1086"}}]}},{"toponym":"Iapum","citations":[{"label":"1234 Ch","year":1234},{"label":"1235 FF","year":1235}],"when":{"timespans":[{"start":{"in":"1234"},"end":{"in":"1234"}},{"start":{"in":"1235"},"end":{"in":"1235"}}]}},{"toponym":"Yapun","citations":[{"label":"1138 RegAlb","year":1138},{"label":"1296 Hom","year":1296}],"when":{"timespans":[{"start":{"in":"1138"},"end":{"in":"1138"}},{"start":{"in":"1296"},"end":{"in":"1296"}}]}},{"toponym":"Yapum","citations":[{"label":"1150-61 YCh","year":1150},{"label":"1208 FF","year":1208},{"label":"Ebor","year":1230},{"label":"Ipm"},{"label":"1230 Ebor","year":1230},{"label":"1350 Ipm","year":1350}],"when":{"timespans":[{"start":{"earliest":"1150","latest":"1161"},"end":{"earliest":"1150","latest":"1161"}},{"start":{"in":"1208"},"end":{"in":"1208"}},{"start":{"in":"1230"},"end":{"in":"1350"}},{"start":{"in":"1230"},"end":{"in":"1230"}},{"start":{"in":"1350"},"end":{"in":"1350"}}]}},{"toponym":"Yappum","citations":[{"label":"c. 1270 YI","year":1260}],"when":{"timespans":[{"start":{"earliest":"1260","latest":"1280"},"end":{"earliest":"1260","latest":"1280"}}]}},{"toponym":"Yaphum","citations":[{"label":"1293 QW","year":1293}],"when":{"timespans":[{"start":{"in":"1293"},"end":{"in":"1293"}}]}},{"toponym":"Yapom","citations":[{"label":"YI","year":1280},{"label":"NomVill"},{"label":"1280 YI","year":1280},{"label":"1316 NomVill","year":1316}],"when":{"timespans":[{"start":{"in":"1280"},"end":{"in":"1316"}},{"start":{"in":"1280"},"end":{"in":"1280"}},{"start":{"in":"1316"},"end":{"in":"1316"}}]}},{"toponym":"Yapoun","citations":[{"label":"1359 Ipm","year":1359}],"when":{"timespans":[{"start":{"in":"1359"},"end":{"in":"1359"}}]}},{"toponym":"Yapon","citations":[{"label":"1372 FF","year":1372}],"when":{"timespans":[{"start":{"in":"1372"},"end":{"in":"1372"}}]}},{"toponym":"Japun","citations":[{"label":"1200 Abbr","year":1200},{"label":"1200 Cur","year":1200},{"label":"1200 FF","year":1200}],"when":{"timespans":[{"start":{"in":"1200"},"end":{"in":"1200"}},{"start":{"in":"1200"},"end":{"in":"1200"}},{"start":{"in":"1200"},"end":{"in":"1200"}}]}},{"toponym":"Japum","citations":[{"label":"t. Ric 1 Ch","year":1189},{"label":"1202 FF","year":1202},{"label":"Ass","year":1219},{"label":"FF"},{"label":"1219 Ass","year":1219},{"label":"1373 FF","year":1373}],"when":{"timespans":[{"start":{"earliest":"1189","latest":"1199"},"end":{"earliest":"1189","latest":"1199"}},{"start":{"in":"1202"},"end":{"in":"1202"}},{"start":{"in":"1219"},"end":{"in":"1373"}},{"start":{"in":"1219"},"end":{"in":"1219"}},{"start":{"in":"1373"},"end":{"in":"1373"}}]}},{"toponym":"Jabum","citations":[{"label":"1231 Ass","year":1231}],"when":{"timespans":[{"start":{"in":"1231"},"end":{"in":"1231"}}]}},{"toponym":"Yapam","citations":[{"label":"1276 RH","year":1276},{"label":"1530 FF","year":1530},{"label":"1546 YChant","year":1546}],"when":{"timespans":[{"start":{"in":"1276"},"end":{"in":"1276"}},{"start":{"in":"1530"},"end":{"in":"1530"}},{"start":{"in":"1546"},"end":{"in":"1546"}}]}},{"toponym":"Yapham","citations":[{"label":"1451 Test","year":1451},{"label":"1565 FF","year":1565}],"when":{"timespans":[{"start":{"in":"1451"},"end":{"in":"1451"}},{"start":{"in":"1565"},"end":{"in":"1565"}}]}},{"toponym":"Yapeham","citations":[{"label":"1550 FF","year":1550}],"when":{"timespans":[{"start":{"in":"1550"},"end":{"in":"1550"}}]}}],"types":[{"identifier":"http://vocab.getty.edu/aat/300232418","label":"administrative division","sourceLabels":[{"label":"township","lang":"en"}]}],"geometry":{"type":"GeometryCollection","geometries":[{"type":"Point","coordinates":[-0.80483,53.95497],"citations":[{"label":"GeoNames, gazetteer record geonames:7296625"}]},{"type":"Point","coordinates":[-0.8036246895594849,53.95343612749073],"citations":[{"label":"Unlock (EDINA) gazetteer, gazetteer record unlock:11328232"}]},{"type":"Point","coordinates":[-0.804986,53.9626],"citations":[{"label":"Key to English Place-Names (KEPN), gazetteer record 8589"}]}]},"when":{"timespans":[{"start":{"in":"1086"},"end":{"in":"1565"}}]},"links":[{"type":"closeMatch","identifier":"https://sws.geonames.org/7296625/"}],"relations":[{"relationType":"gvp:broaderPartitive","relationTo":"https://w3id.org/whg-epns/14/004545","label":"within Pocklington"}]}]}