{"@context":"https://raw.githubusercontent.com/LinkedPasts/linked-places-format/main/linkedplaces-context-v1.1.jsonld","type":"FeatureCollection","license":"Digitisation of English Placenames MADS data is licensed to Jisc by the English Place Names Society and released under a Creative Commons Attribution-NonCommercial 4.0 International License.","note":"LPF v1.3, lossy; derived from the PLATO record; plato_commit=ca0afadabec1e23a145c0b03df77e8f151f79832","features":[{"@id":"https://w3id.org/whg-epns/14/005837","type":"Feature","properties":{"title":"Brantingham","ccodes":["GB"],"fclasses":["A","P"]},"names":[{"toponym":"Brantingham","lang":"en","citations":[{"label":"English Place-Name Society survey, volume 14: East Riding of Yorkshire"}]},{"toponym":"Brentingeha'","citations":[{"label":"1086 DB","year":1086}],"when":{"timespans":[{"start":{"in":"1086"},"end":{"in":"1086"}}]}},{"toponym":"Brentingeham'","citations":[{"label":"1167 P","year":1167},{"label":"1202 FF","year":1202}],"when":{"timespans":[{"start":{"in":"1167"},"end":{"in":"1167"}},{"start":{"in":"1202"},"end":{"in":"1202"}}]}},{"toponym":"Brentengeh', Brentinkeha'","citations":[{"label":"1166 P","year":1166}],"when":{"timespans":[{"start":{"in":"1166"},"end":{"in":"1166"}}]}},{"toponym":"Bredingha', Brendingham","citations":[{"label":"1086 DB","year":1086}],"when":{"timespans":[{"start":{"in":"1086"},"end":{"in":"1086"}}]}},{"toponym":"Bretingha'","citations":[{"label":"1086 DB","year":1086}],"when":{"timespans":[{"start":{"in":"1086"},"end":{"in":"1086"}}]}},{"toponym":"Bretingham","citations":[{"label":"1196 P","year":1196},{"label":"1203 Cur","year":1203}],"when":{"timespans":[{"start":{"in":"1196"},"end":{"in":"1196"}},{"start":{"in":"1203"},"end":{"in":"1203"}}]}},{"toponym":"Bretingeham, Bretenham","citations":[{"label":"1224 ClR","year":1224}],"when":{"timespans":[{"start":{"in":"1224"},"end":{"in":"1224"}}]}},{"toponym":"Brentingham, Brentyngham","citations":[{"label":"1080-6 YCh","year":1080},{"label":"1086 DB","year":1086},{"label":"1153–1296, recurring YCh","year":1153},{"label":"1153–1296, recurring Pat"},{"label":"1153- 60 YCh","year":1153},{"label":"1296 Pat","year":1296}],"when":{"timespans":[{"start":{"earliest":"1080","latest":"1086"},"end":{"earliest":"1080","latest":"1086"}},{"start":{"in":"1086"},"end":{"in":"1086"}},{"start":{"in":"1153"},"end":{"in":"1296"}},{"start":{"earliest":"1153","latest":"1160"},"end":{"earliest":"1153","latest":"1160"}},{"start":{"in":"1296"},"end":{"in":"1296"}}]}},{"toponym":"Brentinham","citations":[{"label":"12th Malton","year":1100}],"when":{"timespans":[{"start":{"earliest":"1100","latest":"1200"},"end":{"earliest":"1100","latest":"1200"}}]}},{"toponym":"Brentigham","citations":[{"label":"1121-8 YCh","year":1121},{"label":"c. 1160 Malton","year":1150}],"when":{"timespans":[{"start":{"earliest":"1121","latest":"1128"},"end":{"earliest":"1121","latest":"1128"}},{"start":{"earliest":"1150","latest":"1170"},"end":{"earliest":"1150","latest":"1170"}}]}},{"toponym":"Brantingham, Brantyngham","citations":[{"label":"1160-80 Melsa","year":1160},{"label":"late 12th Meaux","year":1175},{"label":"t. John AddCh","year":1199},{"label":"1202 FF","year":1202},{"label":"1204–1516, recurring ChR","year":1204},{"label":"1204–1516, recurring Bev"},{"label":"1204 ChR","year":1204},{"label":"1516 Bev","year":1516}],"when":{"timespans":[{"start":{"earliest":"1160","latest":"1180"},"end":{"earliest":"1160","latest":"1180"}},{"start":{"earliest":"1175","latest":"1200"},"end":{"earliest":"1175","latest":"1200"}},{"start":{"earliest":"1199","latest":"1216"},"end":{"earliest":"1199","latest":"1216"}},{"start":{"in":"1202"},"end":{"in":"1202"}},{"start":{"in":"1204"},"end":{"in":"1516"}},{"start":{"in":"1204"},"end":{"in":"1204"}},{"start":{"in":"1516"},"end":{"in":"1516"}}]}},{"toponym":"Brantingeham","citations":[{"label":"1202 FF","year":1202},{"label":"1246 Ass","year":1246}],"when":{"timespans":[{"start":{"in":"1202"},"end":{"in":"1202"}},{"start":{"in":"1246"},"end":{"in":"1246"}}]}}],"types":[{"identifier":"http://vocab.getty.edu/aat/300232418","label":"administrative division","sourceLabels":[{"label":"township","lang":"en"}]}],"geometry":{"type":"GeometryCollection","geometries":[{"type":"Point","coordinates":[-0.57704,53.75181],"citations":[{"label":"GeoNames, gazetteer record geonames:2654877"}]},{"type":"Point","coordinates":[-0.5666272169621231,53.75306659570778],"citations":[{"label":"Unlock (EDINA) gazetteer, gazetteer record unlock:11085853"}]},{"type":"Point","coordinates":[-0.568265,53.7533],"citations":[{"label":"Key to English Place-Names (KEPN), gazetteer record 8630"}]}]},"when":{"timespans":[{"start":{"in":"1080"},"end":{"in":"1516"}}]},"links":[{"type":"closeMatch","identifier":"https://sws.geonames.org/2654877/"}],"relations":[{"relationType":"gvp:broaderPartitive","relationTo":"https://w3id.org/whg-epns/14/005836","label":"within Brantingham"}]}]}