{"@context":"https://raw.githubusercontent.com/LinkedPasts/linked-places-format/main/linkedplaces-context-v1.1.jsonld","type":"FeatureCollection","license":"Digitisation of English Placenames MADS data is licensed to Jisc by the English Place Names Society and released under a Creative Commons Attribution-NonCommercial 4.0 International License.","note":"LPF v1.3, lossy; derived from the PLATO record; plato_commit=ca0afadabec1e23a145c0b03df77e8f151f79832","features":[{"@id":"http://placenames.org.uk/id/placename/14/006039","type":"Feature","properties":{"title":"Holme Beacon Division","ccodes":["GB"],"fclasses":["A"]},"names":[{"toponym":"Holme Beacon Division","lang":"en","citations":[{"label":"English Place-Name Society survey, volume 14: East Riding of Yorkshire"}]},{"toponym":"Holme Deuision","citations":[{"label":"1610 Speed","year":1610}],"when":{"timespans":[{"start":{"in":"1610"},"end":{"in":"1610"}}]}},{"toponym":"Holme Beacon","citations":[{"label":"1664 Deposition","year":1664}],"when":{"timespans":[{"start":{"in":"1664"},"end":{"in":"1664"}}]}}],"types":[{"identifier":"http://vocab.getty.edu/aat/300232418","label":"administrative division","sourceLabels":[{"label":"sub-division of a hundred","lang":"en"}]}],"geometry":null,"when":{"timespans":[{"start":{"in":"1610"},"end":{"in":"1664"}}]},"relations":[{"relationType":"gvp:broaderPartitive","relationTo":"http://placenames.org.uk/id/placename/14/003798","label":"within Harthill Wapentake"}]}]}