{"@context":"https://raw.githubusercontent.com/LinkedPasts/linked-places-format/main/linkedplaces-context-v1.1.jsonld","type":"FeatureCollection","license":"Digitisation of English Placenames MADS data is licensed to Jisc by the English Place Names Society and released under a Creative Commons Attribution-NonCommercial 4.0 International License.","note":"LPF v1.3, lossy; derived from the PLATO record; plato_commit=ca0afadabec1e23a145c0b03df77e8f151f79832","features":[{"@id":"https://w3id.org/whg-epns/14/006006","type":"Feature","properties":{"title":"Sancton","ccodes":["GB"],"fclasses":["A","P"]},"names":[{"toponym":"Sancton","lang":"en","citations":[{"label":"English Place-Name Society survey, volume 14: East Riding of Yorkshire"}]}],"types":[{"identifier":"http://vocab.getty.edu/aat/300232418","label":"administrative division","sourceLabels":[{"label":"parish","lang":"en"}]}],"geometry":{"type":"GeometryCollection","geometries":[{"type":"Point","coordinates":[-0.63252,53.84173],"citations":[{"label":"GeoNames, gazetteer record geonames:2638612"}]},{"type":"Point","coordinates":[-0.6243410783952602,53.84364089338801],"citations":[{"label":"Unlock (EDINA) gazetteer, gazetteer record unlock:11277428"}]},{"type":"Point","coordinates":[-0.625976,53.8439],"citations":[{"label":"Key to English Place-Names (KEPN), gazetteer record 8640"}]}]},"links":[{"type":"closeMatch","identifier":"https://sws.geonames.org/2638612/"}],"relations":[{"relationType":"gvp:broaderPartitive","relationTo":"https://w3id.org/whg-epns/14/004784","label":"within Hunsley Beacon Division"}]}]}