{"@context":"https://raw.githubusercontent.com/LinkedPasts/linked-places-format/main/linkedplaces-context-v1.1.jsonld","type":"FeatureCollection","license":"Digitisation of English Placenames MADS data is licensed to Jisc by the English Place Names Society and released under a Creative Commons Attribution-NonCommercial 4.0 International License.","note":"LPF v1.3, lossy; derived from the PLATO record; plato_commit=fa0d247ccc0263f8f19c8d7cdcd163df96935d1e","features":[{"@id":"https://w3id.org/whg-epns/14/006348","type":"Feature","properties":{"title":"Ellerton Priory","ccodes":["GB"],"fclasses":["A","P"]},"names":[{"toponym":"Ellerton Priory","lang":"en","citations":[{"label":"English Place-Name Society survey, volume 14: East Riding of Yorkshire"}]},{"toponym":"Elreton(e)","citations":[{"label":"1086 DB","year":1086}],"when":{"timespans":[{"start":{"in":"1086"},"end":{"in":"1086"}}]}},{"toponym":"Elretun(a), Elreton","citations":[{"label":"1199-1211 YCh","year":1199},{"label":"Abbr","year":1198},{"label":"Abbr"},{"label":"1198 Abbr","year":1198},{"label":"1298 Abbr","year":1298}],"when":{"timespans":[{"start":{"earliest":"1199","latest":"1211"},"end":{"earliest":"1199","latest":"1211"}},{"start":{"in":"1198"},"end":{"in":"1298"}},{"start":{"in":"1198"},"end":{"in":"1198"}},{"start":{"in":"1298"},"end":{"in":"1298"}}]}},{"toponym":"Elreton(e) super Derwentam","citations":[{"label":"1180-1200 YCh","year":1180}],"when":{"timespans":[{"start":{"earliest":"1180","latest":"1200"},"end":{"earliest":"1180","latest":"1200"}}]}},{"toponym":"Ellerton","citations":[{"label":"1199-1210 RegAlb","year":1199},{"label":"FF","year":1225},{"label":"Test"},{"label":"1225 FF","year":1225},{"label":"1426 Test","year":1426}],"when":{"timespans":[{"start":{"earliest":"1199","latest":"1210"},"end":{"earliest":"1199","latest":"1210"}},{"start":{"in":"1225"},"end":{"in":"1426"}},{"start":{"in":"1225"},"end":{"in":"1225"}},{"start":{"in":"1426"},"end":{"in":"1426"}}]}},{"toponym":"Ellerton in Spaldyngmore","citations":[{"label":"1331 FF","year":1331}],"when":{"timespans":[{"start":{"in":"1331"},"end":{"in":"1331"}}]}},{"toponym":"Ellerton on Derwent","citations":[{"label":"1344 FF","year":1344}],"when":{"timespans":[{"start":{"in":"1344"},"end":{"in":"1344"}}]}},{"toponym":"Ellerton Abbey","citations":[{"label":"1494 Test","year":1494}],"when":{"timespans":[{"start":{"in":"1494"},"end":{"in":"1494"}}]}},{"toponym":"Hellerton","citations":[{"label":"1226 FF","year":1226}],"when":{"timespans":[{"start":{"in":"1226"},"end":{"in":"1226"}}]}},{"toponym":"Elerton","citations":[{"label":"1257 Ch","year":1257}],"when":{"timespans":[{"start":{"in":"1257"},"end":{"in":"1257"}}]}},{"toponym":"Ellarton Priorie","citations":[{"label":"1614 FF","year":1614}],"when":{"timespans":[{"start":{"in":"1614"},"end":{"in":"1614"}}]}}],"types":[{"identifier":"http://vocab.getty.edu/aat/300232418","label":"administrative division","sourceLabels":[{"label":"township","lang":"en"}]}],"geometry":{"type":"Point","coordinates":[-1.904691,54.376133],"citations":[{"label":"Key to English Place-Names (KEPN), gazetteer record 520"}]},"when":{"timespans":[{"start":{"in":"1086"},"end":{"in":"1614"}}]},"relations":[{"relationType":"gvp:broaderPartitive","relationTo":"https://w3id.org/whg-epns/14/006347","label":"within Ellerton"}]}]}