{"@context":"https://raw.githubusercontent.com/LinkedPasts/linked-places-format/main/linkedplaces-context-v1.1.jsonld","type":"FeatureCollection","license":"Digitisation of English Placenames MADS data is licensed to Jisc by the English Place Names Society and released under a Creative Commons Attribution-NonCommercial 4.0 International License.","note":"LPF v1.3, lossy; derived from the PLATO record; plato_commit=fa0d247ccc0263f8f19c8d7cdcd163df96935d1e","features":[{"@id":"https://w3id.org/whg-epns/14/006430","type":"Feature","properties":{"title":"Harlthorpe","ccodes":["GB"],"fclasses":["A","P"]},"names":[{"toponym":"Harlthorpe","lang":"en","citations":[{"label":"English Place-Name Society survey, volume 14: East Riding of Yorkshire"}]},{"toponym":"Herlesthorp(ia)","citations":[{"label":"1150-60 Melsa","year":1150},{"label":"1160-80 Melsa","year":1160},{"label":"t. John AddCh","year":1199},{"label":"1285 YI","year":1285}],"when":{"timespans":[{"start":{"earliest":"1150","latest":"1160"},"end":{"earliest":"1150","latest":"1160"}},{"start":{"earliest":"1160","latest":"1180"},"end":{"earliest":"1160","latest":"1180"}},{"start":{"earliest":"1199","latest":"1216"},"end":{"earliest":"1199","latest":"1216"}},{"start":{"in":"1285"},"end":{"in":"1285"}}]}},{"toponym":"Herlethorp(e)","citations":[{"label":"1199-1211 YCh","year":1199},{"label":"FF","year":1226},{"label":"Melsa"},{"label":"1226 FF","year":1226},{"label":"c. 1400 Melsa","year":1390}],"when":{"timespans":[{"start":{"earliest":"1199","latest":"1211"},"end":{"earliest":"1199","latest":"1211"}},{"start":{"in":"1226"},"end":{"in":"1410"}},{"start":{"in":"1226"},"end":{"in":"1226"}},{"start":{"earliest":"1390","latest":"1410"},"end":{"earliest":"1390","latest":"1410"}}]}},{"toponym":"Harlesthorp","citations":[{"label":"1297 Ch","year":1297}],"when":{"timespans":[{"start":{"in":"1297"},"end":{"in":"1297"}}]}},{"toponym":"Harlethorp","citations":[{"label":"early 13th Gilbert","year":1200},{"label":"1572 FF","year":1572}],"when":{"timespans":[{"start":{"earliest":"1200","latest":"1225"},"end":{"earliest":"1200","latest":"1225"}},{"start":{"in":"1572"},"end":{"in":"1572"}}]}},{"toponym":"Harlethropp","citations":[{"label":"1534 FF","year":1534}],"when":{"timespans":[{"start":{"in":"1534"},"end":{"in":"1534"}}]}},{"toponym":"Herylthorp","citations":[{"label":"1301 Ebor","year":1301}],"when":{"timespans":[{"start":{"in":"1301"},"end":{"in":"1301"}}]}},{"toponym":"Haddlethorpe","citations":[{"label":"1568 FF","year":1568}],"when":{"timespans":[{"start":{"in":"1568"},"end":{"in":"1568"}}]}},{"toponym":"Hartlethorp al. Hadlethorpe","citations":[{"label":"1621 FF","year":1621}],"when":{"timespans":[{"start":{"in":"1621"},"end":{"in":"1621"}}]}}],"types":[{"identifier":"http://vocab.getty.edu/aat/300232418","label":"administrative division","sourceLabels":[{"label":"township","lang":"en"}]}],"geometry":{"type":"GeometryCollection","geometries":[{"type":"Point","coordinates":[-0.8679784471843932,53.82820804849323],"citations":[{"label":"Unlock (EDINA) gazetteer, gazetteer record unlock:11166300"}]},{"type":"Point","coordinates":[-0.869583,53.8284],"citations":[{"label":"Key to English Place-Names (KEPN), gazetteer record 8664"}]}]},"when":{"timespans":[{"start":{"in":"1150"},"end":{"in":"1621"}}]},"relations":[{"relationType":"gvp:broaderPartitive","relationTo":"https://w3id.org/whg-epns/14/006375","label":"within Bubwith"}]}]}