{"@context":"https://raw.githubusercontent.com/LinkedPasts/linked-places-format/main/linkedplaces-context-v1.1.jsonld","type":"FeatureCollection","license":"Digitisation of English Placenames MADS data is licensed to Jisc by the English Place Names Society and released under a Creative Commons Attribution-NonCommercial 4.0 International License.","note":"LPF v1.3, lossy; derived from the PLATO record; plato_commit=fa0d247ccc0263f8f19c8d7cdcd163df96935d1e","features":[{"@id":"https://w3id.org/whg-epns/14/006439","type":"Feature","properties":{"title":"Spaldington","ccodes":["GB"],"fclasses":["A","P"]},"names":[{"toponym":"Spaldington","lang":"en","citations":[{"label":"English Place-Name Society survey, volume 14: East Riding of Yorkshire"}]},{"toponym":"Spellinton","citations":[{"label":"1086 DB","year":1086}],"when":{"timespans":[{"start":{"in":"1086"},"end":{"in":"1086"}}]}},{"toponym":"Spaldi(n)ggetun","citations":[{"label":"t. Hy 2 AddCh","year":1154}],"when":{"timespans":[{"start":{"earliest":"1154","latest":"1189"},"end":{"earliest":"1154","latest":"1189"}}]}},{"toponym":"Spaldington(a), Spaldyngton(a)","citations":[{"label":"t. Hy 2 Gilbert","year":1154},{"label":"1190-1210 YCh","year":1190},{"label":"Ass","year":1231},{"label":"NCWills"},{"label":"1231 Ass","year":1231},{"label":"1573 NCWills","year":1573}],"when":{"timespans":[{"start":{"earliest":"1154","latest":"1189"},"end":{"earliest":"1154","latest":"1189"}},{"start":{"earliest":"1190","latest":"1210"},"end":{"earliest":"1190","latest":"1210"}},{"start":{"in":"1231"},"end":{"in":"1573"}},{"start":{"in":"1231"},"end":{"in":"1231"}},{"start":{"in":"1573"},"end":{"in":"1573"}}]}},{"toponym":"Spaldinton'","citations":[{"label":"1190 P","year":1190},{"label":"1208 Ass","year":1208},{"label":"1231 Ass","year":1231}],"when":{"timespans":[{"start":{"in":"1190"},"end":{"in":"1190"}},{"start":{"in":"1191"},"end":{"in":"1191"}},{"start":{"in":"1230"},"end":{"in":"1230"}},{"start":{"in":"1208"},"end":{"in":"1208"}},{"start":{"in":"1231"},"end":{"in":"1231"}}]}},{"toponym":"Spawdington","citations":[{"label":"1494 Test","year":1494}],"when":{"timespans":[{"start":{"in":"1494"},"end":{"in":"1494"}}]}}],"types":[{"identifier":"http://vocab.getty.edu/aat/300232418","label":"administrative division","sourceLabels":[{"label":"township","lang":"en"}]}],"geometry":{"type":"GeometryCollection","geometries":[{"type":"Point","coordinates":[-0.84899,53.79273],"citations":[{"label":"GeoNames, gazetteer record geonames:2637263"}]},{"type":"Point","coordinates":[-0.8385896380634522,53.79196889449582],"citations":[{"label":"Unlock (EDINA) gazetteer, gazetteer record unlock:11288666"}]},{"type":"Point","coordinates":[-0.840196,53.7922],"citations":[{"label":"Key to English Place-Names (KEPN), gazetteer record 8665"}]}]},"when":{"timespans":[{"start":{"in":"1086"},"end":{"in":"1573"}}]},"links":[{"type":"closeMatch","identifier":"https://sws.geonames.org/2637263/"}],"relations":[{"relationType":"gvp:broaderPartitive","relationTo":"https://w3id.org/whg-epns/14/006375","label":"within Bubwith"}]}]}