{"@context":"https://raw.githubusercontent.com/LinkedPasts/linked-places-format/main/linkedplaces-context-v1.1.jsonld","type":"FeatureCollection","license":"Digitisation of English Placenames MADS data is licensed to Jisc by the English Place Names Society and released under a Creative Commons Attribution-NonCommercial 4.0 International License.","note":"LPF v1.3, lossy; derived from the PLATO record; plato_commit=ca0afadabec1e23a145c0b03df77e8f151f79832","features":[{"@id":"http://placenames.org.uk/id/placename/14/006523","type":"Feature","properties":{"title":"Blacktoft","ccodes":["GB"],"fclasses":["A","P"]},"names":[{"toponym":"Blacktoft","lang":"en","citations":[{"label":"English Place-Name Society survey, volume 14: East Riding of Yorkshire"}]},{"toponym":"Blaketoft(e)","citations":[{"label":"1153-90 Riev","year":1153},{"label":"c. 1160 Malton","year":1150},{"label":"1197-1206 YCh","year":1197},{"label":"1198–1398, recurring FF","year":1198},{"label":"1198–1398, recurring YD"},{"label":"1198 FF","year":1198},{"label":"1398 YD","year":1398}],"when":{"timespans":[{"start":{"earliest":"1153","latest":"1190"},"end":{"earliest":"1153","latest":"1190"}},{"start":{"earliest":"1150","latest":"1170"},"end":{"earliest":"1150","latest":"1170"}},{"start":{"earliest":"1197","latest":"1206"},"end":{"earliest":"1197","latest":"1206"}},{"start":{"in":"1198"},"end":{"in":"1398"}},{"start":{"in":"1198"},"end":{"in":"1198"}},{"start":{"in":"1398"},"end":{"in":"1398"}}]}},{"toponym":"Blachestoft","citations":[{"label":"1195 Ch","year":1195}],"when":{"timespans":[{"start":{"in":"1195"},"end":{"in":"1195"}}]}},{"toponym":"Blaktoft, Blactoft","citations":[{"label":"13th LeonardN","year":1200},{"label":"1325–1537, recurring Pat","year":1325},{"label":"1325–1537, recurring FF"},{"label":"1325 Pat","year":1325},{"label":"1537 FF","year":1537}],"when":{"timespans":[{"start":{"earliest":"1200","latest":"1300"},"end":{"earliest":"1200","latest":"1300"}},{"start":{"in":"1325"},"end":{"in":"1537"}},{"start":{"in":"1325"},"end":{"in":"1325"}},{"start":{"in":"1537"},"end":{"in":"1537"}}]}},{"toponym":"Blacketoft upon Ows","citations":[{"label":"1547 FF","year":1547}],"when":{"timespans":[{"start":{"in":"1547"},"end":{"in":"1547"}}]}},{"toponym":"East-Blacktoft, West-Blacktoft","citations":[{"label":"1584 FF","year":1584}],"when":{"timespans":[{"start":{"in":"1584"},"end":{"in":"1584"}}]}}],"types":[{"identifier":"http://vocab.getty.edu/aat/300232418","label":"administrative division","sourceLabels":[{"label":"township","lang":"en"}]}],"geometry":{"type":"GeometryCollection","geometries":[{"type":"Point","coordinates":[-0.72728,53.70797],"citations":[{"label":"GeoNames, gazetteer record geonames:2655440"}]},{"type":"Point","coordinates":[-0.7196289545559242,53.70984980528495],"citations":[{"label":"Unlock (EDINA) gazetteer, gazetteer record unlock:11079890"}]},{"type":"Point","coordinates":[-0.721246,53.7101],"citations":[{"label":"Key to English Place-Names (KEPN), gazetteer record 8668"}]}]},"when":{"timespans":[{"start":{"in":"1150"},"end":{"in":"1584"}}]},"links":[{"type":"closeMatch","identifier":"https://sws.geonames.org/2655440/"}],"relations":[{"relationType":"gvp:broaderPartitive","relationTo":"http://placenames.org.uk/id/placename/14/006522","label":"within Blacktoft"}]}]}