{"@context":"https://raw.githubusercontent.com/LinkedPasts/linked-places-format/main/linkedplaces-context-v1.1.jsonld","type":"FeatureCollection","license":"Digitisation of English Placenames MADS data is licensed to Jisc by the English Place Names Society and released under a Creative Commons Attribution-NonCommercial 4.0 International License.","note":"LPF v1.3, lossy; derived from the PLATO record; plato_commit=fa0d247ccc0263f8f19c8d7cdcd163df96935d1e","features":[{"@id":"https://w3id.org/whg-epns/14/006692","type":"Feature","properties":{"title":"Cotness","ccodes":["GB"],"fclasses":["A","P"]},"names":[{"toponym":"Cotness","lang":"en","citations":[{"label":"English Place-Name Society survey, volume 14: East Riding of Yorkshire"}]},{"toponym":"Cotes","citations":[{"label":"1086 DB","year":1086}],"when":{"timespans":[{"start":{"in":"1086"},"end":{"in":"1086"}}]}},{"toponym":"Coteness(e)","citations":[{"label":"1199 FF","year":1199},{"label":"Ass","year":1246},{"label":"YD"},{"label":"1246 Ass","year":1246},{"label":"1367 YD","year":1367}],"when":{"timespans":[{"start":{"in":"1199"},"end":{"in":"1199"}},{"start":{"in":"1246"},"end":{"in":"1367"}},{"start":{"in":"1246"},"end":{"in":"1246"}},{"start":{"in":"1367"},"end":{"in":"1367"}}]}},{"toponym":"Cotenes","citations":[{"label":"1359 FF","year":1359}],"when":{"timespans":[{"start":{"in":"1359"},"end":{"in":"1359"}}]}},{"toponym":"Cottenes(se)","citations":[{"label":"1246 Ass","year":1246},{"label":"1379 Poll","year":1379},{"label":"1432 YD","year":1432}],"when":{"timespans":[{"start":{"in":"1246"},"end":{"in":"1246"}},{"start":{"in":"1379"},"end":{"in":"1379"}},{"start":{"in":"1432"},"end":{"in":"1432"}}]}},{"toponym":"Coutenesse","citations":[{"label":"1285 KI","year":1285}],"when":{"timespans":[{"start":{"in":"1285"},"end":{"in":"1285"}}]}},{"toponym":"Cotnes(se)","citations":[{"label":"1435 NCWills","year":1435},{"label":"1546 FF","year":1546}],"when":{"timespans":[{"start":{"in":"1435"},"end":{"in":"1435"}},{"start":{"in":"1546"},"end":{"in":"1546"}}]}}],"types":[{"identifier":"http://vocab.getty.edu/aat/300232418","label":"administrative division","sourceLabels":[{"label":"township","lang":"en"}]}],"geometry":{"type":"GeometryCollection","geometries":[{"type":"Point","coordinates":[-0.8,53.71667],"citations":[{"label":"GeoNames, gazetteer record geonames:2652276"}]},{"type":"Point","coordinates":[-0.7953715512557341,53.71063536954798],"citations":[{"label":"Unlock (EDINA) gazetteer, gazetteer record unlock:11117059"}]},{"type":"Point","coordinates":[-0.796979,53.7109],"citations":[{"label":"Key to English Place-Names (KEPN), gazetteer record 8678"}]}]},"when":{"timespans":[{"start":{"in":"1086"},"end":{"in":"1546"}}]},"links":[{"type":"closeMatch","identifier":"https://sws.geonames.org/2652276/"}],"relations":[{"relationType":"gvp:broaderPartitive","relationTo":"https://w3id.org/whg-epns/14/006650","label":"within Howden"}]}]}