{"@context":"https://raw.githubusercontent.com/LinkedPasts/linked-places-format/main/linkedplaces-context-v1.1.jsonld","type":"FeatureCollection","license":"Digitisation of English Placenames MADS data is licensed to Jisc by the English Place Names Society and released under a Creative Commons Attribution-NonCommercial 4.0 International License.","note":"LPF v1.3, lossy; derived from the PLATO record; plato_commit=ca0afadabec1e23a145c0b03df77e8f151f79832","features":[{"@id":"http://placenames.org.uk/id/placename/14/006780","type":"Feature","properties":{"title":"Laxton","ccodes":["GB"],"fclasses":["A","P"]},"names":[{"toponym":"Laxton","lang":"en","citations":[{"label":"English Place-Name Society survey, volume 14: East Riding of Yorkshire"}]},{"toponym":"Laxinton","citations":[{"label":"1086 DB","year":1086},{"label":"1200 Cur","year":1200},{"label":"1210 Abbr","year":1210},{"label":"1251 Ass","year":1251},{"label":"1310 Ch","year":1310}],"when":{"timespans":[{"start":{"in":"1086"},"end":{"in":"1086"}},{"start":{"in":"1200"},"end":{"in":"1200"}},{"start":{"in":"1210"},"end":{"in":"1210"}},{"start":{"in":"1251"},"end":{"in":"1251"}},{"start":{"in":"1310"},"end":{"in":"1310"}}]}},{"toponym":"Laxington","citations":[{"label":"1199 FF","year":1199},{"label":"1252 FF","year":1252},{"label":"1282 Abbr","year":1282}],"when":{"timespans":[{"start":{"in":"1199"},"end":{"in":"1199"}},{"start":{"in":"1252"},"end":{"in":"1252"}},{"start":{"in":"1282"},"end":{"in":"1282"}}]}},{"toponym":"Laxingetun","citations":[{"label":"1199 FF","year":1199}],"when":{"timespans":[{"start":{"in":"1199"},"end":{"in":"1199"}}]}},{"toponym":"Lexin(g)ton","citations":[{"label":"1230–1251, recurring P","year":1230},{"label":"1230–1251, recurring FF"},{"label":"1230 P","year":1230},{"label":"1251 FF","year":1251}],"when":{"timespans":[{"start":{"in":"1230"},"end":{"in":"1251"}},{"start":{"in":"1230"},"end":{"in":"1230"}},{"start":{"in":"1251"},"end":{"in":"1251"}}]}},{"toponym":"Laxton","citations":[{"label":"1285 KI","year":1285},{"label":"1287–1591, recurring Ebor","year":1287},{"label":"1287–1591, recurring FF"},{"label":"1287 Ebor","year":1287},{"label":"1591 FF","year":1591}],"when":{"timespans":[{"start":{"in":"1285"},"end":{"in":"1285"}},{"start":{"in":"1287"},"end":{"in":"1591"}},{"start":{"in":"1287"},"end":{"in":"1287"}},{"start":{"in":"1591"},"end":{"in":"1591"}}]}},{"toponym":"Laxston","citations":[{"label":"1543 FF","year":1543}],"when":{"timespans":[{"start":{"in":"1543"},"end":{"in":"1543"}}]}}],"types":[{"identifier":"http://vocab.getty.edu/aat/300232418","label":"administrative division","sourceLabels":[{"label":"township","lang":"en"}]}],"geometry":{"type":"GeometryCollection","geometries":[{"type":"Point","coordinates":[-0.8,53.71667],"citations":[{"label":"GeoNames, gazetteer record geonames:2644773"}]},{"type":"Point","coordinates":[-0.7951147198213074,53.71962252086733],"citations":[{"label":"Unlock (EDINA) gazetteer, gazetteer record unlock:11192698"}]},{"type":"Point","coordinates":[-0.796723,53.7199],"citations":[{"label":"Key to English Place-Names (KEPN), gazetteer record 8681"}]}]},"when":{"timespans":[{"start":{"in":"1086"},"end":{"in":"1591"}}]},"links":[{"type":"closeMatch","identifier":"https://sws.geonames.org/2644773/"}],"relations":[{"relationType":"gvp:broaderPartitive","relationTo":"http://placenames.org.uk/id/placename/14/006650","label":"within Howden"}]}]}