{"@context":"https://raw.githubusercontent.com/LinkedPasts/linked-places-format/main/linkedplaces-context-v1.1.jsonld","type":"FeatureCollection","license":"Digitisation of English Placenames MADS data is licensed to Jisc by the English Place Names Society and released under a Creative Commons Attribution-NonCommercial 4.0 International License.","note":"LPF v1.3, lossy; derived from the PLATO record; plato_commit=ca0afadabec1e23a145c0b03df77e8f151f79832","features":[{"@id":"https://w3id.org/whg-epns/14/006817","type":"Feature","properties":{"title":"Thorpe Lidget","ccodes":["GB"],"fclasses":["A","P"]},"names":[{"toponym":"Thorpe Lidget","lang":"en","citations":[{"label":"English Place-Name Society survey, volume 14: East Riding of Yorkshire"}]},{"toponym":"Đorp","citations":[{"label":"959 YCh","year":959}],"when":{"timespans":[{"start":{"in":"0959"},"end":{"in":"0959"}}]}},{"toponym":"Torp","citations":[{"label":"1086 DB","year":1086}],"when":{"timespans":[{"start":{"in":"1086"},"end":{"in":"1086"}}]}},{"toponym":"Thorp(e)","citations":[{"label":"1199–1576, recurring FF","year":1199},{"label":"1199–1576, recurring NCWills"},{"label":"1199 FF","year":1199},{"label":"1576 NCWills","year":1576}],"when":{"timespans":[{"start":{"in":"1199"},"end":{"in":"1576"}},{"start":{"in":"1199"},"end":{"in":"1199"}},{"start":{"in":"1576"},"end":{"in":"1576"}}]}},{"toponym":"Thorp(e) in the More","citations":[{"label":"1399 YI","year":1399}],"when":{"timespans":[{"start":{"in":"1399"},"end":{"in":"1399"}}]}},{"toponym":"Thorp(e) juxta Houeden","citations":[{"label":"1411 BM","year":1411}],"when":{"timespans":[{"start":{"in":"1411"},"end":{"in":"1411"}}]}},{"toponym":"Thorp(e) Lidget","citations":[{"label":"1828 Langd","year":1828}],"when":{"timespans":[{"start":{"in":"1828"},"end":{"in":"1828"}}]}}],"types":[{"identifier":"http://vocab.getty.edu/aat/300232418","label":"administrative division","sourceLabels":[{"label":"township","lang":"en"}]}],"geometry":{"type":"Point","coordinates":[-0.848508,53.759742],"citations":[{"label":"Key to English Place-Names (KEPN), gazetteer record 509"}]},"when":{"timespans":[{"start":{"in":"0959"},"end":{"in":"1828"}}]},"relations":[{"relationType":"gvp:broaderPartitive","relationTo":"https://w3id.org/whg-epns/14/006650","label":"within Howden"}]}]}