{"@context":"https://raw.githubusercontent.com/LinkedPasts/linked-places-format/main/linkedplaces-context-v1.1.jsonld","type":"FeatureCollection","license":"Digitisation of English Placenames MADS data is licensed to Jisc by the English Place Names Society and released under a Creative Commons Attribution-NonCommercial 4.0 International License.","note":"LPF v1.3, lossy; derived from the PLATO record; plato_commit=ca0afadabec1e23a145c0b03df77e8f151f79832","features":[{"@id":"http://placenames.org.uk/id/placename/14/007119","type":"Feature","properties":{"title":"Stillingfleet","ccodes":["GB"],"fclasses":["A","P"]},"names":[{"toponym":"Stillingfleet","lang":"en","citations":[{"label":"English Place-Name Society survey, volume 14: East Riding of Yorkshire"}]}],"types":[{"identifier":"http://vocab.getty.edu/aat/300232418","label":"administrative division","sourceLabels":[{"label":"parish","lang":"en"}]}],"geometry":{"type":"GeometryCollection","geometries":[{"type":"Point","coordinates":[-1.09827,53.8606],"citations":[{"label":"GeoNames, gazetteer record geonames:2636917"}]},{"type":"Point","coordinates":[-1.11029845785303,53.86620699177193],"citations":[{"label":"Unlock (EDINA) gazetteer, gazetteer record unlock:11292087"}]},{"type":"Point","coordinates":[-1.09667,53.8663],"citations":[{"label":"Key to English Place-Names (KEPN), gazetteer record 8696"}]}]},"links":[{"type":"closeMatch","identifier":"https://sws.geonames.org/2636917/"}],"relations":[{"relationType":"gvp:broaderPartitive","relationTo":"http://placenames.org.uk/id/placename/14/006845","label":"within Wapentake of Ouse and Derwent"}]}]}