{"@context":"https://raw.githubusercontent.com/LinkedPasts/linked-places-format/main/linkedplaces-context-v1.1.jsonld","type":"FeatureCollection","license":"Digitisation of English Placenames MADS data is licensed to Jisc by the English Place Names Society and released under a Creative Commons Attribution-NonCommercial 4.0 International License.","note":"LPF v1.3, lossy; derived from the PLATO record; plato_commit=ca0afadabec1e23a145c0b03df77e8f151f79832","features":[{"@id":"https://w3id.org/whg-epns/14/007259","type":"Feature","properties":{"title":"Elvington","ccodes":["GB"],"fclasses":["A","P"]},"names":[{"toponym":"Elvington","lang":"en","citations":[{"label":"English Place-Name Society survey, volume 14: East Riding of Yorkshire"}]},{"toponym":"Aluuinton(e)","citations":[{"label":"1086 DB","year":1086}],"when":{"timespans":[{"start":{"in":"1086"},"end":{"in":"1086"}}]}},{"toponym":"Eluinton, Elvinton","citations":[{"label":"1176 P","year":1176},{"label":"1228–1281, recurring Pat","year":1228},{"label":"1228–1281, recurring QW"},{"label":"1228 Pat","year":1228},{"label":"1279-81 QW","year":1279}],"when":{"timespans":[{"start":{"in":"1176"},"end":{"in":"1176"}},{"start":{"in":"1228"},"end":{"in":"1281"}},{"start":{"in":"1228"},"end":{"in":"1228"}},{"start":{"earliest":"1279","latest":"1281"},"end":{"earliest":"1279","latest":"1281"}}]}},{"toponym":"Eluenton","citations":[{"label":"late 13th Font","year":1275}],"when":{"timespans":[{"start":{"earliest":"1275","latest":"1300"},"end":{"earliest":"1275","latest":"1300"}}]}},{"toponym":"Eluington(a), Elvington(a), Elvyngton(a)","citations":[{"label":"1180-97 Melsa","year":1180},{"label":"1246–1546, recurring Ass","year":1246},{"label":"1246–1546, recurring YChant"},{"label":"1246 Ass","year":1246},{"label":"1546 YChant","year":1546}],"when":{"timespans":[{"start":{"earliest":"1180","latest":"1197"},"end":{"earliest":"1180","latest":"1197"}},{"start":{"in":"1246"},"end":{"in":"1546"}},{"start":{"in":"1246"},"end":{"in":"1246"}},{"start":{"in":"1546"},"end":{"in":"1546"}}]}},{"toponym":"Elvigton","citations":[{"label":"1268 Ebor","year":1268}],"when":{"timespans":[{"start":{"in":"1268"},"end":{"in":"1268"}}]}},{"toponym":"Elington","citations":[{"label":"1235 Font","year":1235}],"when":{"timespans":[{"start":{"in":"1235"},"end":{"in":"1235"}}]}},{"toponym":"Ellyngton","citations":[{"label":"1444 Test","year":1444},{"label":"1567 FF","year":1567}],"when":{"timespans":[{"start":{"in":"1444"},"end":{"in":"1444"}},{"start":{"in":"1567"},"end":{"in":"1567"}}]}}],"types":[{"identifier":"http://vocab.getty.edu/aat/300232418","label":"administrative division","sourceLabels":[{"label":"township","lang":"en"}]}],"geometry":{"type":"GeometryCollection","geometries":[{"type":"Point","coordinates":[-0.93495,53.92087],"citations":[{"label":"GeoNames, gazetteer record geonames:2650029"}]},{"type":"Point","coordinates":[-0.9264466015888051,53.91863935408227],"citations":[{"label":"Unlock (EDINA) gazetteer, gazetteer record unlock:11139866"}]},{"type":"Point","coordinates":[-0.928048,53.9189],"citations":[{"label":"Key to English Place-Names (KEPN), gazetteer record 8702"}]}]},"when":{"timespans":[{"start":{"in":"1086"},"end":{"in":"1567"}}]},"links":[{"type":"closeMatch","identifier":"https://sws.geonames.org/2650029/"}],"relations":[{"relationType":"gvp:broaderPartitive","relationTo":"https://w3id.org/whg-epns/14/007258","label":"within Elvington"}]}]}