{"@context":"https://raw.githubusercontent.com/LinkedPasts/linked-places-format/main/linkedplaces-context-v1.1.jsonld","type":"FeatureCollection","license":"Digitisation of English Placenames MADS data is licensed to Jisc by the English Place Names Society and released under a Creative Commons Attribution-NonCommercial 4.0 International License.","note":"LPF v1.3, lossy; derived from the PLATO record; plato_commit=fa0d247ccc0263f8f19c8d7cdcd163df96935d1e","features":[{"@id":"https://w3id.org/whg-epns/14/007306","type":"Feature","properties":{"title":"St Lawrence, York","ccodes":["GB"],"fclasses":["A","P"]},"names":[{"toponym":"St Lawrence, York","lang":"en","citations":[{"label":"English Place-Name Society survey, volume 14: East Riding of Yorkshire"}]},{"toponym":"The parysche church of Saynct Lawrence without Walmegate Barr","citations":[{"label":"1546 YChant","year":1546}],"when":{"timespans":[{"start":{"in":"1546"},"end":{"in":"1546"}}]}}],"types":[{"identifier":"http://vocab.getty.edu/aat/300232418","label":"administrative division","sourceLabels":[{"label":"parish","lang":"en"}]}],"geometry":{"type":"GeometryCollection","geometries":[{"type":"Point","coordinates":[-1.093146843145696,53.95597051436854],"citations":[{"label":"Unlock (EDINA) gazetteer, gazetteer record unlock:11328922"}]},{"type":"Point","coordinates":[-1.068706,53.953822],"citations":[{"label":"Key to English Place-Names (KEPN), gazetteer record 513"}]}]},"when":{"timespans":[{"start":{"in":"1546"},"end":{"in":"1546"}}]},"relations":[{"relationType":"gvp:broaderPartitive","relationTo":"https://w3id.org/whg-epns/14/006845","label":"within Wapentake of Ouse and Derwent"}]}]}