{"@context":"https://raw.githubusercontent.com/LinkedPasts/linked-places-format/main/linkedplaces-context-v1.1.jsonld","type":"FeatureCollection","license":"Digitisation of English Placenames MADS data is licensed to Jisc by the English Place Names Society and released under a Creative Commons Attribution-NonCommercial 4.0 International License.","note":"LPF v1.3, lossy; derived from the PLATO record; plato_commit=fa0d247ccc0263f8f19c8d7cdcd163df96935d1e","features":[{"@id":"https://w3id.org/whg-epns/49/003726","type":"Feature","properties":{"title":"Cookham Hundred","ccodes":["GB"],"fclasses":["A"]},"names":[{"toponym":"Cookham Hundred","lang":"en","citations":[{"label":"English Place-Name Society survey, volume 49: Berkshire"}]},{"toponym":"Cocham","citations":[{"label":"1190 P","year":1190},{"label":"1275-6 RH","year":1275}],"when":{"timespans":[{"start":{"in":"1190"},"end":{"in":"1190"}},{"start":{"in":"1194"},"end":{"in":"1194"}},{"start":{"earliest":"1275","latest":"1276"},"end":{"earliest":"1275","latest":"1276"}}]}},{"toponym":"Chokeham","citations":[{"label":"1192 P","year":1192}],"when":{"timespans":[{"start":{"in":"1192"},"end":{"in":"1192"}}]}},{"toponym":"Cokeham","citations":[{"label":"1193 P","year":1193},{"label":"1413 Fine","year":1413}],"when":{"timespans":[{"start":{"in":"1193"},"end":{"in":"1193"}},{"start":{"in":"1413"},"end":{"in":"1413"}}]}},{"toponym":"Kokam","citations":[{"label":"1241 Ass","year":1241}],"when":{"timespans":[{"start":{"in":"1241"},"end":{"in":"1241"}}]}},{"toponym":"Cogham","citations":[{"label":"1275-6 RH","year":1275}],"when":{"timespans":[{"start":{"earliest":"1275","latest":"1276"},"end":{"earliest":"1275","latest":"1276"}}]}},{"toponym":"Cokham","citations":[{"label":"1284 Ass","year":1284},{"label":"1310 Fine","year":1310},{"label":"1316 FA","year":1316}],"when":{"timespans":[{"start":{"in":"1284"},"end":{"in":"1284"}},{"start":{"in":"1310"},"end":{"in":"1310"}},{"start":{"in":"1316"},"end":{"in":"1316"}}]}},{"toponym":"Coukham","citations":[{"label":"1327 SR","year":1327},{"label":"1339 Fine","year":1339}],"when":{"timespans":[{"start":{"in":"1327"},"end":{"in":"1327"}},{"start":{"in":"1339"},"end":{"in":"1339"}}]}}],"types":[{"identifier":"http://vocab.getty.edu/aat/300232418","label":"administrative division","sourceLabels":[{"label":"hundred / wapentake","lang":"en"}]}],"geometry":null,"when":{"timespans":[{"start":{"in":"1190"},"end":{"in":"1413"}}]},"relations":[{"relationType":"gvp:broaderPartitive","relationTo":"https://w3id.org/whg-epns/49/000001","label":"within Berkshire"}]}]}