{"@context":"https://raw.githubusercontent.com/LinkedPasts/linked-places-format/main/linkedplaces-context-v1.1.jsonld","type":"FeatureCollection","license":"Digitisation of English Placenames MADS data is licensed to Jisc by the English Place Names Society and released under a Creative Commons Attribution-NonCommercial 4.0 International License.","note":"LPF v1.3, lossy; derived from the PLATO record; plato_commit=ca0afadabec1e23a145c0b03df77e8f151f79832","features":[{"@id":"https://w3id.org/whg-epns/49/004908","type":"Feature","properties":{"title":"Barkham","ccodes":["GB"],"fclasses":["A","P"]},"names":[{"toponym":"Barkham","lang":"en","citations":[{"label":"English Place-Name Society survey, volume 49: Berkshire"}]},{"toponym":"(æt) Beorchamme","citations":[{"label":"952 BCS","year":952}],"when":{"timespans":[{"start":{"in":"0952"},"end":{"in":"0952"}}]}},{"toponym":"Beorcham","citations":[{"label":"952 BCS","year":952}],"when":{"timespans":[{"start":{"in":"0952"},"end":{"in":"0952"}}]}},{"toponym":"Bercheham","citations":[{"label":"1086 DB","year":1086}],"when":{"timespans":[{"start":{"in":"1086"},"end":{"in":"1086"}}]}},{"toponym":"Berkeham, Berkehem","citations":[{"label":"1220 Fees","year":1220}],"when":{"timespans":[{"start":{"in":"1220"},"end":{"in":"1220"}}]}},{"toponym":"Berkeham","citations":[{"label":"1242-3 Fees","year":1242},{"label":"1517 D Inc","year":1517}],"when":{"timespans":[{"start":{"earliest":"1242","latest":"1243"},"end":{"earliest":"1242","latest":"1243"}},{"start":{"in":"1517"},"end":{"in":"1517"}}]}},{"toponym":"Berkham","citations":[{"label":"1220 RSO","year":1220},{"label":"1242–1243, recurring Fees","year":1242},{"label":"1242-3 Fees","year":1242}],"when":{"timespans":[{"start":{"in":"1220"},"end":{"in":"1220"}},{"start":{"in":"1242"},"end":{"in":"1243"}},{"start":{"earliest":"1242","latest":"1243"},"end":{"earliest":"1242","latest":"1243"}}]}},{"toponym":"Bercham","citations":[{"label":"1242–1243, recurring Fees","year":1242},{"label":"1242-3 Fees","year":1242}],"when":{"timespans":[{"start":{"in":"1242"},"end":{"in":"1243"}},{"start":{"earliest":"1242","latest":"1243"},"end":{"earliest":"1242","latest":"1243"}}]}},{"toponym":"Bergham","citations":[{"label":"1248 Fees","year":1248}],"when":{"timespans":[{"start":{"in":"1248"},"end":{"in":"1248"}}]}}],"types":[{"identifier":"http://vocab.getty.edu/aat/300232418","label":"administrative division","sourceLabels":[{"label":"township","lang":"en"}]}],"geometry":{"type":"GeometryCollection","geometries":[{"type":"Point","coordinates":[-0.8759,51.39805],"citations":[{"label":"GeoNames, gazetteer record geonames:2656334"}]},{"type":"Point","coordinates":[-0.8714120764364979,51.40059870849093],"citations":[{"label":"Unlock (EDINA) gazetteer, gazetteer record unlock:11070092"}]},{"type":"Point","coordinates":[-0.872915,51.4011],"citations":[{"label":"Key to English Place-Names (KEPN), gazetteer record 3039"}]}]},"when":{"timespans":[{"start":{"in":"0952"},"end":{"in":"1517"}}]},"links":[{"type":"closeMatch","identifier":"https://sws.geonames.org/2656334/"}],"relations":[{"relationType":"gvp:broaderPartitive","relationTo":"https://w3id.org/whg-epns/49/004907","label":"within Barkham"}]}]}