{"@context":"https://raw.githubusercontent.com/LinkedPasts/linked-places-format/main/linkedplaces-context-v1.1.jsonld","type":"FeatureCollection","license":"Digitisation of English Placenames MADS data is licensed to Jisc by the English Place Names Society and released under a Creative Commons Attribution-NonCommercial 4.0 International License.","note":"LPF v1.3, lossy; derived from the PLATO record; plato_commit=ca0afadabec1e23a145c0b03df77e8f151f79832","features":[{"@id":"http://placenames.org.uk/id/placename/49/007505","type":"Feature","properties":{"title":"Arborfield","ccodes":["GB"],"fclasses":["A","P"]},"names":[{"toponym":"Arborfield","lang":"en","citations":[{"label":"English Place-Name Society survey, volume 49: Berkshire"}]}],"types":[{"identifier":"http://vocab.getty.edu/aat/300232418","label":"administrative division","sourceLabels":[{"label":"parish","lang":"en"}]}],"geometry":{"type":"GeometryCollection","geometries":[{"type":"Point","coordinates":[-0.92006,51.40143],"citations":[{"label":"GeoNames, gazetteer record geonames:2657216"}]},{"type":"Point","coordinates":[-0.9145343431310625,51.40100605436411],"citations":[{"label":"Unlock (EDINA) gazetteer, gazetteer record unlock:11063024"}]},{"type":"Point","coordinates":[-0.916033,51.4015],"citations":[{"label":"Key to English Place-Names (KEPN), gazetteer record 121"}]}]},"links":[{"type":"closeMatch","identifier":"https://sws.geonames.org/2657216/"}],"relations":[{"relationType":"gvp:broaderPartitive","relationTo":"http://placenames.org.uk/id/placename/49/007498","label":"within Sonning Hundred"}]}]}