{"@context":"https://raw.githubusercontent.com/LinkedPasts/linked-places-format/main/linkedplaces-context-v1.1.jsonld","type":"FeatureCollection","license":"Digitisation of English Placenames MADS data is licensed to Jisc by the English Place Names Society and released under a Creative Commons Attribution-NonCommercial 4.0 International License.","note":"LPF v1.3, lossy; derived from the PLATO record; plato_commit=ca0afadabec1e23a145c0b03df77e8f151f79832","features":[{"@id":"https://w3id.org/whg-epns/49/007810","type":"Feature","properties":{"title":"Ruscombe","ccodes":["GB"],"fclasses":["A","P"]},"names":[{"toponym":"Ruscombe","lang":"en","citations":[{"label":"English Place-Name Society survey, volume 49: Berkshire"}]}],"types":[{"identifier":"http://vocab.getty.edu/aat/300232418","label":"administrative division","sourceLabels":[{"label":"parish","lang":"en"}]}],"geometry":{"type":"GeometryCollection","geometries":[{"type":"Point","coordinates":[-0.84248,51.47851],"citations":[{"label":"GeoNames, gazetteer record geonames:7299659"}]},{"type":"Point","coordinates":[-0.855016423511324,51.48137665657131],"citations":[{"label":"Unlock (EDINA) gazetteer, gazetteer record unlock:11275455"}]},{"type":"Point","coordinates":[-0.856525,51.4819],"citations":[{"label":"Key to English Place-Names (KEPN), gazetteer record 3051"}]}]},"links":[{"type":"closeMatch","identifier":"https://sws.geonames.org/7299659/"}],"relations":[{"relationType":"gvp:broaderPartitive","relationTo":"https://w3id.org/whg-epns/49/007498","label":"within Sonning Hundred"}]}]}