{"@context":"https://raw.githubusercontent.com/LinkedPasts/linked-places-format/main/linkedplaces-context-v1.1.jsonld","type":"FeatureCollection","license":"Digitisation of English Placenames MADS data is licensed to Jisc by the English Place Names Society and released under a Creative Commons Attribution-NonCommercial 4.0 International License.","note":"LPF v1.3, lossy; derived from the PLATO record; plato_commit=fa0d247ccc0263f8f19c8d7cdcd163df96935d1e","features":[{"@id":"https://w3id.org/whg-epns/49/008495","type":"Feature","properties":{"title":"Winnersh","ccodes":["GB"],"fclasses":["A","P"]},"names":[{"toponym":"Winnersh","lang":"en","citations":[{"label":"English Place-Name Society survey, volume 49: Berkshire"}]}],"types":[{"identifier":"http://vocab.getty.edu/aat/300232418","label":"administrative division","sourceLabels":[{"label":"parish","lang":"en"}]}],"geometry":{"type":"GeometryCollection","geometries":[{"type":"Point","coordinates":[-0.87994,51.42747],"citations":[{"label":"GeoNames, gazetteer record geonames:2633814"}]},{"type":"Point","coordinates":[-0.8851300846473886,51.42770906784747],"citations":[{"label":"Unlock (EDINA) gazetteer, gazetteer record unlock:11324131"}]},{"type":"Point","coordinates":[-0.872252,51.4281],"citations":[{"label":"Key to English Place-Names (KEPN), gazetteer record 3055"}]}]},"links":[{"type":"closeMatch","identifier":"https://sws.geonames.org/2633814/"}],"relations":[{"relationType":"gvp:broaderPartitive","relationTo":"https://w3id.org/whg-epns/49/007498","label":"within Sonning Hundred"}]}]}