{"@context":"https://raw.githubusercontent.com/LinkedPasts/linked-places-format/main/linkedplaces-context-v1.1.jsonld","type":"FeatureCollection","license":"Digitisation of English Placenames MADS data is licensed to Jisc by the English Place Names Society and released under a Creative Commons Attribution-NonCommercial 4.0 International License.","note":"LPF v1.3, lossy; derived from the PLATO record; plato_commit=fa0d247ccc0263f8f19c8d7cdcd163df96935d1e","features":[{"@id":"https://w3id.org/whg-epns/49/009497","type":"Feature","properties":{"title":"Beenham","ccodes":["GB"],"fclasses":["A","P"]},"names":[{"toponym":"Beenham","lang":"en","citations":[{"label":"English Place-Name Society survey, volume 49: Berkshire"}]}],"types":[{"identifier":"http://vocab.getty.edu/aat/300232418","label":"administrative division","sourceLabels":[{"label":"parish","lang":"en"}]}],"geometry":{"type":"GeometryCollection","geometries":[{"type":"Point","coordinates":[-1.14775,51.41624],"citations":[{"label":"GeoNames, gazetteer record geonames:2656020"}]},{"type":"Point","coordinates":[-1.158746430770887,51.41200635958329],"citations":[{"label":"Unlock (EDINA) gazetteer, gazetteer record unlock:11073437"}]},{"type":"Point","coordinates":[-1.14584,51.4124],"citations":[{"label":"Key to English Place-Names (KEPN), gazetteer record 3059"}]}]},"links":[{"type":"closeMatch","identifier":"https://sws.geonames.org/2656020/"}],"relations":[{"relationType":"gvp:broaderPartitive","relationTo":"https://w3id.org/whg-epns/49/009455","label":"within Reading Hundred"}]}]}