{"@context":"https://raw.githubusercontent.com/LinkedPasts/linked-places-format/main/linkedplaces-context-v1.1.jsonld","type":"FeatureCollection","license":"Digitisation of English Placenames MADS data is licensed to Jisc by the English Place Names Society and released under a Creative Commons Attribution-NonCommercial 4.0 International License.","note":"LPF v1.3, lossy; derived from the PLATO record; plato_commit=ca0afadabec1e23a145c0b03df77e8f151f79832","features":[{"@id":"http://placenames.org.uk/id/placename/49/013488","type":"Feature","properties":{"title":"Aldermaston","ccodes":["GB"],"fclasses":["A","P"]},"names":[{"toponym":"Aldermaston","lang":"en","citations":[{"label":"English Place-Name Society survey, volume 49: Berkshire"}]},{"toponym":"Ældremanestone, Heldremanestvne, Eldremanestune","citations":[{"label":"1086 DB","year":1086}],"when":{"timespans":[{"start":{"in":"1086"},"end":{"in":"1086"}}]}},{"toponym":"Aldremanneston'","citations":[{"label":"1178 P","year":1178}],"when":{"timespans":[{"start":{"in":"1178"},"end":{"in":"1178"}}]}},{"toponym":"Aldremaneston'","citations":[{"label":"1220 Fees","year":1220}],"when":{"timespans":[{"start":{"in":"1220"},"end":{"in":"1220"}}]}},{"toponym":"Aldremanston","citations":[{"label":"1296 Ipm","year":1296},{"label":"1327 SR","year":1327},{"label":"1340 Pat","year":1340}],"when":{"timespans":[{"start":{"in":"1296"},"end":{"in":"1296"}},{"start":{"in":"1327"},"end":{"in":"1327"}},{"start":{"in":"1340"},"end":{"in":"1340"}}]}},{"toponym":"Aldermannestone","citations":[{"label":"c. 1160 OxonCh","year":1150}],"when":{"timespans":[{"start":{"earliest":"1150","latest":"1170"},"end":{"earliest":"1150","latest":"1170"}}]}},{"toponym":"Aldermannestun","citations":[{"label":"1167 P","year":1167}],"when":{"timespans":[{"start":{"in":"1167"},"end":{"in":"1167"}}]}},{"toponym":"Aldermaneston","citations":[{"label":"1229–1229, recurring Ch","year":1229},{"label":"1229 Ch","year":1229}],"when":{"timespans":[{"start":{"in":"1229"},"end":{"in":"1229"}},{"start":{"in":"1229"},"end":{"in":"1229"}}]}},{"toponym":"Alderman(e)ston'","citations":[{"label":"1229-1600 unspecified sources","year":1229}],"when":{"timespans":[{"start":{"in":"1229"},"end":{"in":"1600"}}]}},{"toponym":"Aldermanneston Achard","citations":[{"label":"1300 Cl","year":1300}],"when":{"timespans":[{"start":{"in":"1300"},"end":{"in":"1300"}}]}},{"toponym":"Audermaneston'","citations":[{"label":"1235-6 Fees","year":1235}],"when":{"timespans":[{"start":{"earliest":"1235","latest":"1236"},"end":{"earliest":"1235","latest":"1236"}}]}},{"toponym":"Ardemamston","citations":[{"label":"1284 Ass","year":1284}],"when":{"timespans":[{"start":{"in":"1284"},"end":{"in":"1284"}}]}},{"toponym":"Aldermaston","citations":[{"label":"1405 Fine","year":1405}],"when":{"timespans":[{"start":{"in":"1405"},"end":{"in":"1405"}}]}}],"types":[{"identifier":"http://vocab.getty.edu/aat/300232418","label":"administrative division","sourceLabels":[{"label":"township","lang":"en"}]}],"geometry":{"type":"GeometryCollection","geometries":[{"type":"Point","coordinates":[-1.15326,51.38391],"citations":[{"label":"GeoNames, gazetteer record geonames:2657544"}]},{"type":"Point","coordinates":[-1.116476949082158,51.36673077390034],"citations":[{"label":"Unlock (EDINA) gazetteer, gazetteer record unlock:11058038"}]},{"type":"Point","coordinates":[-1.14634,51.3854],"citations":[{"label":"Key to English Place-Names (KEPN), gazetteer record 3069"}]}]},"when":{"timespans":[{"start":{"in":"1086"},"end":{"in":"1600"}}]},"links":[{"type":"closeMatch","identifier":"https://sws.geonames.org/2657544/"}],"relations":[{"relationType":"gvp:broaderPartitive","relationTo":"http://placenames.org.uk/id/placename/49/013487","label":"within Aldermaston"}]}]}