{"@context":"https://raw.githubusercontent.com/LinkedPasts/linked-places-format/main/linkedplaces-context-v1.1.jsonld","type":"FeatureCollection","license":"Digitisation of English Placenames MADS data is licensed to Jisc by the English Place Names Society and released under a Creative Commons Attribution-NonCommercial 4.0 International License.","note":"LPF v1.3, lossy; derived from the PLATO record; plato_commit=ca0afadabec1e23a145c0b03df77e8f151f79832","features":[{"@id":"https://w3id.org/whg-epns/49/013487","type":"Feature","properties":{"title":"Aldermaston","ccodes":["GB"],"fclasses":["A","P"]},"names":[{"toponym":"Aldermaston","lang":"en","citations":[{"label":"English Place-Name Society survey, volume 49: Berkshire"}]}],"types":[{"identifier":"http://vocab.getty.edu/aat/300232418","label":"administrative division","sourceLabels":[{"label":"parish","lang":"en"}]}],"geometry":{"type":"GeometryCollection","geometries":[{"type":"Point","coordinates":[-1.15326,51.38391],"citations":[{"label":"GeoNames, gazetteer record geonames:2657544"}]},{"type":"Point","coordinates":[-1.116476949082158,51.36673077390034],"citations":[{"label":"Unlock (EDINA) gazetteer, gazetteer record unlock:11058038"}]},{"type":"Point","coordinates":[-1.14634,51.3854],"citations":[{"label":"Key to English Place-Names (KEPN), gazetteer record 3069"}]}]},"links":[{"type":"closeMatch","identifier":"https://sws.geonames.org/2657544/"}],"relations":[{"relationType":"gvp:broaderPartitive","relationTo":"https://w3id.org/whg-epns/49/013483","label":"within Theale Hundred"}]}]}