{"@context":"https://raw.githubusercontent.com/LinkedPasts/linked-places-format/main/linkedplaces-context-v1.1.jsonld","type":"FeatureCollection","license":"Digitisation of English Placenames MADS data is licensed to Jisc by the English Place Names Society and released under a Creative Commons Attribution-NonCommercial 4.0 International License.","note":"LPF v1.3, lossy; derived from the PLATO record; plato_commit=fa0d247ccc0263f8f19c8d7cdcd163df96935d1e","features":[{"@id":"https://w3id.org/whg-epns/49/014072","type":"Feature","properties":{"title":"Burghfield","ccodes":["GB"],"fclasses":["A","P"]},"names":[{"toponym":"Burghfield","lang":"en","citations":[{"label":"English Place-Name Society survey, volume 49: Berkshire"}]},{"toponym":"Borgefelle, Borgefel","citations":[{"label":"1086 DB","year":1086}],"when":{"timespans":[{"start":{"in":"1086"},"end":{"in":"1086"}}]}},{"toponym":"Boreghefeld'","citations":[{"label":"1219 FineR","year":1219}],"when":{"timespans":[{"start":{"in":"1219"},"end":{"in":"1219"}}]}},{"toponym":"Borghefeld","citations":[{"label":"1300 Cl","year":1300}],"when":{"timespans":[{"start":{"in":"1300"},"end":{"in":"1300"}}]}},{"toponym":"Burgefeld'","citations":[{"label":"OxonCh","year":1150},{"label":"FA"},{"label":"c. 1160 OxonCh","year":1150},{"label":"1316 FA","year":1316}],"when":{"timespans":[{"start":{"in":"1150"},"end":{"in":"1316"}},{"start":{"earliest":"1150","latest":"1170"},"end":{"earliest":"1150","latest":"1170"}},{"start":{"in":"1316"},"end":{"in":"1316"}}]}},{"toponym":"Burgefeld(e)","citations":[{"label":"c. 1160-1316 unspecified sources","year":1150}],"when":{"timespans":[{"start":{"in":"1150"},"end":{"in":"1316"}}]}},{"toponym":"Burghef'","citations":[{"label":"AD","year":1190},{"label":"Cl"},{"label":"c. 1200 AD","year":1190},{"label":"1365 Cl","year":1365}],"when":{"timespans":[{"start":{"in":"1190"},"end":{"in":"1365"}},{"start":{"earliest":"1190","latest":"1210"},"end":{"earliest":"1190","latest":"1210"}},{"start":{"in":"1365"},"end":{"in":"1365"}}]}},{"toponym":"Burghefeld(e)","citations":[{"label":"c. 1200-1365 unspecified sources","year":1190}],"when":{"timespans":[{"start":{"in":"1190"},"end":{"in":"1365"}}]}},{"toponym":"Bergefelda","citations":[{"label":"P","year":1167},{"label":"1167 P","year":1167}],"when":{"timespans":[{"start":{"in":"1167"},"end":{"in":"1167"}},{"start":{"in":"1167"},"end":{"in":"1167"}}]}},{"toponym":"Bergefeld', Bergefeld, Bergefeud","citations":[{"label":"1167-1600 unspecified sources","year":1167}],"when":{"timespans":[{"start":{"in":"1167"},"end":{"in":"1600"}}]}},{"toponym":"Bergafeld' Sewali","citations":[{"label":"1167 P","year":1167}],"when":{"timespans":[{"start":{"in":"1167"},"end":{"in":"1167"}}]}},{"toponym":"Berchefeld","citations":[{"label":"12th ReadingC","year":1100}],"when":{"timespans":[{"start":{"earliest":"1100","latest":"1200"},"end":{"earliest":"1100","latest":"1200"}}]}},{"toponym":"Bergeford, Berogeford'","citations":[{"label":"1202 P","year":1202}],"when":{"timespans":[{"start":{"in":"1202"},"end":{"in":"1202"}}]}},{"toponym":"Beregefeld","citations":[{"label":"1205 P","year":1205}],"when":{"timespans":[{"start":{"in":"1205"},"end":{"in":"1205"}}]}},{"toponym":"Beregefeld'","citations":[{"label":"1212 Hunter Fines","year":1212}],"when":{"timespans":[{"start":{"in":"1212"},"end":{"in":"1212"}}]}},{"toponym":"Berghefeld'","citations":[{"label":"1220 Fees","year":1220},{"label":"1232 Cl","year":1232}],"when":{"timespans":[{"start":{"in":"1220"},"end":{"in":"1220"}},{"start":{"in":"1232"},"end":{"in":"1232"}}]}},{"toponym":"Bereghefeld'","citations":[{"label":"1241 Ass","year":1241},{"label":"1271 Fine","year":1271}],"when":{"timespans":[{"start":{"in":"1241"},"end":{"in":"1241"}},{"start":{"in":"1271"},"end":{"in":"1271"}}]}},{"toponym":"Berghefeud'","citations":[{"label":"1284 Ass","year":1284}],"when":{"timespans":[{"start":{"in":"1284"},"end":{"in":"1284"}}]}},{"toponym":"Beruefeld","citations":[{"label":"1185 RR","year":1185}],"when":{"timespans":[{"start":{"in":"1185"},"end":{"in":"1185"}}]}},{"toponym":"Bereuefeld, Bereuf'","citations":[{"label":"c. 1195 AddCh","year":1185}],"when":{"timespans":[{"start":{"earliest":"1185","latest":"1205"},"end":{"earliest":"1185","latest":"1205"}}]}},{"toponym":"Berwefeud'","citations":[{"label":"1260-1 FF","year":1260}],"when":{"timespans":[{"start":{"earliest":"1260","latest":"1261"},"end":{"earliest":"1260","latest":"1261"}}]}},{"toponym":"Berwefeld","citations":[{"label":"1328 Banco","year":1328}],"when":{"timespans":[{"start":{"in":"1328"},"end":{"in":"1328"}}]}},{"toponym":"Bergfeld","citations":[{"label":"c. 1211 Thame","year":1201}],"when":{"timespans":[{"start":{"earliest":"1201","latest":"1221"},"end":{"earliest":"1201","latest":"1221"}}]}},{"toponym":"Buerghefeld","citations":[{"label":"1212 Fees","year":1212}],"when":{"timespans":[{"start":{"in":"1212"},"end":{"in":"1212"}}]}},{"toponym":"Burgfeld'","citations":[{"label":"1224-5 Ass","year":1224}],"when":{"timespans":[{"start":{"earliest":"1224","latest":"1225"},"end":{"earliest":"1224","latest":"1225"}},{"start":{"in":"1241"},"end":{"in":"1241"}}]}},{"toponym":"Burgfeld","citations":[{"label":"1294-5 AD","year":1294}],"when":{"timespans":[{"start":{"earliest":"1294","latest":"1295"},"end":{"earliest":"1294","latest":"1295"}}]}},{"toponym":"Burghfeld","citations":[{"label":"Cl","year":1305},{"label":"1305 Cl","year":1305}],"when":{"timespans":[{"start":{"in":"1305"},"end":{"in":"1305"}},{"start":{"in":"1305"},"end":{"in":"1305"}}]}},{"toponym":"Burghfeld Regis et Abbatis","citations":[{"label":"1412 FA","year":1412}],"when":{"timespans":[{"start":{"in":"1412"},"end":{"in":"1412"}}]}},{"toponym":"Burghfelde Regis","citations":[{"label":"1441 BM","year":1441}],"when":{"timespans":[{"start":{"in":"1441"},"end":{"in":"1441"}}]}},{"toponym":"Burughfeld","citations":[{"label":"1474 Stonor","year":1474}],"when":{"timespans":[{"start":{"in":"1474"},"end":{"in":"1474"}}]}},{"toponym":"Burghfeld Regis","citations":[{"label":"1517 D Inc","year":1517}],"when":{"timespans":[{"start":{"in":"1517"},"end":{"in":"1517"}}]}},{"toponym":"Burwefeld","citations":[{"label":"c. 1280 BC","year":1270}],"when":{"timespans":[{"start":{"earliest":"1270","latest":"1290"},"end":{"earliest":"1270","latest":"1290"}}]}},{"toponym":"Burwefelde","citations":[{"label":"1300 Ipm","year":1300}],"when":{"timespans":[{"start":{"in":"1300"},"end":{"in":"1300"}}]}},{"toponym":"Burrefeld","citations":[{"label":"1343 Ch","year":1343}],"when":{"timespans":[{"start":{"in":"1343"},"end":{"in":"1343"}}]}},{"toponym":"Burefelde","citations":[{"label":"1348 AD","year":1348}],"when":{"timespans":[{"start":{"in":"1348"},"end":{"in":"1348"}}]}},{"toponym":"Burefeld","citations":[{"label":"1365 Cl","year":1365}],"when":{"timespans":[{"start":{"in":"1365"},"end":{"in":"1365"}}]}},{"toponym":"Burfelde","citations":[{"label":"1393 Cl","year":1393}],"when":{"timespans":[{"start":{"in":"1393"},"end":{"in":"1393"}}]}},{"toponym":"Barfeild","citations":[{"label":"l.14th Gor","year":1375}],"when":{"timespans":[{"start":{"earliest":"1375","latest":"1400"},"end":{"earliest":"1375","latest":"1400"}}]}},{"toponym":"Birefilde","citations":[{"label":"1393 AD","year":1393}],"when":{"timespans":[{"start":{"in":"1393"},"end":{"in":"1393"}}]}},{"toponym":"Berefeld","citations":[{"label":"1433 AD","year":1433}],"when":{"timespans":[{"start":{"in":"1433"},"end":{"in":"1433"}}]}},{"toponym":"Buryfeld","citations":[{"label":"1476 Cl","year":1476}],"when":{"timespans":[{"start":{"in":"1476"},"end":{"in":"1476"}}]}}],"types":[{"identifier":"http://vocab.getty.edu/aat/300232418","label":"administrative division","sourceLabels":[{"label":"township","lang":"en"}]}],"geometry":{"type":"GeometryCollection","geometries":[{"type":"Point","coordinates":[-1.04241,51.41131],"citations":[{"label":"GeoNames, gazetteer record geonames:2654301"}]},{"type":"Point","coordinates":[-1.043719391489923,51.41112430651045],"citations":[{"label":"Unlock (EDINA) gazetteer, gazetteer record unlock:11092683"}]},{"type":"Point","coordinates":[-1.0452,51.4116],"citations":[{"label":"Key to English Place-Names (KEPN), gazetteer record 3071"}]}]},"when":{"timespans":[{"start":{"in":"1086"},"end":{"in":"1600"}}]},"links":[{"type":"closeMatch","identifier":"https://sws.geonames.org/2654301/"}],"relations":[{"relationType":"gvp:broaderPartitive","relationTo":"https://w3id.org/whg-epns/49/014071","label":"within Burghfield"}]}]}