{"@context":"https://raw.githubusercontent.com/LinkedPasts/linked-places-format/main/linkedplaces-context-v1.1.jsonld","type":"FeatureCollection","license":"Digitisation of English Placenames MADS data is licensed to Jisc by the English Place Names Society and released under a Creative Commons Attribution-NonCommercial 4.0 International License.","note":"LPF v1.3, lossy; derived from the PLATO record; plato_commit=ca0afadabec1e23a145c0b03df77e8f151f79832","features":[{"@id":"http://placenames.org.uk/id/placename/49/014580","type":"Feature","properties":{"title":"Englefield","ccodes":["GB"],"fclasses":["A","P"]},"names":[{"toponym":"Englefield","lang":"en","citations":[{"label":"English Place-Name Society survey, volume 49: Berkshire"}]},{"toponym":"(on) Englafelda","citations":[{"label":"871 ASC","year":871}],"when":{"timespans":[{"start":{"in":"0871"},"end":{"in":"0871"}}]}},{"toponym":"Inglefelle, Englefel","citations":[{"label":"1086 DB","year":1086}],"when":{"timespans":[{"start":{"in":"1086"},"end":{"in":"1086"}}]}},{"toponym":"Englefeldia","citations":[{"label":"1154–1189, recurring AddCh","year":1154},{"label":"Hy 2 AddCh","year":1154}],"when":{"timespans":[{"start":{"in":"1154"},"end":{"in":"1189"}},{"start":{"earliest":"1154","latest":"1189"},"end":{"earliest":"1154","latest":"1189"}}]}},{"toponym":"Englefeld(e), Englefeld', Englef', Englefeud'","citations":[{"label":"Hy 2-1600 unspecified sources","year":1154}],"when":{"timespans":[{"start":{"in":"1154"},"end":{"in":"1600"}}]}},{"toponym":"Engelfed","citations":[{"label":"Hy 2 Gaimar","year":1154}],"when":{"timespans":[{"start":{"earliest":"1154","latest":"1189"},"end":{"earliest":"1154","latest":"1189"}}]}},{"toponym":"Engilfeld, Engefeld, Englesfeld","citations":[{"label":"1284 Ass","year":1284}],"when":{"timespans":[{"start":{"in":"1284"},"end":{"in":"1284"}}]}},{"toponym":"Eyngelfeld","citations":[{"label":"1330 AD","year":1330}],"when":{"timespans":[{"start":{"in":"1330"},"end":{"in":"1330"}}]}}],"types":[{"identifier":"http://vocab.getty.edu/aat/300232418","label":"administrative division","sourceLabels":[{"label":"township","lang":"en"}]}],"geometry":{"type":"GeometryCollection","geometries":[{"type":"Point","coordinates":[-1.10164,51.44251],"citations":[{"label":"GeoNames, gazetteer record geonames:2649993"}]},{"type":"Point","coordinates":[-1.100526203768461,51.44754547917334],"citations":[{"label":"Unlock (EDINA) gazetteer, gazetteer record unlock:11140095"}]},{"type":"Point","coordinates":[-1.10201,51.448],"citations":[{"label":"Key to English Place-Names (KEPN), gazetteer record 3072"}]}]},"when":{"timespans":[{"start":{"in":"0871"},"end":{"in":"1600"}}]},"links":[{"type":"closeMatch","identifier":"https://sws.geonames.org/2649993/"}],"relations":[{"relationType":"gvp:broaderPartitive","relationTo":"http://placenames.org.uk/id/placename/49/014579","label":"within Englefield"}]}]}