{"@context":"https://raw.githubusercontent.com/LinkedPasts/linked-places-format/main/linkedplaces-context-v1.1.jsonld","type":"FeatureCollection","license":"Digitisation of English Placenames MADS data is licensed to Jisc by the English Place Names Society and released under a Creative Commons Attribution-NonCommercial 4.0 International License.","note":"LPF v1.3, lossy; derived from the PLATO record; plato_commit=fa0d247ccc0263f8f19c8d7cdcd163df96935d1e","features":[{"@id":"https://w3id.org/whg-epns/49/015991","type":"Feature","properties":{"title":"Boxford","ccodes":["GB"],"fclasses":["A","P"]},"names":[{"toponym":"Boxford","lang":"en","citations":[{"label":"English Place-Name Society survey, volume 49: Berkshire"}]}],"types":[{"identifier":"http://vocab.getty.edu/aat/300232418","label":"administrative division","sourceLabels":[{"label":"parish","lang":"en"}]}],"geometry":{"type":"GeometryCollection","geometries":[{"type":"Point","coordinates":[-1.38406,51.44162],"citations":[{"label":"GeoNames, gazetteer record geonames:2655045"}]},{"type":"Point","coordinates":[-1.388456161443026,51.44040815917604],"citations":[{"label":"Unlock (EDINA) gazetteer, gazetteer record unlock:11084435"}]},{"type":"Point","coordinates":[-1.3899,51.4409],"citations":[{"label":"Key to English Place-Names (KEPN), gazetteer record 3084"}]}]},"links":[{"type":"closeMatch","identifier":"https://sws.geonames.org/2655045/"}],"relations":[{"relationType":"gvp:broaderPartitive","relationTo":"https://w3id.org/whg-epns/49/015921","label":"within Faircross Hundred"}]}]}