{"@context":"https://raw.githubusercontent.com/LinkedPasts/linked-places-format/main/linkedplaces-context-v1.1.jsonld","type":"FeatureCollection","license":"Digitisation of English Placenames MADS data is licensed to Jisc by the English Place Names Society and released under a Creative Commons Attribution-NonCommercial 4.0 International License.","note":"LPF v1.3, lossy; derived from the PLATO record; plato_commit=fa0d247ccc0263f8f19c8d7cdcd163df96935d1e","features":[{"@id":"https://w3id.org/whg-epns/49/016394","type":"Feature","properties":{"title":"Brimpton","ccodes":["GB"],"fclasses":["A","P"]},"names":[{"toponym":"Brimpton","lang":"en","citations":[{"label":"English Place-Name Society survey, volume 49: Berkshire"}]}],"types":[{"identifier":"http://vocab.getty.edu/aat/300232418","label":"administrative division","sourceLabels":[{"label":"parish","lang":"en"}]}],"geometry":{"type":"GeometryCollection","geometries":[{"type":"Point","coordinates":[-1.19794,51.37933],"citations":[{"label":"GeoNames, gazetteer record geonames:2654696"}]},{"type":"Point","coordinates":[-1.202508661810613,51.37634083257774],"citations":[{"label":"Unlock (EDINA) gazetteer, gazetteer record unlock:11087352"}]},{"type":"Point","coordinates":[-1.20397,51.3769],"citations":[{"label":"Key to English Place-Names (KEPN), gazetteer record 3086"}]}]},"links":[{"type":"closeMatch","identifier":"https://sws.geonames.org/2654696/"}],"relations":[{"relationType":"gvp:broaderPartitive","relationTo":"https://w3id.org/whg-epns/49/015921","label":"within Faircross Hundred"}]}]}