{"@context":"https://raw.githubusercontent.com/LinkedPasts/linked-places-format/main/linkedplaces-context-v1.1.jsonld","type":"FeatureCollection","license":"Digitisation of English Placenames MADS data is licensed to Jisc by the English Place Names Society and released under a Creative Commons Attribution-NonCommercial 4.0 International License.","note":"LPF v1.3, lossy; derived from the PLATO record; plato_commit=ca0afadabec1e23a145c0b03df77e8f151f79832","features":[{"@id":"http://placenames.org.uk/id/placename/49/016919","type":"Feature","properties":{"title":"Frilsham","ccodes":["GB"],"fclasses":["A","P"]},"names":[{"toponym":"Frilsham","lang":"en","citations":[{"label":"English Place-Name Society survey, volume 49: Berkshire"}]}],"types":[{"identifier":"http://vocab.getty.edu/aat/300232418","label":"administrative division","sourceLabels":[{"label":"parish","lang":"en"}]}],"geometry":{"type":"GeometryCollection","geometries":[{"type":"Point","coordinates":[-1.21665,51.45465],"citations":[{"label":"GeoNames, gazetteer record geonames:2649053"}]},{"type":"Point","coordinates":[-1.215492289808108,51.45736389206522],"citations":[{"label":"Unlock (EDINA) gazetteer, gazetteer record unlock:11148229"}]},{"type":"Point","coordinates":[-1.21696,51.4579],"citations":[{"label":"Key to English Place-Names (KEPN), gazetteer record 3089"}]}]},"links":[{"type":"closeMatch","identifier":"https://sws.geonames.org/2649053/"}],"relations":[{"relationType":"gvp:broaderPartitive","relationTo":"http://placenames.org.uk/id/placename/49/015921","label":"within Faircross Hundred"}]}]}