{"@context":"https://raw.githubusercontent.com/LinkedPasts/linked-places-format/main/linkedplaces-context-v1.1.jsonld","type":"FeatureCollection","license":"Digitisation of English Placenames MADS data is licensed to Jisc by the English Place Names Society and released under a Creative Commons Attribution-NonCommercial 4.0 International License.","note":"LPF v1.3, lossy; derived from the PLATO record; plato_commit=fa0d247ccc0263f8f19c8d7cdcd163df96935d1e","features":[{"@id":"https://w3id.org/whg-epns/49/019139","type":"Feature","properties":{"title":"Winterbourne","ccodes":["GB"],"fclasses":["A","P"]},"names":[{"toponym":"Winterbourne","lang":"en","citations":[{"label":"English Place-Name Society survey, volume 49: Berkshire"}]}],"types":[{"identifier":"http://vocab.getty.edu/aat/300232418","label":"administrative division","sourceLabels":[{"label":"parish","lang":"en"}]}],"geometry":{"type":"GeometryCollection","geometries":[{"type":"Point","coordinates":[-1.3466,51.44609],"citations":[{"label":"GeoNames, gazetteer record geonames:2633797"}]},{"type":"Point","coordinates":[-1.345162689144867,51.44916706204124],"citations":[{"label":"Unlock (EDINA) gazetteer, gazetteer record unlock:11324268"}]},{"type":"Point","coordinates":[-1.34661,51.4497],"citations":[{"label":"Key to English Place-Names (KEPN), gazetteer record 3101"}]}]},"links":[{"type":"closeMatch","identifier":"https://sws.geonames.org/2633797/"}],"relations":[{"relationType":"gvp:broaderPartitive","relationTo":"https://w3id.org/whg-epns/49/015921","label":"within Faircross Hundred"}]}]}