{"@context":"https://raw.githubusercontent.com/LinkedPasts/linked-places-format/main/linkedplaces-context-v1.1.jsonld","type":"FeatureCollection","license":"Digitisation of English Placenames MADS data is licensed to Jisc by the English Place Names Society and released under a Creative Commons Attribution-NonCommercial 4.0 International License.","note":"LPF v1.3, lossy; derived from the PLATO record; plato_commit=ca0afadabec1e23a145c0b03df77e8f151f79832","features":[{"@id":"http://placenames.org.uk/id/placename/67/001518","type":"Feature","properties":{"title":"Market Overton","ccodes":["GB"],"fclasses":["A","P"]},"names":[{"toponym":"Market Overton","lang":"en","citations":[{"label":"English Place-Name Society survey, volume 67: Rutland"}]}],"types":[{"identifier":"http://vocab.getty.edu/aat/300232418","label":"administrative division","sourceLabels":[{"label":"parish","lang":"en"}]}],"geometry":{"type":"GeometryCollection","geometries":[{"type":"Point","coordinates":[-0.6863,52.73806],"citations":[{"label":"GeoNames, gazetteer record geonames:2643024"}]},{"type":"Point","coordinates":[-0.6890247556013839,52.73853983583301],"citations":[{"label":"Unlock (EDINA) gazetteer, gazetteer record unlock:11213750"}]},{"type":"Point","coordinates":[-0.690603,52.7389],"citations":[{"label":"Key to English Place-Names (KEPN), gazetteer record 2973"}]}]},"links":[{"type":"closeMatch","identifier":"https://sws.geonames.org/2643024/"}],"relations":[{"relationType":"gvp:broaderPartitive","relationTo":"http://placenames.org.uk/id/placename/67/000002","label":"within Alstoe Hundred"}]}]}