{"@context":"https://raw.githubusercontent.com/LinkedPasts/linked-places-format/main/linkedplaces-context-v1.1.jsonld","type":"FeatureCollection","license":"Digitisation of English Placenames MADS data is licensed to Jisc by the English Place Names Society and released under a Creative Commons Attribution-NonCommercial 4.0 International License.","note":"LPF v1.3, lossy; derived from the PLATO record; plato_commit=fa0d247ccc0263f8f19c8d7cdcd163df96935d1e","features":[{"@id":"https://w3id.org/whg-epns/67/001702","type":"Feature","properties":{"title":"Stretton","ccodes":["GB"],"fclasses":["A","P"]},"names":[{"toponym":"Stretton","lang":"en","citations":[{"label":"English Place-Name Society survey, volume 67: Rutland"}]},{"toponym":"Stratune","citations":[{"label":"1086 DB","year":1086}],"when":{"timespans":[{"start":{"in":"1086"},"end":{"in":"1086"}}]}},{"toponym":"Straton(e)","citations":[{"label":"1086 DB","year":1086},{"label":"1208 P","year":1208},{"label":"1224 Cur","year":1224}],"when":{"timespans":[{"start":{"in":"1086"},"end":{"in":"1086"}},{"start":{"in":"1208"},"end":{"in":"1208"}},{"start":{"in":"1224"},"end":{"in":"1224"}}]}},{"toponym":"Stratton'","citations":[{"label":"1107 Reg","year":1107},{"label":"c1200 Templar","year":1190},{"label":"1208 P","year":1208},{"label":"RHug","year":1221},{"label":"Cl"},{"label":"1221 RHug","year":1221},{"label":"1503 Cl","year":1503}],"when":{"timespans":[{"start":{"in":"1107"},"end":{"in":"1107"}},{"start":{"earliest":"1190","latest":"1210"},"end":{"earliest":"1190","latest":"1210"}},{"start":{"in":"1208"},"end":{"in":"1208"}},{"start":{"in":"1221"},"end":{"in":"1503"}},{"start":{"in":"1221"},"end":{"in":"1221"}},{"start":{"in":"1503"},"end":{"in":"1503"}}]}},{"toponym":"Est Stratton'","citations":[{"label":"1306 Cl","year":1306}],"when":{"timespans":[{"start":{"in":"1306"},"end":{"in":"1306"}}]}},{"toponym":"Stretton(e)","citations":[{"label":"1176 P","year":1176},{"label":"Val","year":1254},{"label":"Pat"},{"label":"1254 Val","year":1254},{"label":"1280 Pat","year":1280},{"label":"1610 Speed","year":1610}],"when":{"timespans":[{"start":{"in":"1176"},"end":{"in":"1176"}},{"start":{"in":"1177"},"end":{"in":"1177"}},{"start":{"in":"1254"},"end":{"in":"1280"}},{"start":{"in":"1254"},"end":{"in":"1254"}},{"start":{"in":"1280"},"end":{"in":"1280"}},{"start":{"in":"1610"},"end":{"in":"1610"}}]}},{"toponym":"Stretton(e) bithe Strete","citations":[{"label":"1315 Pat","year":1315}],"when":{"timespans":[{"start":{"in":"1315"},"end":{"in":"1315"}}]}},{"toponym":"Stretton(e) in the Strete","citations":[{"label":"1400 Cl","year":1400},{"label":"1402 Pat","year":1402}],"when":{"timespans":[{"start":{"in":"1400"},"end":{"in":"1400"}},{"start":{"in":"1402"},"end":{"in":"1402"}}]}},{"toponym":"Stretton(e) in le Strete","citations":[{"label":"1543 LP","year":1543}],"when":{"timespans":[{"start":{"in":"1543"},"end":{"in":"1543"}}]}}],"types":[{"identifier":"http://vocab.getty.edu/aat/300232418","label":"administrative division","sourceLabels":[{"label":"township","lang":"en"}]}],"geometry":{"type":"GeometryCollection","geometries":[{"type":"Point","coordinates":[-0.60862,52.73997],"citations":[{"label":"GeoNames, gazetteer record geonames:7292240"}]},{"type":"Point","coordinates":[-0.6004609778665442,52.72853637021905],"citations":[{"label":"Unlock (EDINA) gazetteer, gazetteer record unlock:11294399"}]},{"type":"Point","coordinates":[-0.602049,52.7289],"citations":[{"label":"Key to English Place-Names (KEPN), gazetteer record 2974"}]}]},"when":{"timespans":[{"start":{"in":"1086"},"end":{"in":"1610"}}]},"links":[{"type":"closeMatch","identifier":"https://sws.geonames.org/7292240/"}],"relations":[{"relationType":"gvp:broaderPartitive","relationTo":"https://w3id.org/whg-epns/67/001701","label":"within Stretton"}]}]}