{"@context":"https://raw.githubusercontent.com/LinkedPasts/linked-places-format/main/linkedplaces-context-v1.1.jsonld","type":"FeatureCollection","license":"Digitisation of English Placenames MADS data is licensed to Jisc by the English Place Names Society and released under a Creative Commons Attribution-NonCommercial 4.0 International License.","note":"LPF v1.3, lossy; derived from the PLATO record; plato_commit=ca0afadabec1e23a145c0b03df77e8f151f79832","features":[{"@id":"http://placenames.org.uk/id/placename/67/006077","type":"Feature","properties":{"title":"Great Casterton","ccodes":["GB"],"fclasses":["A","P"]},"names":[{"toponym":"Great Casterton","lang":"en","citations":[{"label":"English Place-Name Society survey, volume 67: Rutland"}]},{"toponym":"Castreton(e)","citations":[{"label":"1086 DB","year":1086},{"label":"c1176 Dugd","year":1166},{"label":"1202–1371, recurring Ass","year":1202},{"label":"1202–1371, recurring ELiW"},{"label":"1202 Ass","year":1202},{"label":"1371 ELiW","year":1371}],"when":{"timespans":[{"start":{"in":"1086"},"end":{"in":"1086"}},{"start":{"earliest":"1166","latest":"1186"},"end":{"earliest":"1166","latest":"1186"}},{"start":{"in":"1202"},"end":{"in":"1371"}},{"start":{"in":"1202"},"end":{"in":"1202"}},{"start":{"in":"1371"},"end":{"in":"1371"}}]}},{"toponym":"Castretune","citations":[{"label":"1125-8 LNPetr","year":1125}],"when":{"timespans":[{"start":{"earliest":"1125","latest":"1128"},"end":{"earliest":"1125","latest":"1128"}}]}},{"toponym":"Casterton'","citations":[{"label":"1202–1254, recurring Ass","year":1202},{"label":"1202–1254, recurring Val"},{"label":"1202 Ass","year":1202},{"label":"1254 Val","year":1254},{"label":"1610 Speed","year":1610}],"when":{"timespans":[{"start":{"in":"1202"},"end":{"in":"1254"}},{"start":{"in":"1202"},"end":{"in":"1202"}},{"start":{"in":"1206"},"end":{"in":"1206"}},{"start":{"in":"1254"},"end":{"in":"1254"}},{"start":{"in":"1610"},"end":{"in":"1610"}}]}},{"toponym":"Kasterton'","citations":[{"label":"1274 RGrav","year":1274},{"label":"1288 For","year":1288}],"when":{"timespans":[{"start":{"in":"1274"},"end":{"in":"1274"}},{"start":{"in":"1288"},"end":{"in":"1288"}}]}},{"toponym":"Chasterton'","citations":[{"label":"1269 For","year":1269},{"label":"1321 Pat","year":1321},{"label":"1332 FF","year":1332}],"when":{"timespans":[{"start":{"in":"1269"},"end":{"in":"1269"}},{"start":{"in":"1321"},"end":{"in":"1321"}},{"start":{"in":"1332"},"end":{"in":"1332"}}]}},{"toponym":"Chastirton'","citations":[{"label":"1352 Cl","year":1352}],"when":{"timespans":[{"start":{"in":"1352"},"end":{"in":"1352"}}]}},{"toponym":"Cestreton","citations":[{"label":"1257 Ch","year":1257}],"when":{"timespans":[{"start":{"in":"1257"},"end":{"in":"1257"}}]}},{"toponym":"Cestretun'","citations":[{"label":"1225 Bracton","year":1225}],"when":{"timespans":[{"start":{"in":"1225"},"end":{"in":"1225"}}]}},{"toponym":"Magna -","citations":[{"label":"1218 For","year":1218},{"label":"1234 RHug","year":1234},{"label":"1305 FA","year":1305}],"when":{"timespans":[{"start":{"in":"1218"},"end":{"in":"1218"}},{"start":{"in":"1234"},"end":{"in":"1234"}},{"start":{"in":"1305"},"end":{"in":"1305"}},{"start":{"in":"1428"},"end":{"in":"1428"}}]}},{"toponym":"- Magna","citations":[{"label":"1292 OSut","year":1292},{"label":"1535 VE","year":1535}],"when":{"timespans":[{"start":{"in":"1292"},"end":{"in":"1292"}},{"start":{"in":"1535"},"end":{"in":"1535"}}]}},{"toponym":"- Maior","citations":[{"label":"1254 Val","year":1254},{"label":"1274 RGrav","year":1274},{"label":"1282 Ipm","year":1282}],"when":{"timespans":[{"start":{"in":"1254"},"end":{"in":"1254"}},{"start":{"in":"1274"},"end":{"in":"1274"}},{"start":{"in":"1282"},"end":{"in":"1282"}}]}},{"toponym":"- Majori(s)","citations":[{"label":"c1291 Tax","year":1281},{"label":"1428 FA","year":1428}],"when":{"timespans":[{"start":{"earliest":"1281","latest":"1301"},"end":{"earliest":"1281","latest":"1301"}},{"start":{"in":"1428"},"end":{"in":"1428"}}]}},{"toponym":"Brigg(e)-, Brygg(e)","citations":[{"label":"1265 Misc","year":1265},{"label":"1269–1476, recurring For","year":1269},{"label":"1269–1476, recurring Pat"},{"label":"1269 For","year":1269},{"label":"1476 Pat","year":1476}],"when":{"timespans":[{"start":{"in":"1265"},"end":{"in":"1265"}},{"start":{"in":"1269"},"end":{"in":"1476"}},{"start":{"in":"1269"},"end":{"in":"1269"}},{"start":{"in":"1476"},"end":{"in":"1476"}}]}},{"toponym":"Brig-","citations":[{"label":"Hy 3 TT","year":1216},{"label":"1370 Cl","year":1370},{"label":"1393–1539, recurring FF","year":1393},{"label":"1393–1539, recurring Rut"},{"label":"1393 FF","year":1393},{"label":"1539 Rut","year":1539},{"label":"1576 Saxton","year":1576}],"when":{"timespans":[{"start":{"earliest":"1216","latest":"1272"},"end":{"earliest":"1216","latest":"1272"}},{"start":{"in":"1370"},"end":{"in":"1370"}},{"start":{"in":"1393"},"end":{"in":"1539"}},{"start":{"in":"1393"},"end":{"in":"1393"}},{"start":{"in":"1539"},"end":{"in":"1539"}},{"start":{"in":"1576"},"end":{"in":"1576"}}]}},{"toponym":"Bridge -","citations":[{"label":"1610 Speed","year":1610},{"label":"1642 Recov","year":1642}],"when":{"timespans":[{"start":{"in":"1610"},"end":{"in":"1610"}},{"start":{"in":"1642"},"end":{"in":"1642"}}]}},{"toponym":"Great or Bridge -","citations":[{"label":"1824 O","year":1824}],"when":{"timespans":[{"start":{"in":"1824"},"end":{"in":"1824"}}]}}],"types":[{"identifier":"http://vocab.getty.edu/aat/300232418","label":"administrative division","sourceLabels":[{"label":"township","lang":"en"}]}],"geometry":{"type":"GeometryCollection","geometries":[{"type":"Point","coordinates":[-0.52694,52.68421],"citations":[{"label":"GeoNames, gazetteer record geonames:7292231"}]},{"type":"Point","coordinates":[-0.513771724429335,52.66454110561572],"citations":[{"label":"Unlock (EDINA) gazetteer, gazetteer record unlock:11158574"}]},{"type":"Point","coordinates":[-0.515368,52.6649],"citations":[{"label":"Key to English Place-Names (KEPN), gazetteer record 2990"}]}]},"when":{"timespans":[{"start":{"in":"1086"},"end":{"in":"1824"}}]},"links":[{"type":"closeMatch","identifier":"https://sws.geonames.org/7292231/"}],"relations":[{"relationType":"gvp:broaderPartitive","relationTo":"http://placenames.org.uk/id/placename/67/006076","label":"within Great Casterton"}]}]}