{"@context":"https://raw.githubusercontent.com/LinkedPasts/linked-places-format/main/linkedplaces-context-v1.1.jsonld","type":"FeatureCollection","license":"Digitisation of English Placenames MADS data is licensed to Jisc by the English Place Names Society and released under a Creative Commons Attribution-NonCommercial 4.0 International License.","note":"LPF v1.3, lossy; derived from the PLATO record; plato_commit=ca0afadabec1e23a145c0b03df77e8f151f79832","features":[{"@id":"http://placenames.org.uk/id/placename/67/007003","type":"Feature","properties":{"title":"Ketton","ccodes":["GB"],"fclasses":["A","P"]},"names":[{"toponym":"Ketton","lang":"en","citations":[{"label":"English Place-Name Society survey, volume 67: Rutland"}]}],"types":[{"identifier":"http://vocab.getty.edu/aat/300232418","label":"administrative division","sourceLabels":[{"label":"parish","lang":"en"}]}],"geometry":{"type":"GeometryCollection","geometries":[{"type":"Point","coordinates":[-0.55459,52.62804],"citations":[{"label":"GeoNames, gazetteer record geonames:2645741"}]},{"type":"Point","coordinates":[-0.5593034328804177,52.62913740177448],"citations":[{"label":"Unlock (EDINA) gazetteer, gazetteer record unlock:11185646"}]},{"type":"Point","coordinates":[-0.546123,52.6293],"citations":[{"label":"Key to English Place-Names (KEPN), gazetteer record 2994"}]}]},"links":[{"type":"closeMatch","identifier":"https://sws.geonames.org/2645741/"}],"relations":[{"relationType":"gvp:broaderPartitive","relationTo":"http://placenames.org.uk/id/placename/67/006069","label":"within East Hundred"}]}]}