{"@context":"https://raw.githubusercontent.com/LinkedPasts/linked-places-format/main/linkedplaces-context-v1.1.jsonld","type":"FeatureCollection","license":"Digitisation of English Placenames MADS data is licensed to Jisc by the English Place Names Society and released under a Creative Commons Attribution-NonCommercial 4.0 International License.","note":"LPF v1.3, lossy; derived from the PLATO record; plato_commit=ca0afadabec1e23a145c0b03df77e8f151f79832","features":[{"@id":"https://w3id.org/whg-epns/09/000547","type":"Feature","properties":{"title":"George Nympton","ccodes":["GB"],"fclasses":["A","P"]},"names":[{"toponym":"George Nympton","lang":"en","citations":[{"label":"English Place-Name Society survey, volume 9: Devon"}]},{"toponym":"Limet, Nimet","citations":[{"label":"1086 DB","year":1086}],"when":{"timespans":[{"start":{"in":"1086"},"end":{"in":"1086"}}]}},{"toponym":"Nimet","citations":[{"label":"1249 Ipm","year":1249}],"when":{"timespans":[{"start":{"in":"1249"},"end":{"in":"1249"}}]}},{"toponym":"Nymet(h) Scī Georgii","citations":[{"label":"1281 Ass","year":1281},{"label":"1291 Tax","year":1291},{"label":"1308 Exon","year":1308}],"when":{"timespans":[{"start":{"in":"1281"},"end":{"in":"1281"}},{"start":{"in":"1291"},"end":{"in":"1291"}},{"start":{"in":"1308"},"end":{"in":"1308"}}]}},{"toponym":"Nimid Scī Georgii","citations":[{"label":"1326 Orig","year":1326}],"when":{"timespans":[{"start":{"in":"1326"},"end":{"in":"1326"}}]}},{"toponym":"Nymet Georgii","citations":[{"label":"1345 Exon","year":1345}],"when":{"timespans":[{"start":{"in":"1345"},"end":{"in":"1345"}}]}},{"toponym":"George Nemyton","citations":[{"label":"1523 SR","year":1523}],"when":{"timespans":[{"start":{"in":"1523"},"end":{"in":"1523"}}]}}],"types":[{"identifier":"http://vocab.getty.edu/aat/300232418","label":"administrative division","sourceLabels":[{"label":"township","lang":"en"}]}],"geometry":{"type":"GeometryCollection","geometries":[{"type":"Point","coordinates":[-3.85321,50.992],"citations":[{"label":"GeoNames, gazetteer record geonames:2648719"}]},{"type":"Point","coordinates":[-3.845604044421642,50.99576374745894],"citations":[{"label":"Unlock (EDINA) gazetteer, gazetteer record unlock:11151902"}]},{"type":"Point","coordinates":[-3.84675,50.9963],"citations":[{"label":"Key to English Place-Names (KEPN), gazetteer record 15676"}]}]},"when":{"timespans":[{"start":{"in":"1086"},"end":{"in":"1523"}}]},"links":[{"type":"closeMatch","identifier":"https://sws.geonames.org/2648719/"}],"relations":[{"relationType":"gvp:broaderPartitive","relationTo":"https://w3id.org/whg-epns/09/000546","label":"within George Nympton"}]}]}