{"@context":"https://raw.githubusercontent.com/LinkedPasts/linked-places-format/main/linkedplaces-context-v1.1.jsonld","type":"FeatureCollection","license":"Digitisation of English Placenames MADS data is licensed to Jisc by the English Place Names Society and released under a Creative Commons Attribution-NonCommercial 4.0 International License.","note":"LPF v1.3, lossy; derived from the PLATO record; plato_commit=ca0afadabec1e23a145c0b03df77e8f151f79832","features":[{"@id":"https://w3id.org/whg-epns/09/000714","type":"Feature","properties":{"title":"Bishop's Tawton","ccodes":["GB"],"fclasses":["A","P"]},"names":[{"toponym":"Bishop's Tawton","lang":"en","citations":[{"label":"English Place-Name Society survey, volume 9: Devon"}]},{"toponym":"Tautona","citations":[{"label":"1086 DB","year":1086}],"when":{"timespans":[{"start":{"in":"1086"},"end":{"in":"1086"}}]}},{"toponym":"Tawatonam","citations":[{"label":"c. 1150 Launceston","year":1140}],"when":{"timespans":[{"start":{"earliest":"1140","latest":"1160"},"end":{"earliest":"1140","latest":"1160"}}]}},{"toponym":"Tautone Episcopi","citations":[{"label":"1284 Exon","year":1284}],"when":{"timespans":[{"start":{"in":"1284"},"end":{"in":"1284"}}]}},{"toponym":"Bisshopestautone","citations":[{"label":"1374 Exon","year":1374}],"when":{"timespans":[{"start":{"in":"1374"},"end":{"in":"1374"}}]}},{"toponym":"Toweton Bishop","citations":[{"label":"1398 Pat","year":1398}],"when":{"timespans":[{"start":{"in":"1398"},"end":{"in":"1398"}}]}},{"toponym":"Tawton Bushoppe","citations":[{"label":"1559 Wills","year":1559}],"when":{"timespans":[{"start":{"in":"1559"},"end":{"in":"1559"}}]}}],"types":[{"identifier":"http://vocab.getty.edu/aat/300232418","label":"administrative division","sourceLabels":[{"label":"township","lang":"en"}]}],"geometry":{"type":"GeometryCollection","geometries":[{"type":"Point","coordinates":[-4.02092,51.0382],"citations":[{"label":"GeoNames, gazetteer record geonames:7293321"}]},{"type":"Point","coordinates":[-4.047770462806807,51.05535505690501],"citations":[{"label":"Unlock (EDINA) gazetteer, gazetteer record unlock:11078084"}]},{"type":"Point","coordinates":[-4.0489,51.0559],"citations":[{"label":"Key to English Place-Names (KEPN), gazetteer record 15680"}]}]},"when":{"timespans":[{"start":{"in":"1086"},"end":{"in":"1559"}}]},"links":[{"type":"closeMatch","identifier":"https://sws.geonames.org/7293321/"}],"relations":[{"relationType":"gvp:broaderPartitive","relationTo":"https://w3id.org/whg-epns/09/000713","label":"within Bishop's Tawton"}]}]}