{"@context":"https://raw.githubusercontent.com/LinkedPasts/linked-places-format/main/linkedplaces-context-v1.1.jsonld","type":"FeatureCollection","license":"Digitisation of English Placenames MADS data is licensed to Jisc by the English Place Names Society and released under a Creative Commons Attribution-NonCommercial 4.0 International License.","note":"LPF v1.3, lossy; derived from the PLATO record; plato_commit=ca0afadabec1e23a145c0b03df77e8f151f79832","features":[{"@id":"https://w3id.org/whg-epns/09/000811","type":"Feature","properties":{"title":"Ashreigney","ccodes":["GB"],"fclasses":["A","P"]},"names":[{"toponym":"Ashreigney","lang":"en","citations":[{"label":"English Place-Name Society survey, volume 9: Devon"}]},{"toponym":"Aissa","citations":[{"label":"1086 DB","year":1086}],"when":{"timespans":[{"start":{"in":"1086"},"end":{"in":"1086"}}]}},{"toponym":"Esse","citations":[{"label":"1219 FF","year":1219}],"when":{"timespans":[{"start":{"in":"1219"},"end":{"in":"1219"}}]}},{"toponym":"Esshereingni","citations":[{"label":"1238 Ass","year":1238}],"when":{"timespans":[{"start":{"in":"1238"},"end":{"in":"1238"}}]}},{"toponym":"Esshe Reygny","citations":[{"label":"1283 Ipm","year":1283}],"when":{"timespans":[{"start":{"in":"1283"},"end":{"in":"1283"}}]}},{"toponym":"Esshe Reyny","citations":[{"label":"1284 Ass","year":1284}],"when":{"timespans":[{"start":{"in":"1284"},"end":{"in":"1284"}}]}},{"toponym":"Esshe Regni","citations":[{"label":"1291 Tax","year":1291}],"when":{"timespans":[{"start":{"in":"1291"},"end":{"in":"1291"}}]}},{"toponym":"Esshe Regnie","citations":[{"label":"1314 Ipm","year":1314}],"when":{"timespans":[{"start":{"in":"1314"},"end":{"in":"1314"}}]}},{"toponym":"Esshe Regine","citations":[{"label":"1440 IpmR","year":1440}],"when":{"timespans":[{"start":{"in":"1440"},"end":{"in":"1440"}}]}},{"toponym":"Ringgesashe","citations":[{"label":"1306 Exon","year":1306}],"when":{"timespans":[{"start":{"in":"1306"},"end":{"in":"1306"}}]}},{"toponym":"Regnysasshe","citations":[{"label":"1381 Exon","year":1381}],"when":{"timespans":[{"start":{"in":"1381"},"end":{"in":"1381"}}]}},{"toponym":"Rynggesasche","citations":[{"label":"1312 Exon","year":1312}],"when":{"timespans":[{"start":{"in":"1312"},"end":{"in":"1312"}}]}},{"toponym":"Ashreigney oth. Ringsaish","citations":[{"label":"1739 Recov","year":1739}],"when":{"timespans":[{"start":{"in":"1739"},"end":{"in":"1739"}}]}}],"types":[{"identifier":"http://vocab.getty.edu/aat/300232418","label":"administrative division","sourceLabels":[{"label":"township","lang":"en"}]}],"geometry":{"type":"GeometryCollection","geometries":[{"type":"Point","coordinates":[-3.95097,50.90613],"citations":[{"label":"GeoNames, gazetteer record geonames:2656926"}]},{"type":"Point","coordinates":[-3.955772020280779,50.90402653626358],"citations":[{"label":"Unlock (EDINA) gazetteer, gazetteer record unlock:11064674"}]},{"type":"Point","coordinates":[-3.94269,50.9048],"citations":[{"label":"Key to English Place-Names (KEPN), gazetteer record 15682"}]}]},"when":{"timespans":[{"start":{"in":"1086"},"end":{"in":"1739"}}]},"links":[{"type":"closeMatch","identifier":"https://sws.geonames.org/2656926/"}],"relations":[{"relationType":"gvp:broaderPartitive","relationTo":"https://w3id.org/whg-epns/09/000810","label":"within Ashreigney"}]}]}