{"@context":"https://raw.githubusercontent.com/LinkedPasts/linked-places-format/main/linkedplaces-context-v1.1.jsonld","type":"FeatureCollection","license":"Digitisation of English Placenames MADS data is licensed to Jisc by the English Place Names Society and released under a Creative Commons Attribution-NonCommercial 4.0 International License.","note":"LPF v1.3, lossy; derived from the PLATO record; plato_commit=ca0afadabec1e23a145c0b03df77e8f151f79832","features":[{"@id":"http://placenames.org.uk/id/placename/09/001831","type":"Feature","properties":{"title":"Mariansleigh","ccodes":["GB"],"fclasses":["A","P"]},"names":[{"toponym":"Mariansleigh","lang":"en","citations":[{"label":"English Place-Name Society survey, volume 9: Devon"}]}],"types":[{"identifier":"http://vocab.getty.edu/aat/300232418","label":"administrative division","sourceLabels":[{"label":"parish","lang":"en"}]}],"geometry":{"type":"GeometryCollection","geometries":[{"type":"Point","coordinates":[-3.7903,50.98421],"citations":[{"label":"GeoNames, gazetteer record geonames:2643038"}]},{"type":"Point","coordinates":[-3.788281573914367,50.98766127287918],"citations":[{"label":"Unlock (EDINA) gazetteer, gazetteer record unlock:11213677"}]},{"type":"Point","coordinates":[-3.78944,50.9882],"citations":[{"label":"Key to English Place-Names (KEPN), gazetteer record 15706"}]}]},"links":[{"type":"closeMatch","identifier":"https://sws.geonames.org/2643038/"}],"relations":[{"relationType":"gvp:broaderPartitive","relationTo":"http://placenames.org.uk/id/placename/09/001604","label":"within Witheridge Hundred"}]}]}