{"@context":"https://raw.githubusercontent.com/LinkedPasts/linked-places-format/main/linkedplaces-context-v1.1.jsonld","type":"FeatureCollection","license":"Digitisation of English Placenames MADS data is licensed to Jisc by the English Place Names Society and released under a Creative Commons Attribution-NonCommercial 4.0 International License.","note":"LPF v1.3, lossy; derived from the PLATO record; plato_commit=ca0afadabec1e23a145c0b03df77e8f151f79832","features":[{"@id":"https://w3id.org/whg-epns/09/002341","type":"Feature","properties":{"title":"Stoodleigh","ccodes":["GB"],"fclasses":["A","P"]},"names":[{"toponym":"Stoodleigh","lang":"en","citations":[{"label":"English Place-Name Society survey, volume 9: Devon"}]},{"toponym":"Estodleia, Estolleia","citations":[{"label":"1086 Exon","year":1086}],"when":{"timespans":[{"start":{"in":"1086"},"end":{"in":"1086"}}]}},{"toponym":"Stodlei, Stollei","citations":[{"label":"1086 Exch","year":1086}],"when":{"timespans":[{"start":{"in":"1086"},"end":{"in":"1086"}}]}},{"toponym":"Stodleg(he)","citations":[{"label":"1205–1373, recurring FF","year":1205},{"label":"1205–1373, recurring Exon"},{"label":"1205 FF","year":1205},{"label":"1373 Exon","year":1373}],"when":{"timespans":[{"start":{"in":"1205"},"end":{"in":"1373"}},{"start":{"in":"1205"},"end":{"in":"1205"}},{"start":{"in":"1373"},"end":{"in":"1373"}}]}},{"toponym":"Eststodlegh, Weststodlegh","citations":[{"label":"1242 Fees","year":1242}],"when":{"timespans":[{"start":{"in":"1242"},"end":{"in":"1242"}}]}},{"toponym":"Est Stodelegh","citations":[{"label":"1326 Ipm","year":1326}],"when":{"timespans":[{"start":{"in":"1326"},"end":{"in":"1326"}}]}},{"toponym":"Stowdeleighe","citations":[{"label":"1550 Pat","year":1550}],"when":{"timespans":[{"start":{"in":"1550"},"end":{"in":"1550"}}]}},{"toponym":"Stouleghe","citations":[{"label":"1264 Exon","year":1264}],"when":{"timespans":[{"start":{"in":"1264"},"end":{"in":"1264"}}]}},{"toponym":"Studley","citations":[{"label":"1675 Ogilby","year":1675}],"when":{"timespans":[{"start":{"in":"1675"},"end":{"in":"1675"}}]}}],"types":[{"identifier":"http://vocab.getty.edu/aat/300232418","label":"administrative division","sourceLabels":[{"label":"township","lang":"en"}]}],"geometry":{"type":"GeometryCollection","geometries":[{"type":"Point","coordinates":[-3.53627,50.9588],"citations":[{"label":"GeoNames, gazetteer record geonames:2636794"}]},{"type":"Point","coordinates":[-3.530718402811647,50.955344857247],"citations":[{"label":"Unlock (EDINA) gazetteer, gazetteer record unlock:11293526"}]},{"type":"Point","coordinates":[-3.5319,50.9559],"citations":[{"label":"Key to English Place-Names (KEPN), gazetteer record 15715"}]}]},"when":{"timespans":[{"start":{"in":"1086"},"end":{"in":"1675"}}]},"links":[{"type":"closeMatch","identifier":"https://sws.geonames.org/2636794/"}],"relations":[{"relationType":"gvp:broaderPartitive","relationTo":"https://w3id.org/whg-epns/09/002340","label":"within Stoodleigh"}]}]}