{"@context":"https://raw.githubusercontent.com/LinkedPasts/linked-places-format/main/linkedplaces-context-v1.1.jsonld","type":"FeatureCollection","license":"Digitisation of English Placenames MADS data is licensed to Jisc by the English Place Names Society and released under a Creative Commons Attribution-NonCommercial 4.0 International License.","note":"LPF v1.3, lossy; derived from the PLATO record; plato_commit=ca0afadabec1e23a145c0b03df77e8f151f79832","features":[{"@id":"http://placenames.org.uk/id/placename/09/003885","type":"Feature","properties":{"title":"Drewsteignton","ccodes":["GB"],"fclasses":["A","P"]},"names":[{"toponym":"Drewsteignton","lang":"en","citations":[{"label":"English Place-Name Society survey, volume 9: Devon"}]},{"toponym":"Taintona","citations":[{"label":"1086 DB","year":1086}],"when":{"timespans":[{"start":{"in":"1086"},"end":{"in":"1086"}}]}},{"toponym":"Teintun","citations":[{"label":"1235 BM","year":1235}],"when":{"timespans":[{"start":{"in":"1235"},"end":{"in":"1235"}}]}},{"toponym":"Teinton","citations":[{"label":"1238 Ass","year":1238}],"when":{"timespans":[{"start":{"in":"1238"},"end":{"in":"1238"}}]}},{"toponym":"Teynton","citations":[{"label":"1244 FF","year":1244}],"when":{"timespans":[{"start":{"in":"1244"},"end":{"in":"1244"}}]}},{"toponym":"Teyngton Drue","citations":[{"label":"1275 RH","year":1275}],"when":{"timespans":[{"start":{"in":"1275"},"end":{"in":"1275"}}]}},{"toponym":"Druesteynton","citations":[{"label":"t. Ed 1 BM","year":1272}],"when":{"timespans":[{"start":{"earliest":"1272","latest":"1307"},"end":{"earliest":"1272","latest":"1307"}}]}},{"toponym":"Druesteyngton","citations":[{"label":"1327 Ass","year":1327}],"when":{"timespans":[{"start":{"in":"1327"},"end":{"in":"1327"}}]}},{"toponym":"Driuisteynton","citations":[{"label":"1342 Pat","year":1342}],"when":{"timespans":[{"start":{"in":"1342"},"end":{"in":"1342"}}]}},{"toponym":"Drewstenton","citations":[{"label":"1623 Wills","year":1623}],"when":{"timespans":[{"start":{"in":"1623"},"end":{"in":"1623"}}]}}],"types":[{"identifier":"http://vocab.getty.edu/aat/300232418","label":"administrative division","sourceLabels":[{"label":"township","lang":"en"}]}],"geometry":{"type":"GeometryCollection","geometries":[{"type":"Point","coordinates":[-3.79219,50.70377],"citations":[{"label":"GeoNames, gazetteer record geonames:2650992"}]},{"type":"Point","coordinates":[-3.7918129552709,50.70878069696408],"citations":[{"label":"Unlock (EDINA) gazetteer, gazetteer record unlock:11131745"}]},{"type":"Point","coordinates":[-3.79262,50.7003],"citations":[{"label":"Key to English Place-Names (KEPN), gazetteer record 15741"}]}]},"when":{"timespans":[{"start":{"in":"1086"},"end":{"in":"1623"}}]},"links":[{"type":"closeMatch","identifier":"https://sws.geonames.org/2650992/"}],"relations":[{"relationType":"gvp:broaderPartitive","relationTo":"http://placenames.org.uk/id/placename/09/003884","label":"within Drewsteignton"}]}]}