{"@context":"https://raw.githubusercontent.com/LinkedPasts/linked-places-format/main/linkedplaces-context-v1.1.jsonld","type":"FeatureCollection","license":"Digitisation of English Placenames MADS data is licensed to Jisc by the English Place Names Society and released under a Creative Commons Attribution-NonCommercial 4.0 International License.","note":"LPF v1.3, lossy; derived from the PLATO record; plato_commit=ca0afadabec1e23a145c0b03df77e8f151f79832","features":[{"@id":"http://placenames.org.uk/id/placename/09/004606","type":"Feature","properties":{"title":"Tedburn St Mary","ccodes":["GB"],"fclasses":["A","P"]},"names":[{"toponym":"Tedburn St Mary","lang":"en","citations":[{"label":"English Place-Name Society survey, volume 9: Devon"}]},{"toponym":"Tettaborna","citations":[{"label":"c. 1120 Earle","year":1110}],"when":{"timespans":[{"start":{"earliest":"1110","latest":"1130"},"end":{"earliest":"1110","latest":"1130"}}]}},{"toponym":"Teteborna","citations":[{"label":"1086 DB","year":1086}],"when":{"timespans":[{"start":{"in":"1086"},"end":{"in":"1086"}}]}},{"toponym":"Tetteburn(e)","citations":[{"label":"1234 Fees","year":1234},{"label":"1242 Fees","year":1242}],"when":{"timespans":[{"start":{"in":"1234"},"end":{"in":"1234"}},{"start":{"in":"1242"},"end":{"in":"1242"}}]}},{"toponym":"Tettesburne","citations":[{"label":"1266 Ass","year":1266}],"when":{"timespans":[{"start":{"in":"1266"},"end":{"in":"1266"}}]}},{"toponym":"Sct. Marytedborne","citations":[{"label":"1577 Saxton","year":1577}],"when":{"timespans":[{"start":{"in":"1577"},"end":{"in":"1577"}}]}},{"toponym":"Tytteburn' juxta Crydinton","citations":[{"label":"1294 Ass","year":1294}],"when":{"timespans":[{"start":{"in":"1294"},"end":{"in":"1294"}}]}}],"types":[{"identifier":"http://vocab.getty.edu/aat/300232418","label":"administrative division","sourceLabels":[{"label":"township","lang":"en"}]}],"geometry":{"type":"GeometryCollection","geometries":[{"type":"Point","coordinates":[-3.679514444451654,50.73743636959194],"citations":[{"label":"Unlock (EDINA) gazetteer, gazetteer record unlock:11298359"}]},{"type":"Point","coordinates":[-3.68035,50.729],"citations":[{"label":"Key to English Place-Names (KEPN), gazetteer record 15759"}]}]},"when":{"timespans":[{"start":{"in":"1086"},"end":{"in":"1577"}}]},"relations":[{"relationType":"gvp:broaderPartitive","relationTo":"http://placenames.org.uk/id/placename/09/004605","label":"within Tedburn St Mary"}]}]}