{"@context":"https://raw.githubusercontent.com/LinkedPasts/linked-places-format/main/linkedplaces-context-v1.1.jsonld","type":"FeatureCollection","license":"Digitisation of English Placenames MADS data is licensed to Jisc by the English Place Names Society and released under a Creative Commons Attribution-NonCommercial 4.0 International License.","note":"LPF v1.3, lossy; derived from the PLATO record; plato_commit=ca0afadabec1e23a145c0b03df77e8f151f79832","features":[{"@id":"https://w3id.org/whg-epns/09/004932","type":"Feature","properties":{"title":"Stokeinteignhead","ccodes":["GB"],"fclasses":["A","P"]},"names":[{"toponym":"Stokeinteignhead","lang":"en","citations":[{"label":"English Place-Name Society survey, volume 9: Devon"}]},{"toponym":"Stoches","citations":[{"label":"1086 DB","year":1086}],"when":{"timespans":[{"start":{"in":"1086"},"end":{"in":"1086"}}]}},{"toponym":"Stokes","citations":[{"label":"1242 Fees","year":1242}],"when":{"timespans":[{"start":{"in":"1242"},"end":{"in":"1242"}}]}},{"toponym":"Stokes in Tynhide","citations":[{"label":"1279 Exon","year":1279}],"when":{"timespans":[{"start":{"in":"1279"},"end":{"in":"1279"}}]}},{"toponym":"Stok in Tynhyde","citations":[{"label":"1285 FA","year":1285}],"when":{"timespans":[{"start":{"in":"1285"},"end":{"in":"1285"}}]}},{"toponym":"Stokeyntynhede","citations":[{"label":"1492 Ipm","year":1492}],"when":{"timespans":[{"start":{"in":"1492"},"end":{"in":"1492"}}]}},{"toponym":"Stoken Teynhed","citations":[{"label":"1540 Recov","year":1540}],"when":{"timespans":[{"start":{"in":"1540"},"end":{"in":"1540"}}]}},{"toponym":"Stokentynhedde al. Stoke next Tynhedde","citations":[{"label":"t. Eliz ChancP","year":1558}],"when":{"timespans":[{"start":{"earliest":"1558","latest":"1603"},"end":{"earliest":"1558","latest":"1603"}}]}},{"toponym":"Stockinge Tynid","citations":[{"label":"t. Eliz ChancP","year":1558}],"when":{"timespans":[{"start":{"earliest":"1558","latest":"1603"},"end":{"earliest":"1558","latest":"1603"}}]}}],"types":[{"identifier":"http://vocab.getty.edu/aat/300232418","label":"administrative division","sourceLabels":[{"label":"township","lang":"en"}]}],"geometry":{"type":"GeometryCollection","geometries":[{"type":"Point","coordinates":[-3.53045,50.5243],"citations":[{"label":"GeoNames, gazetteer record geonames:2636848"}]},{"type":"Point","coordinates":[-3.530815083273669,50.52361634729966],"citations":[{"label":"Unlock (EDINA) gazetteer, gazetteer record unlock:11292826"}]},{"type":"Point","coordinates":[-3.53199,50.5242],"citations":[{"label":"Key to English Place-Names (KEPN), gazetteer record 15768"}]}]},"when":{"timespans":[{"start":{"in":"1086"},"end":{"in":"1603"}}]},"links":[{"type":"closeMatch","identifier":"https://sws.geonames.org/2636848/"}],"relations":[{"relationType":"gvp:broaderPartitive","relationTo":"https://w3id.org/whg-epns/09/004931","label":"within Stokeinteignhead"}]}]}