{"@context":"https://raw.githubusercontent.com/LinkedPasts/linked-places-format/main/linkedplaces-context-v1.1.jsonld","type":"FeatureCollection","license":"Digitisation of English Placenames MADS data is licensed to Jisc by the English Place Names Society and released under a Creative Commons Attribution-NonCommercial 4.0 International License.","note":"LPF v1.3, lossy; derived from the PLATO record; plato_commit=ca0afadabec1e23a145c0b03df77e8f151f79832","features":[{"@id":"https://w3id.org/whg-epns/09/004980","type":"Feature","properties":{"title":"East and West Ogwell","ccodes":["GB"],"fclasses":["A","P"]},"names":[{"toponym":"East and West Ogwell","lang":"en","citations":[{"label":"English Place-Name Society survey, volume 9: Devon"}]},{"toponym":"(to) woggan wylle","citations":[{"label":"956 BCS","year":956}],"when":{"timespans":[{"start":{"in":"0956"},"end":{"in":"0956"}}]}},{"toponym":"(oð) wocga willes (hafod), (oþ) wogga will (lacu), (of) wocgga willes (heafde)","citations":[{"label":"10th BCS","year":900}],"when":{"timespans":[{"start":{"earliest":"0900","latest":"1000"},"end":{"earliest":"0900","latest":"1000"}}]}},{"toponym":"Oghawillæ, Oghawille, Woguwel, Wogewil","citations":[{"label":"1086 DB (Exon)","year":1086}],"when":{"timespans":[{"start":{"in":"1086"},"end":{"in":"1086"}}]}},{"toponym":"Wogwel","citations":[{"label":"1086 Exch","year":1086}],"when":{"timespans":[{"start":{"in":"1086"},"end":{"in":"1086"}}]}},{"toponym":"Wogewill'","citations":[{"label":"1242 Fees","year":1242}],"when":{"timespans":[{"start":{"in":"1242"},"end":{"in":"1242"}}]}},{"toponym":"Westwogewill', Estwogewill'","citations":[{"label":"1242 Fees","year":1242}],"when":{"timespans":[{"start":{"in":"1242"},"end":{"in":"1242"}}]}},{"toponym":"Estwoggewill","citations":[{"label":"1275 RH","year":1275}],"when":{"timespans":[{"start":{"in":"1275"},"end":{"in":"1275"}}]}},{"toponym":"Eastwogewelle, Westwogewelle","citations":[{"label":"1278 Ipm","year":1278}],"when":{"timespans":[{"start":{"in":"1278"},"end":{"in":"1278"}}]}},{"toponym":"Estwoghwill","citations":[{"label":"1285 FA","year":1285}],"when":{"timespans":[{"start":{"in":"1285"},"end":{"in":"1285"}}]}},{"toponym":"Wogwell","citations":[{"label":"1675 Ogilby","year":1675}],"when":{"timespans":[{"start":{"in":"1675"},"end":{"in":"1675"}}]}},{"toponym":"Estwugwyll","citations":[{"label":"1244 Ass","year":1244}],"when":{"timespans":[{"start":{"in":"1244"},"end":{"in":"1244"}}]}},{"toponym":"Wugewell","citations":[{"label":"1249 Ass","year":1249}],"when":{"timespans":[{"start":{"in":"1249"},"end":{"in":"1249"}}]}},{"toponym":"Estwogwille, Estwokewelle","citations":[{"label":"1258-72 Exon","year":1258}],"when":{"timespans":[{"start":{"earliest":"1258","latest":"1272"},"end":{"earliest":"1258","latest":"1272"}}]}}],"types":[{"identifier":"http://vocab.getty.edu/aat/300232418","label":"administrative division","sourceLabels":[{"label":"township","lang":"en"}]}],"geometry":{"type":"Point","coordinates":[-3.6307,50.5229],"citations":[{"label":"Key to English Place-Names (KEPN), gazetteer record 15769"}]},"when":{"timespans":[{"start":{"in":"0900"},"end":{"in":"1675"}}]},"relations":[{"relationType":"gvp:broaderPartitive","relationTo":"https://w3id.org/whg-epns/09/004979","label":"within Ogwell"}]}]}