{"@context":"https://raw.githubusercontent.com/LinkedPasts/linked-places-format/main/linkedplaces-context-v1.1.jsonld","type":"FeatureCollection","license":"Digitisation of English Placenames MADS data is licensed to Jisc by the English Place Names Society and released under a Creative Commons Attribution-NonCommercial 4.0 International License.","note":"LPF v1.3, lossy; derived from the PLATO record; plato_commit=ca0afadabec1e23a145c0b03df77e8f151f79832","features":[{"@id":"http://placenames.org.uk/id/placename/09/005018","type":"Feature","properties":{"title":"Ashburton","ccodes":["GB"],"fclasses":["A","P"]},"names":[{"toponym":"Ashburton","lang":"en","citations":[{"label":"English Place-Name Society survey, volume 9: Devon"}]}],"types":[{"identifier":"http://vocab.getty.edu/aat/300232418","label":"administrative division","sourceLabels":[{"label":"parish","lang":"en"}]}],"geometry":{"type":"GeometryCollection","geometries":[{"type":"Point","coordinates":[-3.75572,50.51559],"citations":[{"label":"GeoNames, gazetteer record geonames:2656977"}]},{"type":"Point","coordinates":[-3.756451732667006,50.52043038297037],"citations":[{"label":"Unlock (EDINA) gazetteer, gazetteer record unlock:11064264"}]},{"type":"Point","coordinates":[-3.75726,50.512],"citations":[{"label":"Key to English Place-Names (KEPN), gazetteer record 15770"}]}]},"links":[{"type":"closeMatch","identifier":"https://sws.geonames.org/2656977/"}],"relations":[{"relationType":"gvp:broaderPartitive","relationTo":"http://placenames.org.uk/id/placename/09/005006","label":"within Teignbridge Hundred"}]}]}