{"@context":"https://raw.githubusercontent.com/LinkedPasts/linked-places-format/main/linkedplaces-context-v1.1.jsonld","type":"FeatureCollection","license":"Digitisation of English Placenames MADS data is licensed to Jisc by the English Place Names Society and released under a Creative Commons Attribution-NonCommercial 4.0 International License.","note":"LPF v1.3, lossy; derived from the PLATO record; plato_commit=ca0afadabec1e23a145c0b03df77e8f151f79832","features":[{"@id":"http://placenames.org.uk/id/placename/09/005019","type":"Feature","properties":{"title":"Ashburton","ccodes":["GB"],"fclasses":["A","P"]},"names":[{"toponym":"Ashburton","lang":"en","citations":[{"label":"English Place-Name Society survey, volume 9: Devon"}]},{"toponym":"(æt) æscburnan lande","citations":[{"label":"1008-12 Crawf","year":1008}],"when":{"timespans":[{"start":{"earliest":"1008","latest":"1012"},"end":{"earliest":"1008","latest":"1012"}}]}},{"toponym":"Essebretona","citations":[{"label":"1086 DB","year":1086}],"when":{"timespans":[{"start":{"in":"1086"},"end":{"in":"1086"}}]}},{"toponym":"Aisbernatonam","citations":[{"label":"c. 1150 Launceston","year":1140}],"when":{"timespans":[{"start":{"earliest":"1140","latest":"1160"},"end":{"earliest":"1140","latest":"1160"}}]}},{"toponym":"Aisbernetune","citations":[{"label":"13th Buckfast","year":1200}],"when":{"timespans":[{"start":{"earliest":"1200","latest":"1300"},"end":{"earliest":"1200","latest":"1300"}}]}},{"toponym":"Eispreton'","citations":[{"label":"1185 P","year":1185}],"when":{"timespans":[{"start":{"in":"1185"},"end":{"in":"1185"}}]}},{"toponym":"Esperton","citations":[{"label":"1187 P","year":1187}],"when":{"timespans":[{"start":{"in":"1187"},"end":{"in":"1187"}}]}},{"toponym":"Aspernetune","citations":[{"label":"13th Buckfast","year":1200}],"when":{"timespans":[{"start":{"earliest":"1200","latest":"1300"},"end":{"earliest":"1200","latest":"1300"}}]}},{"toponym":"Asperton(e)","citations":[{"label":"1238–1309, recurring Ass","year":1238},{"label":"1238–1309, recurring Ch"},{"label":"1238 Ass","year":1238},{"label":"1309 Ch","year":1309}],"when":{"timespans":[{"start":{"in":"1238"},"end":{"in":"1309"}},{"start":{"in":"1238"},"end":{"in":"1238"}},{"start":{"in":"1309"},"end":{"in":"1309"}}]}},{"toponym":"Assheperton juxta Bukfast","citations":[{"label":"1304 Ass","year":1304}],"when":{"timespans":[{"start":{"in":"1304"},"end":{"in":"1304"}}]}},{"toponym":"As(s)hperton","citations":[{"label":"1313 Ch","year":1313},{"label":"1323 Ass","year":1323},{"label":"1356 Ipm","year":1356}],"when":{"timespans":[{"start":{"in":"1313"},"end":{"in":"1313"}},{"start":{"in":"1323"},"end":{"in":"1323"}},{"start":{"in":"1356"},"end":{"in":"1356"}}]}},{"toponym":"As(s)hpurton","citations":[{"label":"1313 Ass","year":1313}],"when":{"timespans":[{"start":{"in":"1313"},"end":{"in":"1313"}}]}},{"toponym":"Aysshpertone","citations":[{"label":"1356 Ipm","year":1356}],"when":{"timespans":[{"start":{"in":"1356"},"end":{"in":"1356"}}]}},{"toponym":"Aysshberton","citations":[{"label":"1483 IpmR","year":1483}],"when":{"timespans":[{"start":{"in":"1483"},"end":{"in":"1483"}}]}}],"types":[{"identifier":"http://vocab.getty.edu/aat/300232418","label":"administrative division","sourceLabels":[{"label":"township","lang":"en"}]}],"geometry":{"type":"GeometryCollection","geometries":[{"type":"Point","coordinates":[-3.75572,50.51559],"citations":[{"label":"GeoNames, gazetteer record geonames:2656977"}]},{"type":"Point","coordinates":[-3.756451732667006,50.52043038297037],"citations":[{"label":"Unlock (EDINA) gazetteer, gazetteer record unlock:11064264"}]},{"type":"Point","coordinates":[-3.75726,50.512],"citations":[{"label":"Key to English Place-Names (KEPN), gazetteer record 15770"}]}]},"when":{"timespans":[{"start":{"in":"1008"},"end":{"in":"1483"}}]},"links":[{"type":"closeMatch","identifier":"https://sws.geonames.org/2656977/"}],"relations":[{"relationType":"gvp:broaderPartitive","relationTo":"http://placenames.org.uk/id/placename/09/005018","label":"within Ashburton"}]}]}