{"@context":"https://raw.githubusercontent.com/LinkedPasts/linked-places-format/main/linkedplaces-context-v1.1.jsonld","type":"FeatureCollection","license":"Digitisation of English Placenames MADS data is licensed to Jisc by the English Place Names Society and released under a Creative Commons Attribution-NonCommercial 4.0 International License.","note":"LPF v1.3, lossy; derived from the PLATO record; plato_commit=ca0afadabec1e23a145c0b03df77e8f151f79832","features":[{"@id":"https://w3id.org/whg-epns/09/005335","type":"Feature","properties":{"title":"North Bovey","ccodes":["GB"],"fclasses":["A","P"]},"names":[{"toponym":"North Bovey","lang":"en","citations":[{"label":"English Place-Name Society survey, volume 9: Devon"}]},{"toponym":"Bovi","citations":[{"label":"1086 DB","year":1086}],"when":{"timespans":[{"start":{"in":"1086"},"end":{"in":"1086"}}]}},{"toponym":"Northebovy","citations":[{"label":"1199 FF","year":1199}],"when":{"timespans":[{"start":{"in":"1199"},"end":{"in":"1199"}}]}}],"types":[{"identifier":"http://vocab.getty.edu/aat/300232418","label":"administrative division","sourceLabels":[{"label":"township","lang":"en"}]}],"geometry":{"type":"GeometryCollection","geometries":[{"type":"Point","coordinates":[-3.78343,50.64155],"citations":[{"label":"GeoNames, gazetteer record geonames:2641414"}]},{"type":"Point","coordinates":[-3.789076447520953,50.63686558620714],"citations":[{"label":"Unlock (EDINA) gazetteer, gazetteer record unlock:11232091"}]},{"type":"Point","coordinates":[-3.77609,50.6376],"citations":[{"label":"Key to English Place-Names (KEPN), gazetteer record 15773"}]}]},"when":{"timespans":[{"start":{"in":"1086"},"end":{"in":"1199"}}]},"links":[{"type":"closeMatch","identifier":"https://sws.geonames.org/2641414/"}],"relations":[{"relationType":"gvp:broaderPartitive","relationTo":"https://w3id.org/whg-epns/09/005334","label":"within North Bovey"}]}]}