{"@context":"https://raw.githubusercontent.com/LinkedPasts/linked-places-format/main/linkedplaces-context-v1.1.jsonld","type":"FeatureCollection","license":"Digitisation of English Placenames MADS data is licensed to Jisc by the English Place Names Society and released under a Creative Commons Attribution-NonCommercial 4.0 International License.","note":"LPF v1.3, lossy; derived from the PLATO record; plato_commit=ca0afadabec1e23a145c0b03df77e8f151f79832","features":[{"@id":"https://w3id.org/whg-epns/09/005479","type":"Feature","properties":{"title":"Highweek","ccodes":["GB"],"fclasses":["A","P"]},"names":[{"toponym":"Highweek","lang":"en","citations":[{"label":"English Place-Name Society survey, volume 9: Devon"}]},{"toponym":"Teyng(e)wike","citations":[{"label":"c. 1200 Torre","year":1190}],"when":{"timespans":[{"start":{"earliest":"1190","latest":"1210"},"end":{"earliest":"1190","latest":"1210"}}]}},{"toponym":"Teyng(e)wy(c)k","citations":[{"label":"1248 Ch","year":1248},{"label":"1275 RH","year":1275}],"when":{"timespans":[{"start":{"in":"1248"},"end":{"in":"1248"}},{"start":{"in":"1275"},"end":{"in":"1275"}}]}},{"toponym":"Teinngweke","citations":[{"label":"1224-44 Exon","year":1224}],"when":{"timespans":[{"start":{"earliest":"1224","latest":"1244"},"end":{"earliest":"1224","latest":"1244"}}]}},{"toponym":"Teynguewike","citations":[{"label":"1331 Ch","year":1331}],"when":{"timespans":[{"start":{"in":"1331"},"end":{"in":"1331"}}]}},{"toponym":"Teinnewic","citations":[{"label":"c. 1200 Lay","year":1190}],"when":{"timespans":[{"start":{"earliest":"1190","latest":"1210"},"end":{"earliest":"1190","latest":"1210"}}]}},{"toponym":"Teignewic","citations":[{"label":"1218 ClR","year":1218}],"when":{"timespans":[{"start":{"in":"1218"},"end":{"in":"1218"}}]}},{"toponym":"Tennewick","citations":[{"label":"1219 Fees","year":1219}],"when":{"timespans":[{"start":{"in":"1219"},"end":{"in":"1219"}}]}},{"toponym":"Taynewyc","citations":[{"label":"1230 P","year":1230}],"when":{"timespans":[{"start":{"in":"1230"},"end":{"in":"1230"}}]}},{"toponym":"Teynnewyk","citations":[{"label":"1281 Ass","year":1281}],"when":{"timespans":[{"start":{"in":"1281"},"end":{"in":"1281"}}]}},{"toponym":"Tengewyke","citations":[{"label":"1238 FF","year":1238}],"when":{"timespans":[{"start":{"in":"1238"},"end":{"in":"1238"}}]}},{"toponym":"Tengewike","citations":[{"label":"1247 Ch","year":1247}],"when":{"timespans":[{"start":{"in":"1247"},"end":{"in":"1247"}}]}},{"toponym":"Tenggewyk al. Teyngwyk","citations":[{"label":"1269 Ipm","year":1269}],"when":{"timespans":[{"start":{"in":"1269"},"end":{"in":"1269"}}]}},{"toponym":"Hegewyk","citations":[{"label":"c. 1270 QW","year":1260}],"when":{"timespans":[{"start":{"earliest":"1260","latest":"1280"},"end":{"earliest":"1260","latest":"1280"}}]}},{"toponym":"Heghwyk","citations":[{"label":"1301 Ass","year":1301}],"when":{"timespans":[{"start":{"in":"1301"},"end":{"in":"1301"}}]}},{"toponym":"Hegh Wyk","citations":[{"label":"t. Ed 3 Ass","year":1327}],"when":{"timespans":[{"start":{"earliest":"1327","latest":"1377"},"end":{"earliest":"1327","latest":"1377"}}]}},{"toponym":"Tengweke al. Highweke","citations":[{"label":"1467 Pat","year":1467}],"when":{"timespans":[{"start":{"in":"1467"},"end":{"in":"1467"}}]}},{"toponym":"Hywyke","citations":[{"label":"1493 Ipm","year":1493}],"when":{"timespans":[{"start":{"in":"1493"},"end":{"in":"1493"}}]}},{"toponym":"Hewyk","citations":[{"label":"1675 Ogilby","year":1675}],"when":{"timespans":[{"start":{"in":"1675"},"end":{"in":"1675"}}]}}],"types":[{"identifier":"http://vocab.getty.edu/aat/300232418","label":"administrative division","sourceLabels":[{"label":"township","lang":"en"}]}],"geometry":{"type":"GeometryCollection","geometries":[{"type":"Point","coordinates":[-3.62724,50.53675],"citations":[{"label":"GeoNames, gazetteer record geonames:2646919"}]},{"type":"Point","coordinates":[-3.630155768517058,50.54025699410631],"citations":[{"label":"Unlock (EDINA) gazetteer, gazetteer record unlock:11173627"}]},{"type":"Point","coordinates":[-3.63101,50.5318],"citations":[{"label":"Key to English Place-Names (KEPN), gazetteer record 15775"}]}]},"when":{"timespans":[{"start":{"in":"1190"},"end":{"in":"1675"}}]},"links":[{"type":"closeMatch","identifier":"https://sws.geonames.org/2646919/"}],"relations":[{"relationType":"gvp:broaderPartitive","relationTo":"https://w3id.org/whg-epns/09/005478","label":"within Highweek"}]}]}