{"@context":"https://raw.githubusercontent.com/LinkedPasts/linked-places-format/main/linkedplaces-context-v1.1.jsonld","type":"FeatureCollection","license":"Digitisation of English Placenames MADS data is licensed to Jisc by the English Place Names Society and released under a Creative Commons Attribution-NonCommercial 4.0 International License.","note":"LPF v1.3, lossy; derived from the PLATO record; plato_commit=fa0d247ccc0263f8f19c8d7cdcd163df96935d1e","features":[{"@id":"https://w3id.org/whg-epns/09/006617","type":"Feature","properties":{"title":"Mamhead","ccodes":["GB"],"fclasses":["A","P"]},"names":[{"toponym":"Mamhead","lang":"en","citations":[{"label":"English Place-Name Society survey, volume 9: Devon"}]}],"types":[{"identifier":"http://vocab.getty.edu/aat/300232418","label":"administrative division","sourceLabels":[{"label":"parish","lang":"en"}]}],"geometry":{"type":"GeometryCollection","geometries":[{"type":"Point","coordinates":[-3.51004,50.61548],"citations":[{"label":"GeoNames, gazetteer record geonames:7300303"}]},{"type":"Point","coordinates":[-3.505757833785724,50.62288304831723],"citations":[{"label":"Unlock (EDINA) gazetteer, gazetteer record unlock:11211860"}]},{"type":"Point","coordinates":[-3.50693,50.6235],"citations":[{"label":"Key to English Place-Names (KEPN), gazetteer record 15796"}]}]},"links":[{"type":"closeMatch","identifier":"https://sws.geonames.org/7300303/"}],"relations":[{"relationType":"gvp:broaderPartitive","relationTo":"https://w3id.org/whg-epns/09/006045","label":"within Exminster Hundred"}]}]}