{"@context":"https://raw.githubusercontent.com/LinkedPasts/linked-places-format/main/linkedplaces-context-v1.1.jsonld","type":"FeatureCollection","license":"Digitisation of English Placenames MADS data is licensed to Jisc by the English Place Names Society and released under a Creative Commons Attribution-NonCommercial 4.0 International License.","note":"LPF v1.3, lossy; derived from the PLATO record; plato_commit=fa0d247ccc0263f8f19c8d7cdcd163df96935d1e","features":[{"@id":"https://w3id.org/whg-epns/09/008634","type":"Feature","properties":{"title":"Uplowman","ccodes":["GB"],"fclasses":["A","P"]},"names":[{"toponym":"Uplowman","lang":"en","citations":[{"label":"English Place-Name Society survey, volume 9: Devon"}]},{"toponym":"Oplomia, Oppaluma","citations":[{"label":"1086 Exon","year":1086}],"when":{"timespans":[{"start":{"in":"1086"},"end":{"in":"1086"}}]}},{"toponym":"Oppelaume","citations":[{"label":"1086 Exch","year":1086}],"when":{"timespans":[{"start":{"in":"1086"},"end":{"in":"1086"}}]}},{"toponym":"Lomene, Lumene","citations":[{"label":"1242 Fees","year":1242}],"when":{"timespans":[{"start":{"in":"1242"},"end":{"in":"1242"}}]}},{"toponym":"Lomene","citations":[{"label":"1281 Exon","year":1281},{"label":"1291 Tax","year":1291},{"label":"1322 Misc","year":1322},{"label":"1327 Ipm","year":1327}],"when":{"timespans":[{"start":{"in":"1281"},"end":{"in":"1281"}},{"start":{"in":"1291"},"end":{"in":"1291"}},{"start":{"in":"1322"},"end":{"in":"1322"}},{"start":{"in":"1327"},"end":{"in":"1327"}}]}},{"toponym":"Lommene","citations":[{"label":"1350 Ipm","year":1350}],"when":{"timespans":[{"start":{"in":"1350"},"end":{"in":"1350"}}]}},{"toponym":"Lomene Ricardi","citations":[{"label":"1285 FA","year":1285}],"when":{"timespans":[{"start":{"in":"1285"},"end":{"in":"1285"}}]}},{"toponym":"Lomeneghe","citations":[{"label":"1291 Exon","year":1291}],"when":{"timespans":[{"start":{"in":"1291"},"end":{"in":"1291"}}]}},{"toponym":"Uplomene","citations":[{"label":"1303 FA","year":1303}],"when":{"timespans":[{"start":{"in":"1303"},"end":{"in":"1303"}}]}},{"toponym":"Richardeslomene","citations":[{"label":"1317 Ass","year":1317}],"when":{"timespans":[{"start":{"in":"1317"},"end":{"in":"1317"}}]}},{"toponym":"Uppelomyn","citations":[{"label":"1489 Ipm","year":1489}],"when":{"timespans":[{"start":{"in":"1489"},"end":{"in":"1489"}}]}}],"types":[{"identifier":"http://vocab.getty.edu/aat/300232418","label":"administrative division","sourceLabels":[{"label":"township","lang":"en"}]}],"geometry":{"type":"GeometryCollection","geometries":[{"type":"Point","coordinates":[-3.40127,50.927],"citations":[{"label":"GeoNames, gazetteer record geonames:2635152"}]},{"type":"Point","coordinates":[-3.401796679812386,50.92998185208953],"citations":[{"label":"Unlock (EDINA) gazetteer, gazetteer record unlock:11309602"}]},{"type":"Point","coordinates":[-3.403,50.9305],"citations":[{"label":"Key to English Place-Names (KEPN), gazetteer record 15836"}]}]},"when":{"timespans":[{"start":{"in":"1086"},"end":{"in":"1489"}}]},"links":[{"type":"closeMatch","identifier":"https://sws.geonames.org/2635152/"}],"relations":[{"relationType":"gvp:broaderPartitive","relationTo":"https://w3id.org/whg-epns/09/008633","label":"within Uplowman"}]}]}