{"@context":"https://raw.githubusercontent.com/LinkedPasts/linked-places-format/main/linkedplaces-context-v1.1.jsonld","type":"FeatureCollection","license":"Digitisation of English Placenames MADS data is licensed to Jisc by the English Place Names Society and released under a Creative Commons Attribution-NonCommercial 4.0 International License.","note":"LPF v1.3, lossy; derived from the PLATO record; plato_commit=ca0afadabec1e23a145c0b03df77e8f151f79832","features":[{"@id":"https://w3id.org/whg-epns/09/009088","type":"Feature","properties":{"title":"Feniton","ccodes":["GB"],"fclasses":["A","P"]},"names":[{"toponym":"Feniton","lang":"en","citations":[{"label":"English Place-Name Society survey, volume 9: Devon"}]}],"types":[{"identifier":"http://vocab.getty.edu/aat/300232418","label":"administrative division","sourceLabels":[{"label":"parish","lang":"en"}]}],"geometry":{"type":"GeometryCollection","geometries":[{"type":"Point","coordinates":[-3.27897,50.79539],"citations":[{"label":"GeoNames, gazetteer record geonames:7293298"}]},{"type":"Point","coordinates":[-3.28401977778465,50.78743322545522],"citations":[{"label":"Unlock (EDINA) gazetteer, gazetteer record unlock:11143124"}]},{"type":"Point","coordinates":[-3.27104,50.7881],"citations":[{"label":"Key to English Place-Names (KEPN), gazetteer record 15844"}]}]},"links":[{"type":"closeMatch","identifier":"https://sws.geonames.org/7293298/"}],"relations":[{"relationType":"gvp:broaderPartitive","relationTo":"https://w3id.org/whg-epns/09/008721","label":"within Hayridge Hundred"}]}]}