{"@context":"https://raw.githubusercontent.com/LinkedPasts/linked-places-format/main/linkedplaces-context-v1.1.jsonld","type":"FeatureCollection","license":"Digitisation of English Placenames MADS data is licensed to Jisc by the English Place Names Society and released under a Creative Commons Attribution-NonCommercial 4.0 International License.","note":"LPF v1.3, lossy; derived from the PLATO record; plato_commit=ca0afadabec1e23a145c0b03df77e8f151f79832","features":[{"@id":"http://placenames.org.uk/id/placename/09/009120","type":"Feature","properties":{"title":"Kentisbeare","ccodes":["GB"],"fclasses":["A","P"]},"names":[{"toponym":"Kentisbeare","lang":"en","citations":[{"label":"English Place-Name Society survey, volume 9: Devon"}]}],"types":[{"identifier":"http://vocab.getty.edu/aat/300232418","label":"administrative division","sourceLabels":[{"label":"parish","lang":"en"}]}],"geometry":{"type":"GeometryCollection","geometries":[{"type":"Point","coordinates":[-3.32502,50.86515],"citations":[{"label":"GeoNames, gazetteer record geonames:2645794"}]},{"type":"Point","coordinates":[-3.328867680560795,50.86787717443416],"citations":[{"label":"Unlock (EDINA) gazetteer, gazetteer record unlock:11185269"}]},{"type":"Point","coordinates":[-3.33007,50.8684],"citations":[{"label":"Key to English Place-Names (KEPN), gazetteer record 15845"}]}]},"links":[{"type":"closeMatch","identifier":"https://sws.geonames.org/2645794/"}],"relations":[{"relationType":"gvp:broaderPartitive","relationTo":"http://placenames.org.uk/id/placename/09/008721","label":"within Hayridge Hundred"}]}]}