{"@context":"https://raw.githubusercontent.com/LinkedPasts/linked-places-format/main/linkedplaces-context-v1.1.jsonld","type":"FeatureCollection","license":"Digitisation of English Placenames MADS data is licensed to Jisc by the English Place Names Society and released under a Creative Commons Attribution-NonCommercial 4.0 International License.","note":"LPF v1.3, lossy; derived from the PLATO record; plato_commit=fa0d247ccc0263f8f19c8d7cdcd163df96935d1e","features":[{"@id":"https://w3id.org/whg-epns/09/009345","type":"Feature","properties":{"title":"Silverton","ccodes":["GB"],"fclasses":["A","P"]},"names":[{"toponym":"Silverton","lang":"en","citations":[{"label":"English Place-Name Society survey, volume 9: Devon"}]}],"types":[{"identifier":"http://vocab.getty.edu/aat/300232418","label":"administrative division","sourceLabels":[{"label":"parish","lang":"en"}]}],"geometry":{"type":"GeometryCollection","geometries":[{"type":"Point","coordinates":[-3.48333,50.81667],"citations":[{"label":"GeoNames, gazetteer record geonames:2637826"}]},{"type":"Point","coordinates":[-3.483440273736973,50.81204989526087],"citations":[{"label":"Unlock (EDINA) gazetteer, gazetteer record unlock:11284084"}]},{"type":"Point","coordinates":[-3.48463,50.8126],"citations":[{"label":"Key to English Place-Names (KEPN), gazetteer record 15850"}]}]},"links":[{"type":"closeMatch","identifier":"https://sws.geonames.org/2637826/"}],"relations":[{"relationType":"gvp:broaderPartitive","relationTo":"https://w3id.org/whg-epns/09/008721","label":"within Hayridge Hundred"}]}]}