{"@context":"https://raw.githubusercontent.com/LinkedPasts/linked-places-format/main/linkedplaces-context-v1.1.jsonld","type":"FeatureCollection","license":"Digitisation of English Placenames MADS data is licensed to Jisc by the English Place Names Society and released under a Creative Commons Attribution-NonCommercial 4.0 International License.","note":"LPF v1.3, lossy; derived from the PLATO record; plato_commit=ca0afadabec1e23a145c0b03df77e8f151f79832","features":[{"@id":"https://w3id.org/whg-epns/09/009508","type":"Feature","properties":{"title":"Broad Clyst","ccodes":["GB"],"fclasses":["A","P"]},"names":[{"toponym":"Broad Clyst","lang":"en","citations":[{"label":"English Place-Name Society survey, volume 9: Devon"}]},{"toponym":"Glistun","citations":[{"label":"11th ASC","year":1000}],"when":{"timespans":[{"start":{"earliest":"1000","latest":"1100"},"end":{"earliest":"1000","latest":"1100"}}]}},{"toponym":"Gliston'","citations":[{"label":"1237 Cl","year":1237}],"when":{"timespans":[{"start":{"in":"1237"},"end":{"in":"1237"}}]}},{"toponym":"Clistunes gildscipe","citations":[{"label":"1072-1103 Earle","year":1072}],"when":{"timespans":[{"start":{"earliest":"1072","latest":"1103"},"end":{"earliest":"1072","latest":"1103"}}]}},{"toponym":"Cliston(a)","citations":[{"label":"1086 DB","year":1086},{"label":"1212 Fees","year":1212},{"label":"1273 Exon","year":1273},{"label":"1291 Tax","year":1291}],"when":{"timespans":[{"start":{"in":"1086"},"end":{"in":"1086"}},{"start":{"in":"1212"},"end":{"in":"1212"}},{"start":{"in":"1273"},"end":{"in":"1273"}},{"start":{"in":"1291"},"end":{"in":"1291"}}]}},{"toponym":"Brodeclyste","citations":[{"label":"1372 Exon","year":1372}],"when":{"timespans":[{"start":{"in":"1372"},"end":{"in":"1372"}}]}},{"toponym":"Clyston al. Brodeclyst","citations":[{"label":"1413 Exon","year":1413}],"when":{"timespans":[{"start":{"in":"1413"},"end":{"in":"1413"}}]}}],"types":[{"identifier":"http://vocab.getty.edu/aat/300232418","label":"administrative division","sourceLabels":[{"label":"township","lang":"en"}]}],"geometry":{"type":"GeometryCollection","geometries":[{"type":"Point","coordinates":[-3.43333,50.76667],"citations":[{"label":"GeoNames, gazetteer record geonames:2654654"}]},{"type":"Point","coordinates":[-3.44068,50.7682],"citations":[{"label":"Key to English Place-Names (KEPN), gazetteer record 15853"}]}]},"when":{"timespans":[{"start":{"in":"1000"},"end":{"in":"1413"}}]},"links":[{"type":"closeMatch","identifier":"https://sws.geonames.org/2654654/"}],"relations":[{"relationType":"gvp:broaderPartitive","relationTo":"https://w3id.org/whg-epns/09/009507","label":"within Broad Clyst"}]}]}