{"@context":"https://raw.githubusercontent.com/LinkedPasts/linked-places-format/main/linkedplaces-context-v1.1.jsonld","type":"FeatureCollection","license":"Digitisation of English Placenames MADS data is licensed to Jisc by the English Place Names Society and released under a Creative Commons Attribution-NonCommercial 4.0 International License.","note":"LPF v1.3, lossy; derived from the PLATO record; plato_commit=fa0d247ccc0263f8f19c8d7cdcd163df96935d1e","features":[{"@id":"https://w3id.org/whg-epns/09/010173","type":"Feature","properties":{"title":"Littleham","ccodes":["GB"],"fclasses":["A","P"]},"names":[{"toponym":"Littleham","lang":"en","citations":[{"label":"English Place-Name Society survey, volume 9: Devon"}]},{"toponym":"(to) Lytlanhamme","citations":[{"label":"1042 KCD","year":1042}],"when":{"timespans":[{"start":{"in":"1042"},"end":{"in":"1042"}}]}},{"toponym":"Litt(e)leham","citations":[{"label":"1242 Fees","year":1242},{"label":"1291 Tax","year":1291}],"when":{"timespans":[{"start":{"in":"1242"},"end":{"in":"1242"}},{"start":{"in":"1291"},"end":{"in":"1291"}}]}},{"toponym":"Liteham","citations":[{"label":"1086 DB","year":1086}],"when":{"timespans":[{"start":{"in":"1086"},"end":{"in":"1086"}}]}}],"types":[{"identifier":"http://vocab.getty.edu/aat/300232418","label":"administrative division","sourceLabels":[{"label":"township","lang":"en"}]}],"geometry":{"type":"GeometryCollection","geometries":[{"type":"Point","coordinates":[-3.378551755181415,50.62445779059115],"citations":[{"label":"Unlock (EDINA) gazetteer, gazetteer record unlock:11197285"}]},{"type":"Point","coordinates":[-3.37974,50.625],"citations":[{"label":"Key to English Place-Names (KEPN), gazetteer record 15869"}]}]},"when":{"timespans":[{"start":{"in":"1042"},"end":{"in":"1291"}}]},"relations":[{"relationType":"gvp:broaderPartitive","relationTo":"https://w3id.org/whg-epns/09/010172","label":"within Littleham"}]}]}