{"@context":"https://raw.githubusercontent.com/LinkedPasts/linked-places-format/main/linkedplaces-context-v1.1.jsonld","type":"FeatureCollection","license":"Digitisation of English Placenames MADS data is licensed to Jisc by the English Place Names Society and released under a Creative Commons Attribution-NonCommercial 4.0 International License.","note":"LPF v1.3, lossy; derived from the PLATO record; plato_commit=ca0afadabec1e23a145c0b03df77e8f151f79832","features":[{"@id":"http://placenames.org.uk/id/placename/09/010556","type":"Feature","properties":{"title":"Woodbury","ccodes":["GB"],"fclasses":["A","P"]},"names":[{"toponym":"Woodbury","lang":"en","citations":[{"label":"English Place-Name Society survey, volume 9: Devon"}]},{"toponym":"(on) Wudebirig, (on) Wudeburg(e) lande","citations":[{"label":"1072-1103 Earle","year":1072}],"when":{"timespans":[{"start":{"earliest":"1072","latest":"1103"},"end":{"earliest":"1072","latest":"1103"}}]}},{"toponym":"Wodeberia","citations":[{"label":"1086 DB","year":1086}],"when":{"timespans":[{"start":{"in":"1086"},"end":{"in":"1086"}}]}},{"toponym":"Wodebyr(e)","citations":[{"label":"1242 Fees","year":1242},{"label":"1286 Ch","year":1286}],"when":{"timespans":[{"start":{"in":"1242"},"end":{"in":"1242"}},{"start":{"in":"1286"},"end":{"in":"1286"}}]}},{"toponym":"Wodebiri","citations":[{"label":"1268 Ipm","year":1268}],"when":{"timespans":[{"start":{"in":"1268"},"end":{"in":"1268"}}]}},{"toponym":"Wudeberi","citations":[{"label":"1175 P","year":1175}],"when":{"timespans":[{"start":{"in":"1175"},"end":{"in":"1175"}}]}},{"toponym":"Wdebir'","citations":[{"label":"1212 Fees","year":1212}],"when":{"timespans":[{"start":{"in":"1212"},"end":{"in":"1212"}}]}},{"toponym":"Wddebir'","citations":[{"label":"1205 France","year":1205}],"when":{"timespans":[{"start":{"in":"1205"},"end":{"in":"1205"}}]}},{"toponym":"Wadbury","citations":[{"label":"1465 Pat","year":1465}],"when":{"timespans":[{"start":{"in":"1465"},"end":{"in":"1465"}}]}}],"types":[{"identifier":"http://vocab.getty.edu/aat/300232418","label":"administrative division","sourceLabels":[{"label":"township","lang":"en"}]}],"geometry":{"type":"GeometryCollection","geometries":[{"type":"Point","coordinates":[-3.4016,50.67664],"citations":[{"label":"GeoNames, gazetteer record geonames:6693657"}]},{"type":"Point","coordinates":[-3.394282543813271,50.67823660633584],"citations":[{"label":"Unlock (EDINA) gazetteer, gazetteer record unlock:11325565"}]},{"type":"Point","coordinates":[-3.39547,50.6788],"citations":[{"label":"Key to English Place-Names (KEPN), gazetteer record 15879"}]}]},"when":{"timespans":[{"start":{"in":"1072"},"end":{"in":"1465"}}]},"links":[{"type":"closeMatch","identifier":"https://sws.geonames.org/6693657/"}],"relations":[{"relationType":"gvp:broaderPartitive","relationTo":"http://placenames.org.uk/id/placename/09/010555","label":"within Woodbury"}]}]}