{"@context":"https://raw.githubusercontent.com/LinkedPasts/linked-places-format/main/linkedplaces-context-v1.1.jsonld","type":"FeatureCollection","license":"Digitisation of English Placenames MADS data is licensed to Jisc by the English Place Names Society and released under a Creative Commons Attribution-NonCommercial 4.0 International License.","note":"LPF v1.3, lossy; derived from the PLATO record; plato_commit=ca0afadabec1e23a145c0b03df77e8f151f79832","features":[{"@id":"http://placenames.org.uk/id/placename/09/010634","type":"Feature","properties":{"title":"Ottery St Mary","ccodes":["GB"],"fclasses":["A","P"]},"names":[{"toponym":"Ottery St Mary","lang":"en","citations":[{"label":"English Place-Name Society survey, volume 9: Devon"}]},{"toponym":"Otrig land","citations":[{"label":"1061 Ottery","year":1061}],"when":{"timespans":[{"start":{"in":"1061"},"end":{"in":"1061"}}]}},{"toponym":"(æt) Oteri","citations":[{"label":"a. 1100 Earle","year":1050}],"when":{"timespans":[{"start":{"earliest":"1050","latest":"1100"},"end":{"earliest":"1050","latest":"1100"}}]}},{"toponym":"Otri","citations":[{"label":"1086 DB","year":1086},{"label":"c. 1145 France","year":1135}],"when":{"timespans":[{"start":{"in":"1086"},"end":{"in":"1086"}},{"start":{"earliest":"1135","latest":"1155"},"end":{"earliest":"1135","latest":"1155"}}]}},{"toponym":"Sancti Marie","citations":[{"label":"1291 Tax","year":1291}],"when":{"timespans":[{"start":{"in":"1291"},"end":{"in":"1291"}}]}},{"toponym":"Oteri","citations":[{"label":"1190 France","year":1190}],"when":{"timespans":[{"start":{"in":"1190"},"end":{"in":"1190"}}]}},{"toponym":"Sca Maria de Otery","citations":[{"label":"1207 PatR","year":1207}],"when":{"timespans":[{"start":{"in":"1207"},"end":{"in":"1207"}}]}},{"toponym":"Otry","citations":[{"label":"1241 Cur","year":1241}],"when":{"timespans":[{"start":{"in":"1241"},"end":{"in":"1241"}}]}},{"toponym":"Otery Sancte Marie","citations":[{"label":"1242 Fees","year":1242}],"when":{"timespans":[{"start":{"in":"1242"},"end":{"in":"1242"}}]}},{"toponym":"ecclesie Ottri Sancte Marie","citations":[{"label":"1269 Exon","year":1269}],"when":{"timespans":[{"start":{"in":"1269"},"end":{"in":"1269"}}]}},{"toponym":"Otreg St Mary","citations":[{"label":"1275 Cl","year":1275}],"when":{"timespans":[{"start":{"in":"1275"},"end":{"in":"1275"}}]}},{"toponym":"Otrei","citations":[{"label":"1361 Pat","year":1361}],"when":{"timespans":[{"start":{"in":"1361"},"end":{"in":"1361"}}]}},{"toponym":"Autre Sct Maries","citations":[{"label":"1577 Saxton","year":1577}],"when":{"timespans":[{"start":{"in":"1577"},"end":{"in":"1577"}}]}},{"toponym":"Autrey, Austrey St Mary","citations":[{"label":"1675 Ogilby","year":1675}],"when":{"timespans":[{"start":{"in":"1675"},"end":{"in":"1675"}}]}}],"types":[{"identifier":"http://vocab.getty.edu/aat/300232418","label":"administrative division","sourceLabels":[{"label":"township","lang":"en"}]}],"geometry":{"type":"GeometryCollection","geometries":[{"type":"Point","coordinates":[-3.26667,50.75],"citations":[{"label":"GeoNames, gazetteer record geonames:2640834"}]},{"type":"Point","coordinates":[-3.268861998806513,50.75162281032721],"citations":[{"label":"Unlock (EDINA) gazetteer, gazetteer record unlock:11237440"}]},{"type":"Point","coordinates":[-3.28424,50.752],"citations":[{"label":"Key to English Place-Names (KEPN), gazetteer record 15880"}]}]},"when":{"timespans":[{"start":{"in":"1050"},"end":{"in":"1675"}}]},"links":[{"type":"closeMatch","identifier":"https://sws.geonames.org/2640834/"}],"relations":[{"relationType":"gvp:broaderPartitive","relationTo":"http://placenames.org.uk/id/placename/09/010633","label":"within Ottery St Mary"}]}]}