{"@context":"https://raw.githubusercontent.com/LinkedPasts/linked-places-format/main/linkedplaces-context-v1.1.jsonld","type":"FeatureCollection","license":"Digitisation of English Placenames MADS data is licensed to Jisc by the English Place Names Society and released under a Creative Commons Attribution-NonCommercial 4.0 International License.","note":"LPF v1.3, lossy; derived from the PLATO record; plato_commit=ca0afadabec1e23a145c0b03df77e8f151f79832","features":[{"@id":"http://placenames.org.uk/id/placename/09/011275","type":"Feature","properties":{"title":"Colyton","ccodes":["GB"],"fclasses":["A","P"]},"names":[{"toponym":"Colyton","lang":"en","citations":[{"label":"English Place-Name Society survey, volume 9: Devon"}]},{"toponym":"Culinton(am)","citations":[{"label":"946 Laws","year":946}],"when":{"timespans":[{"start":{"in":"0946"},"end":{"in":"0946"}}]}},{"toponym":"Colitona, Culitona","citations":[{"label":"1086 DB","year":1086}],"when":{"timespans":[{"start":{"in":"1086"},"end":{"in":"1086"}}]}},{"toponym":"Culinton(a)","citations":[{"label":"1086 BM","year":1086},{"label":"c. 1150 Launceston","year":1140},{"label":"1159–1229, recurring P","year":1159},{"label":"1159–1229, recurring Pat"},{"label":"1159 P","year":1159},{"label":"1229 Pat","year":1229}],"when":{"timespans":[{"start":{"in":"1086"},"end":{"in":"1086"}},{"start":{"earliest":"1140","latest":"1160"},"end":{"earliest":"1140","latest":"1160"}},{"start":{"in":"1159"},"end":{"in":"1229"}},{"start":{"in":"1159"},"end":{"in":"1159"}},{"start":{"in":"1229"},"end":{"in":"1229"}}]}},{"toponym":"Cullingthon'","citations":[{"label":"c. 1225 HMC","year":1215}],"when":{"timespans":[{"start":{"earliest":"1215","latest":"1235"},"end":{"earliest":"1215","latest":"1235"}}]}},{"toponym":"Culigtun, Culitun","citations":[{"label":"1193-1205 HMC","year":1193}],"when":{"timespans":[{"start":{"earliest":"1193","latest":"1205"},"end":{"earliest":"1193","latest":"1205"}}]}},{"toponym":"Kuleton","citations":[{"label":"1219 Ass","year":1219}],"when":{"timespans":[{"start":{"in":"1219"},"end":{"in":"1219"}}]}},{"toponym":"Culliton","citations":[{"label":"1356 Ass","year":1356}],"when":{"timespans":[{"start":{"in":"1356"},"end":{"in":"1356"}}]}},{"toponym":"Colintun","citations":[{"label":"1219 Fees","year":1219}],"when":{"timespans":[{"start":{"in":"1219"},"end":{"in":"1219"}}]}},{"toponym":"Colinton","citations":[{"label":"1220 Bracton","year":1220},{"label":"1230 Ch","year":1230}],"when":{"timespans":[{"start":{"in":"1220"},"end":{"in":"1220"}},{"start":{"in":"1230"},"end":{"in":"1230"}}]}},{"toponym":"Colyton","citations":[{"label":"1292 Cl","year":1292}],"when":{"timespans":[{"start":{"in":"1292"},"end":{"in":"1292"}}]}},{"toponym":"Coulitone","citations":[{"label":"1237-74 Exon","year":1237}],"when":{"timespans":[{"start":{"earliest":"1237","latest":"1274"},"end":{"earliest":"1237","latest":"1274"}}]}},{"toponym":"Cooliton","citations":[{"label":"1590 DCo NQ","year":1590}],"when":{"timespans":[{"start":{"in":"1590"},"end":{"in":"1590"}}]}}],"types":[{"identifier":"http://vocab.getty.edu/aat/300232418","label":"administrative division","sourceLabels":[{"label":"township","lang":"en"}]}],"geometry":{"type":"GeometryCollection","geometries":[{"type":"Point","coordinates":[-3.07021,50.74006],"citations":[{"label":"GeoNames, gazetteer record geonames:2652511"}]},{"type":"Point","coordinates":[-3.070011167333987,50.73562901456813],"citations":[{"label":"Unlock (EDINA) gazetteer, gazetteer record unlock:11114502"}]},{"type":"Point","coordinates":[-3.07124,50.7362],"citations":[{"label":"Key to English Place-Names (KEPN), gazetteer record 15890"}]}]},"when":{"timespans":[{"start":{"in":"0946"},"end":{"in":"1590"}}]},"links":[{"type":"closeMatch","identifier":"https://sws.geonames.org/2652511/"}],"relations":[{"relationType":"gvp:broaderPartitive","relationTo":"http://placenames.org.uk/id/placename/09/011274","label":"within Colyton"}]}]}