{"@context":"https://raw.githubusercontent.com/LinkedPasts/linked-places-format/main/linkedplaces-context-v1.1.jsonld","type":"FeatureCollection","license":"Digitisation of English Placenames MADS data is licensed to Jisc by the English Place Names Society and released under a Creative Commons Attribution-NonCommercial 4.0 International License.","note":"LPF v1.3, lossy; derived from the PLATO record; plato_commit=fa0d247ccc0263f8f19c8d7cdcd163df96935d1e","features":[{"@id":"https://w3id.org/whg-epns/09/011453","type":"Feature","properties":{"title":"Farway","ccodes":["GB"],"fclasses":["A","P"]},"names":[{"toponym":"Farway","lang":"en","citations":[{"label":"English Place-Name Society survey, volume 9: Devon"}]}],"types":[{"identifier":"http://vocab.getty.edu/aat/300232418","label":"administrative division","sourceLabels":[{"label":"parish","lang":"en"}]}],"geometry":{"type":"GeometryCollection","geometries":[{"type":"Point","coordinates":[-3.16636,50.75857],"citations":[{"label":"GeoNames, gazetteer record geonames:7294955"}]},{"type":"Point","coordinates":[-3.155469986773262,50.75280152525467],"citations":[{"label":"Unlock (EDINA) gazetteer, gazetteer record unlock:11142367"}]},{"type":"Point","coordinates":[-3.15669,50.7534],"citations":[{"label":"Key to English Place-Names (KEPN), gazetteer record 15892"}]}]},"links":[{"type":"closeMatch","identifier":"https://sws.geonames.org/7294955/"}],"relations":[{"relationType":"gvp:broaderPartitive","relationTo":"https://w3id.org/whg-epns/09/011209","label":"within Colyton Hundred"}]}]}