{"@context":"https://raw.githubusercontent.com/LinkedPasts/linked-places-format/main/linkedplaces-context-v1.1.jsonld","type":"FeatureCollection","license":"Digitisation of English Placenames MADS data is licensed to Jisc by the English Place Names Society and released under a Creative Commons Attribution-NonCommercial 4.0 International License.","note":"LPF v1.3, lossy; derived from the PLATO record; plato_commit=ca0afadabec1e23a145c0b03df77e8f151f79832","features":[{"@id":"https://w3id.org/whg-epns/09/011513","type":"Feature","properties":{"title":"Monkton","ccodes":["GB"],"fclasses":["A","P"]},"names":[{"toponym":"Monkton","lang":"en","citations":[{"label":"English Place-Name Society survey, volume 9: Devon"}]},{"toponym":"Muneketon","citations":[{"label":"1244 FF","year":1244}],"when":{"timespans":[{"start":{"in":"1244"},"end":{"in":"1244"}}]}},{"toponym":"Monekatone","citations":[{"label":"1279 Ipm","year":1279}],"when":{"timespans":[{"start":{"in":"1279"},"end":{"in":"1279"}}]}},{"toponym":"Moneketone","citations":[{"label":"1279 Ipm","year":1279}],"when":{"timespans":[{"start":{"in":"1279"},"end":{"in":"1279"}},{"start":{"in":"1325"},"end":{"in":"1325"}}]}},{"toponym":"Monekedon","citations":[{"label":"1283 Pat","year":1283}],"when":{"timespans":[{"start":{"in":"1283"},"end":{"in":"1283"}}]}},{"toponym":"Monketon","citations":[{"label":"1284 FA","year":1284},{"label":"1330 Exon","year":1330}],"when":{"timespans":[{"start":{"in":"1284"},"end":{"in":"1284"}},{"start":{"in":"1330"},"end":{"in":"1330"}}]}},{"toponym":"Monketon juxta Honyton","citations":[{"label":"1455 FF","year":1455}],"when":{"timespans":[{"start":{"in":"1455"},"end":{"in":"1455"}}]}},{"toponym":"Munkton","citations":[{"label":"t. Ed 1 IpmR","year":1272}],"when":{"timespans":[{"start":{"earliest":"1272","latest":"1307"},"end":{"earliest":"1272","latest":"1307"}}]}}],"types":[{"identifier":"http://vocab.getty.edu/aat/300232418","label":"administrative division","sourceLabels":[{"label":"township","lang":"en"}]}],"geometry":{"type":"GeometryCollection","geometries":[{"type":"Point","coordinates":[-3.15,50.81667],"citations":[{"label":"GeoNames, gazetteer record geonames:2642320"}]},{"type":"Point","coordinates":[-3.157244827997999,50.82473569930394],"citations":[{"label":"Unlock (EDINA) gazetteer, gazetteer record unlock:11221781"}]},{"type":"Point","coordinates":[-3.15847,50.8253],"citations":[{"label":"Key to English Place-Names (KEPN), gazetteer record 15893"}]}]},"when":{"timespans":[{"start":{"in":"1244"},"end":{"in":"1455"}}]},"links":[{"type":"closeMatch","identifier":"https://sws.geonames.org/2642320/"}],"relations":[{"relationType":"gvp:broaderPartitive","relationTo":"https://w3id.org/whg-epns/09/011512","label":"within Monkton"}]}]}