{"@context":"https://raw.githubusercontent.com/LinkedPasts/linked-places-format/main/linkedplaces-context-v1.1.jsonld","type":"FeatureCollection","license":"Digitisation of English Placenames MADS data is licensed to Jisc by the English Place Names Society and released under a Creative Commons Attribution-NonCommercial 4.0 International License.","note":"LPF v1.3, lossy; derived from the PLATO record; plato_commit=ca0afadabec1e23a145c0b03df77e8f151f79832","features":[{"@id":"https://w3id.org/whg-epns/09/011609","type":"Feature","properties":{"title":"Shute","ccodes":["GB"],"fclasses":["A","P"]},"names":[{"toponym":"Shute","lang":"en","citations":[{"label":"English Place-Name Society survey, volume 9: Devon"}]}],"types":[{"identifier":"http://vocab.getty.edu/aat/300232418","label":"administrative division","sourceLabels":[{"label":"parish","lang":"en"}]}],"geometry":{"type":"GeometryCollection","geometries":[{"type":"Point","coordinates":[-3.06667,50.76667],"citations":[{"label":"GeoNames, gazetteer record geonames:2637875"}]},{"type":"Point","coordinates":[-3.056651011042573,50.77172670420811],"citations":[{"label":"Unlock (EDINA) gazetteer, gazetteer record unlock:11283601"}]},{"type":"Point","coordinates":[-3.07206,50.7722],"citations":[{"label":"Key to English Place-Names (KEPN), gazetteer record 15897"}]}]},"links":[{"type":"closeMatch","identifier":"https://sws.geonames.org/2637875/"}],"relations":[{"relationType":"gvp:broaderPartitive","relationTo":"https://w3id.org/whg-epns/09/011209","label":"within Colyton Hundred"}]}]}