{"@context":"https://raw.githubusercontent.com/LinkedPasts/linked-places-format/main/linkedplaces-context-v1.1.jsonld","type":"FeatureCollection","license":"Digitisation of English Placenames MADS data is licensed to Jisc by the English Place Names Society and released under a Creative Commons Attribution-NonCommercial 4.0 International License.","note":"LPF v1.3, lossy; derived from the PLATO record; plato_commit=ca0afadabec1e23a145c0b03df77e8f151f79832","features":[{"@id":"http://placenames.org.uk/id/placename/09/011734","type":"Feature","properties":{"title":"Axminster Hundred","ccodes":["GB"],"fclasses":["A"]},"names":[{"toponym":"Axminster Hundred","lang":"en","citations":[{"label":"English Place-Name Society survey, volume 9: Devon"}]},{"toponym":"Axeministra","citations":[{"label":"1084 Geld Roll","year":1084}],"when":{"timespans":[{"start":{"in":"1084"},"end":{"in":"1084"}}]}},{"toponym":"Axemenistre","citations":[{"label":"1167 P","year":1167}],"when":{"timespans":[{"start":{"in":"1167"},"end":{"in":"1167"}},{"start":{"in":"1168"},"end":{"in":"1168"}}]}},{"toponym":"Æxemenistre","citations":[{"label":"1179 P","year":1179}],"when":{"timespans":[{"start":{"in":"1179"},"end":{"in":"1179"}}]}}],"types":[{"identifier":"http://vocab.getty.edu/aat/300232418","label":"administrative division","sourceLabels":[{"label":"hundred / wapentake","lang":"en"}]}],"geometry":null,"when":{"timespans":[{"start":{"in":"1084"},"end":{"in":"1179"}}]},"relations":[{"relationType":"gvp:broaderPartitive","relationTo":"http://placenames.org.uk/id/placename/09/000001","label":"within Devon"}]}]}