{"@context":"https://raw.githubusercontent.com/LinkedPasts/linked-places-format/main/linkedplaces-context-v1.1.jsonld","type":"FeatureCollection","license":"Digitisation of English Placenames MADS data is licensed to Jisc by the English Place Names Society and released under a Creative Commons Attribution-NonCommercial 4.0 International License.","note":"LPF v1.3, lossy; derived from the PLATO record; plato_commit=ca0afadabec1e23a145c0b03df77e8f151f79832","features":[{"@id":"http://placenames.org.uk/id/placename/32/000008","type":"Feature","properties":{"title":"Blackstone Edge","ccodes":["GB"],"fclasses":["A"]},"names":[{"toponym":"Blackstone Edge","lang":"en","citations":[{"label":"English Place-Name Society survey, volume 32: West Riding of Yorkshire"}]},{"toponym":"Blackesteynegge","citations":[{"label":"1291 Pat","year":1291}],"when":{"timespans":[{"start":{"in":"1291"},"end":{"in":"1291"}}]}},{"toponym":"Blakestanegg","citations":[{"label":"1331 Ass","year":1331}],"when":{"timespans":[{"start":{"in":"1331"},"end":{"in":"1331"}}]}},{"toponym":"Blakestonedge","citations":[{"label":"1414 Watson","year":1414}],"when":{"timespans":[{"start":{"in":"1414"},"end":{"in":"1414"}}]}},{"toponym":"Blackston(e) edge","citations":[{"label":"16 DodsN","year":1500},{"label":"1551 WCR","year":1551},{"label":"1696 YDr","year":1696}],"when":{"timespans":[{"start":{"earliest":"1500","latest":"1600"},"end":{"earliest":"1500","latest":"1600"}},{"start":{"in":"1551"},"end":{"in":"1551"}},{"start":{"in":"1696"},"end":{"in":"1696"}}]}}],"types":[{"identifier":"http://vocab.getty.edu/aat/300232418","label":"administrative division","sourceLabels":[{"label":"local district","lang":"en"}]}],"geometry":null,"when":{"timespans":[{"start":{"in":"1291"},"end":{"in":"1696"}}]},"relations":[{"relationType":"gvp:broaderPartitive","relationTo":"http://placenames.org.uk/id/placename/32/000002","label":"within Morley Wapentake"}]}]}