{"@context":"https://raw.githubusercontent.com/LinkedPasts/linked-places-format/main/linkedplaces-context-v1.1.jsonld","type":"FeatureCollection","license":"Digitisation of English Placenames MADS data is licensed to Jisc by the English Place Names Society and released under a Creative Commons Attribution-NonCommercial 4.0 International License.","note":"LPF v1.3, lossy; derived from the PLATO record; plato_commit=ca0afadabec1e23a145c0b03df77e8f151f79832","features":[{"@id":"http://placenames.org.uk/id/placename/32/000002","type":"Feature","properties":{"title":"Morley Wapentake","ccodes":["GB"],"fclasses":["A"]},"names":[{"toponym":"Morley Wapentake","lang":"en","citations":[{"label":"English Place-Name Society survey, volume 32: West Riding of Yorkshire"}]},{"toponym":"Morelei Wapentac","citations":[{"label":"1086 DB","year":1086}],"when":{"timespans":[{"start":{"in":"1086"},"end":{"in":"1086"}}]}},{"toponym":"Morlei Wap'","citations":[{"label":"1166 P","year":1166}],"when":{"timespans":[{"start":{"in":"1166"},"end":{"in":"1166"}}]}},{"toponym":"Morlay Wapentacum","citations":[{"label":"1181 P","year":1181},{"label":"1219 Ass","year":1219}],"when":{"timespans":[{"start":{"in":"1181"},"end":{"in":"1181"}},{"start":{"in":"1219"},"end":{"in":"1219"}},{"start":{"in":"1246"},"end":{"in":"1246"}}]}},{"toponym":"Morlewapentacum","citations":[{"label":"1188 P","year":1188}],"when":{"timespans":[{"start":{"in":"1188"},"end":{"in":"1188"}}]}},{"toponym":"Wap(p') de Morley, Wapentagium de Morley, Wapentagium de Morlay","citations":[{"label":"1231 Ass","year":1231},{"label":"1276 RH","year":1276},{"label":"1285 KI","year":1285},{"label":"1288 YI","year":1288},{"label":"1316–1545, recurring Vill","year":1316},{"label":"1316–1545, recurring LS"},{"label":"1316 Vill","year":1316},{"label":"1545 LS","year":1545}],"when":{"timespans":[{"start":{"in":"1231"},"end":{"in":"1231"}},{"start":{"in":"1276"},"end":{"in":"1276"}},{"start":{"in":"1285"},"end":{"in":"1285"}},{"start":{"in":"1288"},"end":{"in":"1288"}},{"start":{"in":"1316"},"end":{"in":"1545"}},{"start":{"in":"1316"},"end":{"in":"1316"}},{"start":{"in":"1545"},"end":{"in":"1545"}}]}}],"types":[{"identifier":"http://vocab.getty.edu/aat/300232418","label":"administrative division","sourceLabels":[{"label":"hundred / wapentake","lang":"en"}]}],"geometry":null,"when":{"timespans":[{"start":{"in":"1086"},"end":{"in":"1545"}}]},"relations":[{"relationType":"gvp:broaderPartitive","relationTo":"http://placenames.org.uk/id/placename/32/000001","label":"within West Riding of Yorkshire"}]}]}