{"@context":"https://raw.githubusercontent.com/LinkedPasts/linked-places-format/main/linkedplaces-context-v1.1.jsonld","type":"FeatureCollection","license":"Digitisation of English Placenames MADS data is licensed to Jisc by the English Place Names Society and released under a Creative Commons Attribution-NonCommercial 4.0 International License.","note":"LPF v1.3, lossy; derived from the PLATO record; plato_commit=ca0afadabec1e23a145c0b03df77e8f151f79832","features":[{"@id":"http://placenames.org.uk/id/placename/32/001396","type":"Feature","properties":{"title":"Hunsworth","ccodes":["GB"],"fclasses":["A","P"]},"names":[{"toponym":"Hunsworth","lang":"en","citations":[{"label":"English Place-Name Society survey, volume 32: West Riding of Yorkshire"}]},{"toponym":"Hunddesw(o)rth","citations":[{"label":"1195 YCh","year":1195},{"label":"1412 WYD","year":1412}],"when":{"timespans":[{"start":{"in":"1195"},"end":{"in":"1195"}},{"start":{"in":"1412"},"end":{"in":"1412"}}]}},{"toponym":"Hundeswyth","citations":[{"label":"1205-27 YD","year":1205}],"when":{"timespans":[{"start":{"earliest":"1205","latest":"1227"},"end":{"earliest":"1205","latest":"1227"}}]}},{"toponym":"Hundesworth","citations":[{"label":"Hy 3 BM","year":1216},{"label":"1285 KI","year":1285},{"label":"1316 Vill","year":1316},{"label":"1317 DodsN","year":1317},{"label":"1347–1504, recurring YD","year":1347},{"label":"1347–1504, recurring Ipm"},{"label":"1347 YD","year":1347},{"label":"1504 Ipm","year":1504}],"when":{"timespans":[{"start":{"earliest":"1216","latest":"1272"},"end":{"earliest":"1216","latest":"1272"}},{"start":{"in":"1285"},"end":{"in":"1285"}},{"start":{"in":"1316"},"end":{"in":"1316"}},{"start":{"in":"1317"},"end":{"in":"1317"}},{"start":{"in":"1347"},"end":{"in":"1504"}},{"start":{"in":"1347"},"end":{"in":"1347"}},{"start":{"in":"1504"},"end":{"in":"1504"}}]}},{"toponym":"Hundysworth","citations":[{"label":"1446 WillY","year":1446}],"when":{"timespans":[{"start":{"in":"1446"},"end":{"in":"1446"}}]}},{"toponym":"Hunesworth","citations":[{"label":"1597 WYD","year":1597}],"when":{"timespans":[{"start":{"in":"1597"},"end":{"in":"1597"}}]}},{"toponym":"Hunsworth","citations":[{"label":"1599 FF","year":1599}],"when":{"timespans":[{"start":{"in":"1599"},"end":{"in":"1599"}}]}}],"types":[{"identifier":"http://vocab.getty.edu/aat/300232418","label":"administrative division","sourceLabels":[{"label":"township","lang":"en"}]}],"geometry":{"type":"GeometryCollection","geometries":[{"type":"Point","coordinates":[-1.711914874,53.73881643],"citations":[{"label":"English Place-Name Society survey (DEEP coordinates)"}]},{"type":"Point","coordinates":[-1.719465944258072,53.74333019198043],"citations":[{"label":"Unlock (EDINA) gazetteer, gazetteer record unlock:11181242"}]},{"type":"Point","coordinates":[-1.72096,53.7436],"citations":[{"label":"Key to English Place-Names (KEPN), gazetteer record 14538"}]}]},"when":{"timespans":[{"start":{"in":"1195"},"end":{"in":"1599"}}]},"relations":[{"relationType":"gvp:broaderPartitive","relationTo":"http://placenames.org.uk/id/placename/32/000341","label":"within Birstall"}]}]}