{"@context":"https://raw.githubusercontent.com/LinkedPasts/linked-places-format/main/linkedplaces-context-v1.1.jsonld","type":"FeatureCollection","license":"Digitisation of English Placenames MADS data is licensed to Jisc by the English Place Names Society and released under a Creative Commons Attribution-NonCommercial 4.0 International License.","note":"LPF v1.3, lossy; derived from the PLATO record; plato_commit=ca0afadabec1e23a145c0b03df77e8f151f79832","features":[{"@id":"https://w3id.org/whg-epns/32/003222","type":"Feature","properties":{"title":"Barkisland","ccodes":["GB"],"fclasses":["A","P"]},"names":[{"toponym":"Barkisland","lang":"en","citations":[{"label":"English Place-Name Society survey, volume 32: West Riding of Yorkshire"}]},{"toponym":"Barkesland(e)","citations":[{"label":"1246 Ass","year":1246},{"label":"1275–1314, recurring WCR","year":1275},{"label":"1275-1314 WCR","year":1275},{"label":"1379 PT","year":1379},{"label":"1502 YD","year":1502}],"when":{"timespans":[{"start":{"in":"1246"},"end":{"in":"1246"}},{"start":{"in":"1275"},"end":{"in":"1314"}},{"start":{"earliest":"1275","latest":"1314"},"end":{"earliest":"1275","latest":"1314"}},{"start":{"in":"1379"},"end":{"in":"1379"}},{"start":{"in":"1502"},"end":{"in":"1502"}}]}},{"toponym":"Barkesland(e) als. Barsland","citations":[{"label":"1609 FF","year":1609}],"when":{"timespans":[{"start":{"in":"1609"},"end":{"in":"1609"}}]}},{"toponym":"Barkisland, Barkysland","citations":[{"label":"13 YD","year":1200},{"label":"1473 YD","year":1473}],"when":{"timespans":[{"start":{"earliest":"1200","latest":"1300"},"end":{"earliest":"1200","latest":"1300"}},{"start":{"in":"1331"},"end":{"in":"1331"}},{"start":{"in":"1448"},"end":{"in":"1448"}},{"start":{"in":"1473"},"end":{"in":"1473"}}]}},{"toponym":"Barkysland commonly called Barsland","citations":[{"label":"1775 Watson","year":1775}],"when":{"timespans":[{"start":{"in":"1775"},"end":{"in":"1775"}}]}},{"toponym":"Berkesland(e)","citations":[{"label":"1356 FF","year":1356},{"label":"1500 Ipm","year":1500}],"when":{"timespans":[{"start":{"in":"1356"},"end":{"in":"1356"}},{"start":{"in":"1500"},"end":{"in":"1500"}}]}},{"toponym":"Berkeslond","citations":[{"label":"1392 MinAcct","year":1392}],"when":{"timespans":[{"start":{"in":"1392"},"end":{"in":"1392"}}]}},{"toponym":"Barkslaunde","citations":[{"label":"1543 YD","year":1543}],"when":{"timespans":[{"start":{"in":"1543"},"end":{"in":"1543"}}]}},{"toponym":"Bars(s)eland","citations":[{"label":"1368 MinAcct","year":1368},{"label":"1616 PrHosp","year":1616},{"label":"1695 M","year":1695}],"when":{"timespans":[{"start":{"in":"1368"},"end":{"in":"1368"}},{"start":{"in":"1616"},"end":{"in":"1616"}},{"start":{"in":"1695"},"end":{"in":"1695"}}]}},{"toponym":"Baresland","citations":[{"label":"1383 MinAcct","year":1383}],"when":{"timespans":[{"start":{"in":"1383"},"end":{"in":"1383"}}]}},{"toponym":"Barsland(e)","citations":[{"label":"1419 YD","year":1419},{"label":"1465 Linds","year":1465},{"label":"1504–1591, recurring Ipm","year":1504},{"label":"1504–1591, recurring WillY"},{"label":"1504 Ipm","year":1504},{"label":"1591 WillY","year":1591}],"when":{"timespans":[{"start":{"in":"1419"},"end":{"in":"1419"}},{"start":{"in":"1436"},"end":{"in":"1436"}},{"start":{"in":"1465"},"end":{"in":"1465"}},{"start":{"in":"1504"},"end":{"in":"1591"}},{"start":{"in":"1504"},"end":{"in":"1504"}},{"start":{"in":"1591"},"end":{"in":"1591"}}]}}],"types":[{"identifier":"http://vocab.getty.edu/aat/300232418","label":"administrative division","sourceLabels":[{"label":"township","lang":"en"}]}],"geometry":{"type":"GeometryCollection","geometries":[{"type":"Point","coordinates":[-1.9184,53.67614],"citations":[{"label":"GeoNames, gazetteer record geonames:2656329"}]},{"type":"Point","coordinates":[-1.90916081,53.67620416],"citations":[{"label":"English Place-Name Society survey (DEEP coordinates)"}]},{"type":"Point","coordinates":[-1.916739571154258,53.67171633277557],"citations":[{"label":"Unlock (EDINA) gazetteer, gazetteer record unlock:11070108"}]},{"type":"Point","coordinates":[-1.91821,53.6719],"citations":[{"label":"Key to English Place-Names (KEPN), gazetteer record 14548"}]}]},"when":{"timespans":[{"start":{"in":"1200"},"end":{"in":"1775"}}]},"links":[{"type":"closeMatch","identifier":"https://sws.geonames.org/2656329/"}],"relations":[{"relationType":"gvp:broaderPartitive","relationTo":"https://w3id.org/whg-epns/32/002017","label":"within Elland Chapelry"}]}]}