{"@context":"https://raw.githubusercontent.com/LinkedPasts/linked-places-format/main/linkedplaces-context-v1.1.jsonld","type":"FeatureCollection","license":"Digitisation of English Placenames MADS data is licensed to Jisc by the English Place Names Society and released under a Creative Commons Attribution-NonCommercial 4.0 International License.","note":"LPF v1.3, lossy; derived from the PLATO record; plato_commit=fa0d247ccc0263f8f19c8d7cdcd163df96935d1e","features":[{"@id":"https://w3id.org/whg-epns/32/010630","type":"Feature","properties":{"title":"Blackshaw","ccodes":["GB"],"fclasses":["A","P"]},"names":[{"toponym":"Blackshaw","lang":"en","citations":[{"label":"English Place-Name Society survey, volume 32: West Riding of Yorkshire"}]},{"toponym":"Blakschey","citations":[{"label":"1539 HfxWill","year":1539}],"when":{"timespans":[{"start":{"in":"1539"},"end":{"in":"1539"}}]}},{"toponym":"Blakeshaye","citations":[{"label":"1540 HfxWill","year":1540}],"when":{"timespans":[{"start":{"in":"1540"},"end":{"in":"1540"}}]}},{"toponym":"Nether Blackshaw(e), lower Blackshaw(e)","citations":[{"label":"1653 PRHept","year":1653},{"label":"1695 FGr","year":1695}],"when":{"timespans":[{"start":{"in":"1653"},"end":{"in":"1653"}},{"start":{"in":"1695"},"end":{"in":"1695"}}]}}],"types":[{"identifier":"http://vocab.getty.edu/aat/300232418","label":"administrative division","sourceLabels":[{"label":"township","lang":"en"}]}],"geometry":{"type":"GeometryCollection","geometries":[{"type":"Point","coordinates":[-2.0808,53.74733],"citations":[{"label":"GeoNames, gazetteer record geonames:7298332"}]},{"type":"Point","coordinates":[-2.121325585,53.74809034],"citations":[{"label":"English Place-Name Society survey (DEEP coordinates)"}]},{"type":"Point","coordinates":[-2.069709,53.743857],"citations":[{"label":"Key to English Place-Names (KEPN), gazetteer record 334"}]}]},"when":{"timespans":[{"start":{"in":"1539"},"end":{"in":"1695"}}]},"links":[{"type":"closeMatch","identifier":"https://sws.geonames.org/7298332/"}],"relations":[{"relationType":"gvp:broaderPartitive","relationTo":"https://w3id.org/whg-epns/32/008547","label":"within Heptonstall Chapelry"}]}]}