{"@context":"https://raw.githubusercontent.com/LinkedPasts/linked-places-format/main/linkedplaces-context-v1.1.jsonld","type":"FeatureCollection","license":"Digitisation of English Placenames MADS data is licensed to Jisc by the English Place Names Society and released under a Creative Commons Attribution-NonCommercial 4.0 International License.","note":"LPF v1.3, lossy; derived from the PLATO record; plato_commit=fa0d247ccc0263f8f19c8d7cdcd163df96935d1e","features":[{"@id":"https://w3id.org/whg-epns/32/014444","type":"Feature","properties":{"title":"Eccleshill","ccodes":["GB"],"fclasses":["A","P"]},"names":[{"toponym":"Eccleshill","lang":"en","citations":[{"label":"English Place-Name Society survey, volume 32: West Riding of Yorkshire"}]},{"toponym":"Egleshil","citations":[{"label":"1086 DB","year":1086}],"when":{"timespans":[{"start":{"in":"1086"},"end":{"in":"1086"}}]}},{"toponym":"Eccleshul(l)","citations":[{"label":"c. 1250 Calv","year":1240},{"label":"1274 WCR","year":1274}],"when":{"timespans":[{"start":{"earliest":"1240","latest":"1260"},"end":{"earliest":"1240","latest":"1260"}},{"start":{"in":"1274"},"end":{"in":"1274"}}]}},{"toponym":"Eccleshill, Eccleshyll","citations":[{"label":"1304-9 Calv","year":1304},{"label":"1316 Vill","year":1316},{"label":"1323 MinAcct","year":1323},{"label":"1355 YD","year":1355},{"label":"YD","year":1372},{"label":"WYD"},{"label":"1372 YD","year":1372},{"label":"1687 WYD","year":1687}],"when":{"timespans":[{"start":{"earliest":"1304","latest":"1309"},"end":{"earliest":"1304","latest":"1309"}},{"start":{"in":"1316"},"end":{"in":"1316"}},{"start":{"in":"1323"},"end":{"in":"1323"}},{"start":{"in":"1355"},"end":{"in":"1355"}},{"start":{"in":"1372"},"end":{"in":"1687"}},{"start":{"in":"1372"},"end":{"in":"1372"}},{"start":{"in":"1687"},"end":{"in":"1687"}}]}},{"toponym":"Ecclessil","citations":[{"label":"Hy 3 Calv","year":1216}],"when":{"timespans":[{"start":{"earliest":"1216","latest":"1272"},"end":{"earliest":"1216","latest":"1272"}}]}},{"toponym":"Ecclishill, Ecclishyll","citations":[{"label":"1274 WCR","year":1274},{"label":"1391 YD","year":1391}],"when":{"timespans":[{"start":{"in":"1274"},"end":{"in":"1274"}},{"start":{"in":"1391"},"end":{"in":"1391"}},{"start":{"in":"1402"},"end":{"in":"1402"}}]}},{"toponym":"Eckleshell","citations":[{"label":"1606 YAS","year":1606}],"when":{"timespans":[{"start":{"in":"1606"},"end":{"in":"1606"}}]}},{"toponym":"Ecckleshill","citations":[{"label":"1651 Stansf","year":1651}],"when":{"timespans":[{"start":{"in":"1651"},"end":{"in":"1651"}}]}},{"toponym":"Ecleshil","citations":[{"label":"1254 Calv","year":1254}],"when":{"timespans":[{"start":{"in":"1254"},"end":{"in":"1254"}}]}},{"toponym":"Eklishill","citations":[{"label":"1466 BM","year":1466}],"when":{"timespans":[{"start":{"in":"1466"},"end":{"in":"1466"}}]}},{"toponym":"Eclesell","citations":[{"label":"1709 WMB","year":1709}],"when":{"timespans":[{"start":{"in":"1709"},"end":{"in":"1709"}}]}},{"toponym":"Heckelsil","citations":[{"label":"1256 Linds","year":1256}],"when":{"timespans":[{"start":{"in":"1256"},"end":{"in":"1256"}}]}},{"toponym":"Heckeshill","citations":[{"label":"1275 WCR","year":1275}],"when":{"timespans":[{"start":{"in":"1275"},"end":{"in":"1275"}}]}},{"toponym":"Eckleleshull","citations":[{"label":"1275 WCR","year":1275}],"when":{"timespans":[{"start":{"in":"1275"},"end":{"in":"1275"}}]}},{"toponym":"E(c)keleshill, Ekkeleshill, E(c)keleshyll","citations":[{"label":"1286 WCR","year":1286},{"label":"1369 Arm","year":1369},{"label":"1431 YD","year":1431},{"label":"1468 YD","year":1468}],"when":{"timespans":[{"start":{"in":"1286"},"end":{"in":"1286"}},{"start":{"in":"1307"},"end":{"in":"1307"}},{"start":{"in":"1369"},"end":{"in":"1369"}},{"start":{"in":"1431"},"end":{"in":"1431"}},{"start":{"in":"1468"},"end":{"in":"1468"}}]}},{"toponym":"Eckilshill","citations":[{"label":"1328 WCR","year":1328},{"label":"1604 FF","year":1604},{"label":"1609 YAS","year":1609}],"when":{"timespans":[{"start":{"in":"1328"},"end":{"in":"1328"}},{"start":{"in":"1604"},"end":{"in":"1604"}},{"start":{"in":"1609"},"end":{"in":"1609"}}]}},{"toponym":"Echyleyll","citations":[{"label":"1342 WYD","year":1342}],"when":{"timespans":[{"start":{"in":"1342"},"end":{"in":"1342"}}]}},{"toponym":"Eckulsele","citations":[{"label":"1389 BM","year":1389}],"when":{"timespans":[{"start":{"in":"1389"},"end":{"in":"1389"}}]}},{"toponym":"Ekkyllsyll","citations":[{"label":"1418 WYD","year":1418}],"when":{"timespans":[{"start":{"in":"1418"},"end":{"in":"1418"}}]}},{"toponym":"Ekillsill","citations":[{"label":"1427 BM","year":1427}],"when":{"timespans":[{"start":{"in":"1427"},"end":{"in":"1427"}}]}},{"toponym":"Ekhilshill, Ekhilshyll","citations":[{"label":"1433 BM","year":1433}],"when":{"timespans":[{"start":{"in":"1433"},"end":{"in":"1433"}}]}}],"types":[{"identifier":"http://vocab.getty.edu/aat/300232418","label":"administrative division","sourceLabels":[{"label":"township","lang":"en"}]}],"geometry":{"type":"GeometryCollection","geometries":[{"type":"Point","coordinates":[-1.741743045,53.81978603],"citations":[{"label":"English Place-Name Society survey (DEEP coordinates)"}]},{"type":"Point","coordinates":[-1.734118808945365,53.8242651846586],"citations":[{"label":"Unlock (EDINA) gazetteer, gazetteer record unlock:11137746"}]},{"type":"Point","coordinates":[-1.73562,53.8245],"citations":[{"label":"Key to English Place-Names (KEPN), gazetteer record 14584"}]}]},"when":{"timespans":[{"start":{"in":"1086"},"end":{"in":"1709"}}]},"relations":[{"relationType":"gvp:broaderPartitive","relationTo":"https://w3id.org/whg-epns/32/013324","label":"within Bradford"}]}]}