{"@context":"https://raw.githubusercontent.com/LinkedPasts/linked-places-format/main/linkedplaces-context-v1.1.jsonld","type":"FeatureCollection","license":"Digitisation of English Placenames MADS data is licensed to Jisc by the English Place Names Society and released under a Creative Commons Attribution-NonCommercial 4.0 International License.","note":"LPF v1.3, lossy; derived from the PLATO record; plato_commit=ca0afadabec1e23a145c0b03df77e8f151f79832","features":[{"@id":"http://placenames.org.uk/id/placename/18/000107","type":"Feature","properties":{"title":"Hanworth","ccodes":["GB"],"fclasses":["A","P"]},"names":[{"toponym":"Hanworth","lang":"en","citations":[{"label":"English Place-Name Society survey, volume 18: Middlesex"}]},{"toponym":"Haneworde","citations":[{"label":"1086–1359, recurring DB","year":1086},{"label":"1086–1359, recurring FF"},{"label":"1086 DB","year":1086},{"label":"1359 FF","year":1359}],"when":{"timespans":[{"start":{"in":"1086"},"end":{"in":"1359"}},{"start":{"in":"1086"},"end":{"in":"1086"}},{"start":{"in":"1359"},"end":{"in":"1359"}}]}},{"toponym":"Hanewrde, Hanewurthe, Haneworth(e)","citations":[{"label":"1086-1359 unspecified sources","year":1086}],"when":{"timespans":[{"start":{"in":"1086"},"end":{"in":"1359"}}]}},{"toponym":"Hanesworth","citations":[{"label":"1254 Val","year":1254},{"label":"1274 Ass","year":1274}],"when":{"timespans":[{"start":{"in":"1254"},"end":{"in":"1254"}},{"start":{"in":"1274"},"end":{"in":"1274"}},{"start":{"in":"1294"},"end":{"in":"1294"}}]}},{"toponym":"Hanneworth","citations":[{"label":"1389 BM","year":1389},{"label":"1453 FF","year":1453}],"when":{"timespans":[{"start":{"in":"1389"},"end":{"in":"1389"}},{"start":{"in":"1453"},"end":{"in":"1453"}}]}},{"toponym":"Hanworth","citations":[{"label":"1428 FA","year":1428}],"when":{"timespans":[{"start":{"in":"1428"},"end":{"in":"1428"}}]}}],"types":[{"identifier":"http://vocab.getty.edu/aat/300232418","label":"administrative division","sourceLabels":[{"label":"township","lang":"en"}]}],"geometry":{"type":"GeometryCollection","geometries":[{"type":"Point","coordinates":[-0.38333,51.43333],"citations":[{"label":"GeoNames, gazetteer record geonames:2647514"}]},{"type":"Point","coordinates":[-0.383066,51.4313],"citations":[{"label":"Key to English Place-Names (KEPN), gazetteer record 4717"}]}]},"when":{"timespans":[{"start":{"in":"1086"},"end":{"in":"1453"}}]},"links":[{"type":"closeMatch","identifier":"https://sws.geonames.org/2647514/"}],"relations":[{"relationType":"gvp:broaderPartitive","relationTo":"http://placenames.org.uk/id/placename/18/000106","label":"within Hanworth"}]}]}