{"@context":"https://raw.githubusercontent.com/LinkedPasts/linked-places-format/main/linkedplaces-context-v1.1.jsonld","type":"FeatureCollection","license":"Digitisation of English Placenames MADS data is licensed to Jisc by the English Place Names Society and released under a Creative Commons Attribution-NonCommercial 4.0 International License.","note":"LPF v1.3, lossy; derived from the PLATO record; plato_commit=fa0d247ccc0263f8f19c8d7cdcd163df96935d1e","features":[{"@id":"https://w3id.org/whg-epns/18/000412","type":"Feature","properties":{"title":"Teddington","ccodes":["GB"],"fclasses":["A","P"]},"names":[{"toponym":"Teddington","lang":"en","citations":[{"label":"English Place-Name Society survey, volume 18: Middlesex"}]}],"types":[{"identifier":"http://vocab.getty.edu/aat/300232418","label":"administrative division","sourceLabels":[{"label":"parish","lang":"en"}]}],"geometry":{"type":"GeometryCollection","geometries":[{"type":"Point","coordinates":[-0.33053,51.42233],"citations":[{"label":"GeoNames, gazetteer record geonames:2636147"}]},{"type":"Point","coordinates":[-0.3239846144863442,51.43002150633497],"citations":[{"label":"Unlock (EDINA) gazetteer, gazetteer record unlock:11298366"}]},{"type":"Point","coordinates":[-0.325552,51.4305],"citations":[{"label":"Key to English Place-Names (KEPN), gazetteer record 4724"}]}]},"links":[{"type":"closeMatch","identifier":"https://sws.geonames.org/2636147/"}],"relations":[{"relationType":"gvp:broaderPartitive","relationTo":"https://w3id.org/whg-epns/18/000002","label":"within Spelthorne Hundred"}]}]}