{"@context":"https://raw.githubusercontent.com/LinkedPasts/linked-places-format/main/linkedplaces-context-v1.1.jsonld","type":"FeatureCollection","license":"Digitisation of English Placenames MADS data is licensed to Jisc by the English Place Names Society and released under a Creative Commons Attribution-NonCommercial 4.0 International License.","note":"LPF v1.3, lossy; derived from the PLATO record; plato_commit=ca0afadabec1e23a145c0b03df77e8f151f79832","features":[{"@id":"https://w3id.org/whg-epns/18/000583","type":"Feature","properties":{"title":"Twickenham","ccodes":["GB"],"fclasses":["A","P"]},"names":[{"toponym":"Twickenham","lang":"en","citations":[{"label":"English Place-Name Society survey, volume 18: Middlesex"}]},{"toponym":"Tuican hom, Tuiccanham","citations":[{"label":"704 BCS","year":704}],"when":{"timespans":[{"start":{"in":"0704"},"end":{"in":"0704"}}]}},{"toponym":"Tuicanham, (in) Tuicanhamme","citations":[{"label":"793 BCS","year":793}],"when":{"timespans":[{"start":{"in":"0793"},"end":{"in":"0793"}}]}},{"toponym":"Tuuiccanham","citations":[{"label":"941 BCS","year":941},{"label":"948 BCS","year":948}],"when":{"timespans":[{"start":{"in":"0941"},"end":{"in":"0941"}},{"start":{"in":"0948"},"end":{"in":"0948"}}]}},{"toponym":"Tuuicaham","citations":[{"label":"948 BCS","year":948}],"when":{"timespans":[{"start":{"in":"0948"},"end":{"in":"0948"}}]}},{"toponym":"Twikeham","citations":[{"label":"1216 FF","year":1216}],"when":{"timespans":[{"start":{"in":"1216"},"end":{"in":"1216"}}]}},{"toponym":"Twykenham","citations":[{"label":"1279 FF","year":1279},{"label":"1301 Ipm","year":1301},{"label":"1316 FA","year":1316}],"when":{"timespans":[{"start":{"in":"1279"},"end":{"in":"1279"}},{"start":{"in":"1301"},"end":{"in":"1301"}},{"start":{"in":"1316"},"end":{"in":"1316"}}]}},{"toponym":"Twikenham","citations":[{"label":"1291 Tax","year":1291}],"when":{"timespans":[{"start":{"in":"1291"},"end":{"in":"1291"}}]}},{"toponym":"Wickenham","citations":[{"label":"1650 Madge","year":1650}],"when":{"timespans":[{"start":{"in":"1650"},"end":{"in":"1650"}}]}},{"toponym":"Twekynham","citations":[{"label":"1396 FF","year":1396}],"when":{"timespans":[{"start":{"in":"1396"},"end":{"in":"1396"}}]}},{"toponym":"Twyckname","citations":[{"label":"1560 FF","year":1560}],"when":{"timespans":[{"start":{"in":"1560"},"end":{"in":"1560"}}]}},{"toponym":"Twicknem","citations":[{"label":"1651 ParReg (Teddington)","year":1651}],"when":{"timespans":[{"start":{"in":"1651"},"end":{"in":"1651"}}]}},{"toponym":"Twitnam(e)","citations":[{"label":"1644 ParReg (Northolt)","year":1644}],"when":{"timespans":[{"start":{"in":"1644"},"end":{"in":"1644"}},{"start":{"in":"1721"},"end":{"in":"1721"}}]}},{"toponym":"Twittenham","citations":[{"label":"1698 ParReg (Northolt)","year":1698}],"when":{"timespans":[{"start":{"in":"1698"},"end":{"in":"1698"}},{"start":{"in":"1644"},"end":{"in":"1644"}},{"start":{"in":"1721"},"end":{"in":"1721"}}]}}],"types":[{"identifier":"http://vocab.getty.edu/aat/300232418","label":"administrative division","sourceLabels":[{"label":"township","lang":"en"}]}],"geometry":{"type":"GeometryCollection","geometries":[{"type":"Point","coordinates":[-0.32968,51.4454],"citations":[{"label":"GeoNames, gazetteer record geonames:2635308"}]},{"type":"Point","coordinates":[-0.3377118465083884,51.44820389432152],"citations":[{"label":"Unlock (EDINA) gazetteer, gazetteer record unlock:11307400"}]},{"type":"Point","coordinates":[-0.353662,51.4489],"citations":[{"label":"Key to English Place-Names (KEPN), gazetteer record 4755"}]}]},"when":{"timespans":[{"start":{"in":"0704"},"end":{"in":"1721"}}]},"links":[{"type":"closeMatch","identifier":"https://sws.geonames.org/2635308/"}],"relations":[{"relationType":"gvp:broaderPartitive","relationTo":"https://w3id.org/whg-epns/18/000582","label":"within Twickenham"}]}]}