{"@context":"https://raw.githubusercontent.com/LinkedPasts/linked-places-format/main/linkedplaces-context-v1.1.jsonld","type":"FeatureCollection","license":"Digitisation of English Placenames MADS data is licensed to Jisc by the English Place Names Society and released under a Creative Commons Attribution-NonCommercial 4.0 International License.","note":"LPF v1.3, lossy; derived from the PLATO record; plato_commit=fa0d247ccc0263f8f19c8d7cdcd163df96935d1e","features":[{"@id":"https://w3id.org/whg-epns/18/000582","type":"Feature","properties":{"title":"Twickenham","ccodes":["GB"],"fclasses":["A","P"]},"names":[{"toponym":"Twickenham","lang":"en","citations":[{"label":"English Place-Name Society survey, volume 18: Middlesex"}]}],"types":[{"identifier":"http://vocab.getty.edu/aat/300232418","label":"administrative division","sourceLabels":[{"label":"parish","lang":"en"}]}],"geometry":{"type":"GeometryCollection","geometries":[{"type":"Point","coordinates":[-0.32968,51.4454],"citations":[{"label":"GeoNames, gazetteer record geonames:2635308"}]},{"type":"Point","coordinates":[-0.3377118465083884,51.44820389432152],"citations":[{"label":"Unlock (EDINA) gazetteer, gazetteer record unlock:11307400"}]},{"type":"Point","coordinates":[-0.353662,51.4489],"citations":[{"label":"Key to English Place-Names (KEPN), gazetteer record 4755"}]}]},"links":[{"type":"closeMatch","identifier":"https://sws.geonames.org/2635308/"}],"relations":[{"relationType":"gvp:broaderPartitive","relationTo":"https://w3id.org/whg-epns/18/000434","label":"within Isleworth Hundred"}]}]}