{"@context":"https://raw.githubusercontent.com/LinkedPasts/linked-places-format/main/linkedplaces-context-v1.1.jsonld","type":"FeatureCollection","license":"Digitisation of English Placenames MADS data is licensed to Jisc by the English Place Names Society and released under a Creative Commons Attribution-NonCommercial 4.0 International License.","note":"LPF v1.3, lossy; derived from the PLATO record; plato_commit=ca0afadabec1e23a145c0b03df77e8f151f79832","features":[{"@id":"http://placenames.org.uk/id/placename/18/000508","type":"Feature","properties":{"title":"Isleworth","ccodes":["GB"],"fclasses":["A","P"]},"names":[{"toponym":"Isleworth","lang":"en","citations":[{"label":"English Place-Name Society survey, volume 18: Middlesex"}]},{"toponym":"Gislheresuuyrth","citations":[{"label":"695 BCS","year":695}],"when":{"timespans":[{"start":{"in":"0695"},"end":{"in":"0695"}}]}},{"toponym":"Gistelesworde","citations":[{"label":"1086 DB","year":1086}],"when":{"timespans":[{"start":{"in":"1086"},"end":{"in":"1086"}}]}},{"toponym":"Istlesworde","citations":[{"label":"1100-35 Ch","year":1100}],"when":{"timespans":[{"start":{"earliest":"1100","latest":"1135"},"end":{"earliest":"1100","latest":"1135"}}]}},{"toponym":"Ystleswurða","citations":[{"label":"1176 P","year":1176}],"when":{"timespans":[{"start":{"in":"1176"},"end":{"in":"1176"}}]}},{"toponym":"Ysteleswurde","citations":[{"label":"1177 P","year":1177}],"when":{"timespans":[{"start":{"in":"1177"},"end":{"in":"1177"}}]}},{"toponym":"Ysteleswurtha","citations":[{"label":"1180 P","year":1180}],"when":{"timespans":[{"start":{"in":"1180"},"end":{"in":"1180"}}]}},{"toponym":"Histelehurd","citations":[{"label":"1123-33 OxfordCh","year":1123}],"when":{"timespans":[{"start":{"earliest":"1123","latest":"1133"},"end":{"earliest":"1123","latest":"1133"}}]}},{"toponym":"Histelewrde","citations":[{"label":"1163 OxfordCh","year":1163}],"when":{"timespans":[{"start":{"in":"1163"},"end":{"in":"1163"}}]}},{"toponym":"Istleworth","citations":[{"label":"1231–1675, recurring Cl","year":1231},{"label":"1231–1675, recurring Ogilby"},{"label":"1231 Cl","year":1231},{"label":"1675 Ogilby","year":1675}],"when":{"timespans":[{"start":{"in":"1231"},"end":{"in":"1675"}},{"start":{"in":"1231"},"end":{"in":"1231"}},{"start":{"in":"1675"},"end":{"in":"1675"}}]}},{"toponym":"Istelworth, Ystelworth, Istilworth, Histleworth","citations":[{"label":"1231-1675 unspecified sources","year":1231}],"when":{"timespans":[{"start":{"in":"1231"},"end":{"in":"1675"}}]}},{"toponym":"Yistelesworth, Yhisteleworth","citations":[{"label":"1275 RH","year":1275}],"when":{"timespans":[{"start":{"in":"1275"},"end":{"in":"1275"}}]}},{"toponym":"Yistelworth","citations":[{"label":"1306 FF","year":1306}],"when":{"timespans":[{"start":{"in":"1306"},"end":{"in":"1306"}}]}},{"toponym":"Yisilworth","citations":[{"label":"1306 FF","year":1306}],"when":{"timespans":[{"start":{"in":"1306"},"end":{"in":"1306"}}]}},{"toponym":"Yistilworthe","citations":[{"label":"1333 FF","year":1333}],"when":{"timespans":[{"start":{"in":"1333"},"end":{"in":"1333"}}]}},{"toponym":"Thistelleworth, Thistelworth","citations":[{"label":"1313 Pat","year":1313}],"when":{"timespans":[{"start":{"in":"1313"},"end":{"in":"1313"}},{"start":{"in":"1416"},"end":{"in":"1416"}}]}},{"toponym":"Thystelworth","citations":[{"label":"1477 AD","year":1477}],"when":{"timespans":[{"start":{"in":"1477"},"end":{"in":"1477"}}]}},{"toponym":"Thissilworth","citations":[{"label":"1522 DunBev","year":1522}],"when":{"timespans":[{"start":{"in":"1522"},"end":{"in":"1522"}}]}},{"toponym":"Istleworth al. Thistleworth","citations":[{"label":"1629 PCC","year":1629}],"when":{"timespans":[{"start":{"in":"1629"},"end":{"in":"1629"}}]}},{"toponym":"Thistleworth","citations":[{"label":"1641 SP","year":1641}],"when":{"timespans":[{"start":{"in":"1641"},"end":{"in":"1641"}}]}},{"toponym":"Thistlewood","citations":[{"label":"1650 Madge","year":1650}],"when":{"timespans":[{"start":{"in":"1650"},"end":{"in":"1650"}}]}},{"toponym":"Isletworth","citations":[{"label":"1348 SR","year":1348}],"when":{"timespans":[{"start":{"in":"1348"},"end":{"in":"1348"}}]}},{"toponym":"Isleworth","citations":[{"label":"1463 PCC","year":1463}],"when":{"timespans":[{"start":{"in":"1463"},"end":{"in":"1463"}}]}},{"toponym":"Isellworth","citations":[{"label":"1576 SR","year":1576}],"when":{"timespans":[{"start":{"in":"1576"},"end":{"in":"1576"}}]}},{"toponym":"Isselworth","citations":[{"label":"1576 PCC","year":1576}],"when":{"timespans":[{"start":{"in":"1576"},"end":{"in":"1576"}}]}},{"toponym":"Isleworth vulgo Thistleworth","citations":[{"label":"1675 Ogilby","year":1675}],"when":{"timespans":[{"start":{"in":"1675"},"end":{"in":"1675"}}]}}],"types":[{"identifier":"http://vocab.getty.edu/aat/300232418","label":"administrative division","sourceLabels":[{"label":"township","lang":"en"}]}],"geometry":{"type":"GeometryCollection","geometries":[{"type":"Point","coordinates":[-0.34246,51.47518],"citations":[{"label":"GeoNames, gazetteer record geonames:2646004"}]},{"type":"Point","coordinates":[-0.3370585348784635,51.4661814655697],"citations":[{"label":"Unlock (EDINA) gazetteer, gazetteer record unlock:11183522"}]},{"type":"Point","coordinates":[-0.324236,51.4665],"citations":[{"label":"Key to English Place-Names (KEPN), gazetteer record 4754"}]}]},"when":{"timespans":[{"start":{"in":"0695"},"end":{"in":"1675"}}]},"links":[{"type":"closeMatch","identifier":"https://sws.geonames.org/2646004/"}],"relations":[{"relationType":"gvp:broaderPartitive","relationTo":"http://placenames.org.uk/id/placename/18/000507","label":"within Isleworth"}]}]}