{"@context":"https://raw.githubusercontent.com/LinkedPasts/linked-places-format/main/linkedplaces-context-v1.1.jsonld","type":"FeatureCollection","license":"Digitisation of English Placenames MADS data is licensed to Jisc by the English Place Names Society and released under a Creative Commons Attribution-NonCommercial 4.0 International License.","note":"LPF v1.3, lossy; derived from the PLATO record; plato_commit=fa0d247ccc0263f8f19c8d7cdcd163df96935d1e","features":[{"@id":"https://w3id.org/whg-epns/18/000842","type":"Feature","properties":{"title":"Harlington","ccodes":["GB"],"fclasses":["A","P"]},"names":[{"toponym":"Harlington","lang":"en","citations":[{"label":"English Place-Name Society survey, volume 18: Middlesex"}]}],"types":[{"identifier":"http://vocab.getty.edu/aat/300232418","label":"administrative division","sourceLabels":[{"label":"parish","lang":"en"}]}],"geometry":{"type":"GeometryCollection","geometries":[{"type":"Point","coordinates":[-0.43362,51.48566],"citations":[{"label":"GeoNames, gazetteer record geonames:7522532"}]},{"type":"Point","coordinates":[-0.4371868772187239,51.4855455486295],"citations":[{"label":"Unlock (EDINA) gazetteer, gazetteer record unlock:11166270"}]},{"type":"Point","coordinates":[-0.438743,51.4861],"citations":[{"label":"Key to English Place-Names (KEPN), gazetteer record 4730"}]}]},"links":[{"type":"closeMatch","identifier":"https://sws.geonames.org/7522532/"}],"relations":[{"relationType":"gvp:broaderPartitive","relationTo":"https://w3id.org/whg-epns/18/000629","label":"within Elthorne Hundred"}]}]}