{"@context":"https://raw.githubusercontent.com/LinkedPasts/linked-places-format/main/linkedplaces-context-v1.1.jsonld","type":"FeatureCollection","license":"Digitisation of English Placenames MADS data is licensed to Jisc by the English Place Names Society and released under a Creative Commons Attribution-NonCommercial 4.0 International License.","note":"LPF v1.3, lossy; derived from the PLATO record; plato_commit=ca0afadabec1e23a145c0b03df77e8f151f79832","features":[{"@id":"http://placenames.org.uk/id/placename/18/001096","type":"Feature","properties":{"title":"Northolt","ccodes":["GB"],"fclasses":["A","P"]},"names":[{"toponym":"Northolt","lang":"en","citations":[{"label":"English Place-Name Society survey, volume 18: Middlesex"}]}],"types":[{"identifier":"http://vocab.getty.edu/aat/300232418","label":"administrative division","sourceLabels":[{"label":"parish","lang":"en"}]}],"geometry":{"type":"GeometryCollection","geometries":[{"type":"Point","coordinates":[-0.36778,51.54855],"citations":[{"label":"GeoNames, gazetteer record geonames:2641290"}]},{"type":"Point","coordinates":[-0.3629440339546318,51.54748568504715],"citations":[{"label":"Unlock (EDINA) gazetteer, gazetteer record unlock:11233545"}]},{"type":"Point","coordinates":[-0.378607,51.5572],"citations":[{"label":"Key to English Place-Names (KEPN), gazetteer record 4736"}]}]},"links":[{"type":"closeMatch","identifier":"https://sws.geonames.org/2641290/"}],"relations":[{"relationType":"gvp:broaderPartitive","relationTo":"http://placenames.org.uk/id/placename/18/000629","label":"within Elthorne Hundred"}]}]}