{"@context":"https://raw.githubusercontent.com/LinkedPasts/linked-places-format/main/linkedplaces-context-v1.1.jsonld","type":"FeatureCollection","license":"Digitisation of English Placenames MADS data is licensed to Jisc by the English Place Names Society and released under a Creative Commons Attribution-NonCommercial 4.0 International License.","note":"LPF v1.3, lossy; derived from the PLATO record; plato_commit=fa0d247ccc0263f8f19c8d7cdcd163df96935d1e","features":[{"@id":"https://w3id.org/whg-epns/18/001097","type":"Feature","properties":{"title":"Northolt","ccodes":["GB"],"fclasses":["A","P"]},"names":[{"toponym":"Northolt","lang":"en","citations":[{"label":"English Place-Name Society survey, volume 18: Middlesex"}]},{"toponym":"(æt) norð healum","citations":[{"label":"960 BCS","year":960}],"when":{"timespans":[{"start":{"in":"0960"},"end":{"in":"0960"}}]}},{"toponym":"Northala","citations":[{"label":"1086 DB","year":1086}],"when":{"timespans":[{"start":{"in":"1086"},"end":{"in":"1086"}}]}},{"toponym":"Northale","citations":[{"label":"1214 FF","year":1214},{"label":"1274 Ass","year":1274},{"label":"1288 FF","year":1288}],"when":{"timespans":[{"start":{"in":"1214"},"end":{"in":"1214"}},{"start":{"in":"1274"},"end":{"in":"1274"}},{"start":{"in":"1288"},"end":{"in":"1288"}}]}},{"toponym":"Norhale","citations":[{"label":"1211 RBE","year":1211},{"label":"1231 FF","year":1231},{"label":"1265 Pat","year":1265}],"when":{"timespans":[{"start":{"in":"1211"},"end":{"in":"1211"}},{"start":{"in":"1231"},"end":{"in":"1231"}},{"start":{"in":"1265"},"end":{"in":"1265"}}]}},{"toponym":"Northall(e)","citations":[{"label":"1235 Ass","year":1235},{"label":"1275 FF","year":1275},{"label":"1291 Tax","year":1291},{"label":"1316 FA","year":1316},{"label":"1341 NI","year":1341}],"when":{"timespans":[{"start":{"in":"1235"},"end":{"in":"1235"}},{"start":{"in":"1275"},"end":{"in":"1275"}},{"start":{"in":"1291"},"end":{"in":"1291"}},{"start":{"in":"1316"},"end":{"in":"1316"}},{"start":{"in":"1341"},"end":{"in":"1341"}}]}},{"toponym":"Norhall","citations":[{"label":"1299 AD","year":1299}],"when":{"timespans":[{"start":{"in":"1299"},"end":{"in":"1299"}}]}},{"toponym":"Northold","citations":[{"label":"1593 N","year":1593}],"when":{"timespans":[{"start":{"in":"1593"},"end":{"in":"1593"}}]}},{"toponym":"Northolt","citations":[{"label":"1610 Speed","year":1610}],"when":{"timespans":[{"start":{"in":"1610"},"end":{"in":"1610"}}]}},{"toponym":"Northall al. Northolt","citations":[{"label":"1631 CantYB","year":1631}],"when":{"timespans":[{"start":{"in":"1631"},"end":{"in":"1631"}},{"start":{"in":"1649"},"end":{"in":"1649"}}]}},{"toponym":"Northoll","citations":[{"label":"1706 ParReg (Hillingdon)","year":1706}],"when":{"timespans":[{"start":{"in":"1706"},"end":{"in":"1706"}}]}}],"types":[{"identifier":"http://vocab.getty.edu/aat/300232418","label":"administrative division","sourceLabels":[{"label":"township","lang":"en"}]}],"geometry":{"type":"GeometryCollection","geometries":[{"type":"Point","coordinates":[-0.36778,51.54855],"citations":[{"label":"GeoNames, gazetteer record geonames:2641290"}]},{"type":"Point","coordinates":[-0.3629440339546318,51.54748568504715],"citations":[{"label":"Unlock (EDINA) gazetteer, gazetteer record unlock:11233545"}]},{"type":"Point","coordinates":[-0.378607,51.5572],"citations":[{"label":"Key to English Place-Names (KEPN), gazetteer record 4736"}]}]},"when":{"timespans":[{"start":{"in":"0960"},"end":{"in":"1706"}}]},"links":[{"type":"closeMatch","identifier":"https://sws.geonames.org/2641290/"}],"relations":[{"relationType":"gvp:broaderPartitive","relationTo":"https://w3id.org/whg-epns/18/001096","label":"within Northolt"}]}]}