{"@context":"https://raw.githubusercontent.com/LinkedPasts/linked-places-format/main/linkedplaces-context-v1.1.jsonld","type":"FeatureCollection","license":"Digitisation of English Placenames MADS data is licensed to Jisc by the English Place Names Society and released under a Creative Commons Attribution-NonCommercial 4.0 International License.","note":"LPF v1.3, lossy; derived from the PLATO record; plato_commit=ca0afadabec1e23a145c0b03df77e8f151f79832","features":[{"@id":"http://placenames.org.uk/id/placename/18/001261","type":"Feature","properties":{"title":"Uxbridge","ccodes":["GB"],"fclasses":["A","P"]},"names":[{"toponym":"Uxbridge","lang":"en","citations":[{"label":"English Place-Name Society survey, volume 18: Middlesex"}]},{"toponym":"Oxebruge","citations":[{"label":"c. 1145 Evesham","year":1135},{"label":"1198 Cur","year":1198}],"when":{"timespans":[{"start":{"earliest":"1135","latest":"1155"},"end":{"earliest":"1135","latest":"1155"}},{"start":{"in":"1198"},"end":{"in":"1198"}}]}},{"toponym":"Oxebric","citations":[{"label":"1208 Cur","year":1208}],"when":{"timespans":[{"start":{"in":"1208"},"end":{"in":"1208"}}]}},{"toponym":"Oxebrigg","citations":[{"label":"1235 Ass","year":1235}],"when":{"timespans":[{"start":{"in":"1235"},"end":{"in":"1235"}}]}},{"toponym":"Wixebrug'","citations":[{"label":"c. 1145 Evesham","year":1135}],"when":{"timespans":[{"start":{"earliest":"1135","latest":"1155"},"end":{"earliest":"1135","latest":"1155"}}]}},{"toponym":"Wyxebrigge","citations":[{"label":"1220 FF","year":1220},{"label":"1274 Ass","year":1274}],"when":{"timespans":[{"start":{"in":"1220"},"end":{"in":"1220"}},{"start":{"in":"1274"},"end":{"in":"1274"}},{"start":{"in":"1294"},"end":{"in":"1294"}}]}},{"toponym":"Wyxebruge","citations":[{"label":"1294 GDR","year":1294}],"when":{"timespans":[{"start":{"in":"1294"},"end":{"in":"1294"}}]}},{"toponym":"Wixebrigge","citations":[{"label":"1274 Ass","year":1274},{"label":"1277 Pat","year":1277}],"when":{"timespans":[{"start":{"in":"1274"},"end":{"in":"1274"}},{"start":{"in":"1277"},"end":{"in":"1277"}}]}},{"toponym":"Wixebrugg'","citations":[{"label":"1294 Ass","year":1294}],"when":{"timespans":[{"start":{"in":"1294"},"end":{"in":"1294"}}]}},{"toponym":"Wxsebrig'","citations":[{"label":"1198 Cur","year":1198}],"when":{"timespans":[{"start":{"in":"1198"},"end":{"in":"1198"}}]}},{"toponym":"Wxebrig'","citations":[{"label":"1274 Ass","year":1274}],"when":{"timespans":[{"start":{"in":"1274"},"end":{"in":"1274"}}]}},{"toponym":"Uxebrigg(e)","citations":[{"label":"1200 P","year":1200},{"label":"1235 Ass","year":1235},{"label":"1515 FF","year":1515}],"when":{"timespans":[{"start":{"in":"1200"},"end":{"in":"1200"}},{"start":{"in":"1235"},"end":{"in":"1235"}},{"start":{"in":"1274"},"end":{"in":"1274"}},{"start":{"in":"1515"},"end":{"in":"1515"}}]}},{"toponym":"Uxebrugg(e)","citations":[{"label":"1219 P","year":1219}],"when":{"timespans":[{"start":{"in":"1219"},"end":{"in":"1219"}}]}},{"toponym":"Uxebregge","citations":[{"label":"1230 StPaulsCh","year":1230}],"when":{"timespans":[{"start":{"in":"1230"},"end":{"in":"1230"}}]}},{"toponym":"Uxebrige","citations":[{"label":"1311 Ipm","year":1311}],"when":{"timespans":[{"start":{"in":"1311"},"end":{"in":"1311"}}]}},{"toponym":"Uxebridge","citations":[{"label":"1560 FF","year":1560}],"when":{"timespans":[{"start":{"in":"1560"},"end":{"in":"1560"}}]}},{"toponym":"Woxebruge","citations":[{"label":"1219–1433, recurring FF","year":1219},{"label":"1219–1433, recurring FF"},{"label":"1219 FF","year":1219},{"label":"1433 FF","year":1433}],"when":{"timespans":[{"start":{"in":"1219"},"end":{"in":"1433"}},{"start":{"in":"1219"},"end":{"in":"1219"}},{"start":{"in":"1433"},"end":{"in":"1433"}}]}},{"toponym":"Woxebrigg(e), Woxebregg(e)","citations":[{"label":"1219-1433 unspecified sources","year":1219}],"when":{"timespans":[{"start":{"in":"1219"},"end":{"in":"1433"}}]}},{"toponym":"Woxbregge","citations":[{"label":"1310 Ipm","year":1310}],"when":{"timespans":[{"start":{"in":"1310"},"end":{"in":"1310"}}]}},{"toponym":"Woxbrygge","citations":[{"label":"1415 Pat","year":1415}],"when":{"timespans":[{"start":{"in":"1415"},"end":{"in":"1415"}}]}},{"toponym":"Wokesbrygge","citations":[{"label":"1434 PCC","year":1434}],"when":{"timespans":[{"start":{"in":"1434"},"end":{"in":"1434"}}]}},{"toponym":"Woxbridge","citations":[{"label":"1493 FF","year":1493}],"when":{"timespans":[{"start":{"in":"1493"},"end":{"in":"1493"}}]}},{"toponym":"Wuxebr'","citations":[{"label":"1235 Ass","year":1235}],"when":{"timespans":[{"start":{"in":"1235"},"end":{"in":"1235"}}]}},{"toponym":"Wuxebrug(g)","citations":[{"label":"1242 Cl","year":1242},{"label":"1294 Ass","year":1294}],"when":{"timespans":[{"start":{"in":"1242"},"end":{"in":"1242"}},{"start":{"in":"1294"},"end":{"in":"1294"}}]}},{"toponym":"Wuxbrigge","citations":[{"label":"1422 Pat","year":1422}],"when":{"timespans":[{"start":{"in":"1422"},"end":{"in":"1422"}}]}},{"toponym":"Wexebrigg(e)","citations":[{"label":"1274 Ass","year":1274}],"when":{"timespans":[{"start":{"in":"1274"},"end":{"in":"1274"}}]}},{"toponym":"Wexebrugge","citations":[{"label":"1294 Ch","year":1294}],"when":{"timespans":[{"start":{"in":"1294"},"end":{"in":"1294"}}]}},{"toponym":"Wexebregg","citations":[{"label":"1428 FA","year":1428}],"when":{"timespans":[{"start":{"in":"1428"},"end":{"in":"1428"}}]}},{"toponym":"Woxenbrugg","citations":[{"label":"1389 Pat","year":1389}],"when":{"timespans":[{"start":{"in":"1389"},"end":{"in":"1389"}}]}},{"toponym":"Woxenbrugge al. Uxbridge","citations":[{"label":"1398 IpmR","year":1398}],"when":{"timespans":[{"start":{"in":"1398"},"end":{"in":"1398"}}]}},{"toponym":"Wokysbregge","citations":[{"label":"1467 Pat","year":1467}],"when":{"timespans":[{"start":{"in":"1467"},"end":{"in":"1467"}}]}},{"toponym":"Wooxbryge","citations":[{"label":"1547 FF","year":1547}],"when":{"timespans":[{"start":{"in":"1547"},"end":{"in":"1547"}}]}}],"types":[{"identifier":"http://vocab.getty.edu/aat/300232418","label":"administrative division","sourceLabels":[{"label":"township","lang":"en"}]}],"geometry":{"type":"GeometryCollection","geometries":[{"type":"Point","coordinates":[-0.47961,51.54619],"citations":[{"label":"GeoNames, gazetteer record geonames:2635042"}]},{"type":"Point","coordinates":[-0.478585669969246,51.54004920937532],"citations":[{"label":"Unlock (EDINA) gazetteer, gazetteer record unlock:11310970"}]},{"type":"Point","coordinates":[-0.480139,51.5406],"citations":[{"label":"Key to English Place-Names (KEPN), gazetteer record 4740"}]}]},"when":{"timespans":[{"start":{"in":"1135"},"end":{"in":"1560"}}]},"links":[{"type":"closeMatch","identifier":"https://sws.geonames.org/2635042/"}],"relations":[{"relationType":"gvp:broaderPartitive","relationTo":"http://placenames.org.uk/id/placename/18/001260","label":"within Uxbridge"}]}]}