{"@context":"https://raw.githubusercontent.com/LinkedPasts/linked-places-format/main/linkedplaces-context-v1.1.jsonld","type":"FeatureCollection","license":"Digitisation of English Placenames MADS data is licensed to Jisc by the English Place Names Society and released under a Creative Commons Attribution-NonCommercial 4.0 International License.","note":"LPF v1.3, lossy; derived from the PLATO record; plato_commit=ca0afadabec1e23a145c0b03df77e8f151f79832","features":[{"@id":"http://placenames.org.uk/id/placename/18/001312","type":"Feature","properties":{"title":"Edgware","ccodes":["GB"],"fclasses":["A","P"]},"names":[{"toponym":"Edgware","lang":"en","citations":[{"label":"English Place-Name Society survey, volume 18: Middlesex"}]}],"types":[{"identifier":"http://vocab.getty.edu/aat/300232418","label":"administrative division","sourceLabels":[{"label":"parish","lang":"en"}]}],"geometry":{"type":"GeometryCollection","geometries":[{"type":"Point","coordinates":[-0.27539,51.6128],"citations":[{"label":"GeoNames, gazetteer record geonames:2650228"}]},{"type":"Point","coordinates":[-0.2737214158010474,51.61815315529818],"citations":[{"label":"Unlock (EDINA) gazetteer, gazetteer record unlock:11138026"}]},{"type":"Point","coordinates":[-0.260865,51.6184],"citations":[{"label":"Key to English Place-Names (KEPN), gazetteer record 4742"}]}]},"links":[{"type":"closeMatch","identifier":"https://sws.geonames.org/2650228/"}],"relations":[{"relationType":"gvp:broaderPartitive","relationTo":"http://placenames.org.uk/id/placename/18/001305","label":"within Gore Hundred"}]}]}