{"@context":"https://raw.githubusercontent.com/LinkedPasts/linked-places-format/main/linkedplaces-context-v1.1.jsonld","type":"FeatureCollection","license":"Digitisation of English Placenames MADS data is licensed to Jisc by the English Place Names Society and released under a Creative Commons Attribution-NonCommercial 4.0 International License.","note":"LPF v1.3, lossy; derived from the PLATO record; plato_commit=fa0d247ccc0263f8f19c8d7cdcd163df96935d1e","features":[{"@id":"https://w3id.org/whg-epns/18/003238","type":"Feature","properties":{"title":"Hackney","ccodes":["GB"],"fclasses":["A","P"]},"names":[{"toponym":"Hackney","lang":"en","citations":[{"label":"English Place-Name Society survey, volume 18: Middlesex"}]},{"toponym":"Hakeneia","citations":[{"label":"1198 Cur","year":1198}],"when":{"timespans":[{"start":{"in":"1198"},"end":{"in":"1198"}}]}},{"toponym":"Hakeneye","citations":[{"label":"1236 Cl","year":1236},{"label":"Fees","year":1242},{"label":"Ct"},{"label":"1242 Fees","year":1242},{"label":"1443 Ct","year":1443}],"when":{"timespans":[{"start":{"in":"1236"},"end":{"in":"1236"}},{"start":{"in":"1242"},"end":{"in":"1443"}},{"start":{"in":"1242"},"end":{"in":"1242"}},{"start":{"in":"1443"},"end":{"in":"1443"}}]}},{"toponym":"Hakenei(e), Hakeney(e)","citations":[{"label":"1242-1443 unspecified sources","year":1242}],"when":{"timespans":[{"start":{"in":"1242"},"end":{"in":"1443"}}]}},{"toponym":"Hakne","citations":[{"label":"1231 FF","year":1231}],"when":{"timespans":[{"start":{"in":"1231"},"end":{"in":"1231"}}]}},{"toponym":"Hackeneye","citations":[{"label":"1253 Cl","year":1253}],"when":{"timespans":[{"start":{"in":"1253"},"end":{"in":"1253"}}]}},{"toponym":"Hackney","citations":[{"label":"1535 VE","year":1535}],"when":{"timespans":[{"start":{"in":"1535"},"end":{"in":"1535"}}]}},{"toponym":"Hacquenye","citations":[{"label":"1593 N","year":1593}],"when":{"timespans":[{"start":{"in":"1593"},"end":{"in":"1593"}}]}},{"toponym":"Hekeney","citations":[{"label":"1314 Pat","year":1314}],"when":{"timespans":[{"start":{"in":"1314"},"end":{"in":"1314"}}]}}],"types":[{"identifier":"http://vocab.getty.edu/aat/300232418","label":"administrative division","sourceLabels":[{"label":"township","lang":"en"}]}],"geometry":{"type":"GeometryCollection","geometries":[{"type":"Point","coordinates":[-0.05,51.55],"citations":[{"label":"GeoNames, gazetteer record geonames:2647694"}]},{"type":"Point","coordinates":[-0.0602248423289917,51.54287049047998],"citations":[{"label":"Unlock (EDINA) gazetteer, gazetteer record unlock:11163051"}]},{"type":"Point","coordinates":[-0.0470302,51.5521],"citations":[{"label":"Key to English Place-Names (KEPN), gazetteer record 4773"}]}]},"when":{"timespans":[{"start":{"in":"1198"},"end":{"in":"1593"}}]},"links":[{"type":"closeMatch","identifier":"https://sws.geonames.org/2647694/"}],"relations":[{"relationType":"gvp:broaderPartitive","relationTo":"https://w3id.org/whg-epns/18/003237","label":"within The Borough of Hackney"}]}]}