{"@context":"https://raw.githubusercontent.com/LinkedPasts/linked-places-format/main/linkedplaces-context-v1.1.jsonld","type":"FeatureCollection","license":"Digitisation of English Placenames MADS data is licensed to Jisc by the English Place Names Society and released under a Creative Commons Attribution-NonCommercial 4.0 International License.","note":"LPF v1.3, lossy; derived from the PLATO record; plato_commit=fa0d247ccc0263f8f19c8d7cdcd163df96935d1e","features":[{"@id":"https://w3id.org/whg-epns/18/004151","type":"Feature","properties":{"title":"Paddington","ccodes":["GB"],"fclasses":["A","P"]},"names":[{"toponym":"Paddington","lang":"en","citations":[{"label":"English Place-Name Society survey, volume 18: Middlesex"}]},{"toponym":"(in) Padintune","citations":[{"label":"959 BCS","year":959},{"label":"t. Hy 3 BM","year":1216},{"label":"1222 Westlake","year":1222}],"when":{"timespans":[{"start":{"in":"0959"},"end":{"in":"0959"}},{"start":{"earliest":"1216","latest":"1272"},"end":{"earliest":"1216","latest":"1272"}},{"start":{"in":"1222"},"end":{"in":"1222"}}]}},{"toponym":"Padinton(e)","citations":[{"label":"c. 1110 Crispin","year":1100},{"label":"1168 P","year":1168},{"label":"1185 Templars","year":1185},{"label":"1224 FF","year":1224},{"label":"1291 Tax","year":1291}],"when":{"timespans":[{"start":{"earliest":"1100","latest":"1120"},"end":{"earliest":"1100","latest":"1120"}},{"start":{"in":"1168"},"end":{"in":"1168"}},{"start":{"in":"1185"},"end":{"in":"1185"}},{"start":{"in":"1224"},"end":{"in":"1224"}},{"start":{"in":"1291"},"end":{"in":"1291"}}]}},{"toponym":"Padynton","citations":[{"label":"1316 FA","year":1316}],"when":{"timespans":[{"start":{"in":"1316"},"end":{"in":"1316"}}]}},{"toponym":"Paddingtone","citations":[{"label":"998 Thorpe","year":998}],"when":{"timespans":[{"start":{"in":"0998"},"end":{"in":"0998"}}]}},{"toponym":"Paddington","citations":[{"label":"1493 FF","year":1493}],"when":{"timespans":[{"start":{"in":"1493"},"end":{"in":"1493"}}]}},{"toponym":"Padington","citations":[{"label":"1042-66 WAM","year":1042},{"label":"1274 Ass","year":1274},{"label":"1321 FF","year":1321}],"when":{"timespans":[{"start":{"earliest":"1042","latest":"1066"},"end":{"earliest":"1042","latest":"1066"}},{"start":{"in":"1274"},"end":{"in":"1274"}},{"start":{"in":"1321"},"end":{"in":"1321"}}]}},{"toponym":"Padyngton","citations":[{"label":"1294 Ass","year":1294},{"label":"1353 FF","year":1353}],"when":{"timespans":[{"start":{"in":"1294"},"end":{"in":"1294"}},{"start":{"in":"1353"},"end":{"in":"1353"}},{"start":{"in":"1422"},"end":{"in":"1422"}}]}},{"toponym":"Patintone","citations":[{"label":"c. 1110 Crispin","year":1100}],"when":{"timespans":[{"start":{"earliest":"1100","latest":"1120"},"end":{"earliest":"1100","latest":"1120"}}]}},{"toponym":"Patyngton","citations":[{"label":"1398 Pat","year":1398}],"when":{"timespans":[{"start":{"in":"1398"},"end":{"in":"1398"}},{"start":{"in":"1493"},"end":{"in":"1493"}}]}}],"types":[{"identifier":"http://vocab.getty.edu/aat/300232418","label":"administrative division","sourceLabels":[{"label":"township","lang":"en"}]}],"geometry":{"type":"GeometryCollection","geometries":[{"type":"Point","coordinates":[-0.1763,51.51558],"citations":[{"label":"GeoNames, gazetteer record geonames:2640692"}]},{"type":"Point","coordinates":[-0.1766147353745258,51.51775700441855],"citations":[{"label":"Unlock (EDINA) gazetteer, gazetteer record unlock:11238512"}]},{"type":"Point","coordinates":[-0.178202,51.5183],"citations":[{"label":"Key to English Place-Names (KEPN), gazetteer record 4789"}]}]},"when":{"timespans":[{"start":{"in":"0959"},"end":{"in":"1493"}}]},"links":[{"type":"closeMatch","identifier":"https://sws.geonames.org/2640692/"}],"relations":[{"relationType":"gvp:broaderPartitive","relationTo":"https://w3id.org/whg-epns/18/004150","label":"within The Borough of Paddington"}]}]}