{"@context":"https://raw.githubusercontent.com/LinkedPasts/linked-places-format/main/linkedplaces-context-v1.1.jsonld","type":"FeatureCollection","license":"Digitisation of English Placenames MADS data is licensed to Jisc by the English Place Names Society and released under a Creative Commons Attribution-NonCommercial 4.0 International License.","note":"LPF v1.3, lossy; derived from the PLATO record; plato_commit=ca0afadabec1e23a145c0b03df77e8f151f79832","features":[{"@id":"https://w3id.org/whg-epns/18/004804","type":"Feature","properties":{"title":"The Liberty of East Smithfield","ccodes":["GB"],"fclasses":["A"]},"names":[{"toponym":"The Liberty of East Smithfield","lang":"en","citations":[{"label":"English Place-Name Society survey, volume 18: Middlesex"}]},{"toponym":"Estsmethefeld juxta Turrim","citations":[{"label":"1229 Cl","year":1229}],"when":{"timespans":[{"start":{"in":"1229"},"end":{"in":"1229"}}]}},{"toponym":"Est Smythefeld","citations":[{"label":"1272 FF","year":1272}],"when":{"timespans":[{"start":{"in":"1272"},"end":{"in":"1272"}}]}},{"toponym":"Est Smethefeld","citations":[{"label":"1274 Ass","year":1274},{"label":"1275 RH","year":1275}],"when":{"timespans":[{"start":{"in":"1274"},"end":{"in":"1274"}},{"start":{"in":"1275"},"end":{"in":"1275"}}]}},{"toponym":"Smethefeud","citations":[{"label":"1297 Ipm","year":1297}],"when":{"timespans":[{"start":{"in":"1297"},"end":{"in":"1297"}}]}}],"types":[{"identifier":"http://vocab.getty.edu/aat/300232418","label":"administrative division","sourceLabels":[{"label":"liberty","lang":"en"}]}],"geometry":null,"when":{"timespans":[{"start":{"in":"1229"},"end":{"in":"1297"}}]},"relations":[{"relationType":"gvp:broaderPartitive","relationTo":"https://w3id.org/whg-epns/18/004660","label":"within The Borough of Stepney"}]}]}