{"@context":"https://raw.githubusercontent.com/LinkedPasts/linked-places-format/main/linkedplaces-context-v1.1.jsonld","type":"FeatureCollection","license":"Digitisation of English Placenames MADS data is licensed to Jisc by the English Place Names Society and released under a Creative Commons Attribution-NonCommercial 4.0 International License.","note":"LPF v1.3, lossy; derived from the PLATO record; plato_commit=ca0afadabec1e23a145c0b03df77e8f151f79832","features":[{"@id":"http://placenames.org.uk/id/placename/18/005103","type":"Feature","properties":{"title":"Stoke Newington","ccodes":["GB"],"fclasses":["A","P"]},"names":[{"toponym":"Stoke Newington","lang":"en","citations":[{"label":"English Place-Name Society survey, volume 18: Middlesex"}]},{"toponym":"Neutone","citations":[{"label":"1086 DB","year":1086}],"when":{"timespans":[{"start":{"in":"1086"},"end":{"in":"1086"}}]}},{"toponym":"Neutona","citations":[{"label":"1152-60 BM","year":1152}],"when":{"timespans":[{"start":{"earliest":"1152","latest":"1160"},"end":{"earliest":"1152","latest":"1160"}}]}},{"toponym":"Neweton","citations":[{"label":"1197 FF","year":1197}],"when":{"timespans":[{"start":{"in":"1197"},"end":{"in":"1197"}}]}},{"toponym":"Newtun","citations":[{"label":"1245 Ch","year":1245}],"when":{"timespans":[{"start":{"in":"1245"},"end":{"in":"1245"}}]}},{"toponym":"Newtun Canonicorum","citations":[{"label":"1254 Val","year":1254},{"label":"1322 Pat","year":1322}],"when":{"timespans":[{"start":{"in":"1254"},"end":{"in":"1254"}},{"start":{"in":"1322"},"end":{"in":"1322"}}]}},{"toponym":"Neuton juxta Clerekennewelle","citations":[{"label":"1274 FF","year":1274}],"when":{"timespans":[{"start":{"in":"1274"},"end":{"in":"1274"}}]}},{"toponym":"Newinthon","citations":[{"label":"1255 Misc","year":1255}],"when":{"timespans":[{"start":{"in":"1255"},"end":{"in":"1255"}}]}},{"toponym":"Newenton","citations":[{"label":"1274 Ass","year":1274}],"when":{"timespans":[{"start":{"in":"1274"},"end":{"in":"1274"}}]}},{"toponym":"Newynton","citations":[{"label":"1286 Ch","year":1286},{"label":"1387 Pat","year":1387}],"when":{"timespans":[{"start":{"in":"1286"},"end":{"in":"1286"}},{"start":{"in":"1387"},"end":{"in":"1387"}}]}},{"toponym":"Neweton Stocking, Stoken","citations":[{"label":"1274 Ass","year":1274}],"when":{"timespans":[{"start":{"in":"1274"},"end":{"in":"1274"}}]}},{"toponym":"Stokneweton","citations":[{"label":"1274 Ass","year":1274}],"when":{"timespans":[{"start":{"in":"1274"},"end":{"in":"1274"}}]}},{"toponym":"Stokene Neuton, Stoke Newenton","citations":[{"label":"1294 Ass","year":1294}],"when":{"timespans":[{"start":{"in":"1294"},"end":{"in":"1294"}}]}},{"toponym":"Stokneuton","citations":[{"label":"1316 FA","year":1316}],"when":{"timespans":[{"start":{"in":"1316"},"end":{"in":"1316"}}]}},{"toponym":"Stokeneweton","citations":[{"label":"1391 Pat","year":1391}],"when":{"timespans":[{"start":{"in":"1391"},"end":{"in":"1391"}}]}},{"toponym":"Stokenewnton","citations":[{"label":"1459 BM","year":1459}],"when":{"timespans":[{"start":{"in":"1459"},"end":{"in":"1459"}}]}},{"toponym":"Stokenewington","citations":[{"label":"1535 VE","year":1535}],"when":{"timespans":[{"start":{"in":"1535"},"end":{"in":"1535"}}]}},{"toponym":"Newington","citations":[{"label":"1549 FF","year":1549}],"when":{"timespans":[{"start":{"in":"1549"},"end":{"in":"1549"}}]}}],"types":[{"identifier":"http://vocab.getty.edu/aat/300232418","label":"administrative division","sourceLabels":[{"label":"township","lang":"en"}]}],"geometry":{"type":"GeometryCollection","geometries":[{"type":"Point","coordinates":[-0.07401,51.56246],"citations":[{"label":"GeoNames, gazetteer record geonames:2636843"}]},{"type":"Point","coordinates":[-0.07387892541493575,51.56108265311848],"citations":[{"label":"Unlock (EDINA) gazetteer, gazetteer record unlock:11292762"}]},{"type":"Point","coordinates":[-0.0898973,51.5618],"citations":[{"label":"Key to English Place-Names (KEPN), gazetteer record 4799"}]}]},"when":{"timespans":[{"start":{"in":"1086"},"end":{"in":"1549"}}]},"links":[{"type":"closeMatch","identifier":"https://sws.geonames.org/2636843/"}],"relations":[{"relationType":"gvp:broaderPartitive","relationTo":"http://placenames.org.uk/id/placename/18/005102","label":"within The Borough of Stoke Newington"}]}]}