{"@context":"https://raw.githubusercontent.com/LinkedPasts/linked-places-format/main/linkedplaces-context-v1.1.jsonld","type":"FeatureCollection","license":"Digitisation of English Placenames MADS data is licensed to Jisc by the English Place Names Society and released under a Creative Commons Attribution-NonCommercial 4.0 International License.","note":"LPF v1.3, lossy; derived from the PLATO record; plato_commit=fa0d247ccc0263f8f19c8d7cdcd163df96935d1e","features":[{"@id":"https://w3id.org/whg-epns/23/000308","type":"Feature","properties":{"title":"Cowley","ccodes":["GB"],"fclasses":["A","P"]},"names":[{"toponym":"Cowley","lang":"en","citations":[{"label":"English Place-Name Society survey, volume 23: Oxfordshire"}]},{"toponym":"Couelea","citations":[{"label":"Frid","year":1004},{"label":"FA"},{"label":"1004 Frid","year":1004},{"label":"1428 FA","year":1428}],"when":{"timespans":[{"start":{"in":"1004"},"end":{"in":"1428"}},{"start":{"in":"1004"},"end":{"in":"1004"}},{"start":{"in":"1428"},"end":{"in":"1428"}}]}},{"toponym":"Covelie, Couele(ya), Coueleia, Couel', Couela(i), Covelai, Couelay, Covel', Coueley","citations":[{"label":"1004-1428 unspecified sources","year":1004}],"when":{"timespans":[{"start":{"in":"1004"},"end":{"in":"1428"}}]}},{"toponym":"Couel","citations":[{"label":"1246 Ch","year":1246}],"when":{"timespans":[{"start":{"in":"1246"},"end":{"in":"1246"}}]}},{"toponym":"Parva Couele","citations":[{"label":"1247 S","year":1247}],"when":{"timespans":[{"start":{"in":"1247"},"end":{"in":"1247"}}]}},{"toponym":"Chirchecouele","citations":[{"label":"c. 1250 S","year":1240},{"label":"1328 Cl","year":1328}],"when":{"timespans":[{"start":{"earliest":"1240","latest":"1260"},"end":{"earliest":"1240","latest":"1260"}},{"start":{"in":"1328"},"end":{"in":"1328"}}]}},{"toponym":"Chirchcouele","citations":[{"label":"1278-9 RH","year":1278}],"when":{"timespans":[{"start":{"earliest":"1278","latest":"1279"},"end":{"earliest":"1278","latest":"1279"}}]}},{"toponym":"Chirche Couele","citations":[{"label":"1285 Ass","year":1285}],"when":{"timespans":[{"start":{"in":"1285"},"end":{"in":"1285"}}]}},{"toponym":"Church Couele","citations":[{"label":"1316 FA","year":1316},{"label":"1323 Cl","year":1323}],"when":{"timespans":[{"start":{"in":"1316"},"end":{"in":"1316"}},{"start":{"in":"1323"},"end":{"in":"1323"}}]}},{"toponym":"Churchcovell","citations":[{"label":"1307 Os","year":1307}],"when":{"timespans":[{"start":{"in":"1307"},"end":{"in":"1307"}}]}},{"toponym":"Couleia","citations":[{"label":"1140-1 Frid","year":1140}],"when":{"timespans":[{"start":{"earliest":"1140","latest":"1141"},"end":{"earliest":"1140","latest":"1141"}}]}},{"toponym":"Cuueleia","citations":[{"label":"1199 Frid","year":1199}],"when":{"timespans":[{"start":{"in":"1199"},"end":{"in":"1199"}}]}},{"toponym":"Cuueleye","citations":[{"label":"1230 P","year":1230}],"when":{"timespans":[{"start":{"in":"1230"},"end":{"in":"1230"}}]}},{"toponym":"Cuuele","citations":[{"label":"1241 FF","year":1241}],"when":{"timespans":[{"start":{"in":"1241"},"end":{"in":"1241"}}]}},{"toponym":"Cuueley","citations":[{"label":"1285 Ass","year":1285}],"when":{"timespans":[{"start":{"in":"1285"},"end":{"in":"1285"}}]}},{"toponym":"Cuveley","citations":[{"label":"1294 Cl","year":1294}],"when":{"timespans":[{"start":{"in":"1294"},"end":{"in":"1294"}}]}},{"toponym":"Kofleya","citations":[{"label":"c. 1220 Os","year":1210}],"when":{"timespans":[{"start":{"earliest":"1210","latest":"1230"},"end":{"earliest":"1210","latest":"1230"}}]}},{"toponym":"Coflye","citations":[{"label":"1220 Fees","year":1220}],"when":{"timespans":[{"start":{"in":"1220"},"end":{"in":"1220"}}]}},{"toponym":"Cofleya","citations":[{"label":"1237-8 St John","year":1237}],"when":{"timespans":[{"start":{"earliest":"1237","latest":"1238"},"end":{"earliest":"1237","latest":"1238"}}]}},{"toponym":"Cofle","citations":[{"label":"1242-3 Fees","year":1242},{"label":"1246 Ch","year":1246}],"when":{"timespans":[{"start":{"earliest":"1242","latest":"1243"},"end":{"earliest":"1242","latest":"1243"}},{"start":{"in":"1246"},"end":{"in":"1246"}}]}},{"toponym":"Coflea","citations":[{"label":"1278-9 RH","year":1278}],"when":{"timespans":[{"start":{"earliest":"1278","latest":"1279"},"end":{"earliest":"1278","latest":"1279"}}]}},{"toponym":"Chouele","citations":[{"label":"1271-2 St John","year":1271}],"when":{"timespans":[{"start":{"earliest":"1271","latest":"1272"},"end":{"earliest":"1271","latest":"1272"}}]}},{"toponym":"Cohfleye","citations":[{"label":"c. 1290 St John","year":1280}],"when":{"timespans":[{"start":{"earliest":"1280","latest":"1300"},"end":{"earliest":"1280","latest":"1300"}}]}},{"toponym":"Church Cowley et Tempull Cowley","citations":[{"label":"1509-10 Os","year":1509}],"when":{"timespans":[{"start":{"earliest":"1509","latest":"1510"},"end":{"earliest":"1509","latest":"1510"}}]}}],"types":[{"identifier":"http://vocab.getty.edu/aat/300232418","label":"administrative division","sourceLabels":[{"label":"township","lang":"en"}]}],"geometry":{"type":"GeometryCollection","geometries":[{"type":"Point","coordinates":[-1.20742,51.73139],"citations":[{"label":"GeoNames, gazetteer record geonames:2652191"}]},{"type":"Point","coordinates":[-1.196193469205113,51.7360026109353],"citations":[{"label":"Unlock (EDINA) gazetteer, gazetteer record unlock:11118152"}]},{"type":"Point","coordinates":[-1.19767,51.7365],"citations":[{"label":"Key to English Place-Names (KEPN), gazetteer record 3523"}]}]},"when":{"timespans":[{"start":{"in":"1004"},"end":{"in":"1510"}}]},"links":[{"type":"closeMatch","identifier":"https://sws.geonames.org/2652191/"}],"relations":[{"relationType":"gvp:broaderPartitive","relationTo":"https://w3id.org/whg-epns/23/000307","label":"within Cowley"}]}]}