{"@context":"https://raw.githubusercontent.com/LinkedPasts/linked-places-format/main/linkedplaces-context-v1.1.jsonld","type":"FeatureCollection","license":"Digitisation of English Placenames MADS data is licensed to Jisc by the English Place Names Society and released under a Creative Commons Attribution-NonCommercial 4.0 International License.","note":"LPF v1.3, lossy; derived from the PLATO record; plato_commit=ca0afadabec1e23a145c0b03df77e8f151f79832","features":[{"@id":"https://w3id.org/whg-epns/23/001763","type":"Feature","properties":{"title":"Mapledurham","ccodes":["GB"],"fclasses":["A","P"]},"names":[{"toponym":"Mapledurham","lang":"en","citations":[{"label":"English Place-Name Society survey, volume 23: Oxfordshire"}]},{"toponym":"Mapeldreham","citations":[{"label":"1086 DB","year":1086},{"label":"c. 1180 Cooke","year":1170},{"label":"1184 Ex","year":1184},{"label":"1285 Ass","year":1285}],"when":{"timespans":[{"start":{"in":"1086"},"end":{"in":"1086"}},{"start":{"earliest":"1170","latest":"1190"},"end":{"earliest":"1170","latest":"1190"}},{"start":{"in":"1184"},"end":{"in":"1184"}},{"start":{"in":"1285"},"end":{"in":"1285"}}]}},{"toponym":"Malpedreham","citations":[{"label":"1086 DB","year":1086}],"when":{"timespans":[{"start":{"in":"1086"},"end":{"in":"1086"}}]}},{"toponym":"Mapildreham","citations":[{"label":"1184 Os","year":1184}],"when":{"timespans":[{"start":{"in":"1184"},"end":{"in":"1184"}}]}},{"toponym":"Mapelderham","citations":[{"label":"1209–1286, recurring WellsR","year":1209},{"label":"1209–1286, recurring AD"},{"label":"1209-35 WellsR","year":1209},{"label":"1286 AD","year":1286}],"when":{"timespans":[{"start":{"in":"1209"},"end":{"in":"1286"}},{"start":{"earliest":"1209","latest":"1235"},"end":{"earliest":"1209","latest":"1235"}},{"start":{"in":"1286"},"end":{"in":"1286"}}]}},{"toponym":"Mapelderham Gurnay","citations":[{"label":"1220–1300, recurring Fees","year":1220},{"label":"1220–1300, recurring Ipm"},{"label":"1220 Fees","year":1220},{"label":"1300 Ipm","year":1300}],"when":{"timespans":[{"start":{"in":"1220"},"end":{"in":"1300"}},{"start":{"in":"1220"},"end":{"in":"1220"}},{"start":{"in":"1300"},"end":{"in":"1300"}}]}},{"toponym":"Mapelderham Gornay, Mapelderham Gurney, Mappelderham Gorney","citations":[{"label":"1220-1300 unspecified sources","year":1220}],"when":{"timespans":[{"start":{"in":"1220"},"end":{"in":"1300"}}]}},{"toponym":"Mapelderham Clause, Mapelderham Chasy","citations":[{"label":"1268 Ass","year":1268}],"when":{"timespans":[{"start":{"in":"1268"},"end":{"in":"1268"}}]}},{"toponym":"Mapelderham Thanseye","citations":[{"label":"1285 Ass","year":1285}],"when":{"timespans":[{"start":{"in":"1285"},"end":{"in":"1285"}}]}},{"toponym":"Mapelderhamchausee","citations":[{"label":"1300 Ipm","year":1300}],"when":{"timespans":[{"start":{"in":"1300"},"end":{"in":"1300"}}]}},{"toponym":"Mapelderham Gorney cum Mapelderham Chaucy","citations":[{"label":"1316 FA","year":1316}],"when":{"timespans":[{"start":{"in":"1316"},"end":{"in":"1316"}}]}},{"toponym":"Mapultreham","citations":[{"label":"1087 EHR","year":1087}],"when":{"timespans":[{"start":{"in":"1087"},"end":{"in":"1087"}},{"start":{"earliest":"1100","latest":"1120"},"end":{"earliest":"1100","latest":"1120"}}]}},{"toponym":"Mapeltreham Chausi","citations":[{"label":"1246-7 Ass","year":1246}],"when":{"timespans":[{"start":{"earliest":"1246","latest":"1247"},"end":{"earliest":"1246","latest":"1247"}}]}},{"toponym":"Mapulderham","citations":[{"label":"c. 1160 Oxoniensia","year":1150},{"label":"a. 1251 BC","year":1201}],"when":{"timespans":[{"start":{"earliest":"1150","latest":"1170"},"end":{"earliest":"1150","latest":"1170"}},{"start":{"earliest":"1201","latest":"1251"},"end":{"earliest":"1201","latest":"1251"}}]}},{"toponym":"Mapuldurham","citations":[{"label":"1274-5 RH","year":1274},{"label":"1285 Ass","year":1285},{"label":"1395 Cl","year":1395}],"when":{"timespans":[{"start":{"earliest":"1274","latest":"1275"},"end":{"earliest":"1274","latest":"1275"}},{"start":{"in":"1285"},"end":{"in":"1285"}},{"start":{"in":"1395"},"end":{"in":"1395"}}]}},{"toponym":"Mapuldureham","citations":[{"label":"1285 Ass","year":1285}],"when":{"timespans":[{"start":{"in":"1285"},"end":{"in":"1285"}}]}},{"toponym":"Mapuldurham Chausy","citations":[{"label":"1350 Cooke","year":1350}],"when":{"timespans":[{"start":{"in":"1350"},"end":{"in":"1350"}}]}},{"toponym":"Mapuldurham Bardolf","citations":[{"label":"1389 Cooke","year":1389}],"when":{"timespans":[{"start":{"in":"1389"},"end":{"in":"1389"}}]}},{"toponym":"Mapuldurham Chausey, Mapuldurgurney","citations":[{"label":"1395-9 Cooke","year":1395}],"when":{"timespans":[{"start":{"earliest":"1395","latest":"1399"},"end":{"earliest":"1395","latest":"1399"}}]}},{"toponym":"Mapuldurgorneye","citations":[{"label":"1416 Cooke","year":1416}],"when":{"timespans":[{"start":{"in":"1416"},"end":{"in":"1416"}}]}},{"toponym":"Mapeldureham","citations":[{"label":"c. 1180 Cooke","year":1170},{"label":"1218 FF","year":1218}],"when":{"timespans":[{"start":{"earliest":"1170","latest":"1190"},"end":{"earliest":"1170","latest":"1190"}},{"start":{"in":"1218"},"end":{"in":"1218"}}]}},{"toponym":"Mapeldureham Hugonis de Gurnai","citations":[{"label":"1195 P","year":1195}],"when":{"timespans":[{"start":{"in":"1195"},"end":{"in":"1195"}}]}},{"toponym":"Mapeldurham","citations":[{"label":"1220–1428, recurring Fees","year":1220},{"label":"1220–1428, recurring FA"},{"label":"1220 Fees","year":1220},{"label":"1428 FA","year":1428}],"when":{"timespans":[{"start":{"in":"1220"},"end":{"in":"1428"}},{"start":{"in":"1220"},"end":{"in":"1220"}},{"start":{"in":"1428"},"end":{"in":"1428"}}]}},{"toponym":"Mappeldurham","citations":[{"label":"1220-1428 unspecified sources","year":1220}],"when":{"timespans":[{"start":{"in":"1220"},"end":{"in":"1428"}}]}},{"toponym":"Mapeldureham Gurnay","citations":[{"label":"1240-1 Ass","year":1240}],"when":{"timespans":[{"start":{"earliest":"1240","latest":"1241"},"end":{"earliest":"1240","latest":"1241"}}]}},{"toponym":"Mapelduram","citations":[{"label":"1250 Fine","year":1250}],"when":{"timespans":[{"start":{"in":"1250"},"end":{"in":"1250"}}]}},{"toponym":"Parva Mapeldurham","citations":[{"label":"1254-5 RH","year":1254}],"when":{"timespans":[{"start":{"earliest":"1254","latest":"1255"},"end":{"earliest":"1254","latest":"1255"}}]}},{"toponym":"Mapeldurham Chazey","citations":[{"label":"1261 Cooke","year":1261},{"label":"1486 Cooke","year":1486}],"when":{"timespans":[{"start":{"in":"1261"},"end":{"in":"1261"}},{"start":{"in":"1486"},"end":{"in":"1486"}}]}},{"toponym":"Mapeldurham Tanseye","citations":[{"label":"1261 Cooke","year":1261},{"label":"1486 Cooke","year":1486}],"when":{"timespans":[{"start":{"in":"1261"},"end":{"in":"1261"}},{"start":{"in":"1486"},"end":{"in":"1486"}}]}},{"toponym":"Mapeldurham Chausy","citations":[{"label":"1261 Cooke","year":1261},{"label":"1486 Cooke","year":1486}],"when":{"timespans":[{"start":{"in":"1261"},"end":{"in":"1261"}},{"start":{"in":"1486"},"end":{"in":"1486"}}]}},{"toponym":"Mapeldurham Chawseys","citations":[{"label":"1261 Cooke","year":1261},{"label":"1486 Cooke","year":1486}],"when":{"timespans":[{"start":{"in":"1261"},"end":{"in":"1261"}},{"start":{"in":"1486"},"end":{"in":"1486"}}]}},{"toponym":"Mapeldurham Gurney","citations":[{"label":"1274-5 RH","year":1274}],"when":{"timespans":[{"start":{"earliest":"1274","latest":"1275"},"end":{"earliest":"1274","latest":"1275"}}]}},{"toponym":"Mapeldoreham Hugonis de Gurnay","citations":[{"label":"1193 P","year":1193}],"when":{"timespans":[{"start":{"in":"1193"},"end":{"in":"1193"}},{"start":{"in":"1194"},"end":{"in":"1194"}}]}},{"toponym":"Mapeldoram","citations":[{"label":"1241 AD","year":1241}],"when":{"timespans":[{"start":{"in":"1241"},"end":{"in":"1241"}}]}},{"toponym":"Mapeldorham","citations":[{"label":"1246-7 Ass","year":1246},{"label":"1290 Ipm","year":1290},{"label":"1290 Cl","year":1290},{"label":"1300 Ipm","year":1300}],"when":{"timespans":[{"start":{"earliest":"1246","latest":"1247"},"end":{"earliest":"1246","latest":"1247"}},{"start":{"in":"1290"},"end":{"in":"1290"}},{"start":{"in":"1290"},"end":{"in":"1290"}},{"start":{"in":"1300"},"end":{"in":"1300"}}]}},{"toponym":"Mapeldorham Gorney","citations":[{"label":"1297 CornAcc","year":1297},{"label":"1343 Cooke","year":1343}],"when":{"timespans":[{"start":{"in":"1297"},"end":{"in":"1297"}},{"start":{"in":"1343"},"end":{"in":"1343"}}]}},{"toponym":"Mapelderham Chausey alias Mapeldoreham Chause","citations":[{"label":"1313 Ipm","year":1313}],"when":{"timespans":[{"start":{"in":"1313"},"end":{"in":"1313"}}]}},{"toponym":"Mappeldereham Hugonis de Gurnay","citations":[{"label":"1194 P","year":1194}],"when":{"timespans":[{"start":{"in":"1194"},"end":{"in":"1194"}}]}},{"toponym":"Mapeldereham","citations":[{"label":"1195 P","year":1195},{"label":"1254-5 RH","year":1254},{"label":"1492 AD","year":1492}],"when":{"timespans":[{"start":{"in":"1195"},"end":{"in":"1195"}},{"start":{"in":"1196"},"end":{"in":"1196"}},{"start":{"earliest":"1254","latest":"1255"},"end":{"earliest":"1254","latest":"1255"}},{"start":{"in":"1492"},"end":{"in":"1492"}}]}},{"toponym":"Mapelderesham","citations":[{"label":"1197 P","year":1197}],"when":{"timespans":[{"start":{"in":"1197"},"end":{"in":"1197"}}]}},{"toponym":"Mabeldureham Gurnay","citations":[{"label":"1240-1 Ass","year":1240}],"when":{"timespans":[{"start":{"earliest":"1240","latest":"1241"},"end":{"earliest":"1240","latest":"1241"}}]}},{"toponym":"Mapelldurome","citations":[{"label":"1606 More","year":1606}],"when":{"timespans":[{"start":{"in":"1606"},"end":{"in":"1606"}}]}}],"types":[{"identifier":"http://vocab.getty.edu/aat/300232418","label":"administrative division","sourceLabels":[{"label":"township","lang":"en"}]}],"geometry":{"type":"GeometryCollection","geometries":[{"type":"Point","coordinates":[-1.03495,51.48676],"citations":[{"label":"GeoNames, gazetteer record geonames:2643082"}]},{"type":"Point","coordinates":[-1.027814999466522,51.48293649197525],"citations":[{"label":"Unlock (EDINA) gazetteer, gazetteer record unlock:11213381"}]},{"type":"Point","coordinates":[-1.0293,51.4834],"citations":[{"label":"Key to English Place-Names (KEPN), gazetteer record 3530"}]}]},"when":{"timespans":[{"start":{"in":"1086"},"end":{"in":"1606"}}]},"links":[{"type":"closeMatch","identifier":"https://sws.geonames.org/2643082/"}],"relations":[{"relationType":"gvp:broaderPartitive","relationTo":"https://w3id.org/whg-epns/23/001762","label":"within Mapledurham"}]}]}