{"@context":"https://raw.githubusercontent.com/LinkedPasts/linked-places-format/main/linkedplaces-context-v1.1.jsonld","type":"FeatureCollection","license":"Digitisation of English Placenames MADS data is licensed to Jisc by the English Place Names Society and released under a Creative Commons Attribution-NonCommercial 4.0 International License.","note":"LPF v1.3, lossy; derived from the PLATO record; plato_commit=ca0afadabec1e23a145c0b03df77e8f151f79832","features":[{"@id":"http://placenames.org.uk/id/placename/23/003070","type":"Feature","properties":{"title":"Pyrton","ccodes":["GB"],"fclasses":["A","P"]},"names":[{"toponym":"Pyrton","lang":"en","citations":[{"label":"English Place-Name Society survey, volume 23: Oxfordshire"}]},{"toponym":"(to) Pirigtune","citations":[{"label":"987 KCD","year":987}],"when":{"timespans":[{"start":{"in":"0987"},"end":{"in":"0987"}}]}},{"toponym":"Peritone","citations":[{"label":"1086–1373, recurring DB","year":1086},{"label":"1086–1373, recurring Cl"},{"label":"1086 DB","year":1086},{"label":"1373 Cl","year":1373}],"when":{"timespans":[{"start":{"in":"1086"},"end":{"in":"1373"}},{"start":{"in":"1086"},"end":{"in":"1086"}},{"start":{"in":"1373"},"end":{"in":"1373"}}]}},{"toponym":"Perituna, Peritona, Peritune, Periton', Peritun', Peryton(e)","citations":[{"label":"1086-1373 unspecified sources","year":1086}],"when":{"timespans":[{"start":{"in":"1086"},"end":{"in":"1373"}}]}},{"toponym":"Piritune","citations":[{"label":"1086–1428, recurring DB","year":1086},{"label":"1086–1428, recurring FA"},{"label":"1086 DB","year":1086},{"label":"1428 FA","year":1428}],"when":{"timespans":[{"start":{"in":"1086"},"end":{"in":"1428"}},{"start":{"in":"1086"},"end":{"in":"1086"}},{"start":{"in":"1428"},"end":{"in":"1428"}}]}},{"toponym":"Piriton, Pyriton(e), Piryton, Pyryton'","citations":[{"label":"1086-1428 unspecified sources","year":1086}],"when":{"timespans":[{"start":{"in":"1086"},"end":{"in":"1428"}}]}},{"toponym":"Pirtune","citations":[{"label":"1086 DB","year":1086}],"when":{"timespans":[{"start":{"in":"1086"},"end":{"in":"1086"}}]}},{"toponym":"Pirtone","citations":[{"label":"1481 AD","year":1481}],"when":{"timespans":[{"start":{"in":"1481"},"end":{"in":"1481"}}]}},{"toponym":"Perinton'","citations":[{"label":"1163 P","year":1163},{"label":"1246-7 Ass","year":1246}],"when":{"timespans":[{"start":{"in":"1163"},"end":{"in":"1163"}},{"start":{"earliest":"1246","latest":"1247"},"end":{"earliest":"1246","latest":"1247"}}]}},{"toponym":"Peryndon","citations":[{"label":"1370 Cl","year":1370}],"when":{"timespans":[{"start":{"in":"1370"},"end":{"in":"1370"}}]}},{"toponym":"Pyrynton","citations":[{"label":"1184 Os","year":1184}],"when":{"timespans":[{"start":{"in":"1184"},"end":{"in":"1184"}}]}},{"toponym":"Pirinton'","citations":[{"label":"1242-3 Fees","year":1242}],"when":{"timespans":[{"start":{"earliest":"1242","latest":"1243"},"end":{"earliest":"1242","latest":"1243"}}]}},{"toponym":"Perton'","citations":[{"label":"1208 P","year":1208}],"when":{"timespans":[{"start":{"in":"1208"},"end":{"in":"1208"}}]}},{"toponym":"Perton","citations":[{"label":"1517 D Inc","year":1517}],"when":{"timespans":[{"start":{"in":"1517"},"end":{"in":"1517"}}]}},{"toponym":"Piruiton'","citations":[{"label":"1215 Cl","year":1215}],"when":{"timespans":[{"start":{"in":"1215"},"end":{"in":"1215"}}]}},{"toponym":"Pirentone","citations":[{"label":"c. 1240 MertR","year":1230}],"when":{"timespans":[{"start":{"earliest":"1230","latest":"1250"},"end":{"earliest":"1230","latest":"1250"}}]}},{"toponym":"Pirenton","citations":[{"label":"c. 1260 MertR","year":1250}],"when":{"timespans":[{"start":{"earliest":"1250","latest":"1270"},"end":{"earliest":"1250","latest":"1270"}}]}},{"toponym":"Pyreton'","citations":[{"label":"1266 Fine","year":1266}],"when":{"timespans":[{"start":{"in":"1266"},"end":{"in":"1266"}}]}},{"toponym":"Pyreton","citations":[{"label":"1361 Cl","year":1361}],"when":{"timespans":[{"start":{"in":"1361"},"end":{"in":"1361"}}]}},{"toponym":"Puriton'","citations":[{"label":"1268 Ass","year":1268}],"when":{"timespans":[{"start":{"in":"1268"},"end":{"in":"1268"}}]}},{"toponym":"Puryton","citations":[{"label":"1326 Ipm","year":1326},{"label":"1401-2 FA","year":1401}],"when":{"timespans":[{"start":{"in":"1326"},"end":{"in":"1326"}},{"start":{"in":"1354"},"end":{"in":"1354"}},{"start":{"earliest":"1401","latest":"1402"},"end":{"earliest":"1401","latest":"1402"}}]}},{"toponym":"Puriton","citations":[{"label":"1346 FA","year":1346},{"label":"1360 Ipm","year":1360}],"when":{"timespans":[{"start":{"in":"1346"},"end":{"in":"1346"}},{"start":{"in":"1360"},"end":{"in":"1360"}}]}},{"toponym":"Purton","citations":[{"label":"1300 Ipm","year":1300}],"when":{"timespans":[{"start":{"in":"1300"},"end":{"in":"1300"}}]}},{"toponym":"Peryngton","citations":[{"label":"1380 Cl","year":1380}],"when":{"timespans":[{"start":{"in":"1380"},"end":{"in":"1380"}}]}}],"types":[{"identifier":"http://vocab.getty.edu/aat/300232418","label":"administrative division","sourceLabels":[{"label":"township","lang":"en"}]}],"geometry":{"type":"GeometryCollection","geometries":[{"type":"Point","coordinates":[-1.00658,51.6559],"citations":[{"label":"GeoNames, gazetteer record geonames:2639819"}]},{"type":"Point","coordinates":[-1.009709724609756,51.65364646907987],"citations":[{"label":"Unlock (EDINA) gazetteer, gazetteer record unlock:11251202"}]},{"type":"Point","coordinates":[-1.01121,51.6541],"citations":[{"label":"Key to English Place-Names (KEPN), gazetteer record 3542"}]}]},"when":{"timespans":[{"start":{"in":"0987"},"end":{"in":"1517"}}]},"links":[{"type":"closeMatch","identifier":"https://sws.geonames.org/2639819/"}],"relations":[{"relationType":"gvp:broaderPartitive","relationTo":"http://placenames.org.uk/id/placename/23/003069","label":"within Pyrton"}]}]}