{"@context":"https://raw.githubusercontent.com/LinkedPasts/linked-places-format/main/linkedplaces-context-v1.1.jsonld","type":"FeatureCollection","license":"Digitisation of English Placenames MADS data is licensed to Jisc by the English Place Names Society and released under a Creative Commons Attribution-NonCommercial 4.0 International License.","note":"LPF v1.3, lossy; derived from the PLATO record; plato_commit=ca0afadabec1e23a145c0b03df77e8f151f79832","features":[{"@id":"http://placenames.org.uk/id/placename/23/003759","type":"Feature","properties":{"title":"Aston Rowant","ccodes":["GB"],"fclasses":["A","P"]},"names":[{"toponym":"Aston Rowant","lang":"en","citations":[{"label":"English Place-Name Society survey, volume 23: Oxfordshire"}]},{"toponym":"Estone","citations":[{"label":"1086–1279, recurring DB","year":1086},{"label":"1086–1279, recurring RH"},{"label":"1086 DB","year":1086},{"label":"1278-9 RH","year":1278}],"when":{"timespans":[{"start":{"in":"1086"},"end":{"in":"1279"}},{"start":{"in":"1086"},"end":{"in":"1086"}},{"start":{"earliest":"1278","latest":"1279"},"end":{"earliest":"1278","latest":"1279"}}]}},{"toponym":"Estune, Eston(a)","citations":[{"label":"1086-1279 unspecified sources","year":1086}],"when":{"timespans":[{"start":{"in":"1086"},"end":{"in":"1279"}}]}},{"toponym":"Estton'","citations":[{"label":"1235 Fees","year":1235}],"when":{"timespans":[{"start":{"in":"1235"},"end":{"in":"1235"}}]}},{"toponym":"Estone Sancte Elene","citations":[{"label":"1285 Ass","year":1285}],"when":{"timespans":[{"start":{"in":"1285"},"end":{"in":"1285"}}]}},{"toponym":"Eastuna","citations":[{"label":"c. 1110 EHR","year":1100}],"when":{"timespans":[{"start":{"earliest":"1100","latest":"1120"},"end":{"earliest":"1100","latest":"1120"}}]}},{"toponym":"Aston'","citations":[{"label":"1246–1526, recurring Ass","year":1246},{"label":"1246–1526, recurring LS"},{"label":"1246-7 Ass","year":1246},{"label":"1526 LS","year":1526}],"when":{"timespans":[{"start":{"in":"1246"},"end":{"in":"1526"}},{"start":{"earliest":"1246","latest":"1247"},"end":{"earliest":"1246","latest":"1247"}},{"start":{"in":"1526"},"end":{"in":"1526"}}]}},{"toponym":"Aston(e)","citations":[{"label":"1246-1526 unspecified sources","year":1246}],"when":{"timespans":[{"start":{"in":"1246"},"end":{"in":"1526"}}]}},{"toponym":"Aston Roaud","citations":[{"label":"1318 Ipm","year":1318}],"when":{"timespans":[{"start":{"in":"1318"},"end":{"in":"1318"}}]}},{"toponym":"Aston Rohaud","citations":[{"label":"1318 Ipm","year":1318}],"when":{"timespans":[{"start":{"in":"1318"},"end":{"in":"1318"}}]}},{"toponym":"Aston Rouwand","citations":[{"label":"1318 Ipm","year":1318}],"when":{"timespans":[{"start":{"in":"1318"},"end":{"in":"1318"}}]}},{"toponym":"Aston Roand","citations":[{"label":"1318 Ipm","year":1318}],"when":{"timespans":[{"start":{"in":"1318"},"end":{"in":"1318"}}]}},{"toponym":"Aston Roewand","citations":[{"label":"1318 Ipm","year":1318}],"when":{"timespans":[{"start":{"in":"1318"},"end":{"in":"1318"}}]}},{"toponym":"Aston Ruhant","citations":[{"label":"1318 Ipm","year":1318}],"when":{"timespans":[{"start":{"in":"1318"},"end":{"in":"1318"}}]}},{"toponym":"Aston Rohant","citations":[{"label":"1318 Ipm","year":1318}],"when":{"timespans":[{"start":{"in":"1318"},"end":{"in":"1318"}}]}},{"toponym":"Aston Ruhand","citations":[{"label":"1318 Ipm","year":1318}],"when":{"timespans":[{"start":{"in":"1318"},"end":{"in":"1318"}}]}},{"toponym":"Aston Ruaut","citations":[{"label":"1318 Ipm","year":1318}],"when":{"timespans":[{"start":{"in":"1318"},"end":{"in":"1318"}}]}},{"toponym":"Astone Sancte Helene","citations":[{"label":"1315 Bodl (Barrett)","year":1315}],"when":{"timespans":[{"start":{"in":"1315"},"end":{"in":"1315"}}]}},{"toponym":"Aston Sancte Eliene","citations":[{"label":"1316 FA","year":1316}],"when":{"timespans":[{"start":{"in":"1316"},"end":{"in":"1316"}}]}},{"toponym":"Astun Ruhant","citations":[{"label":"1407-8 AD","year":1407}],"when":{"timespans":[{"start":{"earliest":"1407","latest":"1408"},"end":{"earliest":"1407","latest":"1408"}}]}}],"types":[{"identifier":"http://vocab.getty.edu/aat/300232418","label":"administrative division","sourceLabels":[{"label":"township","lang":"en"}]}],"geometry":{"type":"GeometryCollection","geometries":[{"type":"Point","coordinates":[-0.95006,51.68496],"citations":[{"label":"GeoNames, gazetteer record geonames:2656859"}]},{"type":"Point","coordinates":[-0.9510622711696047,51.6891076516238],"citations":[{"label":"Unlock (EDINA) gazetteer, gazetteer record unlock:11065060"}]},{"type":"Point","coordinates":[-0.952568,51.6896],"citations":[{"label":"Key to English Place-Names (KEPN), gazetteer record 3549"}]}]},"when":{"timespans":[{"start":{"in":"1086"},"end":{"in":"1526"}}]},"links":[{"type":"closeMatch","identifier":"https://sws.geonames.org/2656859/"}],"relations":[{"relationType":"gvp:broaderPartitive","relationTo":"http://placenames.org.uk/id/placename/23/003758","label":"within Aston Rowant"}]}]}