{"@context":"https://raw.githubusercontent.com/LinkedPasts/linked-places-format/main/linkedplaces-context-v1.1.jsonld","type":"FeatureCollection","license":"Digitisation of English Placenames MADS data is licensed to Jisc by the English Place Names Society and released under a Creative Commons Attribution-NonCommercial 4.0 International License.","note":"LPF v1.3, lossy; derived from the PLATO record; plato_commit=fa0d247ccc0263f8f19c8d7cdcd163df96935d1e","features":[{"@id":"https://w3id.org/whg-epns/23/004294","type":"Feature","properties":{"title":"Kingsey (now in Buckinghamshire)","ccodes":["GB"],"fclasses":["A","P"]},"names":[{"toponym":"Kingsey (now in Buckinghamshire)","lang":"en","citations":[{"label":"English Place-Name Society survey, volume 23: Oxfordshire"}]}],"types":[{"identifier":"http://vocab.getty.edu/aat/300232418","label":"administrative division","sourceLabels":[{"label":"parish","lang":"en"}]}],"geometry":{"type":"GeometryCollection","geometries":[{"type":"Point","coordinates":[-0.92543,51.75424],"citations":[{"label":"GeoNames, gazetteer record geonames:2645468"}]},{"type":"Point","coordinates":[-0.9206339238413611,51.75177979136757],"citations":[{"label":"Unlock (EDINA) gazetteer, gazetteer record unlock:11187049"}]},{"type":"Point","coordinates":[-0.922145,51.7523],"citations":[{"label":"Key to English Place-Names (KEPN), gazetteer record 3553"}]}]},"links":[{"type":"closeMatch","identifier":"https://sws.geonames.org/2645468/"}],"relations":[{"relationType":"gvp:broaderPartitive","relationTo":"https://w3id.org/whg-epns/23/003726","label":"within Lewknor Hundred"}]}]}