{"@context":"https://raw.githubusercontent.com/LinkedPasts/linked-places-format/main/linkedplaces-context-v1.1.jsonld","type":"FeatureCollection","license":"Digitisation of English Placenames MADS data is licensed to Jisc by the English Place Names Society and released under a Creative Commons Attribution-NonCommercial 4.0 International License.","note":"LPF v1.3, lossy; derived from the PLATO record; plato_commit=ca0afadabec1e23a145c0b03df77e8f151f79832","features":[{"@id":"https://w3id.org/whg-epns/23/005794","type":"Feature","properties":{"title":"Thame Hundred","ccodes":["GB"],"fclasses":["A"]},"names":[{"toponym":"Thame Hundred","lang":"en","citations":[{"label":"English Place-Name Society survey, volume 23: Oxfordshire"}]},{"toponym":"Tame","citations":[{"label":"1184–1316, recurring P","year":1184},{"label":"1184–1316, recurring FA"},{"label":"1184 P","year":1184},{"label":"1316 FA","year":1316}],"when":{"timespans":[{"start":{"in":"1184"},"end":{"in":"1316"}},{"start":{"in":"1184"},"end":{"in":"1184"}},{"start":{"in":"1316"},"end":{"in":"1316"}}]}},{"toponym":"Thame","citations":[{"label":"1233–1233, recurring Cl","year":1233},{"label":"1233 Cl","year":1233}],"when":{"timespans":[{"start":{"in":"1233"},"end":{"in":"1233"}},{"start":{"in":"1233"},"end":{"in":"1233"}}]}}],"types":[{"identifier":"http://vocab.getty.edu/aat/300232418","label":"administrative division","sourceLabels":[{"label":"hundred / wapentake","lang":"en"}]}],"geometry":null,"when":{"timespans":[{"start":{"in":"1184"},"end":{"in":"1316"}}]},"relations":[{"relationType":"gvp:broaderPartitive","relationTo":"https://w3id.org/whg-epns/23/000001","label":"within Oxfordshire"}]}]}