{"@context":"https://raw.githubusercontent.com/LinkedPasts/linked-places-format/main/linkedplaces-context-v1.1.jsonld","type":"FeatureCollection","license":"Digitisation of English Placenames MADS data is licensed to Jisc by the English Place Names Society and released under a Creative Commons Attribution-NonCommercial 4.0 International License.","note":"LPF v1.3, lossy; derived from the PLATO record; plato_commit=ca0afadabec1e23a145c0b03df77e8f151f79832","features":[{"@id":"http://placenames.org.uk/id/placename/23/005948","type":"Feature","properties":{"title":"Tetsworth","ccodes":["GB"],"fclasses":["A","P"]},"names":[{"toponym":"Tetsworth","lang":"en","citations":[{"label":"English Place-Name Society survey, volume 23: Oxfordshire"}]},{"toponym":"Tetteswrd'","citations":[{"label":"1136–1400, recurring Thame","year":1136},{"label":"1136–1400, recurring Thame"},{"label":"c. 1146 Thame","year":1136},{"label":"late 14th Thame","year":1375}],"when":{"timespans":[{"start":{"in":"1136"},"end":{"in":"1400"}},{"start":{"earliest":"1136","latest":"1156"},"end":{"earliest":"1136","latest":"1156"}},{"start":{"earliest":"1375","latest":"1400"},"end":{"earliest":"1375","latest":"1400"}}]}},{"toponym":"Tetteswrde, Tetteswrda, Tetteswrth', Tetteswrth(e), Tettesworth', Tettesworth(e)","citations":[{"label":"c. 1146-late 14th unspecified sources","year":1136}],"when":{"timespans":[{"start":{"in":"1136"},"end":{"in":"1400"}}]}},{"toponym":"Teteswrde, Teteswrd'","citations":[{"label":"c. 1208 Thame","year":1198}],"when":{"timespans":[{"start":{"earliest":"1198","latest":"1218"},"end":{"earliest":"1198","latest":"1218"}}]}},{"toponym":"Tettiswrth'","citations":[{"label":"c. 1211 S","year":1201}],"when":{"timespans":[{"start":{"earliest":"1201","latest":"1221"},"end":{"earliest":"1201","latest":"1221"}}]}},{"toponym":"Tettysworthe","citations":[{"label":"late 14th Thame","year":1375}],"when":{"timespans":[{"start":{"earliest":"1375","latest":"1400"},"end":{"earliest":"1375","latest":"1400"}}]}},{"toponym":"Tettisworth","citations":[{"label":"1482 AD","year":1482}],"when":{"timespans":[{"start":{"in":"1482"},"end":{"in":"1482"}}]}},{"toponym":"Tettisford","citations":[{"label":"1526 LS","year":1526}],"when":{"timespans":[{"start":{"in":"1526"},"end":{"in":"1526"}}]}},{"toponym":"Tetleswrthe","citations":[{"label":"1148-55 Thame","year":1148}],"when":{"timespans":[{"start":{"earliest":"1148","latest":"1155"},"end":{"earliest":"1148","latest":"1155"}}]}},{"toponym":"Tettleswrd'","citations":[{"label":"c. 1180 Thame","year":1170}],"when":{"timespans":[{"start":{"earliest":"1170","latest":"1190"},"end":{"earliest":"1170","latest":"1190"}}]}},{"toponym":"Tettleswrde","citations":[{"label":"c. 1197 Thame","year":1187}],"when":{"timespans":[{"start":{"earliest":"1187","latest":"1207"},"end":{"earliest":"1187","latest":"1207"}},{"start":{"earliest":"1190","latest":"1210"},"end":{"earliest":"1190","latest":"1210"}}]}},{"toponym":"Tettliswrthe","citations":[{"label":"1210-20 S","year":1210}],"when":{"timespans":[{"start":{"earliest":"1210","latest":"1220"},"end":{"earliest":"1210","latest":"1220"}}]}},{"toponym":"Tetliswrth'","citations":[{"label":"1210-20 Thame","year":1210}],"when":{"timespans":[{"start":{"earliest":"1210","latest":"1220"},"end":{"earliest":"1210","latest":"1220"}},{"start":{"in":"1211"},"end":{"in":"1211"}}]}},{"toponym":"Tetleswrh'","citations":[{"label":"1211 FF","year":1211}],"when":{"timespans":[{"start":{"in":"1211"},"end":{"in":"1211"}}]}},{"toponym":"Tettlusworthe","citations":[{"label":"1375 Dean","year":1375}],"when":{"timespans":[{"start":{"in":"1375"},"end":{"in":"1375"}}]}},{"toponym":"Tethiswrth'","citations":[{"label":"a. 1211 S","year":1161}],"when":{"timespans":[{"start":{"earliest":"1161","latest":"1211"},"end":{"earliest":"1161","latest":"1211"}}]}},{"toponym":"Tethswrth'","citations":[{"label":"a. 1211 Thame","year":1161}],"when":{"timespans":[{"start":{"earliest":"1161","latest":"1211"},"end":{"earliest":"1161","latest":"1211"}},{"start":{"in":"1211"},"end":{"in":"1211"}},{"start":{"earliest":"1201","latest":"1221"},"end":{"earliest":"1201","latest":"1221"}}]}},{"toponym":"Tethswrthe","citations":[{"label":"c. 1211 Thame","year":1201}],"when":{"timespans":[{"start":{"earliest":"1201","latest":"1221"},"end":{"earliest":"1201","latest":"1221"}}]}},{"toponym":"Tetheswurze","citations":[{"label":"1287 Thame","year":1287}],"when":{"timespans":[{"start":{"in":"1287"},"end":{"in":"1287"}}]}},{"toponym":"Tettewrthe","citations":[{"label":"1235-6 Bract","year":1235}],"when":{"timespans":[{"start":{"earliest":"1235","latest":"1236"},"end":{"earliest":"1235","latest":"1236"}}]}},{"toponym":"Tettewurth'","citations":[{"label":"1246-7 Ass","year":1246}],"when":{"timespans":[{"start":{"earliest":"1246","latest":"1247"},"end":{"earliest":"1246","latest":"1247"}}]}},{"toponym":"Totteswrthe","citations":[{"label":"1278-9 RH","year":1278}],"when":{"timespans":[{"start":{"earliest":"1278","latest":"1279"},"end":{"earliest":"1278","latest":"1279"}}]}},{"toponym":"Tortesworthe","citations":[{"label":"1285 Ass","year":1285}],"when":{"timespans":[{"start":{"in":"1285"},"end":{"in":"1285"}}]}},{"toponym":"Techeswurthe","citations":[{"label":"1285 Ass","year":1285}],"when":{"timespans":[{"start":{"in":"1285"},"end":{"in":"1285"}}]}},{"toponym":"Tottlesworthe","citations":[{"label":"1316 FA","year":1316}],"when":{"timespans":[{"start":{"in":"1316"},"end":{"in":"1316"}}]}},{"toponym":"Tetdisworth","citations":[{"label":"1428 FA","year":1428}],"when":{"timespans":[{"start":{"in":"1428"},"end":{"in":"1428"}}]}}],"types":[{"identifier":"http://vocab.getty.edu/aat/300232418","label":"administrative division","sourceLabels":[{"label":"township","lang":"en"}]}],"geometry":{"type":"GeometryCollection","geometries":[{"type":"Point","coordinates":[-1.00564,51.70961],"citations":[{"label":"GeoNames, gazetteer record geonames:2636079"}]},{"type":"Point","coordinates":[-1.008335548842899,51.71658262221371],"citations":[{"label":"Unlock (EDINA) gazetteer, gazetteer record unlock:11298840"}]},{"type":"Point","coordinates":[-1.00984,51.7171],"citations":[{"label":"Key to English Place-Names (KEPN), gazetteer record 3570"}]}]},"when":{"timespans":[{"start":{"in":"1136"},"end":{"in":"1526"}}]},"links":[{"type":"closeMatch","identifier":"https://sws.geonames.org/2636079/"}],"relations":[{"relationType":"gvp:broaderPartitive","relationTo":"http://placenames.org.uk/id/placename/23/005947","label":"within Tetsworth"}]}]}