{"@context":"https://raw.githubusercontent.com/LinkedPasts/linked-places-format/main/linkedplaces-context-v1.1.jsonld","type":"FeatureCollection","license":"Digitisation of English Placenames MADS data is licensed to Jisc by the English Place Names Society and released under a Creative Commons Attribution-NonCommercial 4.0 International License.","note":"LPF v1.3, lossy; derived from the PLATO record; plato_commit=ca0afadabec1e23a145c0b03df77e8f151f79832","features":[{"@id":"http://placenames.org.uk/id/placename/23/006208","type":"Feature","properties":{"title":"Clifton Hampden","ccodes":["GB"],"fclasses":["A","P"]},"names":[{"toponym":"Clifton Hampden","lang":"en","citations":[{"label":"English Place-Name Society survey, volume 23: Oxfordshire"}]},{"toponym":"Cliftona","citations":[{"label":"1146–1146, recurring RegAntiquiss","year":1146},{"label":"1146 RegAntiquiss","year":1146}],"when":{"timespans":[{"start":{"in":"1146"},"end":{"in":"1146"}},{"start":{"in":"1146"},"end":{"in":"1146"}}]}},{"toponym":"Clifton', Cliftun, Clif(f)ton, Clyfton(e)","citations":[{"label":"1146-1600 unspecified sources","year":1146}],"when":{"timespans":[{"start":{"in":"1146"},"end":{"in":"1600"}}]}},{"toponym":"Clypton","citations":[{"label":"1252 FF","year":1252}],"when":{"timespans":[{"start":{"in":"1252"},"end":{"in":"1252"}}]}}],"types":[{"identifier":"http://vocab.getty.edu/aat/300232418","label":"administrative division","sourceLabels":[{"label":"township","lang":"en"}]}],"geometry":{"type":"GeometryCollection","geometries":[{"type":"Point","coordinates":[-1.21021,51.6569],"citations":[{"label":"GeoNames, gazetteer record geonames:2652834"}]},{"type":"Point","coordinates":[-1.212081551043262,51.65517855642072],"citations":[{"label":"Unlock (EDINA) gazetteer, gazetteer record unlock:11109269"}]},{"type":"Point","coordinates":[-1.21356,51.6557],"citations":[{"label":"Key to English Place-Names (KEPN), gazetteer record 3573"}]}]},"when":{"timespans":[{"start":{"in":"1146"},"end":{"in":"1600"}}]},"links":[{"type":"closeMatch","identifier":"https://sws.geonames.org/2652834/"}],"relations":[{"relationType":"gvp:broaderPartitive","relationTo":"http://placenames.org.uk/id/placename/23/006207","label":"within Clifton Hampden"}]}]}