{"@context":"https://raw.githubusercontent.com/LinkedPasts/linked-places-format/main/linkedplaces-context-v1.1.jsonld","type":"FeatureCollection","license":"Digitisation of English Placenames MADS data is licensed to Jisc by the English Place Names Society and released under a Creative Commons Attribution-NonCommercial 4.0 International License.","note":"LPF v1.3, lossy; derived from the PLATO record; plato_commit=fa0d247ccc0263f8f19c8d7cdcd163df96935d1e","features":[{"@id":"https://w3id.org/whg-epns/23/006536","type":"Feature","properties":{"title":"South Stoke","ccodes":["GB"],"fclasses":["A","P"]},"names":[{"toponym":"South Stoke","lang":"en","citations":[{"label":"English Place-Name Society survey, volume 23: Oxfordshire"}]}],"types":[{"identifier":"http://vocab.getty.edu/aat/300232418","label":"administrative division","sourceLabels":[{"label":"parish","lang":"en"}]}],"geometry":{"type":"GeometryCollection","geometries":[{"type":"Point","coordinates":[-1.13228,51.54954],"citations":[{"label":"GeoNames, gazetteer record geonames:2637317"}]},{"type":"Point","coordinates":[-1.141840144995369,51.54677529422522],"citations":[{"label":"Unlock (EDINA) gazetteer, gazetteer record unlock:11287946"}]},{"type":"Point","coordinates":[-1.14332,51.5473],"citations":[{"label":"Key to English Place-Names (KEPN), gazetteer record 3578"}]}]},"links":[{"type":"closeMatch","identifier":"https://sws.geonames.org/2637317/"}],"relations":[{"relationType":"gvp:broaderPartitive","relationTo":"https://w3id.org/whg-epns/23/006198","label":"within Dorchester Hundred"}]}]}