{"@context":"https://raw.githubusercontent.com/LinkedPasts/linked-places-format/main/linkedplaces-context-v1.1.jsonld","type":"FeatureCollection","license":"Digitisation of English Placenames MADS data is licensed to Jisc by the English Place Names Society and released under a Creative Commons Attribution-NonCommercial 4.0 International License.","note":"LPF v1.3, lossy; derived from the PLATO record; plato_commit=ca0afadabec1e23a145c0b03df77e8f151f79832","features":[{"@id":"https://w3id.org/whg-epns/23/007072","type":"Feature","properties":{"title":"Blackthorn","ccodes":["GB"],"fclasses":["A","P"]},"names":[{"toponym":"Blackthorn","lang":"en","citations":[{"label":"English Place-Name Society survey, volume 23: Oxfordshire"}]},{"toponym":"Blaketorn","citations":[{"label":"1190–1309, recurring P","year":1190},{"label":"1190–1309, recurring Ch"},{"label":"1190 P","year":1190},{"label":"1309 Ch","year":1309}],"when":{"timespans":[{"start":{"in":"1190"},"end":{"in":"1309"}},{"start":{"in":"1190"},"end":{"in":"1190"}},{"start":{"in":"1309"},"end":{"in":"1309"}}]}},{"toponym":"Blakethurn', Blakethurn(e), Blakethorn', Blakethorn(e)","citations":[{"label":"1190-1309 unspecified sources","year":1190}],"when":{"timespans":[{"start":{"in":"1190"},"end":{"in":"1309"}}]}},{"toponym":"Blakehurne","citations":[{"label":"1272 Ipm","year":1272}],"when":{"timespans":[{"start":{"in":"1272"},"end":{"in":"1272"}}]}},{"toponym":"Blakehoren","citations":[{"label":"1285 Ass","year":1285}],"when":{"timespans":[{"start":{"in":"1285"},"end":{"in":"1285"}}]}},{"toponym":"Blachetorn","citations":[{"label":"1192 P","year":1192},{"label":"1193 P","year":1193}],"when":{"timespans":[{"start":{"in":"1192"},"end":{"in":"1192"}},{"start":{"in":"1193"},"end":{"in":"1193"}}]}},{"toponym":"Blakeburn","citations":[{"label":"1285 Ass","year":1285}],"when":{"timespans":[{"start":{"in":"1285"},"end":{"in":"1285"}}]}},{"toponym":"Blackthorne","citations":[{"label":"1316 FA","year":1316}],"when":{"timespans":[{"start":{"in":"1316"},"end":{"in":"1316"}}]}}],"types":[{"identifier":"http://vocab.getty.edu/aat/300232418","label":"administrative division","sourceLabels":[{"label":"township","lang":"en"}]}],"geometry":{"type":"GeometryCollection","geometries":[{"type":"Point","coordinates":[-1.09859,51.86865],"citations":[{"label":"GeoNames, gazetteer record geonames:2655441"}]},{"type":"Point","coordinates":[-1.092120223962262,51.87012935062803],"citations":[{"label":"Unlock (EDINA) gazetteer, gazetteer record unlock:11079882"}]},{"type":"Point","coordinates":[-1.09362,51.8706],"citations":[{"label":"Key to English Place-Names (KEPN), gazetteer record 3584"}]}]},"when":{"timespans":[{"start":{"in":"1190"},"end":{"in":"1316"}}]},"links":[{"type":"closeMatch","identifier":"https://sws.geonames.org/2655441/"}],"relations":[{"relationType":"gvp:broaderPartitive","relationTo":"https://w3id.org/whg-epns/23/007071","label":"within Blackthorn"}]}]}