{"@context":"https://raw.githubusercontent.com/LinkedPasts/linked-places-format/main/linkedplaces-context-v1.1.jsonld","type":"FeatureCollection","license":"Digitisation of English Placenames MADS data is licensed to Jisc by the English Place Names Society and released under a Creative Commons Attribution-NonCommercial 4.0 International License.","note":"LPF v1.3, lossy; derived from the PLATO record; plato_commit=ca0afadabec1e23a145c0b03df77e8f151f79832","features":[{"@id":"http://placenames.org.uk/id/placename/23/007202","type":"Feature","properties":{"title":"Elsfield","ccodes":["GB"],"fclasses":["A","P"]},"names":[{"toponym":"Elsfield","lang":"en","citations":[{"label":"English Place-Name Society survey, volume 23: Oxfordshire"}]}],"types":[{"identifier":"http://vocab.getty.edu/aat/300232418","label":"administrative division","sourceLabels":[{"label":"parish","lang":"en"}]}],"geometry":{"type":"GeometryCollection","geometries":[{"type":"Point","coordinates":[-1.21871,51.78664],"citations":[{"label":"GeoNames, gazetteer record geonames:2650058"}]},{"type":"Point","coordinates":[-1.20973358839714,51.79004826907861],"citations":[{"label":"Unlock (EDINA) gazetteer, gazetteer record unlock:11139753"}]},{"type":"Point","coordinates":[-1.21121,51.7905],"citations":[{"label":"Key to English Place-Names (KEPN), gazetteer record 3587"}]}]},"links":[{"type":"closeMatch","identifier":"https://sws.geonames.org/2650058/"}],"relations":[{"relationType":"gvp:broaderPartitive","relationTo":"http://placenames.org.uk/id/placename/23/006707","label":"within Bullingdon Hundred"}]}]}