{"@context":"https://raw.githubusercontent.com/LinkedPasts/linked-places-format/main/linkedplaces-context-v1.1.jsonld","type":"FeatureCollection","license":"Digitisation of English Placenames MADS data is licensed to Jisc by the English Place Names Society and released under a Creative Commons Attribution-NonCommercial 4.0 International License.","note":"LPF v1.3, lossy; derived from the PLATO record; plato_commit=fa0d247ccc0263f8f19c8d7cdcd163df96935d1e","features":[{"@id":"https://w3id.org/whg-epns/23/007203","type":"Feature","properties":{"title":"Elsfield","ccodes":["GB"],"fclasses":["A","P"]},"names":[{"toponym":"Elsfield","lang":"en","citations":[{"label":"English Place-Name Society survey, volume 23: Oxfordshire"}]},{"toponym":"Esefelde","citations":[{"label":"1086 DB","year":1086}],"when":{"timespans":[{"start":{"in":"1086"},"end":{"in":"1086"}}]}},{"toponym":"Esefeld'","citations":[{"label":"1167 P","year":1167},{"label":"1215-16 Cl","year":1215}],"when":{"timespans":[{"start":{"in":"1167"},"end":{"in":"1167"}},{"start":{"earliest":"1215","latest":"1216"},"end":{"earliest":"1215","latest":"1216"}}]}},{"toponym":"Essefeld'","citations":[{"label":"1205 Cur","year":1205}],"when":{"timespans":[{"start":{"in":"1205"},"end":{"in":"1205"}}]}},{"toponym":"Esefeld","citations":[{"label":"1226 Cl","year":1226},{"label":"1285 Ass","year":1285}],"when":{"timespans":[{"start":{"in":"1226"},"end":{"in":"1226"}},{"start":{"in":"1285"},"end":{"in":"1285"}}]}},{"toponym":"Elsefeld","citations":[{"label":"OxonCh","year":1123},{"label":"FA"},{"label":"1123-33 OxonCh","year":1123},{"label":"1428 FA","year":1428}],"when":{"timespans":[{"start":{"in":"1123"},"end":{"in":"1428"}},{"start":{"earliest":"1123","latest":"1133"},"end":{"earliest":"1123","latest":"1133"}},{"start":{"in":"1428"},"end":{"in":"1428"}}]}},{"toponym":"Elsefeld', Elsefelde, Elsefeud","citations":[{"label":"1123-1428 unspecified sources","year":1123}],"when":{"timespans":[{"start":{"in":"1123"},"end":{"in":"1428"}}]}},{"toponym":"Elzefeld","citations":[{"label":"1312 AD","year":1312}],"when":{"timespans":[{"start":{"in":"1312"},"end":{"in":"1312"}}]}},{"toponym":"Helsefeld'","citations":[{"label":"Frid","year":1124},{"label":"Frid"},{"label":"c. 1124-30 Frid","year":1124},{"label":"1228 Frid","year":1228}],"when":{"timespans":[{"start":{"in":"1124"},"end":{"in":"1228"}},{"start":{"earliest":"1124","latest":"1130"},"end":{"earliest":"1124","latest":"1130"}},{"start":{"in":"1228"},"end":{"in":"1228"}}]}},{"toponym":"Helsefelda, Helsefeld(e)","citations":[{"label":"c. 1124-1228 unspecified sources","year":1124}],"when":{"timespans":[{"start":{"in":"1124"},"end":{"in":"1228"}}]}},{"toponym":"Elshfyld","citations":[{"label":"1232 Frid","year":1232}],"when":{"timespans":[{"start":{"in":"1232"},"end":{"in":"1232"}}]}},{"toponym":"Eldesfeld'","citations":[{"label":"1246-7 Ass","year":1246}],"when":{"timespans":[{"start":{"earliest":"1246","latest":"1247"},"end":{"earliest":"1246","latest":"1247"}}]}},{"toponym":"Olseffeld","citations":[{"label":"1278-9 RH","year":1278}],"when":{"timespans":[{"start":{"earliest":"1278","latest":"1279"},"end":{"earliest":"1278","latest":"1279"}}]}},{"toponym":"Elesfeld","citations":[{"label":"Ass","year":1285},{"label":"Frid"},{"label":"1285 Ass","year":1285},{"label":"1480 Frid","year":1480}],"when":{"timespans":[{"start":{"in":"1285"},"end":{"in":"1480"}},{"start":{"in":"1285"},"end":{"in":"1285"}},{"start":{"in":"1480"},"end":{"in":"1480"}}]}},{"toponym":"Elesfeud, Ellesfeld","citations":[{"label":"1285-1480 unspecified sources","year":1285}],"when":{"timespans":[{"start":{"in":"1285"},"end":{"in":"1480"}}]}},{"toponym":"Ellisfield","citations":[{"label":"1526 LS","year":1526}],"when":{"timespans":[{"start":{"in":"1526"},"end":{"in":"1526"}}]}},{"toponym":"Ellefeld","citations":[{"label":"1316 Ipm","year":1316}],"when":{"timespans":[{"start":{"in":"1316"},"end":{"in":"1316"}}]}},{"toponym":"Elsfeld","citations":[{"label":"1335 Cl","year":1335}],"when":{"timespans":[{"start":{"in":"1335"},"end":{"in":"1335"}}]}},{"toponym":"Ellsfylde","citations":[{"label":"1537 Frid","year":1537}],"when":{"timespans":[{"start":{"in":"1537"},"end":{"in":"1537"}}]}},{"toponym":"Eldsfield","citations":[{"label":"1797 Davis","year":1797}],"when":{"timespans":[{"start":{"in":"1797"},"end":{"in":"1797"}}]}}],"types":[{"identifier":"http://vocab.getty.edu/aat/300232418","label":"administrative division","sourceLabels":[{"label":"township","lang":"en"}]}],"geometry":{"type":"GeometryCollection","geometries":[{"type":"Point","coordinates":[-1.21871,51.78664],"citations":[{"label":"GeoNames, gazetteer record geonames:2650058"}]},{"type":"Point","coordinates":[-1.20973358839714,51.79004826907861],"citations":[{"label":"Unlock (EDINA) gazetteer, gazetteer record unlock:11139753"}]},{"type":"Point","coordinates":[-1.21121,51.7905],"citations":[{"label":"Key to English Place-Names (KEPN), gazetteer record 3587"}]}]},"when":{"timespans":[{"start":{"in":"1086"},"end":{"in":"1797"}}]},"links":[{"type":"closeMatch","identifier":"https://sws.geonames.org/2650058/"}],"relations":[{"relationType":"gvp:broaderPartitive","relationTo":"https://w3id.org/whg-epns/23/007202","label":"within Elsfield"}]}]}