{"@context":"https://raw.githubusercontent.com/LinkedPasts/linked-places-format/main/linkedplaces-context-v1.1.jsonld","type":"FeatureCollection","license":"Digitisation of English Placenames MADS data is licensed to Jisc by the English Place Names Society and released under a Creative Commons Attribution-NonCommercial 4.0 International License.","note":"LPF v1.3, lossy; derived from the PLATO record; plato_commit=fa0d247ccc0263f8f19c8d7cdcd163df96935d1e","features":[{"@id":"https://w3id.org/whg-epns/23/007296","type":"Feature","properties":{"title":"Forest Hill","ccodes":["GB"],"fclasses":["A","P"]},"names":[{"toponym":"Forest Hill","lang":"en","citations":[{"label":"English Place-Name Society survey, volume 23: Oxfordshire"}]},{"toponym":"Fostel","citations":[{"label":"1086 DB","year":1086}],"when":{"timespans":[{"start":{"in":"1086"},"end":{"in":"1086"}}]}},{"toponym":"Forsthulle","citations":[{"label":"Frid","year":1122},{"label":"FA"},{"label":"1122 Frid","year":1122},{"label":"1428 FA","year":1428}],"when":{"timespans":[{"start":{"in":"1122"},"end":{"in":"1428"}},{"start":{"in":"1122"},"end":{"in":"1122"}},{"start":{"in":"1428"},"end":{"in":"1428"}}]}},{"toponym":"Forsthull', Forsthella, Forsthell', Forsthelle, Forsthil, Forsthill(e), Forsthill', Forsthull","citations":[{"label":"1122-1428 unspecified sources","year":1122}],"when":{"timespans":[{"start":{"in":"1122"},"end":{"in":"1428"}}]}},{"toponym":"Forestel, Foristelle","citations":[{"label":"c. 1160 Os","year":1150}],"when":{"timespans":[{"start":{"earliest":"1150","latest":"1170"},"end":{"earliest":"1150","latest":"1170"}}]}},{"toponym":"Forstel(la)","citations":[{"label":"1164-6 OxonCh","year":1164}],"when":{"timespans":[{"start":{"earliest":"1164","latest":"1166"},"end":{"earliest":"1164","latest":"1166"}}]}},{"toponym":"Forstella","citations":[{"label":"c. 1180 Os","year":1170}],"when":{"timespans":[{"start":{"earliest":"1170","latest":"1190"},"end":{"earliest":"1170","latest":"1190"}}]}},{"toponym":"Forstell","citations":[{"label":"1510 AD","year":1510}],"when":{"timespans":[{"start":{"in":"1510"},"end":{"in":"1510"}}]}},{"toponym":"Forsull'","citations":[{"label":"1200 Cur","year":1200}],"when":{"timespans":[{"start":{"in":"1200"},"end":{"in":"1200"}}]}},{"toponym":"Foresthulle","citations":[{"label":"Eynsh","year":1219},{"label":"1219 Eynsh","year":1219}],"when":{"timespans":[{"start":{"in":"1219"},"end":{"in":"1219"}},{"start":{"in":"1219"},"end":{"in":"1219"}}]}},{"toponym":"Foresthull', For(r)esthill","citations":[{"label":"1219-1600 unspecified sources","year":1219}],"when":{"timespans":[{"start":{"in":"1219"},"end":{"in":"1600"}}]}},{"toponym":"Foresthill alias Fersthill alias Fosthill","citations":[{"label":"1762 Bodl","year":1762}],"when":{"timespans":[{"start":{"in":"1762"},"end":{"in":"1762"}}]}},{"toponym":"Foreshulle, Forestereshulle","citations":[{"label":"1285 Ass","year":1285}],"when":{"timespans":[{"start":{"in":"1285"},"end":{"in":"1285"}}]}}],"types":[{"identifier":"http://vocab.getty.edu/aat/300232418","label":"administrative division","sourceLabels":[{"label":"township","lang":"en"}]}],"geometry":{"type":"GeometryCollection","geometries":[{"type":"Point","coordinates":[-1.15224462782583,51.76267086966899],"citations":[{"label":"Unlock (EDINA) gazetteer, gazetteer record unlock:11146652"}]},{"type":"Point","coordinates":[-1.13924,51.763],"citations":[{"label":"Key to English Place-Names (KEPN), gazetteer record 3588"}]}]},"when":{"timespans":[{"start":{"in":"1086"},"end":{"in":"1762"}}]},"relations":[{"relationType":"gvp:broaderPartitive","relationTo":"https://w3id.org/whg-epns/23/007295","label":"within Forest Hill with Shotover"}]}]}