{"@context":"https://raw.githubusercontent.com/LinkedPasts/linked-places-format/main/linkedplaces-context-v1.1.jsonld","type":"FeatureCollection","license":"Digitisation of English Placenames MADS data is licensed to Jisc by the English Place Names Society and released under a Creative Commons Attribution-NonCommercial 4.0 International License.","note":"LPF v1.3, lossy; derived from the PLATO record; plato_commit=fa0d247ccc0263f8f19c8d7cdcd163df96935d1e","features":[{"@id":"https://w3id.org/whg-epns/23/007700","type":"Feature","properties":{"title":"Horton","ccodes":["GB"],"fclasses":["A","P"]},"names":[{"toponym":"Horton","lang":"en","citations":[{"label":"English Place-Name Society survey, volume 23: Oxfordshire"}]},{"toponym":"Hortun","citations":[{"label":"Thorney","year":1005},{"label":"1005-12 Thorney","year":1005}],"when":{"timespans":[{"start":{"in":"1005"},"end":{"in":"1012"}},{"start":{"earliest":"1005","latest":"1012"},"end":{"earliest":"1005","latest":"1012"}}]}},{"toponym":"Hortone, Hortuna, Horton', Hortun', Horthona","citations":[{"label":"1005-1600 unspecified sources","year":1005}],"when":{"timespans":[{"start":{"in":"1005"},"end":{"in":"1600"}}]}}],"types":[{"identifier":"http://vocab.getty.edu/aat/300232418","label":"administrative division","sourceLabels":[{"label":"township","lang":"en"}]}],"geometry":{"type":"GeometryCollection","geometries":[{"type":"Point","coordinates":[-1.136897291589546,51.80752073650019],"citations":[{"label":"Unlock (EDINA) gazetteer, gazetteer record unlock:11179842"}]},{"type":"Point","coordinates":[-1.13839,51.808],"citations":[{"label":"Key to English Place-Names (KEPN), gazetteer record 3592"}]}]},"when":{"timespans":[{"start":{"in":"1005"},"end":{"in":"1600"}}]},"relations":[{"relationType":"gvp:broaderPartitive","relationTo":"https://w3id.org/whg-epns/23/007699","label":"within Horton cum Studley"}]}]}