{"@context":"https://raw.githubusercontent.com/LinkedPasts/linked-places-format/main/linkedplaces-context-v1.1.jsonld","type":"FeatureCollection","license":"Digitisation of English Placenames MADS data is licensed to Jisc by the English Place Names Society and released under a Creative Commons Attribution-NonCommercial 4.0 International License.","note":"LPF v1.3, lossy; derived from the PLATO record; plato_commit=ca0afadabec1e23a145c0b03df77e8f151f79832","features":[{"@id":"http://placenames.org.uk/id/placename/23/008183","type":"Feature","properties":{"title":"Stanton St John","ccodes":["GB"],"fclasses":["A","P"]},"names":[{"toponym":"Stanton St John","lang":"en","citations":[{"label":"English Place-Name Society survey, volume 23: Oxfordshire"}]}],"types":[{"identifier":"http://vocab.getty.edu/aat/300232418","label":"administrative division","sourceLabels":[{"label":"parish","lang":"en"}]}],"geometry":{"type":"GeometryCollection","geometries":[{"type":"Point","coordinates":[-1.16640327119624,51.78075675663133],"citations":[{"label":"Unlock (EDINA) gazetteer, gazetteer record unlock:11291183"}]},{"type":"Point","coordinates":[-1.16789,51.7812],"citations":[{"label":"Key to English Place-Names (KEPN), gazetteer record 3599"}]}]},"relations":[{"relationType":"gvp:broaderPartitive","relationTo":"http://placenames.org.uk/id/placename/23/006707","label":"within Bullingdon Hundred"}]}]}