{"@context":"https://raw.githubusercontent.com/LinkedPasts/linked-places-format/main/linkedplaces-context-v1.1.jsonld","type":"FeatureCollection","license":"Digitisation of English Placenames MADS data is licensed to Jisc by the English Place Names Society and released under a Creative Commons Attribution-NonCommercial 4.0 International License.","note":"LPF v1.3, lossy; derived from the PLATO record; plato_commit=ca0afadabec1e23a145c0b03df77e8f151f79832","features":[{"@id":"https://w3id.org/whg-epns/23/009896","type":"Feature","properties":{"title":"Lower Heyford","ccodes":["GB"],"fclasses":["A","P"]},"names":[{"toponym":"Lower Heyford","lang":"en","citations":[{"label":"English Place-Name Society survey, volume 23: Oxfordshire"}]}],"types":[{"identifier":"http://vocab.getty.edu/aat/300232418","label":"administrative division","sourceLabels":[{"label":"parish","lang":"en"}]}],"geometry":{"type":"GeometryCollection","geometries":[{"type":"Point","coordinates":[-1.28514,51.91934],"citations":[{"label":"GeoNames, gazetteer record geonames:2643517"}]},{"type":"Point","coordinates":[-1.294762847676553,51.91647880993175],"citations":[{"label":"Unlock (EDINA) gazetteer, gazetteer record unlock:11208377"}]},{"type":"Point","coordinates":[-1.29624,51.9169],"citations":[{"label":"Key to English Place-Names (KEPN), gazetteer record 3620"}]}]},"links":[{"type":"closeMatch","identifier":"https://sws.geonames.org/2643517/"}],"relations":[{"relationType":"gvp:broaderPartitive","relationTo":"https://w3id.org/whg-epns/23/008628","label":"within Ploughley Hundred"}]}]}