{"@context":"https://raw.githubusercontent.com/LinkedPasts/linked-places-format/main/linkedplaces-context-v1.1.jsonld","type":"FeatureCollection","license":"Digitisation of English Placenames MADS data is licensed to Jisc by the English Place Names Society and released under a Creative Commons Attribution-NonCommercial 4.0 International License.","note":"LPF v1.3, lossy; derived from the PLATO record; plato_commit=ca0afadabec1e23a145c0b03df77e8f151f79832","features":[{"@id":"http://placenames.org.uk/id/placename/23/009897","type":"Feature","properties":{"title":"Lower Heyford","ccodes":["GB"],"fclasses":["A","P"]},"names":[{"toponym":"Lower Heyford","lang":"en","citations":[{"label":"English Place-Name Society survey, volume 23: Oxfordshire"}]},{"toponym":"Hegford, Egford","citations":[{"label":"1086 DB","year":1086}],"when":{"timespans":[{"start":{"in":"1086"},"end":{"in":"1086"}}]}},{"toponym":"Heiford","citations":[{"label":"1122–1308, recurring Eynsh","year":1122},{"label":"1122–1308, recurring Ipm"},{"label":"a. 1172 Eynsh","year":1122},{"label":"1308 Ipm","year":1308}],"when":{"timespans":[{"start":{"in":"1122"},"end":{"in":"1308"}},{"start":{"earliest":"1122","latest":"1172"},"end":{"earliest":"1122","latest":"1172"}},{"start":{"in":"1308"},"end":{"in":"1308"}}]}},{"toponym":"Heiford', Heiforde, Heyford(ia), Heyforde","citations":[{"label":"a. 1172-1308 unspecified sources","year":1122}],"when":{"timespans":[{"start":{"in":"1122"},"end":{"in":"1308"}}]}},{"toponym":"Nether Heyford","citations":[{"label":"1246-7 Ass","year":1246}],"when":{"timespans":[{"start":{"earliest":"1246","latest":"1247"},"end":{"earliest":"1246","latest":"1247"}}]}},{"toponym":"Heiford ad Pontem","citations":[{"label":"1254-5 RH","year":1254},{"label":"1293 Ipm","year":1293}],"when":{"timespans":[{"start":{"earliest":"1254","latest":"1255"},"end":{"earliest":"1254","latest":"1255"}},{"start":{"in":"1293"},"end":{"in":"1293"}}]}},{"toponym":"Heyforde ad Pontem","citations":[{"label":"c. 1270 Eynsh","year":1260}],"when":{"timespans":[{"start":{"earliest":"1260","latest":"1280"},"end":{"earliest":"1260","latest":"1280"}}]}},{"toponym":"Brigeheyford","citations":[{"label":"1275 Ipm","year":1275}],"when":{"timespans":[{"start":{"in":"1275"},"end":{"in":"1275"}}]}},{"toponym":"Heyford ad Pontem","citations":[{"label":"1278–1616, recurring RH","year":1278},{"label":"1278–1616, recurring Blo"},{"label":"1278-9 RH","year":1278},{"label":"1616 Blo","year":1616}],"when":{"timespans":[{"start":{"in":"1278"},"end":{"in":"1616"}},{"start":{"earliest":"1278","latest":"1279"},"end":{"earliest":"1278","latest":"1279"}},{"start":{"in":"1616"},"end":{"in":"1616"}}]}},{"toponym":"Heyford at Bridge","citations":[{"label":"1314 Cl","year":1314}],"when":{"timespans":[{"start":{"in":"1314"},"end":{"in":"1314"}}]}},{"toponym":"Heyfordebrugge","citations":[{"label":"1318 Ch","year":1318}],"when":{"timespans":[{"start":{"in":"1318"},"end":{"in":"1318"}}]}},{"toponym":"Heyford Pont","citations":[{"label":"1384 Eynsh","year":1384}],"when":{"timespans":[{"start":{"in":"1384"},"end":{"in":"1384"}}]}},{"toponym":"Heyford apud Pontem","citations":[{"label":"1539 Eynsh","year":1539}],"when":{"timespans":[{"start":{"in":"1539"},"end":{"in":"1539"}}]}},{"toponym":"Heyford Purcell","citations":[{"label":"1728 Blo","year":1728}],"when":{"timespans":[{"start":{"in":"1728"},"end":{"in":"1728"}}]}},{"toponym":"Eiforde","citations":[{"label":"1193-1200 Eynsh","year":1193}],"when":{"timespans":[{"start":{"earliest":"1193","latest":"1200"},"end":{"earliest":"1193","latest":"1200"}}]}},{"toponym":"Eifort","citations":[{"label":"1254-5 RH","year":1254}],"when":{"timespans":[{"start":{"earliest":"1254","latest":"1255"},"end":{"earliest":"1254","latest":"1255"}}]}},{"toponym":"Haiford","citations":[{"label":"1226-7 WellsR","year":1226}],"when":{"timespans":[{"start":{"earliest":"1226","latest":"1227"},"end":{"earliest":"1226","latest":"1227"}}]}},{"toponym":"Hayford, Hyford","citations":[{"label":"1278-9 RH","year":1278}],"when":{"timespans":[{"start":{"earliest":"1278","latest":"1279"},"end":{"earliest":"1278","latest":"1279"}}]}},{"toponym":"Hayford manor ad pontem","citations":[{"label":"1291 Ipm","year":1291}],"when":{"timespans":[{"start":{"in":"1291"},"end":{"in":"1291"}}]}},{"toponym":"Hayford","citations":[{"label":"1308 Ipm","year":1308}],"when":{"timespans":[{"start":{"in":"1308"},"end":{"in":"1308"}}]}},{"toponym":"Hayford Pont","citations":[{"label":"1384 Eynsh","year":1384}],"when":{"timespans":[{"start":{"in":"1384"},"end":{"in":"1384"}}]}},{"toponym":"Nytherhayford","citations":[{"label":"Os"}]},{"toponym":"Heyrford","citations":[{"label":"1263 Ipm","year":1263}],"when":{"timespans":[{"start":{"in":"1263"},"end":{"in":"1263"}}]}},{"toponym":"Hereford ad Pontem","citations":[{"label":"1285 Ass","year":1285}],"when":{"timespans":[{"start":{"in":"1285"},"end":{"in":"1285"}}]}},{"toponym":"Wyford ad pontem","citations":[{"label":"1285 Ass","year":1285}],"when":{"timespans":[{"start":{"in":"1285"},"end":{"in":"1285"}}]}},{"toponym":"Heighford, Higheford, Heiford","citations":[{"label":"1428 FA","year":1428}],"when":{"timespans":[{"start":{"in":"1428"},"end":{"in":"1428"}}]}}],"types":[{"identifier":"http://vocab.getty.edu/aat/300232418","label":"administrative division","sourceLabels":[{"label":"township","lang":"en"}]}],"geometry":{"type":"GeometryCollection","geometries":[{"type":"Point","coordinates":[-1.28514,51.91934],"citations":[{"label":"GeoNames, gazetteer record geonames:2643517"}]},{"type":"Point","coordinates":[-1.294762847676553,51.91647880993175],"citations":[{"label":"Unlock (EDINA) gazetteer, gazetteer record unlock:11208377"}]},{"type":"Point","coordinates":[-1.29624,51.9169],"citations":[{"label":"Key to English Place-Names (KEPN), gazetteer record 3620"}]}]},"when":{"timespans":[{"start":{"in":"1086"},"end":{"in":"1728"}}]},"links":[{"type":"closeMatch","identifier":"https://sws.geonames.org/2643517/"}],"relations":[{"relationType":"gvp:broaderPartitive","relationTo":"http://placenames.org.uk/id/placename/23/009896","label":"within Lower Heyford"}]}]}