{"@context":"https://raw.githubusercontent.com/LinkedPasts/linked-places-format/main/linkedplaces-context-v1.1.jsonld","type":"FeatureCollection","license":"Digitisation of English Placenames MADS data is licensed to Jisc by the English Place Names Society and released under a Creative Commons Attribution-NonCommercial 4.0 International License.","note":"LPF v1.3, lossy; derived from the PLATO record; plato_commit=ca0afadabec1e23a145c0b03df77e8f151f79832","features":[{"@id":"https://w3id.org/whg-epns/23/010005","type":"Feature","properties":{"title":"Upper Heyford","ccodes":["GB"],"fclasses":["A","P"]},"names":[{"toponym":"Upper Heyford","lang":"en","citations":[{"label":"English Place-Name Society survey, volume 23: Oxfordshire"}]},{"toponym":"(to) Hegforda","citations":[{"label":"995 KCD","year":995}],"when":{"timespans":[{"start":{"in":"0995"},"end":{"in":"0995"}}]}},{"toponym":"Haiforde","citations":[{"label":"1086 DB","year":1086},{"label":"c. 1173-89 Eynsh","year":1173}],"when":{"timespans":[{"start":{"in":"1086"},"end":{"in":"1086"}},{"start":{"earliest":"1173","latest":"1189"},"end":{"earliest":"1173","latest":"1189"}}]}},{"toponym":"Haiford'","citations":[{"label":"c. 1130 OxonCh","year":1120}],"when":{"timespans":[{"start":{"earliest":"1120","latest":"1140"},"end":{"earliest":"1120","latest":"1140"}}]}},{"toponym":"Hayford","citations":[{"label":"1220 Fees","year":1220}],"when":{"timespans":[{"start":{"in":"1220"},"end":{"in":"1220"}}]}},{"toponym":"Haiford","citations":[{"label":"1259 Os","year":1259}],"when":{"timespans":[{"start":{"in":"1259"},"end":{"in":"1259"}}]}},{"toponym":"Hageford","citations":[{"label":"1163 P","year":1163}],"when":{"timespans":[{"start":{"in":"1163"},"end":{"in":"1163"}}]}},{"toponym":"Hefort","citations":[{"label":"c. 1200 St John","year":1190}],"when":{"timespans":[{"start":{"earliest":"1190","latest":"1210"},"end":{"earliest":"1190","latest":"1210"}}]}},{"toponym":"Heyford","citations":[{"label":"1220–1236, recurring Fees","year":1220},{"label":"1220–1236, recurring Fees"},{"label":"1220 Fees","year":1220},{"label":"1235-6 Fees","year":1235}],"when":{"timespans":[{"start":{"in":"1220"},"end":{"in":"1236"}},{"start":{"in":"1220"},"end":{"in":"1220"}},{"start":{"earliest":"1235","latest":"1236"},"end":{"earliest":"1235","latest":"1236"}}]}},{"toponym":"Heyford', Heiford, Heifor'","citations":[{"label":"1220-1236 unspecified sources","year":1220}],"when":{"timespans":[{"start":{"in":"1220"},"end":{"in":"1236"}}]}},{"toponym":"Heyford Magna","citations":[{"label":"1242-3 Fees","year":1242}],"when":{"timespans":[{"start":{"earliest":"1242","latest":"1243"},"end":{"earliest":"1242","latest":"1243"}}]}},{"toponym":"Heifort Waren, Eifort","citations":[{"label":"1254-5 RH","year":1254}],"when":{"timespans":[{"start":{"earliest":"1254","latest":"1255"},"end":{"earliest":"1254","latest":"1255"}}]}},{"toponym":"Heyford Warin","citations":[{"label":"c. 1270 Eynsh","year":1260},{"label":"1339 Cl","year":1339}],"when":{"timespans":[{"start":{"earliest":"1260","latest":"1280"},"end":{"earliest":"1260","latest":"1280"}},{"start":{"in":"1339"},"end":{"in":"1339"}}]}},{"toponym":"Waryn(e)","citations":[{"label":"c. 1270 Eynsh","year":1260},{"label":"1339 Cl","year":1339}],"when":{"timespans":[{"start":{"earliest":"1260","latest":"1280"},"end":{"earliest":"1260","latest":"1280"}},{"start":{"in":"1339"},"end":{"in":"1339"}}]}},{"toponym":"Wrenge","citations":[{"label":"c. 1270 Eynsh","year":1260},{"label":"1339 Cl","year":1339}],"when":{"timespans":[{"start":{"earliest":"1260","latest":"1280"},"end":{"earliest":"1260","latest":"1280"}},{"start":{"in":"1339"},"end":{"in":"1339"}}]}},{"toponym":"Wareyn","citations":[{"label":"c. 1270 Eynsh","year":1260},{"label":"1339 Cl","year":1339}],"when":{"timespans":[{"start":{"earliest":"1260","latest":"1280"},"end":{"earliest":"1260","latest":"1280"}},{"start":{"in":"1339"},"end":{"in":"1339"}}]}},{"toponym":"Heyford Superiore","citations":[{"label":"1390 Eynsh","year":1390}],"when":{"timespans":[{"start":{"in":"1390"},"end":{"in":"1390"}}]}},{"toponym":"Hei(ghe)ford Wareyn","citations":[{"label":"1428 FA","year":1428}],"when":{"timespans":[{"start":{"in":"1428"},"end":{"in":"1428"}}]}},{"toponym":"Heyfordewarenn","citations":[{"label":"1539 Eynsh","year":1539}],"when":{"timespans":[{"start":{"in":"1539"},"end":{"in":"1539"}}]}},{"toponym":"Upper Heyford, Upper Heyford Warren","citations":[{"label":"early 18th ParColl","year":1700}],"when":{"timespans":[{"start":{"earliest":"1700","latest":"1725"},"end":{"earliest":"1700","latest":"1725"}}]}}],"types":[{"identifier":"http://vocab.getty.edu/aat/300232418","label":"administrative division","sourceLabels":[{"label":"township","lang":"en"}]}],"geometry":{"type":"GeometryCollection","geometries":[{"type":"Point","coordinates":[-1.27622,51.93035],"citations":[{"label":"GeoNames, gazetteer record geonames:2635124"}]},{"type":"Point","coordinates":[-1.279935397742949,51.9343730911188],"citations":[{"label":"Unlock (EDINA) gazetteer, gazetteer record unlock:11310115"}]},{"type":"Point","coordinates":[-1.28141,51.9348],"citations":[{"label":"Key to English Place-Names (KEPN), gazetteer record 3621"}]}]},"when":{"timespans":[{"start":{"in":"0995"},"end":{"in":"1725"}}]},"links":[{"type":"closeMatch","identifier":"https://sws.geonames.org/2635124/"}],"relations":[{"relationType":"gvp:broaderPartitive","relationTo":"https://w3id.org/whg-epns/23/010004","label":"within Upper Heyford"}]}]}