{"@context":"https://raw.githubusercontent.com/LinkedPasts/linked-places-format/main/linkedplaces-context-v1.1.jsonld","type":"FeatureCollection","license":"Digitisation of English Placenames MADS data is licensed to Jisc by the English Place Names Society and released under a Creative Commons Attribution-NonCommercial 4.0 International License.","note":"LPF v1.3, lossy; derived from the PLATO record; plato_commit=fa0d247ccc0263f8f19c8d7cdcd163df96935d1e","features":[{"@id":"https://w3id.org/whg-epns/23/010649","type":"Feature","properties":{"title":"Noke","ccodes":["GB"],"fclasses":["A","P"]},"names":[{"toponym":"Noke","lang":"en","citations":[{"label":"English Place-Name Society survey, volume 23: Oxfordshire"}]},{"toponym":"Acam","citations":[{"label":"1086 DB","year":1086}],"when":{"timespans":[{"start":{"in":"1086"},"end":{"in":"1086"}}]}},{"toponym":"Aca","citations":[{"label":"c. 1170-90 Eynsh","year":1170}],"when":{"timespans":[{"start":{"earliest":"1170","latest":"1190"},"end":{"earliest":"1170","latest":"1190"}}]}},{"toponym":"Lac","citations":[{"label":"1191 P","year":1191}],"when":{"timespans":[{"start":{"in":"1191"},"end":{"in":"1191"}}]}},{"toponym":"Lake","citations":[{"label":"1199 FF","year":1199},{"label":"1220 Fees","year":1220}],"when":{"timespans":[{"start":{"in":"1199"},"end":{"in":"1199"}},{"start":{"in":"1220"},"end":{"in":"1220"}},{"start":{"earliest":"1242","latest":"1243"},"end":{"earliest":"1242","latest":"1243"}}]}},{"toponym":"Ake","citations":[{"label":"Eynsh","year":1213},{"label":"Cl"},{"label":"1213-28 Eynsh","year":1213},{"label":"1397 Cl","year":1397}],"when":{"timespans":[{"start":{"in":"1213"},"end":{"in":"1397"}},{"start":{"earliest":"1213","latest":"1228"},"end":{"earliest":"1213","latest":"1228"}},{"start":{"in":"1397"},"end":{"in":"1397"}}]}},{"toponym":"Ak","citations":[{"label":"c. 1270 St John","year":1260}],"when":{"timespans":[{"start":{"earliest":"1260","latest":"1280"},"end":{"earliest":"1260","latest":"1280"}},{"start":{"earliest":"1270","latest":"1290"},"end":{"earliest":"1270","latest":"1290"}}]}},{"toponym":"Acham","citations":[{"label":"1086 DB","year":1086}],"when":{"timespans":[{"start":{"in":"1086"},"end":{"in":"1086"}}]}},{"toponym":"Acha","citations":[{"label":"1163 P","year":1163}],"when":{"timespans":[{"start":{"in":"1163"},"end":{"in":"1163"}}]}},{"toponym":"Acla","citations":[{"label":"1163 P","year":1163}],"when":{"timespans":[{"start":{"in":"1163"},"end":{"in":"1163"}}]}},{"toponym":"Alke","citations":[{"label":"1242 P","year":1242}],"when":{"timespans":[{"start":{"in":"1242"},"end":{"in":"1242"}}]}},{"toponym":"Ok'","citations":[{"label":"1235-6 Fees","year":1235}],"when":{"timespans":[{"start":{"earliest":"1235","latest":"1236"},"end":{"earliest":"1235","latest":"1236"}}]}},{"toponym":"Oke","citations":[{"label":"RH","year":1254},{"label":"AD"},{"label":"1254-5 RH","year":1254},{"label":"1476 AD","year":1476}],"when":{"timespans":[{"start":{"in":"1254"},"end":{"in":"1476"}},{"start":{"earliest":"1254","latest":"1255"},"end":{"earliest":"1254","latest":"1255"}},{"start":{"in":"1476"},"end":{"in":"1476"}}]}},{"toponym":"la Oke","citations":[{"label":"1264-8 Eynsh","year":1264}],"when":{"timespans":[{"start":{"earliest":"1264","latest":"1268"},"end":{"earliest":"1264","latest":"1268"}}]}},{"toponym":"Le Oke","citations":[{"label":"1285 Ass","year":1285}],"when":{"timespans":[{"start":{"in":"1285"},"end":{"in":"1285"}}]}},{"toponym":"La Oke alias Oke","citations":[{"label":"1307 Ipm","year":1307}],"when":{"timespans":[{"start":{"in":"1307"},"end":{"in":"1307"}}]}},{"toponym":"Ok","citations":[{"label":"1327 Ipm","year":1327},{"label":"1332 Cl","year":1332}],"when":{"timespans":[{"start":{"in":"1327"},"end":{"in":"1327"}},{"start":{"in":"1332"},"end":{"in":"1332"}}]}},{"toponym":"La Hoke","citations":[{"label":"1285 Ass","year":1285}],"when":{"timespans":[{"start":{"in":"1285"},"end":{"in":"1285"}}]}},{"toponym":"Hak'","citations":[{"label":"c. 1290 St John","year":1280}],"when":{"timespans":[{"start":{"earliest":"1280","latest":"1300"},"end":{"earliest":"1280","latest":"1300"}}]}},{"toponym":"Noke","citations":[{"label":"1382 Cl","year":1382},{"label":"1468 AD","year":1468},{"label":"early 18th ParColl","year":1700}],"when":{"timespans":[{"start":{"in":"1382"},"end":{"in":"1382"}},{"start":{"in":"1468"},"end":{"in":"1468"}},{"start":{"earliest":"1700","latest":"1725"},"end":{"earliest":"1700","latest":"1725"}}]}},{"toponym":"Nocke","citations":[{"label":"1590 Blo","year":1590}],"when":{"timespans":[{"start":{"in":"1590"},"end":{"in":"1590"}}]}},{"toponym":"Noake","citations":[{"label":"early 18th ParColl","year":1700}],"when":{"timespans":[{"start":{"earliest":"1700","latest":"1725"},"end":{"earliest":"1700","latest":"1725"}}]}}],"types":[{"identifier":"http://vocab.getty.edu/aat/300232418","label":"administrative division","sourceLabels":[{"label":"township","lang":"en"}]}],"geometry":{"type":"GeometryCollection","geometries":[{"type":"Point","coordinates":[-1.20678,51.81096],"citations":[{"label":"GeoNames, gazetteer record geonames:7298297"}]},{"type":"Point","coordinates":[-1.209261790555174,51.81702183029119],"citations":[{"label":"Unlock (EDINA) gazetteer, gazetteer record unlock:11231633"}]},{"type":"Point","coordinates":[-1.21074,51.8175],"citations":[{"label":"Key to English Place-Names (KEPN), gazetteer record 3628"}]}]},"when":{"timespans":[{"start":{"in":"1086"},"end":{"in":"1725"}}]},"links":[{"type":"closeMatch","identifier":"https://sws.geonames.org/7298297/"}],"relations":[{"relationType":"gvp:broaderPartitive","relationTo":"https://w3id.org/whg-epns/23/010648","label":"within Noke"}]}]}