{"@context":"https://raw.githubusercontent.com/LinkedPasts/linked-places-format/main/linkedplaces-context-v1.1.jsonld","type":"FeatureCollection","license":"Digitisation of English Placenames MADS data is licensed to Jisc by the English Place Names Society and released under a Creative Commons Attribution-NonCommercial 4.0 International License.","note":"LPF v1.3, lossy; derived from the PLATO record; plato_commit=fa0d247ccc0263f8f19c8d7cdcd163df96935d1e","features":[{"@id":"https://w3id.org/whg-epns/23/010700","type":"Feature","properties":{"title":"Oddington","ccodes":["GB"],"fclasses":["A","P"]},"names":[{"toponym":"Oddington","lang":"en","citations":[{"label":"English Place-Name Society survey, volume 23: Oxfordshire"}]},{"toponym":"Otendone","citations":[{"label":"1086 DB","year":1086}],"when":{"timespans":[{"start":{"in":"1086"},"end":{"in":"1086"}}]}},{"toponym":"Ottendune","citations":[{"label":"Thame","year":1137},{"label":"Ass"},{"label":"1137 Thame","year":1137},{"label":"1241 Ass","year":1241}],"when":{"timespans":[{"start":{"in":"1137"},"end":{"in":"1241"}},{"start":{"in":"1137"},"end":{"in":"1137"}},{"start":{"in":"1241"},"end":{"in":"1241"}}]}},{"toponym":"Ottendun, Ottendone, Ottendon'","citations":[{"label":"1137-1241 unspecified sources","year":1137}],"when":{"timespans":[{"start":{"in":"1137"},"end":{"in":"1241"}}]}},{"toponym":"Otendon'","citations":[{"label":"1206 P","year":1206}],"when":{"timespans":[{"start":{"in":"1206"},"end":{"in":"1206"}}]}},{"toponym":"Otenden'","citations":[{"label":"1206 Cur","year":1206}],"when":{"timespans":[{"start":{"in":"1206"},"end":{"in":"1206"}}]}},{"toponym":"Otendun'","citations":[{"label":"1254-5 RH","year":1254}],"when":{"timespans":[{"start":{"earliest":"1254","latest":"1255"},"end":{"earliest":"1254","latest":"1255"}}]}},{"toponym":"Otindon'","citations":[{"label":"S","year":1210},{"label":"FA"},{"label":"c. 1220 S","year":1210},{"label":"1428 FA","year":1428}],"when":{"timespans":[{"start":{"in":"1210"},"end":{"in":"1428"}},{"start":{"earliest":"1210","latest":"1230"},"end":{"earliest":"1210","latest":"1230"}},{"start":{"in":"1428"},"end":{"in":"1428"}}]}},{"toponym":"Ottindone, Ottindon', Ot(t)indun, Ottindune, Otindon(e), Otinden, Otyndon(e), Otynden, Ottyndoun","citations":[{"label":"c. 1220-1428 unspecified sources","year":1210}],"when":{"timespans":[{"start":{"in":"1210"},"end":{"in":"1428"}}]}},{"toponym":"Otynton","citations":[{"label":"1341 Cl","year":1341}],"when":{"timespans":[{"start":{"in":"1341"},"end":{"in":"1341"}}]}},{"toponym":"Otyntown","citations":[{"label":"1428 FA","year":1428}],"when":{"timespans":[{"start":{"in":"1428"},"end":{"in":"1428"}}]}},{"toponym":"Otigdon","citations":[{"label":"1278-9 RH","year":1278}],"when":{"timespans":[{"start":{"earliest":"1278","latest":"1279"},"end":{"earliest":"1278","latest":"1279"}}]}},{"toponym":"Otyngdone, Ondytone","citations":[{"label":"1285 Ass","year":1285}],"when":{"timespans":[{"start":{"in":"1285"},"end":{"in":"1285"}}]}},{"toponym":"Odingtone","citations":[{"label":"1526 LS","year":1526}],"when":{"timespans":[{"start":{"in":"1526"},"end":{"in":"1526"}}]}}],"types":[{"identifier":"http://vocab.getty.edu/aat/300232418","label":"administrative division","sourceLabels":[{"label":"township","lang":"en"}]}],"geometry":{"type":"GeometryCollection","geometries":[{"type":"Point","coordinates":[-1.1982,51.83084],"citations":[{"label":"GeoNames, gazetteer record geonames:2641085"}]},{"type":"Point","coordinates":[-1.194594047480538,51.82591451926466],"citations":[{"label":"Unlock (EDINA) gazetteer, gazetteer record unlock:11235061"}]},{"type":"Point","coordinates":[-1.19592,51.8354],"citations":[{"label":"Key to English Place-Names (KEPN), gazetteer record 3629"}]}]},"when":{"timespans":[{"start":{"in":"1086"},"end":{"in":"1526"}}]},"links":[{"type":"closeMatch","identifier":"https://sws.geonames.org/2641085/"}],"relations":[{"relationType":"gvp:broaderPartitive","relationTo":"https://w3id.org/whg-epns/23/010699","label":"within Oddington"}]}]}