{"@context":"https://raw.githubusercontent.com/LinkedPasts/linked-places-format/main/linkedplaces-context-v1.1.jsonld","type":"FeatureCollection","license":"Digitisation of English Placenames MADS data is licensed to Jisc by the English Place Names Society and released under a Creative Commons Attribution-NonCommercial 4.0 International License.","note":"LPF v1.3, lossy; derived from the PLATO record; plato_commit=fa0d247ccc0263f8f19c8d7cdcd163df96935d1e","features":[{"@id":"https://w3id.org/whg-epns/23/010862","type":"Feature","properties":{"title":"Stoke Lyne","ccodes":["GB"],"fclasses":["A","P"]},"names":[{"toponym":"Stoke Lyne","lang":"en","citations":[{"label":"English Place-Name Society survey, volume 23: Oxfordshire"}]},{"toponym":"Stoches","citations":[{"label":"1086 DB","year":1086}],"when":{"timespans":[{"start":{"in":"1086"},"end":{"in":"1086"}}]}},{"toponym":"tokes Otue de Insula","citations":[{"label":"1167 P","year":1167}],"when":{"timespans":[{"start":{"in":"1167"},"end":{"in":"1167"}}]}},{"toponym":"Stokes","citations":[{"label":"FF","year":1198},{"label":"RH"},{"label":"1198 FF","year":1198},{"label":"1254-5 RH","year":1254}],"when":{"timespans":[{"start":{"in":"1198"},"end":{"in":"1255"}},{"start":{"in":"1198"},"end":{"in":"1198"}},{"start":{"earliest":"1254","latest":"1255"},"end":{"earliest":"1254","latest":"1255"}}]}},{"toponym":"Stok'","citations":[{"label":"1203 Cur","year":1203},{"label":"1224 FF","year":1224},{"label":"1235-6 Fees","year":1235}],"when":{"timespans":[{"start":{"in":"1203"},"end":{"in":"1203"}},{"start":{"in":"1224"},"end":{"in":"1224"}},{"start":{"earliest":"1235","latest":"1236"},"end":{"earliest":"1235","latest":"1236"}},{"start":{"earliest":"1242","latest":"1243"},"end":{"earliest":"1242","latest":"1243"}}]}},{"toponym":"Stoke","citations":[{"label":"1209-35 WellsR","year":1209},{"label":"1278-9 RH","year":1278}],"when":{"timespans":[{"start":{"earliest":"1209","latest":"1235"},"end":{"earliest":"1209","latest":"1235"}},{"start":{"earliest":"1278","latest":"1279"},"end":{"earliest":"1278","latest":"1279"}}]}},{"toponym":"Stoke Insula","citations":[{"label":"1316 FA","year":1316}],"when":{"timespans":[{"start":{"in":"1316"},"end":{"in":"1316"}}]}},{"toponym":"Stoke del Ile","citations":[{"label":"1317 Ch","year":1317}],"when":{"timespans":[{"start":{"in":"1317"},"end":{"in":"1317"}}]}},{"toponym":"Stoke del Isle","citations":[{"label":"1328 Cl","year":1328}],"when":{"timespans":[{"start":{"in":"1328"},"end":{"in":"1328"}}]}},{"toponym":"Stoke del Idle","citations":[{"label":"1354 Ipm","year":1354}],"when":{"timespans":[{"start":{"in":"1354"},"end":{"in":"1354"}}]}},{"toponym":"Stoke de Lisle","citations":[{"label":"1360 Ipm","year":1360}],"when":{"timespans":[{"start":{"in":"1360"},"end":{"in":"1360"}}]}},{"toponym":"Stokelisle","citations":[{"label":"1400 Cooke","year":1400},{"label":"1452 Blo","year":1452}],"when":{"timespans":[{"start":{"in":"1400"},"end":{"in":"1400"}},{"start":{"in":"1452"},"end":{"in":"1452"}}]}},{"toponym":"Stoke Insule","citations":[{"label":"1428 FA","year":1428}],"when":{"timespans":[{"start":{"in":"1428"},"end":{"in":"1428"}}]}},{"toponym":"Stoke Lisle","citations":[{"label":"1525 Blo","year":1525}],"when":{"timespans":[{"start":{"in":"1525"},"end":{"in":"1525"}}]}},{"toponym":"Stokelyle","citations":[{"label":"c. 1530 Blo","year":1520}],"when":{"timespans":[{"start":{"earliest":"1520","latest":"1540"},"end":{"earliest":"1520","latest":"1540"}}]}},{"toponym":"Stokelynde","citations":[{"label":"1526 LS","year":1526}],"when":{"timespans":[{"start":{"in":"1526"},"end":{"in":"1526"}}]}},{"toponym":"Stoke alias Stokelin","citations":[{"label":"1573-4 Tusmore","year":1573}],"when":{"timespans":[{"start":{"earliest":"1573","latest":"1574"},"end":{"earliest":"1573","latest":"1574"}}]}},{"toponym":"Stoke-lyne","citations":[{"label":"1658 Blo","year":1658}],"when":{"timespans":[{"start":{"in":"1658"},"end":{"in":"1658"}}]}},{"toponym":"Estokes","citations":[{"label":"1212 Cur","year":1212}],"when":{"timespans":[{"start":{"in":"1212"},"end":{"in":"1212"}}]}}],"types":[{"identifier":"http://vocab.getty.edu/aat/300232418","label":"administrative division","sourceLabels":[{"label":"township","lang":"en"}]}],"geometry":{"type":"GeometryCollection","geometries":[{"type":"Point","coordinates":[-1.1764,51.95115],"citations":[{"label":"GeoNames, gazetteer record geonames:2636846"}]},{"type":"Point","coordinates":[-1.177789980024176,51.951688105968],"citations":[{"label":"Unlock (EDINA) gazetteer, gazetteer record unlock:11292755"}]},{"type":"Point","coordinates":[-1.17928,51.9521],"citations":[{"label":"Key to English Place-Names (KEPN), gazetteer record 3632"}]}]},"when":{"timespans":[{"start":{"in":"1086"},"end":{"in":"1658"}}]},"links":[{"type":"closeMatch","identifier":"https://sws.geonames.org/2636846/"}],"relations":[{"relationType":"gvp:broaderPartitive","relationTo":"https://w3id.org/whg-epns/23/010861","label":"within Stoke Lyne"}]}]}