{"@context":"https://raw.githubusercontent.com/LinkedPasts/linked-places-format/main/linkedplaces-context-v1.1.jsonld","type":"FeatureCollection","license":"Digitisation of English Placenames MADS data is licensed to Jisc by the English Place Names Society and released under a Creative Commons Attribution-NonCommercial 4.0 International License.","note":"LPF v1.3, lossy; derived from the PLATO record; plato_commit=ca0afadabec1e23a145c0b03df77e8f151f79832","features":[{"@id":"https://w3id.org/whg-epns/23/011137","type":"Feature","properties":{"title":"Weston on the Green","ccodes":["GB"],"fclasses":["A","P"]},"names":[{"toponym":"Weston on the Green","lang":"en","citations":[{"label":"English Place-Name Society survey, volume 23: Oxfordshire"}]},{"toponym":"Westone","citations":[{"label":"1086–1086, recurring DB","year":1086},{"label":"1086 DB","year":1086}],"when":{"timespans":[{"start":{"in":"1086"},"end":{"in":"1086"}},{"start":{"in":"1086"},"end":{"in":"1086"}}]}},{"toponym":"Westona, Weston(e), Weston', Westune","citations":[{"label":"1086-1600 unspecified sources","year":1086}],"when":{"timespans":[{"start":{"in":"1086"},"end":{"in":"1600"}}]}}],"types":[{"identifier":"http://vocab.getty.edu/aat/300232418","label":"administrative division","sourceLabels":[{"label":"township","lang":"en"}]}],"geometry":{"type":"GeometryCollection","geometries":[{"type":"Point","coordinates":[-1.22875,51.86425],"citations":[{"label":"GeoNames, gazetteer record geonames:2634313"}]},{"type":"Point","coordinates":[-1.22448,51.8625],"citations":[{"label":"Key to English Place-Names (KEPN), gazetteer record 3635"}]}]},"when":{"timespans":[{"start":{"in":"1086"},"end":{"in":"1600"}}]},"links":[{"type":"closeMatch","identifier":"https://sws.geonames.org/2634313/"}],"relations":[{"relationType":"gvp:broaderPartitive","relationTo":"https://w3id.org/whg-epns/23/011136","label":"within Weston on the Green"}]}]}