{"@context":"https://raw.githubusercontent.com/LinkedPasts/linked-places-format/main/linkedplaces-context-v1.1.jsonld","type":"FeatureCollection","license":"Digitisation of English Placenames MADS data is licensed to Jisc by the English Place Names Society and released under a Creative Commons Attribution-NonCommercial 4.0 International License.","note":"LPF v1.3, lossy; derived from the PLATO record; plato_commit=ca0afadabec1e23a145c0b03df77e8f151f79832","features":[{"@id":"http://placenames.org.uk/id/placename/53/000017","type":"Feature","properties":{"title":"Branksome","ccodes":["GB"],"fclasses":["A","P"]},"names":[{"toponym":"Branksome","lang":"en","citations":[{"label":"English Place-Name Society survey, volume 53: Dorset"}]},{"toponym":"Branksome Tower","citations":[{"label":"1863 Hutch3","year":1863}],"when":{"timespans":[{"start":{"in":"1863"},"end":{"in":"1863"}}]}}],"types":[{"identifier":"http://vocab.getty.edu/aat/300232418","label":"administrative division","sourceLabels":[{"label":"township","lang":"en"}]}],"geometry":{"type":"GeometryCollection","geometries":[{"type":"Point","coordinates":[-1.92344,50.7321],"citations":[{"label":"GeoNames, gazetteer record geonames:8063665"}]},{"type":"Point","coordinates":[-1.929144003,50.73242195],"citations":[{"label":"English Place-Name Society survey (DEEP coordinates)"}]},{"type":"Point","coordinates":[-1.922059879969773,50.7315185322178],"citations":[{"label":"Unlock (EDINA) gazetteer, gazetteer record unlock:11085772"}]},{"type":"Point","coordinates":[-1.92979,50.7334],"citations":[{"label":"Key to English Place-Names (KEPN), gazetteer record 381"}]}]},"when":{"timespans":[{"start":{"in":"1863"},"end":{"in":"1863"}}]},"links":[{"type":"closeMatch","identifier":"https://sws.geonames.org/8063665/"}],"relations":[{"relationType":"gvp:broaderPartitive","relationTo":"http://placenames.org.uk/id/placename/53/000016","label":"within Branksome"}]}]}