{"@context":"https://raw.githubusercontent.com/LinkedPasts/linked-places-format/main/linkedplaces-context-v1.1.jsonld","type":"FeatureCollection","license":"Digitisation of English Placenames MADS data is licensed to Jisc by the English Place Names Society and released under a Creative Commons Attribution-NonCommercial 4.0 International License.","note":"LPF v1.3, lossy; derived from the PLATO record; plato_commit=ca0afadabec1e23a145c0b03df77e8f151f79832","features":[{"@id":"http://placenames.org.uk/id/placename/53/005602","type":"Feature","properties":{"title":"Haselbury Bryan","ccodes":["GB"],"fclasses":["A","P"]},"names":[{"toponym":"Haselbury Bryan","lang":"en","citations":[{"label":"English Place-Name Society survey, volume 53: Dorset"}]},{"toponym":"Hasebere","citations":[{"label":"1201 Cur","year":1201},{"label":"1280 Ass","year":1280},{"label":"1311 Ipm","year":1311}],"when":{"timespans":[{"start":{"in":"1201"},"end":{"in":"1201"}},{"start":{"in":"1280"},"end":{"in":"1280"}},{"start":{"in":"1311"},"end":{"in":"1311"}}]}},{"toponym":"Haseberg(e)","citations":[{"label":"1201 Cur","year":1201}],"when":{"timespans":[{"start":{"in":"1201"},"end":{"in":"1201"}}]}},{"toponym":"Haselber(e)","citations":[{"label":"1237 FF","year":1237},{"label":"1268 Ass","year":1268},{"label":"1275 Banco","year":1275},{"label":"1281–1489, recurring Cl","year":1281},{"label":"1281–1489, recurring AD"},{"label":"1281 Cl","year":1281},{"label":"1489 AD","year":1489}],"when":{"timespans":[{"start":{"in":"1237"},"end":{"in":"1237"}},{"start":{"in":"1268"},"end":{"in":"1268"}},{"start":{"in":"1275"},"end":{"in":"1275"}},{"start":{"in":"1281"},"end":{"in":"1489"}},{"start":{"in":"1281"},"end":{"in":"1281"}},{"start":{"in":"1489"},"end":{"in":"1489"}}]}},{"toponym":"Haselber(e) in Blakemor(e)","citations":[{"label":"1268 Ass","year":1268},{"label":"1346 AddCh","year":1346},{"label":"1435 Cl","year":1435}],"when":{"timespans":[{"start":{"in":"1268"},"end":{"in":"1268"}},{"start":{"in":"1346"},"end":{"in":"1346"}},{"start":{"in":"1435"},"end":{"in":"1435"}}]}},{"toponym":"Haselber(e) juxta Stokewak","citations":[{"label":"1305 FF","year":1305}],"when":{"timespans":[{"start":{"in":"1305"},"end":{"in":"1305"}}]}},{"toponym":"Hesilber(e)","citations":[{"label":"1261 Cl","year":1261}],"when":{"timespans":[{"start":{"in":"1261"},"end":{"in":"1261"}}]}},{"toponym":"Heselber(e)","citations":[{"label":"1380 Pat","year":1380}],"when":{"timespans":[{"start":{"in":"1380"},"end":{"in":"1380"}}]}},{"toponym":"Haselberg'","citations":[{"label":"1268 Ass","year":1268}],"when":{"timespans":[{"start":{"in":"1268"},"end":{"in":"1268"}}]}},{"toponym":"Haselbeare","citations":[{"label":"1412 FA","year":1412}],"when":{"timespans":[{"start":{"in":"1412"},"end":{"in":"1412"}}]}},{"toponym":"Haselbeyre","citations":[{"label":"1556 Prideaux","year":1556}],"when":{"timespans":[{"start":{"in":"1556"},"end":{"in":"1556"}}]}},{"toponym":"Asalber(e)","citations":[{"label":"1291 Tax","year":1291},{"label":"1428 FA","year":1428}],"when":{"timespans":[{"start":{"in":"1291"},"end":{"in":"1291"}},{"start":{"in":"1428"},"end":{"in":"1428"}}]}},{"toponym":"Hasalber(e)","citations":[{"label":"1400 MinAcct","year":1400}],"when":{"timespans":[{"start":{"in":"1400"},"end":{"in":"1400"}}]}},{"toponym":"Hasilber(e)","citations":[{"label":"1458–1458, recurring AD","year":1458},{"label":"1458 AD","year":1458}],"when":{"timespans":[{"start":{"in":"1458"},"end":{"in":"1458"}},{"start":{"in":"1458"},"end":{"in":"1458"}}]}},{"toponym":"Hasilber(e) Bryan'","citations":[{"label":"1547 Prideaux","year":1547}],"when":{"timespans":[{"start":{"in":"1547"},"end":{"in":"1547"}}]}},{"toponym":"Hasilbeare","citations":[{"label":"1462 Pat","year":1462}],"when":{"timespans":[{"start":{"in":"1462"},"end":{"in":"1462"}}]}},{"toponym":"Hasselbere","citations":[{"label":"1547 Ct","year":1547}],"when":{"timespans":[{"start":{"in":"1547"},"end":{"in":"1547"}}]}},{"toponym":"Haselbury Bryant","citations":[{"label":"1811 OS","year":1811}],"when":{"timespans":[{"start":{"in":"1811"},"end":{"in":"1811"}}]}}],"types":[{"identifier":"http://vocab.getty.edu/aat/300232418","label":"administrative division","sourceLabels":[{"label":"township","lang":"en"}]}],"geometry":{"type":"GeometryCollection","geometries":[{"type":"Point","coordinates":[-2.349660433,50.873119],"citations":[{"label":"English Place-Name Society survey (DEEP coordinates)"}]},{"type":"Point","coordinates":[-2.36378,50.8754],"citations":[{"label":"Key to English Place-Names (KEPN), gazetteer record 11539"}]}]},"when":{"timespans":[{"start":{"in":"1201"},"end":{"in":"1811"}}]},"relations":[{"relationType":"gvp:broaderPartitive","relationTo":"http://placenames.org.uk/id/placename/53/005601","label":"within Haselbury Bryan"}]}]}