{"@context":"https://raw.githubusercontent.com/LinkedPasts/linked-places-format/main/linkedplaces-context-v1.1.jsonld","type":"FeatureCollection","license":"Digitisation of English Placenames MADS data is licensed to Jisc by the English Place Names Society and released under a Creative Commons Attribution-NonCommercial 4.0 International License.","note":"LPF v1.3, lossy; derived from the PLATO record; plato_commit=fa0d247ccc0263f8f19c8d7cdcd163df96935d1e","features":[{"@id":"https://w3id.org/whg-epns/53/005960","type":"Feature","properties":{"title":"Langton Long Blandford","ccodes":["GB"],"fclasses":["A","P"]},"names":[{"toponym":"Langton Long Blandford","lang":"en","citations":[{"label":"English Place-Name Society survey, volume 53: Dorset"}]},{"toponym":"Bleneford","citations":[{"label":"1086 DB","year":1086}],"when":{"timespans":[{"start":{"in":"1086"},"end":{"in":"1086"}}]}},{"toponym":"Blæneford","citations":[{"label":"1086 Exon","year":1086}],"when":{"timespans":[{"start":{"in":"1086"},"end":{"in":"1086"}}]}},{"toponym":"Blaneford","citations":[{"label":"1280 Pat","year":1280},{"label":"1310 Cl","year":1310}],"when":{"timespans":[{"start":{"in":"1280"},"end":{"in":"1280"}},{"start":{"in":"1310"},"end":{"in":"1310"}}]}},{"toponym":"Longa Bladeneford","citations":[{"label":"1179-80 P","year":1179}],"when":{"timespans":[{"start":{"earliest":"1179","latest":"1180"},"end":{"earliest":"1179","latest":"1180"}}]}},{"toponym":"Longa(m) Blaneford(')","citations":[{"label":"1212 Fees","year":1212},{"label":"1228 Cl","year":1228},{"label":"1291 Tax","year":1291},{"label":"1329 Pat","year":1329},{"label":"1428 FA","year":1428}],"when":{"timespans":[{"start":{"in":"1212"},"end":{"in":"1212"}},{"start":{"in":"1228"},"end":{"in":"1228"}},{"start":{"in":"1291"},"end":{"in":"1291"}},{"start":{"in":"1329"},"end":{"in":"1329"}},{"start":{"in":"1428"},"end":{"in":"1428"}}]}},{"toponym":"Lang(e)blan(e)ford(e)","citations":[{"label":"Hy 3 Ipm","year":1216},{"label":"Ass","year":1244},{"label":"Ct"},{"label":"1244 Ass","year":1244},{"label":"1548 Ct","year":1548}],"when":{"timespans":[{"start":{"earliest":"1216","latest":"1272"},"end":{"earliest":"1216","latest":"1272"}},{"start":{"in":"1244"},"end":{"in":"1548"}},{"start":{"in":"1244"},"end":{"in":"1244"}},{"start":{"in":"1548"},"end":{"in":"1548"}}]}},{"toponym":"Lang(e)blan(e)ford(e) alias Lang(e)ton Boteler, Lang(e)blan(e)ford(e) otherwise Lang(e)ton Boteler, Lang(e)ton Botyler, Lang(e)ton Botil(l)er","citations":[{"label":"Fine","year":1420},{"label":"Weld1"},{"label":"1420 Fine","year":1420},{"label":"1466 Weld1","year":1466}],"when":{"timespans":[{"start":{"in":"1420"},"end":{"in":"1466"}},{"start":{"in":"1420"},"end":{"in":"1420"}},{"start":{"in":"1466"},"end":{"in":"1466"}}]}},{"toponym":"Lang(e)ton otherwise Langeton Latyle by Blaneforde Forum","citations":[{"label":"1421 Cl","year":1421}],"when":{"timespans":[{"start":{"in":"1421"},"end":{"in":"1421"}},{"start":{"in":"1426"},"end":{"in":"1426"}}]}},{"toponym":"Lang(e)ton alias dict' Langton' Latyle","citations":[{"label":"1466 Weld1","year":1466}],"when":{"timespans":[{"start":{"in":"1466"},"end":{"in":"1466"}}]}},{"toponym":"Long(e)blan(e)ford(e)","citations":[{"label":"1242 Ch","year":1242},{"label":"Cl","year":1279},{"label":"AddCh"},{"label":"1279 Cl","year":1279},{"label":"1661 AddCh","year":1661}],"when":{"timespans":[{"start":{"in":"1242"},"end":{"in":"1242"}},{"start":{"in":"1279"},"end":{"in":"1661"}},{"start":{"in":"1279"},"end":{"in":"1279"}},{"start":{"in":"1661"},"end":{"in":"1661"}}]}},{"toponym":"Blaneford' Michael' Belet","citations":[{"label":"1217 ClR","year":1217}],"when":{"timespans":[{"start":{"in":"1217"},"end":{"in":"1217"}}]}},{"toponym":"Blaneford' Belet","citations":[{"label":"1242-3 Fees","year":1242}],"when":{"timespans":[{"start":{"earliest":"1242","latest":"1243"},"end":{"earliest":"1242","latest":"1243"}}]}},{"toponym":"Blaneford Philippi de Tylly, Langeblaneford' Tilly","citations":[{"label":"1242-3 Fees","year":1242}],"when":{"timespans":[{"start":{"earliest":"1242","latest":"1243"},"end":{"earliest":"1242","latest":"1243"}}]}},{"toponym":"Langeton","citations":[{"label":"1273 Banco","year":1273},{"label":"1288 Ass","year":1288},{"label":"1316 FA","year":1316}],"when":{"timespans":[{"start":{"in":"1273"},"end":{"in":"1273"}},{"start":{"in":"1288"},"end":{"in":"1288"}},{"start":{"in":"1316"},"end":{"in":"1316"}}]}},{"toponym":"Langeton iuxta Blaneford forum","citations":[{"label":"Russ","year":1394},{"label":"Weld1"},{"label":"1394 Russ","year":1394},{"label":"1443 Weld1","year":1443}],"when":{"timespans":[{"start":{"in":"1394"},"end":{"in":"1443"}},{"start":{"in":"1394"},"end":{"in":"1394"}},{"start":{"in":"1443"},"end":{"in":"1443"}}]}},{"toponym":"Langton","citations":[{"label":"1412 FA","year":1412},{"label":"1548 Ct","year":1548},{"label":"1598 AD","year":1598}],"when":{"timespans":[{"start":{"in":"1412"},"end":{"in":"1412"}},{"start":{"in":"1548"},"end":{"in":"1548"}},{"start":{"in":"1598"},"end":{"in":"1598"}}]}},{"toponym":"Langhton","citations":[{"label":"1506 Pat","year":1506}],"when":{"timespans":[{"start":{"in":"1506"},"end":{"in":"1506"}}]}},{"toponym":"Blaneford' Langeton'","citations":[{"label":"1280 Ass","year":1280}],"when":{"timespans":[{"start":{"in":"1280"},"end":{"in":"1280"}},{"start":{"in":"1288"},"end":{"in":"1288"}}]}},{"toponym":"Langeton Blaneford","citations":[{"label":"1309 Ipm","year":1309},{"label":"1310 Cl","year":1310}],"when":{"timespans":[{"start":{"in":"1309"},"end":{"in":"1309"}},{"start":{"in":"1310"},"end":{"in":"1310"}}]}},{"toponym":"Langton Long Blandford","citations":[{"label":"1598 AD","year":1598}],"when":{"timespans":[{"start":{"in":"1598"},"end":{"in":"1598"}}]}},{"toponym":"Langeton(e) Botiller, Langeton(e) Botelir","citations":[{"label":"1303 FA","year":1303},{"label":"SR","year":1327},{"label":"Ass"},{"label":"1327 SR","year":1327},{"label":"1370 Ass","year":1370}],"when":{"timespans":[{"start":{"in":"1303"},"end":{"in":"1303"}},{"start":{"in":"1327"},"end":{"in":"1370"}},{"start":{"in":"1327"},"end":{"in":"1327"}},{"start":{"in":"1370"},"end":{"in":"1370"}}]}},{"toponym":"Langeton(e) Botelyr, Langeton(e) Botyler, Langeton(e) Botelir","citations":[{"label":"1327-1370 unspecified sources","year":1327}],"when":{"timespans":[{"start":{"in":"1327"},"end":{"in":"1370"}}]}},{"toponym":"Langton Boteler","citations":[{"label":"1428 FA","year":1428}],"when":{"timespans":[{"start":{"in":"1428"},"end":{"in":"1428"}}]}},{"toponym":"Langton Botyler alias dicta Langblaneford","citations":[{"label":"1431 FA","year":1431}],"when":{"timespans":[{"start":{"in":"1431"},"end":{"in":"1431"}}]}},{"toponym":"Langton Butler","citations":[{"label":"1598 AD","year":1598},{"label":"1664 HTax","year":1664}],"when":{"timespans":[{"start":{"in":"1598"},"end":{"in":"1598"}},{"start":{"in":"1664"},"end":{"in":"1664"}}]}},{"toponym":"Langton Botiler","citations":[{"label":"1795 Boswell","year":1795}],"when":{"timespans":[{"start":{"in":"1795"},"end":{"in":"1795"}}]}},{"toponym":"Langeton(e) Latyle","citations":[{"label":"1327 SR","year":1327},{"label":"Ass","year":1370},{"label":"FA"},{"label":"1370 Ass","year":1370},{"label":"1431 FA","year":1431}],"when":{"timespans":[{"start":{"in":"1327"},"end":{"in":"1327"}},{"start":{"in":"1370"},"end":{"in":"1431"}},{"start":{"in":"1370"},"end":{"in":"1370"}},{"start":{"in":"1431"},"end":{"in":"1431"}}]}},{"toponym":"Langeton(e) Latil(l)e, Langeton(e) Latylle","citations":[{"label":"1370-1431 unspecified sources","year":1370}],"when":{"timespans":[{"start":{"in":"1370"},"end":{"in":"1431"}}]}},{"toponym":"Langton Latell","citations":[{"label":"1598 AD","year":1598}],"when":{"timespans":[{"start":{"in":"1598"},"end":{"in":"1598"}}]}},{"toponym":"Langton Latile","citations":[{"label":"1795 Boswell","year":1795}],"when":{"timespans":[{"start":{"in":"1795"},"end":{"in":"1795"}}]}},{"toponym":"Langgeton(') Gulden(')","citations":[{"label":"1332 SR","year":1332},{"label":"1340 NI","year":1340}],"when":{"timespans":[{"start":{"in":"1332"},"end":{"in":"1332"}},{"start":{"in":"1340"},"end":{"in":"1340"}}]}},{"toponym":"Gylden Langton","citations":[{"label":"1546 Hutch3","year":1546}],"when":{"timespans":[{"start":{"in":"1546"},"end":{"in":"1546"}}]}},{"toponym":"Langton Gundon","citations":[{"label":"1664 HTax","year":1664}],"when":{"timespans":[{"start":{"in":"1664"},"end":{"in":"1664"}}]}}],"types":[{"identifier":"http://vocab.getty.edu/aat/300232418","label":"administrative division","sourceLabels":[{"label":"township","lang":"en"}]}],"geometry":{"type":"GeometryCollection","geometries":[{"type":"Point","coordinates":[-2.13545,50.85755],"citations":[{"label":"GeoNames, gazetteer record geonames:7293396"}]},{"type":"Point","coordinates":[-2.144915426,50.85196836],"citations":[{"label":"English Place-Name Society survey (DEEP coordinates)"}]},{"type":"Point","coordinates":[-2.149166198155734,50.84836609850394],"citations":[{"label":"Unlock (EDINA) gazetteer, gazetteer record unlock:11191785"}]},{"type":"Point","coordinates":[-2.16474,50.8579],"citations":[{"label":"Key to English Place-Names (KEPN), gazetteer record 11540"}]}]},"when":{"timespans":[{"start":{"in":"1086"},"end":{"in":"1795"}}]},"links":[{"type":"closeMatch","identifier":"https://sws.geonames.org/7293396/"}],"relations":[{"relationType":"gvp:broaderPartitive","relationTo":"https://w3id.org/whg-epns/53/005959","label":"within Langton Long Blandford"}]}]}