{"@context":"https://raw.githubusercontent.com/LinkedPasts/linked-places-format/main/linkedplaces-context-v1.1.jsonld","type":"FeatureCollection","license":"Digitisation of English Placenames MADS data is licensed to Jisc by the English Place Names Society and released under a Creative Commons Attribution-NonCommercial 4.0 International License.","note":"LPF v1.3, lossy; derived from the PLATO record; plato_commit=fa0d247ccc0263f8f19c8d7cdcd163df96935d1e","features":[{"@id":"https://w3id.org/whg-epns/53/007052","type":"Feature","properties":{"title":"Winterborne Stickland","ccodes":["GB"],"fclasses":["A","P"]},"names":[{"toponym":"Winterborne Stickland","lang":"en","citations":[{"label":"English Place-Name Society survey, volume 53: Dorset"}]}],"types":[{"identifier":"http://vocab.getty.edu/aat/300232418","label":"administrative division","sourceLabels":[{"label":"parish","lang":"en"}]}],"geometry":{"type":"GeometryCollection","geometries":[{"type":"Point","coordinates":[-2.23556,50.84078],"citations":[{"label":"GeoNames, gazetteer record geonames:2633798"}]},{"type":"Point","coordinates":[-2.234362782,50.84013143],"citations":[{"label":"English Place-Name Society survey (DEEP coordinates)"}]},{"type":"Point","coordinates":[-2.234358343662123,50.83923258494988],"citations":[{"label":"Unlock (EDINA) gazetteer, gazetteer record unlock:11324261"}]},{"type":"Point","coordinates":[-2.23569,50.8398],"citations":[{"label":"Key to English Place-Names (KEPN), gazetteer record 11549"}]}]},"links":[{"type":"closeMatch","identifier":"https://sws.geonames.org/2633798/"}],"relations":[{"relationType":"gvp:broaderPartitive","relationTo":"https://w3id.org/whg-epns/53/004964","label":"within Pimperne Hundred"}]}]}