{"@context":"https://raw.githubusercontent.com/LinkedPasts/linked-places-format/main/linkedplaces-context-v1.1.jsonld","type":"FeatureCollection","license":"Digitisation of English Placenames MADS data is licensed to Jisc by the English Place Names Society and released under a Creative Commons Attribution-NonCommercial 4.0 International License.","note":"LPF v1.3, lossy; derived from the PLATO record; plato_commit=ca0afadabec1e23a145c0b03df77e8f151f79832","features":[{"@id":"http://placenames.org.uk/id/placename/53/008713","type":"Feature","properties":{"title":"Pamphill","ccodes":["GB"],"fclasses":["A","P"]},"names":[{"toponym":"Pamphill","lang":"en","citations":[{"label":"English Place-Name Society survey, volume 53: Dorset"}]},{"toponym":"Pamphilla","citations":[{"label":"1168 P","year":1168}],"when":{"timespans":[{"start":{"in":"1168"},"end":{"in":"1168"}}]}},{"toponym":"Pamphill","citations":[{"label":"1524 WimCW","year":1524},{"label":"1774 Hutch1","year":1774}],"when":{"timespans":[{"start":{"in":"1524"},"end":{"in":"1524"}},{"start":{"in":"1774"},"end":{"in":"1774"}}]}},{"toponym":"Pemphull(e)","citations":[{"label":"1323 Pat","year":1323},{"label":"1407 Wim","year":1407}],"when":{"timespans":[{"start":{"in":"1323"},"end":{"in":"1323"}},{"start":{"in":"1407"},"end":{"in":"1407"}}]}},{"toponym":"Pempe Hill","citations":[{"label":"1598 DLComm","year":1598}],"when":{"timespans":[{"start":{"in":"1598"},"end":{"in":"1598"}}]}},{"toponym":"Pemphill","citations":[{"label":"1654 Wim","year":1654},{"label":"1663 Hutch3","year":1663}],"when":{"timespans":[{"start":{"in":"1654"},"end":{"in":"1654"}},{"start":{"in":"1663"},"end":{"in":"1663"}}]}},{"toponym":"Peympehull'","citations":[{"label":"1332 SR","year":1332}],"when":{"timespans":[{"start":{"in":"1332"},"end":{"in":"1332"}}]}},{"toponym":"Peymphull(e)","citations":[{"label":"1340 Wim","year":1340},{"label":"1459 Wim","year":1459}],"when":{"timespans":[{"start":{"in":"1340"},"end":{"in":"1340"}},{"start":{"in":"1407"},"end":{"in":"1407"}},{"start":{"in":"1459"},"end":{"in":"1459"}}]}},{"toponym":"Pymphill(')","citations":[{"label":"1496 Hutch3","year":1496},{"label":"1579 Fry","year":1579},{"label":"1603 WimCW","year":1603}],"when":{"timespans":[{"start":{"in":"1496"},"end":{"in":"1496"}},{"start":{"in":"1579"},"end":{"in":"1579"}},{"start":{"in":"1603"},"end":{"in":"1603"}}]}},{"toponym":"Pympe hylle","citations":[{"label":"1518 WimCW","year":1518}],"when":{"timespans":[{"start":{"in":"1518"},"end":{"in":"1518"}}]}},{"toponym":"Pympehill","citations":[{"label":"1591 DLMB","year":1591}],"when":{"timespans":[{"start":{"in":"1591"},"end":{"in":"1591"}}]}},{"toponym":"Pympe Hill","citations":[{"label":"1598 DLComm","year":1598}],"when":{"timespans":[{"start":{"in":"1598"},"end":{"in":"1598"}}]}},{"toponym":"Pymphyll","citations":[{"label":"1524 WimCW","year":1524},{"label":"1525 Wim","year":1525}],"when":{"timespans":[{"start":{"in":"1524"},"end":{"in":"1524"}},{"start":{"in":"1525"},"end":{"in":"1525"}}]}},{"toponym":"Pymp Hill","citations":[{"label":"1591 DLMB","year":1591}],"when":{"timespans":[{"start":{"in":"1591"},"end":{"in":"1591"}}]}},{"toponym":"Pimphill","citations":[{"label":"1653 WimCW","year":1653}],"when":{"timespans":[{"start":{"in":"1653"},"end":{"in":"1653"}}]}}],"types":[{"identifier":"http://vocab.getty.edu/aat/300232418","label":"administrative division","sourceLabels":[{"label":"township","lang":"en"}]}],"geometry":{"type":"GeometryCollection","geometries":[{"type":"Point","coordinates":[-2.01428,50.80523],"citations":[{"label":"GeoNames, gazetteer record geonames:7670877"}]},{"type":"Point","coordinates":[-2.017032531,50.80708938],"citations":[{"label":"English Place-Name Society survey (DEEP coordinates)"}]},{"type":"Point","coordinates":[-2.007096344953709,50.80349346840231],"citations":[{"label":"Unlock (EDINA) gazetteer, gazetteer record unlock:11238824"}]},{"type":"Point","coordinates":[-2.01767,50.8081],"citations":[{"label":"Key to English Place-Names (KEPN), gazetteer record 384"}]}]},"when":{"timespans":[{"start":{"in":"1168"},"end":{"in":"1774"}}]},"links":[{"type":"closeMatch","identifier":"https://sws.geonames.org/7670877/"}],"relations":[{"relationType":"gvp:broaderPartitive","relationTo":"http://placenames.org.uk/id/placename/53/008712","label":"within Pamphill"}]}]}