{"@context":"https://raw.githubusercontent.com/LinkedPasts/linked-places-format/main/linkedplaces-context-v1.1.jsonld","type":"FeatureCollection","license":"Digitisation of English Placenames MADS data is licensed to Jisc by the English Place Names Society and released under a Creative Commons Attribution-NonCommercial 4.0 International License.","note":"LPF v1.3, lossy; derived from the PLATO record; plato_commit=fa0d247ccc0263f8f19c8d7cdcd163df96935d1e","features":[{"@id":"https://w3id.org/whg-epns/53/009360","type":"Feature","properties":{"title":"Shapwick","ccodes":["GB"],"fclasses":["A","P"]},"names":[{"toponym":"Shapwick","lang":"en","citations":[{"label":"English Place-Name Society survey, volume 53: Dorset"}]}],"types":[{"identifier":"http://vocab.getty.edu/aat/300232418","label":"administrative division","sourceLabels":[{"label":"parish","lang":"en"}]}],"geometry":{"type":"GeometryCollection","geometries":[{"type":"Point","coordinates":[-2.08333,50.81667],"citations":[{"label":"GeoNames, gazetteer record geonames:2638130"}]},{"type":"Point","coordinates":[-2.089434467,50.8142512],"citations":[{"label":"English Place-Name Society survey (DEEP coordinates)"}]},{"type":"Point","coordinates":[-2.092270135171353,50.8124507758944],"citations":[{"label":"Unlock (EDINA) gazetteer, gazetteer record unlock:11281551"}]},{"type":"Point","coordinates":[-2.09361,50.813],"citations":[{"label":"Key to English Place-Names (KEPN), gazetteer record 11416"}]}]},"links":[{"type":"closeMatch","identifier":"https://sws.geonames.org/2638130/"}],"relations":[{"relationType":"gvp:broaderPartitive","relationTo":"https://w3id.org/whg-epns/53/007158","label":"within Badbury Hundred"}]}]}