{"@context":"https://raw.githubusercontent.com/LinkedPasts/linked-places-format/main/linkedplaces-context-v1.1.jsonld","type":"FeatureCollection","license":"Digitisation of English Placenames MADS data is licensed to Jisc by the English Place Names Society and released under a Creative Commons Attribution-NonCommercial 4.0 International License.","note":"LPF v1.3, lossy; derived from the PLATO record; plato_commit=ca0afadabec1e23a145c0b03df77e8f151f79832","features":[{"@id":"http://placenames.org.uk/id/placename/53/010084","type":"Feature","properties":{"title":"Cranborne Hundred","ccodes":["GB"],"fclasses":["A"]},"names":[{"toponym":"Cranborne Hundred","lang":"en","citations":[{"label":"English Place-Name Society survey, volume 53: Dorset"}]},{"toponym":"Craneburnehdr'","citations":[{"label":"1168 P","year":1168},{"label":"1175 P","year":1175},{"label":"1182 P","year":1182},{"label":"1196 P","year":1196}],"when":{"timespans":[{"start":{"in":"1168"},"end":{"in":"1168"}},{"start":{"in":"1175"},"end":{"in":"1175"}},{"start":{"in":"1182"},"end":{"in":"1182"}},{"start":{"in":"1196"},"end":{"in":"1196"}}]}},{"toponym":"Craneburn'hundredum","citations":[{"label":"1178 P","year":1178}],"when":{"timespans":[{"start":{"in":"1178"},"end":{"in":"1178"}}]}},{"toponym":"Craneburgehundredum","citations":[{"label":"1195 P","year":1195}],"when":{"timespans":[{"start":{"in":"1195"},"end":{"in":"1195"}}]}},{"toponym":"Craneburnehundredum","citations":[{"label":"1196 ChancR","year":1196}],"when":{"timespans":[{"start":{"in":"1196"},"end":{"in":"1196"}}]}},{"toponym":"Craneburn(e)","citations":[{"label":"1244 Ass","year":1244},{"label":"1268 Ass","year":1268},{"label":"1288 Ass","year":1288},{"label":"1265 Misc","year":1265},{"label":"1269–1269, recurring Cl","year":1269},{"label":"1269 Cl","year":1269}],"when":{"timespans":[{"start":{"in":"1244"},"end":{"in":"1244"}},{"start":{"in":"1268"},"end":{"in":"1268"}},{"start":{"in":"1288"},"end":{"in":"1288"}},{"start":{"in":"1265"},"end":{"in":"1265"}},{"start":{"in":"1269"},"end":{"in":"1269"}},{"start":{"in":"1269"},"end":{"in":"1269"}}]}},{"toponym":"'honour of Craneburn(e)'","citations":[{"label":"1324 Cl","year":1324},{"label":"1346 FA","year":1346}],"when":{"timespans":[{"start":{"in":"1324"},"end":{"in":"1324"}},{"start":{"in":"1346"},"end":{"in":"1346"}}]}},{"toponym":"Croneburne","citations":[{"label":"1268 Ass","year":1268}],"when":{"timespans":[{"start":{"in":"1268"},"end":{"in":"1268"}}]}},{"toponym":"Craneborn(e)","citations":[{"label":"1268 Ass","year":1268}],"when":{"timespans":[{"start":{"in":"1268"},"end":{"in":"1268"}}]}},{"toponym":"'Craneborn(e) foreign hundred'","citations":[{"label":"1297–1439, recurring Ipm","year":1297},{"label":"1297–1439, recurring Cl"},{"label":"1297 Ipm","year":1297},{"label":"1439 Cl","year":1439}],"when":{"timespans":[{"start":{"in":"1297"},"end":{"in":"1439"}},{"start":{"in":"1297"},"end":{"in":"1297"}},{"start":{"in":"1314"},"end":{"in":"1314"}},{"start":{"in":"1439"},"end":{"in":"1439"}}]}},{"toponym":"Cranebourne","citations":[{"label":"1280 Ass","year":1280},{"label":"1542 LP","year":1542}],"when":{"timespans":[{"start":{"in":"1280"},"end":{"in":"1280"}},{"start":{"in":"1542"},"end":{"in":"1542"}}]}},{"toponym":"Cranburn","citations":[{"label":"1382 Pat","year":1382}],"when":{"timespans":[{"start":{"in":"1382"},"end":{"in":"1382"}}]}},{"toponym":"Crambo(u)rne","citations":[{"label":"1428 FA","year":1428},{"label":"1509 BrEll","year":1509},{"label":"1664 HTax","year":1664}],"when":{"timespans":[{"start":{"in":"1428"},"end":{"in":"1428"}},{"start":{"in":"1509"},"end":{"in":"1509"}},{"start":{"in":"1664"},"end":{"in":"1664"}}]}}],"types":[{"identifier":"http://vocab.getty.edu/aat/300232418","label":"administrative division","sourceLabels":[{"label":"hundred / wapentake","lang":"en"}]}],"geometry":null,"when":{"timespans":[{"start":{"in":"1168"},"end":{"in":"1664"}}]},"relations":[{"relationType":"gvp:broaderPartitive","relationTo":"http://placenames.org.uk/id/placename/53/000001","label":"within Dorset"}]}]}