{"@context":"https://raw.githubusercontent.com/LinkedPasts/linked-places-format/main/linkedplaces-context-v1.1.jsonld","type":"FeatureCollection","license":"Digitisation of English Placenames MADS data is licensed to Jisc by the English Place Names Society and released under a Creative Commons Attribution-NonCommercial 4.0 International License.","note":"LPF v1.3, lossy; derived from the PLATO record; plato_commit=ca0afadabec1e23a145c0b03df77e8f151f79832","features":[{"@id":"http://placenames.org.uk/id/placename/53/013238","type":"Feature","properties":{"title":"Tarrant Rushton","ccodes":["GB"],"fclasses":["A","P"]},"names":[{"toponym":"Tarrant Rushton","lang":"en","citations":[{"label":"English Place-Name Society survey, volume 53: Dorset"}]},{"toponym":"? Tarente","citations":[{"label":"1086 DB","year":1086}],"when":{"timespans":[{"start":{"in":"1086"},"end":{"in":"1086"}}]}},{"toponym":"? Tarenta","citations":[{"label":"1086 Exon","year":1086}],"when":{"timespans":[{"start":{"in":"1086"},"end":{"in":"1086"}}]}},{"toponym":"Tarent(e)","citations":[{"label":"1194 Cur","year":1194},{"label":"1199 FF","year":1199},{"label":"1225 Cur","year":1225},{"label":"1225 ClR","year":1225},{"label":"1227 FF","year":1227},{"label":"1244 Ass","year":1244}],"when":{"timespans":[{"start":{"in":"1194"},"end":{"in":"1194"}},{"start":{"in":"1199"},"end":{"in":"1199"}},{"start":{"in":"1225"},"end":{"in":"1225"}},{"start":{"in":"1226"},"end":{"in":"1226"}},{"start":{"in":"1225"},"end":{"in":"1225"}},{"start":{"in":"1226"},"end":{"in":"1226"}},{"start":{"in":"1227"},"end":{"in":"1227"}},{"start":{"in":"1244"},"end":{"in":"1244"}}]}},{"toponym":"Tarente Petri de Russell'","citations":[{"label":"1242-3 Fees","year":1242}],"when":{"timespans":[{"start":{"earliest":"1242","latest":"1243"},"end":{"earliest":"1242","latest":"1243"}}]}},{"toponym":"Tar' Russ'","citations":[{"label":"1264 Ipm","year":1264}],"when":{"timespans":[{"start":{"in":"1264"},"end":{"in":"1264"}}]}},{"toponym":"Tarente Russe(a)us","citations":[{"label":"1280 Ass","year":1280}],"when":{"timespans":[{"start":{"in":"1280"},"end":{"in":"1280"}},{"start":{"in":"1288"},"end":{"in":"1288"}}]}},{"toponym":"Tarente Russeals","citations":[{"label":"1289 Orig","year":1289},{"label":"1290 Fine","year":1290}],"when":{"timespans":[{"start":{"in":"1289"},"end":{"in":"1289"}},{"start":{"in":"1290"},"end":{"in":"1290"}}]}},{"toponym":"Tarente Russeale","citations":[{"label":"1290 Pat","year":1290}],"when":{"timespans":[{"start":{"in":"1290"},"end":{"in":"1290"}}]}},{"toponym":"Tarente Russchnes","citations":[{"label":"1296 Ipm","year":1296}],"when":{"timespans":[{"start":{"in":"1296"},"end":{"in":"1296"}}]}},{"toponym":"Tarente Russe(a)ux","citations":[{"label":"1314 Cl","year":1314}],"when":{"timespans":[{"start":{"in":"1314"},"end":{"in":"1314"}},{"start":{"in":"1399"},"end":{"in":"1399"}}]}},{"toponym":"Rus(s)cheuston(e)","citations":[{"label":"1283 Cecil","year":1283},{"label":"1327 SR","year":1327}],"when":{"timespans":[{"start":{"in":"1283"},"end":{"in":"1283"}},{"start":{"in":"1327"},"end":{"in":"1327"}}]}},{"toponym":"Russe(a)uston(e)","citations":[{"label":"1315 Ipm","year":1315},{"label":"1318 Cecil","year":1318}],"when":{"timespans":[{"start":{"in":"1315"},"end":{"in":"1315"}},{"start":{"in":"1318"},"end":{"in":"1318"}}]}},{"toponym":"Russheston","citations":[{"label":"1326 Ipm","year":1326},{"label":"1326 Russ","year":1326}],"when":{"timespans":[{"start":{"in":"1326"},"end":{"in":"1326"}},{"start":{"in":"1326"},"end":{"in":"1326"}}]}},{"toponym":"heton(e)","citations":[{"label":"1326 Russ","year":1326},{"label":"1332 SR","year":1332},{"label":"1494 Cecil","year":1494}],"when":{"timespans":[{"start":{"in":"1326"},"end":{"in":"1326"}},{"start":{"in":"1332"},"end":{"in":"1332"}},{"start":{"in":"1494"},"end":{"in":"1494"}}]}},{"toponym":"Russe Auxton","citations":[{"label":"1399 Cl","year":1399}],"when":{"timespans":[{"start":{"in":"1399"},"end":{"in":"1399"}}]}},{"toponym":"Ryssheton","citations":[{"label":"1463 IpmR","year":1463}],"when":{"timespans":[{"start":{"in":"1463"},"end":{"in":"1463"}}]}},{"toponym":"Rushton","citations":[{"label":"1588 Cecil","year":1588},{"label":"1811 OS","year":1811}],"when":{"timespans":[{"start":{"in":"1588"},"end":{"in":"1588"}},{"start":{"in":"1611"},"end":{"in":"1611"}},{"start":{"in":"1811"},"end":{"in":"1811"}}]}},{"toponym":"Tarent(e) Russcheweston","citations":[{"label":"1307–1307, recurring Ipm","year":1307},{"label":"1307 Ipm","year":1307}],"when":{"timespans":[{"start":{"in":"1307"},"end":{"in":"1307"}},{"start":{"in":"1307"},"end":{"in":"1307"}}]}},{"toponym":"Tarent(e) Russea(u)ston, Tarent(e) Russeauxton, Tarent(e) Ruysscheustone, Tarent(e) Russh(es)ton","citations":[{"label":"1307-1600 unspecified sources","year":1307}],"when":{"timespans":[{"start":{"in":"1307"},"end":{"in":"1600"}}]}},{"toponym":"Tarent(e) Rousshton, Tarent(e) Rissheton, Tarent(e) Ryssheton","citations":[{"label":"1432 Cl","year":1432}],"when":{"timespans":[{"start":{"in":"1432"},"end":{"in":"1432"}}]}},{"toponym":"Tarrante Russeaston","citations":[{"label":"1316 FA","year":1316}],"when":{"timespans":[{"start":{"in":"1316"},"end":{"in":"1316"}}]}},{"toponym":"Rushton' Tarente","citations":[{"label":"1367 ChrP","year":1367}],"when":{"timespans":[{"start":{"in":"1367"},"end":{"in":"1367"}}]}},{"toponym":"Tarrant Rushton","citations":[{"label":"1609 Cecil","year":1609}],"when":{"timespans":[{"start":{"in":"1609"},"end":{"in":"1609"}}]}},{"toponym":"Tarente Vileres","citations":[{"label":"1291 Tax","year":1291}],"when":{"timespans":[{"start":{"in":"1291"},"end":{"in":"1291"}}]}},{"toponym":"Tarent(e) Vylers","citations":[{"label":"1297–1432, recurring Cl","year":1297},{"label":"1297–1432, recurring Pat"},{"label":"1297–1432, recurring Cl"},{"label":"1297 Cl","year":1297},{"label":"1297 Pat","year":1297},{"label":"1432 Cl","year":1432}],"when":{"timespans":[{"start":{"in":"1297"},"end":{"in":"1432"}},{"start":{"in":"1297"},"end":{"in":"1297"}},{"start":{"in":"1297"},"end":{"in":"1297"}},{"start":{"in":"1432"},"end":{"in":"1432"}}]}},{"toponym":"Tarent(e) Viler(e)s, Tarent(e) Villers, Tarent(e)vil(i)ers, Tarent(e)vylers, Tarent(e)villers","citations":[{"label":"1297-1432 unspecified sources","year":1297}],"when":{"timespans":[{"start":{"in":"1297"},"end":{"in":"1432"}}]}},{"toponym":"Terent Vilers","citations":[{"label":"1428 FA","year":1428}],"when":{"timespans":[{"start":{"in":"1428"},"end":{"in":"1428"}}]}}],"types":[{"identifier":"http://vocab.getty.edu/aat/300232418","label":"administrative division","sourceLabels":[{"label":"township","lang":"en"}]}],"geometry":{"type":"GeometryCollection","geometries":[{"type":"Point","coordinates":[-2.09001,50.8515],"citations":[{"label":"GeoNames, gazetteer record geonames:2636203"}]},{"type":"Point","coordinates":[-2.088087636,50.85292443],"citations":[{"label":"English Place-Name Society survey (DEEP coordinates)"}]},{"type":"Point","coordinates":[-2.092341082908564,50.84842489293664],"citations":[{"label":"Unlock (EDINA) gazetteer, gazetteer record unlock:11298008"}]},{"type":"Point","coordinates":[-2.09369,50.849],"citations":[{"label":"Key to English Place-Names (KEPN), gazetteer record 11477"}]}]},"when":{"timespans":[{"start":{"in":"1086"},"end":{"in":"1811"}}]},"links":[{"type":"closeMatch","identifier":"https://sws.geonames.org/2636203/"}],"relations":[{"relationType":"gvp:broaderPartitive","relationTo":"http://placenames.org.uk/id/placename/53/013237","label":"within Tarrant Rushton"}]}]}