{"@context":"https://raw.githubusercontent.com/LinkedPasts/linked-places-format/main/linkedplaces-context-v1.1.jsonld","type":"FeatureCollection","license":"Digitisation of English Placenames MADS data is licensed to Jisc by the English Place Names Society and released under a Creative Commons Attribution-NonCommercial 4.0 International License.","note":"LPF v1.3, lossy; derived from the PLATO record; plato_commit=ca0afadabec1e23a145c0b03df77e8f151f79832","features":[{"@id":"http://placenames.org.uk/id/placename/53/013643","type":"Feature","properties":{"title":"Witchampton","ccodes":["GB"],"fclasses":["A","P"]},"names":[{"toponym":"Witchampton","lang":"en","citations":[{"label":"English Place-Name Society survey, volume 53: Dorset"}]},{"toponym":"Wichemetune","citations":[{"label":"1086 DB","year":1086}],"when":{"timespans":[{"start":{"in":"1086"},"end":{"in":"1086"}}]}},{"toponym":"Wichamatuna","citations":[{"label":"1086 Exon","year":1086}],"when":{"timespans":[{"start":{"in":"1086"},"end":{"in":"1086"}}]}},{"toponym":"Wichamton(')","citations":[{"label":"1216 ClR","year":1216},{"label":"1280 Ass","year":1280}],"when":{"timespans":[{"start":{"in":"1216"},"end":{"in":"1216"}},{"start":{"in":"1280"},"end":{"in":"1280"}},{"start":{"in":"1288"},"end":{"in":"1288"}}]}},{"toponym":"Wich(h)ampton(e)","citations":[{"label":"1242-3 Fees","year":1242},{"label":"1280 Ass","year":1280},{"label":"1318–1412, recurring Cecil","year":1318},{"label":"1318–1412, recurring FA"},{"label":"1318 Cecil","year":1318},{"label":"1412 FA","year":1412}],"when":{"timespans":[{"start":{"earliest":"1242","latest":"1243"},"end":{"earliest":"1242","latest":"1243"}},{"start":{"in":"1280"},"end":{"in":"1280"}},{"start":{"in":"1318"},"end":{"in":"1412"}},{"start":{"in":"1318"},"end":{"in":"1318"}},{"start":{"in":"1412"},"end":{"in":"1412"}}]}},{"toponym":"Wycham(p)ton(e)","citations":[{"label":"1263 Ipm","year":1263},{"label":"1268 Ass","year":1268},{"label":"1280 Ass","year":1280},{"label":"1280 QW","year":1280},{"label":"1281–1456, recurring FF","year":1281},{"label":"1281–1456, recurring Pat"},{"label":"1281 FF","year":1281},{"label":"1456 Pat","year":1456}],"when":{"timespans":[{"start":{"in":"1263"},"end":{"in":"1263"}},{"start":{"in":"1268"},"end":{"in":"1268"}},{"start":{"in":"1280"},"end":{"in":"1280"}},{"start":{"in":"1268"},"end":{"in":"1268"}},{"start":{"in":"1280"},"end":{"in":"1280"}},{"start":{"in":"1268"},"end":{"in":"1268"}},{"start":{"in":"1281"},"end":{"in":"1456"}},{"start":{"in":"1281"},"end":{"in":"1281"}},{"start":{"in":"1456"},"end":{"in":"1456"}}]}},{"toponym":"Wycham(p)toun","citations":[{"label":"1349 Ipm","year":1349}],"when":{"timespans":[{"start":{"in":"1349"},"end":{"in":"1349"}}]}},{"toponym":"Wichehampton","citations":[{"label":"1271 Pat","year":1271},{"label":"1280 Ass","year":1280}],"when":{"timespans":[{"start":{"in":"1271"},"end":{"in":"1271"}},{"start":{"in":"1280"},"end":{"in":"1280"}}]}},{"toponym":"Wychehampton(')","citations":[{"label":"1278–1494, recurring Pat","year":1278},{"label":"1278–1494, recurring Cecil"},{"label":"1278 Pat","year":1278},{"label":"1494 Cecil","year":1494}],"when":{"timespans":[{"start":{"in":"1278"},"end":{"in":"1494"}},{"start":{"in":"1278"},"end":{"in":"1278"}},{"start":{"in":"1494"},"end":{"in":"1494"}}]}},{"toponym":"Whichampton'","citations":[{"label":"1280 Ass","year":1280}],"when":{"timespans":[{"start":{"in":"1280"},"end":{"in":"1280"}}]}},{"toponym":"Wycampton'","citations":[{"label":"1370 Ilch","year":1370}],"when":{"timespans":[{"start":{"in":"1370"},"end":{"in":"1370"}}]}},{"toponym":"Wykehampton","citations":[{"label":"1375 IpmR","year":1375}],"when":{"timespans":[{"start":{"in":"1375"},"end":{"in":"1375"}}]}},{"toponym":"Wich Hampton, Wych Hampton","citations":[{"label":"1633 Hutch3","year":1633}],"when":{"timespans":[{"start":{"in":"1633"},"end":{"in":"1633"}}]}}],"types":[{"identifier":"http://vocab.getty.edu/aat/300232418","label":"administrative division","sourceLabels":[{"label":"township","lang":"en"}]}],"geometry":{"type":"GeometryCollection","geometries":[{"type":"Point","coordinates":[-2.017,50.85891],"citations":[{"label":"GeoNames, gazetteer record geonames:2633752"}]},{"type":"Point","coordinates":[-2.01705087,50.85745318],"citations":[{"label":"English Place-Name Society survey (DEEP coordinates)"}]},{"type":"Point","coordinates":[-2.021313593059211,50.85745298351662],"citations":[{"label":"Unlock (EDINA) gazetteer, gazetteer record unlock:11324524"}]},{"type":"Point","coordinates":[-2.02267,50.858],"citations":[{"label":"Key to English Place-Names (KEPN), gazetteer record 11480"}]}]},"when":{"timespans":[{"start":{"in":"1086"},"end":{"in":"1633"}}]},"links":[{"type":"closeMatch","identifier":"https://sws.geonames.org/2633752/"}],"relations":[{"relationType":"gvp:broaderPartitive","relationTo":"http://placenames.org.uk/id/placename/53/013642","label":"within Witchampton"}]}]}