{"@context":"https://raw.githubusercontent.com/LinkedPasts/linked-places-format/main/linkedplaces-context-v1.1.jsonld","type":"FeatureCollection","license":"Digitisation of English Placenames MADS data is licensed to Jisc by the English Place Names Society and released under a Creative Commons Attribution-NonCommercial 4.0 International License.","note":"LPF v1.3, lossy; derived from the PLATO record; plato_commit=ca0afadabec1e23a145c0b03df77e8f151f79832","features":[{"@id":"https://w3id.org/whg-epns/53/014210","type":"Feature","properties":{"title":"Long Crichel","ccodes":["GB"],"fclasses":["A","P"]},"names":[{"toponym":"Long Crichel","lang":"en","citations":[{"label":"English Place-Name Society survey, volume 53: Dorset"}]},{"toponym":"(to) chircelford","citations":[{"label":"935 ShaftR","year":935}],"when":{"timespans":[{"start":{"in":"0935"},"end":{"in":"0935"}}]}},{"toponym":"Circel","citations":[{"label":"1086 DB","year":1086}],"when":{"timespans":[{"start":{"in":"1086"},"end":{"in":"1086"}}]}},{"toponym":"?Chirce","citations":[{"label":"1086 DB","year":1086},{"label":"1086 Exon","year":1086}],"when":{"timespans":[{"start":{"in":"1086"},"end":{"in":"1086"}},{"start":{"in":"1086"},"end":{"in":"1086"}},{"start":{"in":"1086"},"end":{"in":"1086"}},{"start":{"in":"1086"},"end":{"in":"1086"}}]}},{"toponym":"Kerichel, Kerechel","citations":[{"label":"1202 FF","year":1202}],"when":{"timespans":[{"start":{"in":"1202"},"end":{"in":"1202"}}]}},{"toponym":"Longa Kerechel","citations":[{"label":"1285 FA","year":1285}],"when":{"timespans":[{"start":{"in":"1285"},"end":{"in":"1285"}}]}},{"toponym":"Crechel","citations":[{"label":"1204 FF","year":1204}],"when":{"timespans":[{"start":{"in":"1204"},"end":{"in":"1204"}}]}},{"toponym":"Langecrechel Roberti de Luscy et Briani Tollard","citations":[{"label":"1208 P","year":1208}],"when":{"timespans":[{"start":{"in":"1208"},"end":{"in":"1208"}}]}},{"toponym":"Crechill Govitz, Longe Crechill","citations":[{"label":"1541 Glyn","year":1541}],"when":{"timespans":[{"start":{"in":"1541"},"end":{"in":"1541"}}]}},{"toponym":"Kerchel","citations":[{"label":"1208 FineR","year":1208},{"label":"1233 Cl","year":1233},{"label":"1244 Ass","year":1244},{"label":"1251 FF","year":1251}],"when":{"timespans":[{"start":{"in":"1208"},"end":{"in":"1208"}},{"start":{"in":"1233"},"end":{"in":"1233"}},{"start":{"in":"1244"},"end":{"in":"1244"}},{"start":{"in":"1251"},"end":{"in":"1251"}}]}},{"toponym":"(Longa) Kerchel","citations":[{"label":"1258 FF","year":1258}],"when":{"timespans":[{"start":{"in":"1258"},"end":{"in":"1258"}}]}},{"toponym":"Lang Kerchel","citations":[{"label":"1280 Ass","year":1280}],"when":{"timespans":[{"start":{"in":"1280"},"end":{"in":"1280"}}]}},{"toponym":"Langeker(c)hil, Langekerhul, Kerhill'","citations":[{"label":"1288 Ass","year":1288}],"when":{"timespans":[{"start":{"in":"1288"},"end":{"in":"1288"}}]}},{"toponym":"Kerchehull","citations":[{"label":"1297 Pat","year":1297}],"when":{"timespans":[{"start":{"in":"1297"},"end":{"in":"1297"}}]}},{"toponym":"Kercle","citations":[{"label":"1208 P","year":1208}],"when":{"timespans":[{"start":{"in":"1208"},"end":{"in":"1208"}}]}},{"toponym":"Longcherchel","citations":[{"label":"1219 FF","year":1219}],"when":{"timespans":[{"start":{"in":"1219"},"end":{"in":"1219"}}]}},{"toponym":"Curchel","citations":[{"label":"1244 Ass","year":1244}],"when":{"timespans":[{"start":{"in":"1244"},"end":{"in":"1244"}}]}},{"toponym":"Lan Curchel, Longe Curchel","citations":[{"label":"1280 Ass","year":1280}],"when":{"timespans":[{"start":{"in":"1280"},"end":{"in":"1280"}}]}},{"toponym":"Lang Kurchel, Longe Kurchel","citations":[{"label":"1280 Ass","year":1280}],"when":{"timespans":[{"start":{"in":"1280"},"end":{"in":"1280"}}]}},{"toponym":"Langekurchel('), Longekurchel(')","citations":[{"label":"1288 Ass","year":1288}],"when":{"timespans":[{"start":{"in":"1288"},"end":{"in":"1288"}}]}},{"toponym":"Kurchul","citations":[{"label":"1288 Ass","year":1288}],"when":{"timespans":[{"start":{"in":"1288"},"end":{"in":"1288"}}]}},{"toponym":"Longe Kurchul","citations":[{"label":"1333 HarlCh","year":1333}],"when":{"timespans":[{"start":{"in":"1333"},"end":{"in":"1333"}}]}},{"toponym":"Lange Curchille","citations":[{"label":"1324 Ipm","year":1324}],"when":{"timespans":[{"start":{"in":"1324"},"end":{"in":"1324"}}]}},{"toponym":"Langekurchill","citations":[{"label":"1348 Ipm","year":1348}],"when":{"timespans":[{"start":{"in":"1348"},"end":{"in":"1348"}}]}},{"toponym":"Curchell juxta Gussych St Michael","citations":[{"label":"1410 Hutch3","year":1410}],"when":{"timespans":[{"start":{"in":"1410"},"end":{"in":"1410"}}]}},{"toponym":"Kurchell Govytz, Kurchell Govitz","citations":[{"label":"1422 Midd","year":1422}],"when":{"timespans":[{"start":{"in":"1422"},"end":{"in":"1422"}},{"start":{"in":"1469"},"end":{"in":"1469"}}]}},{"toponym":"Longekurchell","citations":[{"label":"1441 Cl","year":1441}],"when":{"timespans":[{"start":{"in":"1441"},"end":{"in":"1441"}}]}},{"toponym":"Kurchell Lucy","citations":[{"label":"1469 Midd","year":1469}],"when":{"timespans":[{"start":{"in":"1469"},"end":{"in":"1469"}}]}},{"toponym":"Longcurchell","citations":[{"label":"1575 Saxton","year":1575}],"when":{"timespans":[{"start":{"in":"1575"},"end":{"in":"1575"}}]}},{"toponym":"Churethel","citations":[{"label":"1262 Ipm","year":1262}],"when":{"timespans":[{"start":{"in":"1262"},"end":{"in":"1262"}}]}},{"toponym":"Churchell, Churchill","citations":[{"label":"1411 IpmR","year":1411}],"when":{"timespans":[{"start":{"in":"1411"},"end":{"in":"1411"}}]}},{"toponym":"Langecruchel","citations":[{"label":"1268 Ass","year":1268}],"when":{"timespans":[{"start":{"in":"1268"},"end":{"in":"1268"}}]}},{"toponym":"Cruchell Longa","citations":[{"label":"1366 IpmR","year":1366}],"when":{"timespans":[{"start":{"in":"1366"},"end":{"in":"1366"}}]}},{"toponym":"Long Cruchel","citations":[{"label":"1366 Pat","year":1366}],"when":{"timespans":[{"start":{"in":"1366"},"end":{"in":"1366"}}]}},{"toponym":"Langecrichel","citations":[{"label":"1268 Ass","year":1268},{"label":"1297 Pat","year":1297}],"when":{"timespans":[{"start":{"in":"1268"},"end":{"in":"1268"}},{"start":{"in":"1297"},"end":{"in":"1297"}}]}},{"toponym":"Langgecrichil, Longecrichil","citations":[{"label":"1268 Ass","year":1268}],"when":{"timespans":[{"start":{"in":"1268"},"end":{"in":"1268"}}]}},{"toponym":"Lancrichull","citations":[{"label":"1428 FA","year":1428}],"when":{"timespans":[{"start":{"in":"1428"},"end":{"in":"1428"}}]}},{"toponym":"Lang(e) Crychell","citations":[{"label":"1494 Cecil","year":1494}],"when":{"timespans":[{"start":{"in":"1494"},"end":{"in":"1494"}}]}},{"toponym":"Crichell als. Long Crechehill","citations":[{"label":"1534 Hutch3","year":1534}],"when":{"timespans":[{"start":{"in":"1534"},"end":{"in":"1534"}}]}},{"toponym":"Longe Crichell' als. Crechill' Govis","citations":[{"label":"1547 AD","year":1547}],"when":{"timespans":[{"start":{"in":"1547"},"end":{"in":"1547"}}]}},{"toponym":"Longe Crychell","citations":[{"label":"1564 Marten","year":1564}],"when":{"timespans":[{"start":{"in":"1564"},"end":{"in":"1564"}}]}},{"toponym":"Crichel-Gouis, Crichel-Lucy","citations":[{"label":"1774 Hutch1","year":1774}],"when":{"timespans":[{"start":{"in":"1774"},"end":{"in":"1774"}}]}},{"toponym":"Kirchel, Langekyrchil, Langekyrchyl","citations":[{"label":"1288 Ass","year":1288}],"when":{"timespans":[{"start":{"in":"1288"},"end":{"in":"1288"}}]}},{"toponym":"Longa Kyrchyl","citations":[{"label":"1291 Tax","year":1291}],"when":{"timespans":[{"start":{"in":"1291"},"end":{"in":"1291"}}]}},{"toponym":"Kirchil","citations":[{"label":"1298–1298, recurring Pat","year":1298},{"label":"1298 Pat","year":1298}],"when":{"timespans":[{"start":{"in":"1298"},"end":{"in":"1298"}},{"start":{"in":"1298"},"end":{"in":"1298"}}]}},{"toponym":"Kyrchil(l), Kirchill(e), Kyrchel(l), Kirchell","citations":[{"label":"1298-1600 unspecified sources","year":1298}],"when":{"timespans":[{"start":{"in":"1298"},"end":{"in":"1600"}}]}},{"toponym":"Lang(e)-","citations":[{"label":"1431 FA","year":1431}],"when":{"timespans":[{"start":{"in":"1431"},"end":{"in":"1431"}}]}},{"toponym":"Long(e)-","citations":[{"label":"1416–1500, recurring Pat","year":1416},{"label":"1416–1500, recurring Pat"},{"label":"1416 Pat","year":1416},{"label":"1500 Pat","year":1500}],"when":{"timespans":[{"start":{"in":"1416"},"end":{"in":"1500"}},{"start":{"in":"1416"},"end":{"in":"1416"}},{"start":{"in":"1500"},"end":{"in":"1500"}}]}},{"toponym":"Kirchull","citations":[{"label":"1346 Fine","year":1346}],"when":{"timespans":[{"start":{"in":"1346"},"end":{"in":"1346"}}]}},{"toponym":"Longekyrhull","citations":[{"label":"1381 Pat","year":1381}],"when":{"timespans":[{"start":{"in":"1381"},"end":{"in":"1381"}}]}},{"toponym":"Kyrchhylle","citations":[{"label":"1378 Cl","year":1378}],"when":{"timespans":[{"start":{"in":"1378"},"end":{"in":"1378"}}]}},{"toponym":"Lange Kyrchull","citations":[{"label":"1412 FA","year":1412}],"when":{"timespans":[{"start":{"in":"1412"},"end":{"in":"1412"}}]}},{"toponym":"Longa Kyrchile","citations":[{"label":"1428 FA","year":1428}],"when":{"timespans":[{"start":{"in":"1428"},"end":{"in":"1428"}}]}},{"toponym":"Langkyrchill Govice, Langkirchell Govice","citations":[{"label":"1564 Glyn","year":1564}],"when":{"timespans":[{"start":{"in":"1564"},"end":{"in":"1564"}}]}},{"toponym":"Kirkechil","citations":[{"label":"1288 Ass","year":1288}],"when":{"timespans":[{"start":{"in":"1288"},"end":{"in":"1288"}}]}},{"toponym":"Kyrkechil(l)","citations":[{"label":"1288 Ass","year":1288}],"when":{"timespans":[{"start":{"in":"1288"},"end":{"in":"1288"}}]}},{"toponym":"Langechirchil","citations":[{"label":"1303 FA","year":1303}],"when":{"timespans":[{"start":{"in":"1303"},"end":{"in":"1303"}}]}},{"toponym":"Lanchirchull","citations":[{"label":"1388 IpmR","year":1388}],"when":{"timespans":[{"start":{"in":"1388"},"end":{"in":"1388"}}]}},{"toponym":"Langecriechill","citations":[{"label":"1316 FA","year":1316}],"when":{"timespans":[{"start":{"in":"1316"},"end":{"in":"1316"}}]}},{"toponym":"Long Creechill","citations":[{"label":"1618 Map","year":1618}],"when":{"timespans":[{"start":{"in":"1618"},"end":{"in":"1618"}}]}},{"toponym":"Crouchull'","citations":[{"label":"1332 SR","year":1332}],"when":{"timespans":[{"start":{"in":"1332"},"end":{"in":"1332"}}]}}],"types":[{"identifier":"http://vocab.getty.edu/aat/300232418","label":"administrative division","sourceLabels":[{"label":"township","lang":"en"}]}],"geometry":{"type":"GeometryCollection","geometries":[{"type":"Point","coordinates":[-2.03748,50.8929],"citations":[{"label":"GeoNames, gazetteer record geonames:2643706"}]},{"type":"Point","coordinates":[-2.032704741,50.89162503],"citations":[{"label":"English Place-Name Society survey (DEEP coordinates)"}]},{"type":"Point","coordinates":[-2.035550010411971,50.8934234028286],"citations":[{"label":"Unlock (EDINA) gazetteer, gazetteer record unlock:11205382"}]},{"type":"Point","coordinates":[-2.0369,50.894],"citations":[{"label":"Key to English Place-Names (KEPN), gazetteer record 11523"}]}]},"when":{"timespans":[{"start":{"in":"0935"},"end":{"in":"1774"}}]},"links":[{"type":"closeMatch","identifier":"https://sws.geonames.org/2643706/"}],"relations":[{"relationType":"gvp:broaderPartitive","relationTo":"https://w3id.org/whg-epns/53/014209","label":"within Long Crichel"}]}]}