{"@context":"https://raw.githubusercontent.com/LinkedPasts/linked-places-format/main/linkedplaces-context-v1.1.jsonld","type":"FeatureCollection","license":"Digitisation of English Placenames MADS data is licensed to Jisc by the English Place Names Society and released under a Creative Commons Attribution-NonCommercial 4.0 International License.","note":"LPF v1.3, lossy; derived from the PLATO record; plato_commit=fa0d247ccc0263f8f19c8d7cdcd163df96935d1e","features":[{"@id":"https://w3id.org/whg-epns/31/000211","type":"Feature","properties":{"title":"Haldenby","ccodes":["GB"],"fclasses":["A","P"]},"names":[{"toponym":"Haldenby","lang":"en","citations":[{"label":"English Place-Name Society survey, volume 31: West Riding of Yorkshire"}]},{"toponym":"Haldanebi, Haldaneby","citations":[{"label":"1100-8 YCh","year":1100},{"label":"Hy 2 Ch","year":1154},{"label":"1167-77 YCh","year":1167},{"label":"1197 FF","year":1197},{"label":"1199-1209 YCh","year":1199},{"label":"1200 Cur","year":1200},{"label":"1223 Pat","year":1223},{"label":"FF","year":1226},{"label":"FF"},{"label":"1226 FF","year":1226},{"label":"1331 FF","year":1331}],"when":{"timespans":[{"start":{"earliest":"1100","latest":"1108"},"end":{"earliest":"1100","latest":"1108"}},{"start":{"earliest":"1154","latest":"1189"},"end":{"earliest":"1154","latest":"1189"}},{"start":{"earliest":"1167","latest":"1177"},"end":{"earliest":"1167","latest":"1177"}},{"start":{"in":"1197"},"end":{"in":"1197"}},{"start":{"earliest":"1199","latest":"1209"},"end":{"earliest":"1199","latest":"1209"}},{"start":{"in":"1200"},"end":{"in":"1200"}},{"start":{"in":"1223"},"end":{"in":"1223"}},{"start":{"in":"1226"},"end":{"in":"1331"}},{"start":{"in":"1226"},"end":{"in":"1226"}},{"start":{"in":"1331"},"end":{"in":"1331"}}]}},{"toponym":"Aldanebi","citations":[{"label":"1157 YCh","year":1157}],"when":{"timespans":[{"start":{"in":"1157"},"end":{"in":"1157"}}]}},{"toponym":"Aldenebi, Aldeneby","citations":[{"label":"1189 Ch","year":1189},{"label":"1219 FF","year":1219}],"when":{"timespans":[{"start":{"in":"1189"},"end":{"in":"1189"}},{"start":{"in":"1219"},"end":{"in":"1219"}}]}},{"toponym":"Audeneby","citations":[{"label":"1218 FF","year":1218}],"when":{"timespans":[{"start":{"in":"1218"},"end":{"in":"1218"}}]}},{"toponym":"Haldenebi, Haldeneby","citations":[{"label":"Hy 2 MaryH","year":1154},{"label":"1190 P","year":1190},{"label":"1246 Ass","year":1246},{"label":"QW","year":1279},{"label":"FF"},{"label":"1279-81 QW","year":1279},{"label":"1526 FF","year":1526}],"when":{"timespans":[{"start":{"earliest":"1154","latest":"1189"},"end":{"earliest":"1154","latest":"1189"}},{"start":{"in":"1190"},"end":{"in":"1190"}},{"start":{"in":"1193"},"end":{"in":"1193"}},{"start":{"in":"1246"},"end":{"in":"1246"}},{"start":{"in":"1279"},"end":{"in":"1526"}},{"start":{"earliest":"1279","latest":"1281"},"end":{"earliest":"1279","latest":"1281"}},{"start":{"in":"1526"},"end":{"in":"1526"}}]}},{"toponym":"Haldanby","citations":[{"label":"1304 Ebor","year":1304},{"label":"1304 Selby","year":1304},{"label":"1305 YI","year":1305},{"label":"1316 Vill","year":1316},{"label":"1379 PT","year":1379},{"label":"1621 FF","year":1621}],"when":{"timespans":[{"start":{"in":"1304"},"end":{"in":"1304"}},{"start":{"in":"1304"},"end":{"in":"1304"}},{"start":{"in":"1305"},"end":{"in":"1305"}},{"start":{"in":"1316"},"end":{"in":"1316"}},{"start":{"in":"1379"},"end":{"in":"1379"}},{"start":{"in":"1621"},"end":{"in":"1621"}}]}},{"toponym":"Haldenby(e)","citations":[{"label":"1331 DodsN","year":1331},{"label":"1362 Works","year":1362},{"label":"1405 YI","year":1405},{"label":"1526 FF","year":1526}],"when":{"timespans":[{"start":{"in":"1331"},"end":{"in":"1331"}},{"start":{"in":"1362"},"end":{"in":"1362"}},{"start":{"in":"1405"},"end":{"in":"1405"}},{"start":{"in":"1526"},"end":{"in":"1526"}}]}},{"toponym":"Hawdenby(e)","citations":[{"label":"1546 YChant","year":1546},{"label":"1565 FF","year":1565}],"when":{"timespans":[{"start":{"in":"1546"},"end":{"in":"1546"}},{"start":{"in":"1565"},"end":{"in":"1565"}}]}}],"types":[{"identifier":"http://vocab.getty.edu/aat/300232418","label":"administrative division","sourceLabels":[{"label":"township","lang":"en"}]}],"geometry":{"type":"GeometryCollection","geometries":[{"type":"Point","coordinates":[-0.7323759949,54.54148595],"citations":[{"label":"English Place-Name Society survey (DEEP coordinates)"}]},{"type":"Point","coordinates":[-0.753397,53.6475],"citations":[{"label":"Key to English Place-Names (KEPN), gazetteer record 14395"}]}]},"when":{"timespans":[{"start":{"in":"1100"},"end":{"in":"1621"}}]},"relations":[{"relationType":"gvp:broaderPartitive","relationTo":"https://w3id.org/whg-epns/31/000024","label":"within Adlingfleet"}]}]}