{"@context":"https://raw.githubusercontent.com/LinkedPasts/linked-places-format/main/linkedplaces-context-v1.1.jsonld","type":"FeatureCollection","license":"Digitisation of English Placenames MADS data is licensed to Jisc by the English Place Names Society and released under a Creative Commons Attribution-NonCommercial 4.0 International License.","note":"LPF v1.3, lossy; derived from the PLATO record; plato_commit=ca0afadabec1e23a145c0b03df77e8f151f79832","features":[{"@id":"http://placenames.org.uk/id/placename/31/001398","type":"Feature","properties":{"title":"Kirk Bramwith","ccodes":["GB"],"fclasses":["A","P"]},"names":[{"toponym":"Kirk Bramwith","lang":"en","citations":[{"label":"English Place-Name Society survey, volume 31: West Riding of Yorkshire"}]},{"toponym":"Branuuat, Branuuet","citations":[{"label":"1086 DB","year":1086}],"when":{"timespans":[{"start":{"in":"1086"},"end":{"in":"1086"}}]}},{"toponym":"Branwyth","citations":[{"label":"1200 Cur","year":1200},{"label":"14 Sawl","year":1300}],"when":{"timespans":[{"start":{"in":"1200"},"end":{"in":"1200"}},{"start":{"earliest":"1300","latest":"1400"},"end":{"earliest":"1300","latest":"1400"}}]}},{"toponym":"Bramwik","citations":[{"label":"1154 YCh","year":1154}],"when":{"timespans":[{"start":{"in":"1154"},"end":{"in":"1154"}}]}},{"toponym":"Bramwic","citations":[{"label":"1199-1213 YCh","year":1199}],"when":{"timespans":[{"start":{"earliest":"1199","latest":"1213"},"end":{"earliest":"1199","latest":"1213"}}]}},{"toponym":"Bramewich","citations":[{"label":"1169 P","year":1169}],"when":{"timespans":[{"start":{"in":"1169"},"end":{"in":"1169"}}]}},{"toponym":"Brãwict","citations":[{"label":"1204 ChR","year":1204}],"when":{"timespans":[{"start":{"in":"1204"},"end":{"in":"1204"}}]}},{"toponym":"Bramwich","citations":[{"label":"1291 Tax","year":1291}],"when":{"timespans":[{"start":{"in":"1291"},"end":{"in":"1291"}}]}},{"toponym":"Bramwit, Bramwyt","citations":[{"label":"1155-61 YCh","year":1155},{"label":"1252 Ebor","year":1252}],"when":{"timespans":[{"start":{"earliest":"1155","latest":"1161"},"end":{"earliest":"1155","latest":"1161"}},{"start":{"in":"1252"},"end":{"in":"1252"}}]}},{"toponym":"Bramwith, Bramwyth","citations":[{"label":"l. 12 Lewes","year":1175},{"label":"1199 Ch","year":1199},{"label":"1201–1525, recurring FF","year":1201},{"label":"1201–1525, recurring Test"},{"label":"1201 FF","year":1201},{"label":"1525 Test","year":1525}],"when":{"timespans":[{"start":{"earliest":"1175","latest":"1200"},"end":{"earliest":"1175","latest":"1200"}},{"start":{"in":"1199"},"end":{"in":"1199"}},{"start":{"in":"1201"},"end":{"in":"1525"}},{"start":{"in":"1201"},"end":{"in":"1201"}},{"start":{"in":"1230"},"end":{"in":"1230"}},{"start":{"in":"1251"},"end":{"in":"1251"}},{"start":{"in":"1525"},"end":{"in":"1525"}}]}},{"toponym":"Kyrk Bramwyth, Kirke Bramwyth","citations":[{"label":"1341 FF","year":1341},{"label":"1502 Ipm","year":1502},{"label":"1548 WillY","year":1548}],"when":{"timespans":[{"start":{"in":"1341"},"end":{"in":"1341"}},{"start":{"in":"1502"},"end":{"in":"1502"}},{"start":{"in":"1548"},"end":{"in":"1548"}}]}},{"toponym":"Brampwyth","citations":[{"label":"1316 Vill","year":1316}],"when":{"timespans":[{"start":{"in":"1316"},"end":{"in":"1316"}}]}}],"types":[{"identifier":"http://vocab.getty.edu/aat/300232418","label":"administrative division","sourceLabels":[{"label":"township","lang":"en"}]}],"geometry":{"type":"GeometryCollection","geometries":[{"type":"Point","coordinates":[-1.06325,53.59894],"citations":[{"label":"GeoNames, gazetteer record geonames:2645319"}]},{"type":"Point","coordinates":[-1.063190716,53.59166817],"citations":[{"label":"English Place-Name Society survey (DEEP coordinates)"}]},{"type":"Point","coordinates":[-1.070645631837126,53.59622238564532],"citations":[{"label":"Unlock (EDINA) gazetteer, gazetteer record unlock:11187694"}]},{"type":"Point","coordinates":[-1.05711,53.5964],"citations":[{"label":"Key to English Place-Names (KEPN), gazetteer record 14411"}]}]},"when":{"timespans":[{"start":{"in":"1086"},"end":{"in":"1548"}}]},"links":[{"type":"closeMatch","identifier":"https://sws.geonames.org/2645319/"}],"relations":[{"relationType":"gvp:broaderPartitive","relationTo":"http://placenames.org.uk/id/placename/31/001397","label":"within Kirk Bramwith"}]}]}