{"@context":"https://raw.githubusercontent.com/LinkedPasts/linked-places-format/main/linkedplaces-context-v1.1.jsonld","type":"FeatureCollection","license":"Digitisation of English Placenames MADS data is licensed to Jisc by the English Place Names Society and released under a Creative Commons Attribution-NonCommercial 4.0 International License.","note":"LPF v1.3, lossy; derived from the PLATO record; plato_commit=fa0d247ccc0263f8f19c8d7cdcd163df96935d1e","features":[{"@id":"https://w3id.org/whg-epns/31/003270","type":"Feature","properties":{"title":"Stapleton","ccodes":["GB"],"fclasses":["A","P"]},"names":[{"toponym":"Stapleton","lang":"en","citations":[{"label":"English Place-Name Society survey, volume 31: West Riding of Yorkshire"}]},{"toponym":"Stapleton(e)","citations":[{"label":"1086 DB","year":1086},{"label":"1255 Ch","year":1255}],"when":{"timespans":[{"start":{"in":"1086"},"end":{"in":"1086"}},{"start":{"in":"1255"},"end":{"in":"1255"}}]}},{"toponym":"Stapilton(a)","citations":[{"label":"1136-40 YCh","year":1136},{"label":"1368 MinAcct","year":1368},{"label":"1379 PT","year":1379}],"when":{"timespans":[{"start":{"earliest":"1136","latest":"1140"},"end":{"earliest":"1136","latest":"1140"}},{"start":{"in":"1368"},"end":{"in":"1368"}},{"start":{"in":"1379"},"end":{"in":"1379"}}]}},{"toponym":"Stapelton(a), Stapeltun","citations":[{"label":"1135- 40 Pont","year":1135},{"label":"Hy 2 Ch","year":1154},{"label":"1155-8 YCh","year":1155},{"label":"1166 RBE","year":1166},{"label":"c. 1170 Kirkst","year":1160},{"label":"Bodl","year":1220},{"label":"FA"},{"label":"1220-40 Bodl","year":1220},{"label":"1428 FA","year":1428}],"when":{"timespans":[{"start":{"earliest":"1135","latest":"1140"},"end":{"earliest":"1135","latest":"1140"}},{"start":{"earliest":"1154","latest":"1189"},"end":{"earliest":"1154","latest":"1189"}},{"start":{"earliest":"1155","latest":"1158"},"end":{"earliest":"1155","latest":"1158"}},{"start":{"in":"1166"},"end":{"in":"1166"}},{"start":{"earliest":"1160","latest":"1180"},"end":{"earliest":"1160","latest":"1180"}},{"start":{"in":"1220"},"end":{"in":"1428"}},{"start":{"earliest":"1220","latest":"1240"},"end":{"earliest":"1220","latest":"1240"}},{"start":{"in":"1428"},"end":{"in":"1428"}}]}},{"toponym":"Stepelton","citations":[{"label":"1276 RH","year":1276}],"when":{"timespans":[{"start":{"in":"1276"},"end":{"in":"1276"}}]}},{"toponym":"Stappleton","citations":[{"label":"1558 WillY","year":1558},{"label":"1612 PRDr","year":1612}],"when":{"timespans":[{"start":{"in":"1558"},"end":{"in":"1558"}},{"start":{"in":"1612"},"end":{"in":"1612"}},{"start":{"in":"1624"},"end":{"in":"1624"}}]}}],"types":[{"identifier":"http://vocab.getty.edu/aat/300232418","label":"administrative division","sourceLabels":[{"label":"township","lang":"en"}]}],"geometry":{"type":"GeometryCollection","geometries":[{"type":"Point","coordinates":[-1.23024,53.66748],"citations":[{"label":"GeoNames, gazetteer record geonames:7301628"}]},{"type":"Point","coordinates":[-1.243364656,53.65586969],"citations":[{"label":"English Place-Name Society survey (DEEP coordinates)"}]},{"type":"Point","coordinates":[-1.235717513804715,53.66031712208679],"citations":[{"label":"Unlock (EDINA) gazetteer, gazetteer record unlock:11291355"}]},{"type":"Point","coordinates":[-1.23711,53.6695],"citations":[{"label":"Key to English Place-Names (KEPN), gazetteer record 14436"}]}]},"when":{"timespans":[{"start":{"in":"1086"},"end":{"in":"1624"}}]},"links":[{"type":"closeMatch","identifier":"https://sws.geonames.org/7301628/"}],"relations":[{"relationType":"gvp:broaderPartitive","relationTo":"https://w3id.org/whg-epns/31/003097","label":"within Darrington"}]}]}