{"@context":"https://raw.githubusercontent.com/LinkedPasts/linked-places-format/main/linkedplaces-context-v1.1.jsonld","type":"FeatureCollection","license":"Digitisation of English Placenames MADS data is licensed to Jisc by the English Place Names Society and released under a Creative Commons Attribution-NonCommercial 4.0 International License.","note":"LPF v1.3, lossy; derived from the PLATO record; plato_commit=fa0d247ccc0263f8f19c8d7cdcd163df96935d1e","features":[{"@id":"https://w3id.org/whg-epns/31/004413","type":"Feature","properties":{"title":"Purston Jaglin","ccodes":["GB"],"fclasses":["A","P"]},"names":[{"toponym":"Purston Jaglin","lang":"en","citations":[{"label":"English Place-Name Society survey, volume 31: West Riding of Yorkshire"}]},{"toponym":"Preston(e), Prestona","citations":[{"label":"1086 DB","year":1086},{"label":"1120-2 YCh","year":1120},{"label":"1159-70 YCh","year":1159},{"label":"1166 RBE","year":1166},{"label":"1200-20 YCh","year":1200},{"label":"1201 Cur","year":1201},{"label":"FF","year":1219},{"label":"FF"},{"label":"1219 FF","year":1219},{"label":"1605 FF","year":1605}],"when":{"timespans":[{"start":{"in":"1086"},"end":{"in":"1086"}},{"start":{"earliest":"1120","latest":"1122"},"end":{"earliest":"1120","latest":"1122"}},{"start":{"earliest":"1159","latest":"1170"},"end":{"earliest":"1159","latest":"1170"}},{"start":{"in":"1166"},"end":{"in":"1166"}},{"start":{"earliest":"1200","latest":"1220"},"end":{"earliest":"1200","latest":"1220"}},{"start":{"in":"1201"},"end":{"in":"1201"}},{"start":{"in":"1219"},"end":{"in":"1605"}},{"start":{"in":"1219"},"end":{"in":"1219"}},{"start":{"in":"1605"},"end":{"in":"1605"}}]}},{"toponym":"Prestona Jakelin, Prestona Jakelyn","citations":[{"label":"1269 FF","year":1269},{"label":"Baild","year":1371},{"label":"FF"},{"label":"1371 Baild","year":1371},{"label":"1497 FF","year":1497}],"when":{"timespans":[{"start":{"in":"1269"},"end":{"in":"1269"}},{"start":{"in":"1334"},"end":{"in":"1334"}},{"start":{"in":"1340"},"end":{"in":"1340"}},{"start":{"in":"1371"},"end":{"in":"1497"}},{"start":{"in":"1371"},"end":{"in":"1371"}},{"start":{"in":"1497"},"end":{"in":"1497"}}]}},{"toponym":"Prestona Jacklinge","citations":[{"label":"1605 FF","year":1605}],"when":{"timespans":[{"start":{"in":"1605"},"end":{"in":"1605"}}]}},{"toponym":"Pruston Jackling(e), Pruston Jacklynge","citations":[{"label":"1581-1583 FF","year":1581},{"label":"SessnR","year":1597},{"label":"Rates"},{"label":"1597 SessnR","year":1597},{"label":"1641 Rates","year":1641}],"when":{"timespans":[{"start":{"earliest":"1581","latest":"1583"},"end":{"earliest":"1581","latest":"1583"}},{"start":{"in":"1597"},"end":{"in":"1641"}},{"start":{"in":"1597"},"end":{"in":"1597"}},{"start":{"in":"1641"},"end":{"in":"1641"}}]}},{"toponym":"Pruston Jacklyn","citations":[{"label":"1650 ParlSurv","year":1650}],"when":{"timespans":[{"start":{"in":"1650"},"end":{"in":"1650"}}]}},{"toponym":"Pruston Jackling","citations":[{"label":"1658 WillS","year":1658}],"when":{"timespans":[{"start":{"in":"1658"},"end":{"in":"1658"}}]}}],"types":[{"identifier":"http://vocab.getty.edu/aat/300232418","label":"administrative division","sourceLabels":[{"label":"township","lang":"en"}]}],"geometry":{"type":"GeometryCollection","geometries":[{"type":"Point","coordinates":[-1.34076,53.67597],"citations":[{"label":"GeoNames, gazetteer record geonames:2639841"}]},{"type":"Point","coordinates":[-1.349147012,53.66548079],"citations":[{"label":"English Place-Name Society survey (DEEP coordinates)"}]},{"type":"Point","coordinates":[-1.341509234570394,53.66993499764182],"citations":[{"label":"Unlock (EDINA) gazetteer, gazetteer record unlock:11250897"}]},{"type":"Point","coordinates":[-1.34305,53.6702],"citations":[{"label":"Key to English Place-Names (KEPN), gazetteer record 14448"}]}]},"when":{"timespans":[{"start":{"in":"1086"},"end":{"in":"1658"}}]},"links":[{"type":"closeMatch","identifier":"https://sws.geonames.org/2639841/"}],"relations":[{"relationType":"gvp:broaderPartitive","relationTo":"https://w3id.org/whg-epns/31/004263","label":"within Featherstone"}]}]}