{"@context":"https://raw.githubusercontent.com/LinkedPasts/linked-places-format/main/linkedplaces-context-v1.1.jsonld","type":"FeatureCollection","license":"Digitisation of English Placenames MADS data is licensed to Jisc by the English Place Names Society and released under a Creative Commons Attribution-NonCommercial 4.0 International License.","note":"LPF v1.3, lossy; derived from the PLATO record; plato_commit=ca0afadabec1e23a145c0b03df77e8f151f79832","features":[{"@id":"http://placenames.org.uk/id/placename/31/004760","type":"Feature","properties":{"title":"Badsworth","ccodes":["GB"],"fclasses":["A","P"]},"names":[{"toponym":"Badsworth","lang":"en","citations":[{"label":"English Place-Name Society survey, volume 31: West Riding of Yorkshire"}]}],"types":[{"identifier":"http://vocab.getty.edu/aat/300232418","label":"administrative division","sourceLabels":[{"label":"parish","lang":"en"}]}],"geometry":{"type":"GeometryCollection","geometries":[{"type":"Point","coordinates":[-1.30128,53.62876],"citations":[{"label":"GeoNames, gazetteer record geonames:2656641"}]},{"type":"Point","coordinates":[-1.304334255,53.62927111],"citations":[{"label":"English Place-Name Society survey (DEEP coordinates)"}]},{"type":"Point","coordinates":[-1.296847797347546,53.62473388585212],"citations":[{"label":"Unlock (EDINA) gazetteer, gazetteer record unlock:11066958"}]},{"type":"Point","coordinates":[-1.29839,53.625],"citations":[{"label":"Key to English Place-Names (KEPN), gazetteer record 14455"}]}]},"links":[{"type":"closeMatch","identifier":"https://sws.geonames.org/2656641/"}],"relations":[{"relationType":"gvp:broaderPartitive","relationTo":"http://placenames.org.uk/id/placename/31/000002","label":"within Osgoldcross Wapentake"}]}]}