{"@context":"https://raw.githubusercontent.com/LinkedPasts/linked-places-format/main/linkedplaces-context-v1.1.jsonld","type":"FeatureCollection","license":"Digitisation of English Placenames MADS data is licensed to Jisc by the English Place Names Society and released under a Creative Commons Attribution-NonCommercial 4.0 International License.","note":"LPF v1.3, lossy; derived from the PLATO record; plato_commit=ca0afadabec1e23a145c0b03df77e8f151f79832","features":[{"@id":"http://placenames.org.uk/id/placename/31/005808","type":"Feature","properties":{"title":"Sharlston","ccodes":["GB"],"fclasses":["A","P"]},"names":[{"toponym":"Sharlston","lang":"en","citations":[{"label":"English Place-Name Society survey, volume 31: West Riding of Yorkshire"}]},{"toponym":"Scharuest(on)'","citations":[{"label":"12 Nost","year":1100},{"label":"1173-93 YCh","year":1173},{"label":"13 Nost","year":1200},{"label":"1296 Lacy Comp","year":1296}],"when":{"timespans":[{"start":{"earliest":"1100","latest":"1200"},"end":{"earliest":"1100","latest":"1200"}},{"start":{"earliest":"1173","latest":"1193"},"end":{"earliest":"1173","latest":"1193"}},{"start":{"earliest":"1200","latest":"1300"},"end":{"earliest":"1200","latest":"1300"}},{"start":{"in":"1296"},"end":{"in":"1296"}}]}},{"toponym":"Scharvestona","citations":[{"label":"1180-5 YCh","year":1180}],"when":{"timespans":[{"start":{"earliest":"1180","latest":"1185"},"end":{"earliest":"1180","latest":"1185"}}]}},{"toponym":"Shareueston","citations":[{"label":"1304 YI","year":1304}],"when":{"timespans":[{"start":{"in":"1304"},"end":{"in":"1304"}}]}},{"toponym":"Scharneston(e)","citations":[{"label":"c. 1160 Nost","year":1150},{"label":"e. 13 Nost","year":1200},{"label":"1276 YI","year":1276},{"label":"1286 WCR","year":1286}],"when":{"timespans":[{"start":{"earliest":"1150","latest":"1170"},"end":{"earliest":"1150","latest":"1170"}},{"start":{"earliest":"1200","latest":"1225"},"end":{"earliest":"1200","latest":"1225"}},{"start":{"in":"1276"},"end":{"in":"1276"}},{"start":{"in":"1286"},"end":{"in":"1286"}}]}},{"toponym":"Sharneston","citations":[{"label":"1254 FF","year":1254},{"label":"1303 Aid","year":1303},{"label":"1316 Vill","year":1316},{"label":"1344 DodsN","year":1344},{"label":"1360 FF","year":1360},{"label":"1380 Ch","year":1380},{"label":"1390 Nost","year":1390},{"label":"1400 Pat","year":1400}],"when":{"timespans":[{"start":{"in":"1254"},"end":{"in":"1254"}},{"start":{"in":"1303"},"end":{"in":"1303"}},{"start":{"in":"1316"},"end":{"in":"1316"}},{"start":{"in":"1344"},"end":{"in":"1344"}},{"start":{"in":"1360"},"end":{"in":"1360"}},{"start":{"in":"1380"},"end":{"in":"1380"}},{"start":{"in":"1390"},"end":{"in":"1390"}},{"start":{"in":"1400"},"end":{"in":"1400"}}]}},{"toponym":"Scarneston","citations":[{"label":"1276 RH","year":1276}],"when":{"timespans":[{"start":{"in":"1276"},"end":{"in":"1276"}}]}},{"toponym":"Sashtunia","citations":[{"label":"c. 1173 Pont","year":1163}],"when":{"timespans":[{"start":{"earliest":"1163","latest":"1183"},"end":{"earliest":"1163","latest":"1183"}}]}},{"toponym":"Sarneston","citations":[{"label":"1243 Fees","year":1243}],"when":{"timespans":[{"start":{"in":"1243"},"end":{"in":"1243"}}]}},{"toponym":"S(c)harweston","citations":[{"label":"1291-1312 Nost","year":1291},{"label":"1297 LS","year":1297}],"when":{"timespans":[{"start":{"earliest":"1291","latest":"1312"},"end":{"earliest":"1291","latest":"1312"}},{"start":{"in":"1297"},"end":{"in":"1297"}}]}},{"toponym":"Scarweston","citations":[{"label":"l. 12 Nost","year":1175}],"when":{"timespans":[{"start":{"earliest":"1175","latest":"1200"},"end":{"earliest":"1175","latest":"1200"}}]}},{"toponym":"Sharston'","citations":[{"label":"1379 PT","year":1379}],"when":{"timespans":[{"start":{"in":"1379"},"end":{"in":"1379"}}]}},{"toponym":"S(c)hareston","citations":[{"label":"1428 WillY","year":1428},{"label":"1447 Pat","year":1447}],"when":{"timespans":[{"start":{"in":"1428"},"end":{"in":"1428"}},{"start":{"in":"1447"},"end":{"in":"1447"}}]}},{"toponym":"Sherston","citations":[{"label":"1695 M","year":1695}],"when":{"timespans":[{"start":{"in":"1695"},"end":{"in":"1695"}}]}},{"toponym":"S(c)harleston(e)","citations":[{"label":"1428 WillY","year":1428},{"label":"1532–1591, recurring FF","year":1532},{"label":"1532–1591, recurring FF"},{"label":"1532 FF","year":1532},{"label":"1591 FF","year":1591}],"when":{"timespans":[{"start":{"in":"1428"},"end":{"in":"1428"}},{"start":{"in":"1453"},"end":{"in":"1453"}},{"start":{"in":"1532"},"end":{"in":"1591"}},{"start":{"in":"1532"},"end":{"in":"1532"}},{"start":{"in":"1574"},"end":{"in":"1574"}},{"start":{"in":"1591"},"end":{"in":"1591"}}]}},{"toponym":"Sharlston","citations":[{"label":"1633 PRCrf","year":1633},{"label":"1641 Rates","year":1641}],"when":{"timespans":[{"start":{"in":"1633"},"end":{"in":"1633"}},{"start":{"in":"1641"},"end":{"in":"1641"}}]}},{"toponym":"Shyrleston","citations":[{"label":"1555 BM","year":1555}],"when":{"timespans":[{"start":{"in":"1555"},"end":{"in":"1555"}}]}},{"toponym":"Sharleton","citations":[{"label":"1587 FF","year":1587}],"when":{"timespans":[{"start":{"in":"1587"},"end":{"in":"1587"}}]}}],"types":[{"identifier":"http://vocab.getty.edu/aat/300232418","label":"administrative division","sourceLabels":[{"label":"township","lang":"en"}]}],"geometry":{"type":"GeometryCollection","geometries":[{"type":"Point","coordinates":[-1.41294,53.66956],"citations":[{"label":"GeoNames, gazetteer record geonames:6458917"}]},{"type":"Point","coordinates":[-1.409813351,53.65680578],"citations":[{"label":"English Place-Name Society survey (DEEP coordinates)"}]},{"type":"Point","coordinates":[-1.402183533403283,53.66126387987767],"citations":[{"label":"Unlock (EDINA) gazetteer, gazetteer record unlock:11281581"}]},{"type":"Point","coordinates":[-1.40372,53.6615],"citations":[{"label":"Key to English Place-Names (KEPN), gazetteer record 14464"}]}]},"when":{"timespans":[{"start":{"in":"1100"},"end":{"in":"1695"}}]},"links":[{"type":"closeMatch","identifier":"https://sws.geonames.org/6458917/"}],"relations":[{"relationType":"gvp:broaderPartitive","relationTo":"http://placenames.org.uk/id/placename/31/005807","label":"within Warmfield"}]}]}