{"@context":"https://raw.githubusercontent.com/LinkedPasts/linked-places-format/main/linkedplaces-context-v1.1.jsonld","type":"FeatureCollection","license":"Digitisation of English Placenames MADS data is licensed to Jisc by the English Place Names Society and released under a Creative Commons Attribution-NonCommercial 4.0 International License.","note":"LPF v1.3, lossy; derived from the PLATO record; plato_commit=ca0afadabec1e23a145c0b03df77e8f151f79832","features":[{"@id":"https://w3id.org/whg-epns/31/006181","type":"Feature","properties":{"title":"Normanton","ccodes":["GB"],"fclasses":["A","P"]},"names":[{"toponym":"Normanton","lang":"en","citations":[{"label":"English Place-Name Society survey, volume 31: West Riding of Yorkshire"}]},{"toponym":"Normetune, Normatune, Normantone","citations":[{"label":"1086 DB","year":1086}],"when":{"timespans":[{"start":{"in":"1086"},"end":{"in":"1086"}}]}},{"toponym":"Normantun, Normanton(a)","citations":[{"label":"1177-86 YCh","year":1177},{"label":"1190-1215 YCh","year":1190},{"label":"13 Lewes","year":1200},{"label":"1225 Pat","year":1225},{"label":"1235 FF","year":1235},{"label":"1244–1542, recurring Ebor","year":1244},{"label":"1244–1542, recurring Test"},{"label":"1244 Ebor","year":1244},{"label":"1542 Test","year":1542}],"when":{"timespans":[{"start":{"earliest":"1177","latest":"1186"},"end":{"earliest":"1177","latest":"1186"}},{"start":{"earliest":"1190","latest":"1215"},"end":{"earliest":"1190","latest":"1215"}},{"start":{"earliest":"1200","latest":"1300"},"end":{"earliest":"1200","latest":"1300"}},{"start":{"in":"1225"},"end":{"in":"1225"}},{"start":{"in":"1235"},"end":{"in":"1235"}},{"start":{"in":"1244"},"end":{"in":"1542"}},{"start":{"in":"1244"},"end":{"in":"1244"}},{"start":{"in":"1542"},"end":{"in":"1542"}}]}},{"toponym":"Northmanton(e)","citations":[{"label":"1275–1298, recurring WCR","year":1275},{"label":"1275-1298 WCR","year":1275}],"when":{"timespans":[{"start":{"in":"1275"},"end":{"in":"1298"}},{"start":{"earliest":"1275","latest":"1298"},"end":{"earliest":"1275","latest":"1298"}}]}}],"types":[{"identifier":"http://vocab.getty.edu/aat/300232418","label":"administrative division","sourceLabels":[{"label":"township","lang":"en"}]}],"geometry":{"type":"GeometryCollection","geometries":[{"type":"Point","coordinates":[-1.41667,53.7],"citations":[{"label":"GeoNames, gazetteer record geonames:2641443"}]},{"type":"Point","coordinates":[-1.424455614,53.69283438],"citations":[{"label":"English Place-Name Society survey (DEEP coordinates)"}]},{"type":"Point","coordinates":[-1.41682079783532,53.69729338799689],"citations":[{"label":"Unlock (EDINA) gazetteer, gazetteer record unlock:11231901"}]},{"type":"Point","coordinates":[-1.41835,53.6975],"citations":[{"label":"Key to English Place-Names (KEPN), gazetteer record 14465"}]}]},"when":{"timespans":[{"start":{"in":"1086"},"end":{"in":"1542"}}]},"links":[{"type":"closeMatch","identifier":"https://sws.geonames.org/2641443/"}],"relations":[{"relationType":"gvp:broaderPartitive","relationTo":"https://w3id.org/whg-epns/31/006030","label":"within Normanton"}]}]}