{"@context":"https://raw.githubusercontent.com/LinkedPasts/linked-places-format/main/linkedplaces-context-v1.1.jsonld","type":"FeatureCollection","license":"Digitisation of English Placenames MADS data is licensed to Jisc by the English Place Names Society and released under a Creative Commons Attribution-NonCommercial 4.0 International License.","note":"LPF v1.3, lossy; derived from the PLATO record; plato_commit=ca0afadabec1e23a145c0b03df77e8f151f79832","features":[{"@id":"http://placenames.org.uk/id/placename/31/007940","type":"Feature","properties":{"title":"Thorpe on the Hill","ccodes":["GB"],"fclasses":["A","P"]},"names":[{"toponym":"Thorpe on the Hill","lang":"en","citations":[{"label":"English Place-Name Society survey, volume 31: West Riding of Yorkshire"}]},{"toponym":"Torp","citations":[{"label":"1086 DB","year":1086}],"when":{"timespans":[{"start":{"in":"1086"},"end":{"in":"1086"}}]}},{"toponym":"Thorp(e)","citations":[{"label":"1328 Ch","year":1328},{"label":"1592 WillY","year":1592}],"when":{"timespans":[{"start":{"in":"1328"},"end":{"in":"1328"}},{"start":{"in":"1592"},"end":{"in":"1592"}}]}},{"toponym":"Thorp(e) othe Hull","citations":[{"label":"1309 Ch","year":1309}],"when":{"timespans":[{"start":{"in":"1309"},"end":{"in":"1309"}}]}},{"toponym":"Thorp(e) super leʒ Hill","citations":[{"label":"1501 Nost","year":1501}],"when":{"timespans":[{"start":{"in":"1501"},"end":{"in":"1501"}}]}},{"toponym":"Thorp(e) on the Hill","citations":[{"label":"1542 WillY","year":1542}],"when":{"timespans":[{"start":{"in":"1542"},"end":{"in":"1542"}}]}},{"toponym":"Thorp(e) of t' Hill","citations":[{"label":"1545 LS","year":1545}],"when":{"timespans":[{"start":{"in":"1545"},"end":{"in":"1545"}}]}},{"toponym":"Thorp(e) of the hill","citations":[{"label":"1554 TestLds","year":1554}],"when":{"timespans":[{"start":{"in":"1554"},"end":{"in":"1554"}}]}},{"toponym":"Thorp(e) super Montem","citations":[{"label":"1558 LS","year":1558}],"when":{"timespans":[{"start":{"in":"1558"},"end":{"in":"1558"}}]}},{"toponym":"Thorp(e) iuxta Rothewelhagh, Thorp(e) under Rothewelhagh","citations":[{"label":"1327 FF","year":1327},{"label":"1448 Pat","year":1448}],"when":{"timespans":[{"start":{"in":"1327"},"end":{"in":"1327"}},{"start":{"in":"1448"},"end":{"in":"1448"}}]}}],"types":[{"identifier":"http://vocab.getty.edu/aat/300232418","label":"administrative division","sourceLabels":[{"label":"township","lang":"en"}]}],"geometry":{"type":"GeometryCollection","geometries":[{"type":"Point","coordinates":[-1.52435,53.73724],"citations":[{"label":"GeoNames, gazetteer record geonames:6693730"}]},{"type":"Point","coordinates":[-1.530072073,53.7292522],"citations":[{"label":"English Place-Name Society survey (DEEP coordinates)"}]},{"type":"Point","coordinates":[-1.52244179898269,53.73371792230506],"citations":[{"label":"Unlock (EDINA) gazetteer, gazetteer record unlock:11300184"}]},{"type":"Point","coordinates":[-1.52396,53.7339],"citations":[{"label":"Key to English Place-Names (KEPN), gazetteer record 14818"}]}]},"when":{"timespans":[{"start":{"in":"1086"},"end":{"in":"1592"}}]},"links":[{"type":"closeMatch","identifier":"https://sws.geonames.org/6693730/"}],"relations":[{"relationType":"gvp:broaderPartitive","relationTo":"http://placenames.org.uk/id/placename/31/007161","label":"within Rothwell"}]}]}