{"@context":"https://raw.githubusercontent.com/LinkedPasts/linked-places-format/main/linkedplaces-context-v1.1.jsonld","type":"FeatureCollection","license":"Digitisation of English Placenames MADS data is licensed to Jisc by the English Place Names Society and released under a Creative Commons Attribution-NonCommercial 4.0 International License.","note":"LPF v1.3, lossy; derived from the PLATO record; plato_commit=ca0afadabec1e23a145c0b03df77e8f151f79832","features":[{"@id":"https://w3id.org/whg-epns/31/008360","type":"Feature","properties":{"title":"Outwood","ccodes":["GB"],"fclasses":["A","P"]},"names":[{"toponym":"Outwood","lang":"en","citations":[{"label":"English Place-Name Society survey, volume 31: West Riding of Yorkshire"}]},{"toponym":"bosco forinseco","citations":[{"label":"1305 WCR","year":1305}],"when":{"timespans":[{"start":{"in":"1305"},"end":{"in":"1305"}}]}},{"toponym":"(les) Outewode (boscum)","citations":[{"label":"1436 Test","year":1436},{"label":"1492 MinAcct","year":1492}],"when":{"timespans":[{"start":{"in":"1436"},"end":{"in":"1436"}},{"start":{"in":"1438"},"end":{"in":"1438"}},{"start":{"in":"1492"},"end":{"in":"1492"}}]}},{"toponym":"Owtewoode","citations":[{"label":"1543 WillY","year":1543}],"when":{"timespans":[{"start":{"in":"1543"},"end":{"in":"1543"}}]}},{"toponym":"the Outwood","citations":[{"label":"1587 FF","year":1587},{"label":"1771 M","year":1771}],"when":{"timespans":[{"start":{"in":"1587"},"end":{"in":"1587"}},{"start":{"in":"1771"},"end":{"in":"1771"}}]}},{"toponym":"Outwoodside","citations":[{"label":"1644 PRHrb","year":1644}],"when":{"timespans":[{"start":{"in":"1644"},"end":{"in":"1644"}}]}},{"toponym":"Wakefeild Outwoodside","citations":[{"label":"1656 Pick","year":1656}],"when":{"timespans":[{"start":{"in":"1656"},"end":{"in":"1656"}}]}},{"toponym":"the Oute Woode of Wakefelde","citations":[{"label":"1592 WillY","year":1592}],"when":{"timespans":[{"start":{"in":"1592"},"end":{"in":"1592"}}]}},{"toponym":"le Owtwoodside","citations":[{"label":"1600 WCR","year":1600}],"when":{"timespans":[{"start":{"in":"1600"},"end":{"in":"1600"}}]}},{"toponym":"Wakefield Owtwood","citations":[{"label":"1607 Surv","year":1607}],"when":{"timespans":[{"start":{"in":"1607"},"end":{"in":"1607"}}]}}],"types":[{"identifier":"http://vocab.getty.edu/aat/300232418","label":"administrative division","sourceLabels":[{"label":"township","lang":"en"}]}],"geometry":{"type":"GeometryCollection","geometries":[{"type":"Point","coordinates":[-1.50126,53.71195],"citations":[{"label":"GeoNames, gazetteer record geonames:6693719"}]},{"type":"Point","coordinates":[-1.515120525,53.71121418],"citations":[{"label":"English Place-Name Society survey (DEEP coordinates)"}]},{"type":"Point","coordinates":[-1.507596919902882,53.70669015466322],"citations":[{"label":"Unlock (EDINA) gazetteer, gazetteer record unlock:11237683"}]},{"type":"Point","coordinates":[-1.503289,53.709358],"citations":[{"label":"Key to English Place-Names (KEPN), gazetteer record 298"}]}]},"when":{"timespans":[{"start":{"in":"1305"},"end":{"in":"1771"}}]},"links":[{"type":"closeMatch","identifier":"https://sws.geonames.org/6693719/"}],"relations":[{"relationType":"gvp:broaderPartitive","relationTo":"https://w3id.org/whg-epns/31/008008","label":"within Wakefield"}]}]}