{"@context":"https://raw.githubusercontent.com/LinkedPasts/linked-places-format/main/linkedplaces-context-v1.1.jsonld","type":"FeatureCollection","license":"Digitisation of English Placenames MADS data is licensed to Jisc by the English Place Names Society and released under a Creative Commons Attribution-NonCommercial 4.0 International License.","note":"LPF v1.3, lossy; derived from the PLATO record; plato_commit=ca0afadabec1e23a145c0b03df77e8f151f79832","features":[{"@id":"http://placenames.org.uk/id/placename/31/010847","type":"Feature","properties":{"title":"Thornhill","ccodes":["GB"],"fclasses":["A","P"]},"names":[{"toponym":"Thornhill","lang":"en","citations":[{"label":"English Place-Name Society survey, volume 31: West Riding of Yorkshire"}]}],"types":[{"identifier":"http://vocab.getty.edu/aat/300232418","label":"administrative division","sourceLabels":[{"label":"parish","lang":"en"}]}],"geometry":{"type":"GeometryCollection","geometries":[{"type":"Point","coordinates":[-1.63333,53.66667],"citations":[{"label":"GeoNames, gazetteer record geonames:2635982"}]},{"type":"Point","coordinates":[-1.621668723,53.65766254],"citations":[{"label":"English Place-Name Society survey (DEEP coordinates)"}]},{"type":"Point","coordinates":[-1.629274495268863,53.65319294829079],"citations":[{"label":"Unlock (EDINA) gazetteer, gazetteer record unlock:11299843"}]},{"type":"Point","coordinates":[-1.61557,53.6624],"citations":[{"label":"Key to English Place-Names (KEPN), gazetteer record 14491"}]}]},"links":[{"type":"closeMatch","identifier":"https://sws.geonames.org/2635982/"}],"relations":[{"relationType":"gvp:broaderPartitive","relationTo":"http://placenames.org.uk/id/placename/31/004945","label":"within Agbrigg Wapentake"}]}]}