{"@context":"https://raw.githubusercontent.com/LinkedPasts/linked-places-format/main/linkedplaces-context-v1.1.jsonld","type":"FeatureCollection","license":"Digitisation of English Placenames MADS data is licensed to Jisc by the English Place Names Society and released under a Creative Commons Attribution-NonCommercial 4.0 International License.","note":"LPF v1.3, lossy; derived from the PLATO record; plato_commit=ca0afadabec1e23a145c0b03df77e8f151f79832","features":[{"@id":"http://placenames.org.uk/id/placename/31/012607","type":"Feature","properties":{"title":"Upper Whitley","ccodes":["GB"],"fclasses":["A","P"]},"names":[{"toponym":"Upper Whitley","lang":"en","citations":[{"label":"English Place-Name Society survey, volume 31: West Riding of Yorkshire"}]},{"toponym":"Witelaia, Witelei, Witeley","citations":[{"label":"1086 DB","year":1086},{"label":"13 YD","year":1200},{"label":"1205-9 BM","year":1205}],"when":{"timespans":[{"start":{"in":"1086"},"end":{"in":"1086"}},{"start":{"earliest":"1200","latest":"1300"},"end":{"earliest":"1200","latest":"1300"}},{"start":{"earliest":"1205","latest":"1209"},"end":{"earliest":"1205","latest":"1209"}}]}},{"toponym":"Over Witeley","citations":[{"label":"1346 YD","year":1346}],"when":{"timespans":[{"start":{"in":"1346"},"end":{"in":"1346"}}]}},{"toponym":"Hvitteleia","citations":[{"label":"l. 12 Font","year":1175}],"when":{"timespans":[{"start":{"earliest":"1175","latest":"1200"},"end":{"earliest":"1175","latest":"1200"}}]}},{"toponym":"Withelaya, Wythelaya, Wythele(i)","citations":[{"label":"e. 13 Font","year":1200},{"label":"13 YD","year":1200},{"label":"c. 1203 BM","year":1193}],"when":{"timespans":[{"start":{"earliest":"1200","latest":"1225"},"end":{"earliest":"1200","latest":"1225"}},{"start":{"earliest":"1200","latest":"1300"},"end":{"earliest":"1200","latest":"1300"}},{"start":{"earliest":"1193","latest":"1213"},"end":{"earliest":"1193","latest":"1213"}},{"start":{"in":"1220"},"end":{"in":"1220"}}]}},{"toponym":"Witthele","citations":[{"label":"e. 13 BM","year":1200},{"label":"1220 YD","year":1220}],"when":{"timespans":[{"start":{"earliest":"1200","latest":"1225"},"end":{"earliest":"1200","latest":"1225"}},{"start":{"in":"1220"},"end":{"in":"1220"}}]}},{"toponym":"Witteley","citations":[{"label":"1298 BM","year":1298}],"when":{"timespans":[{"start":{"in":"1298"},"end":{"in":"1298"}}]}},{"toponym":"Vvere Witteley","citations":[{"label":"1246 Ass","year":1246}],"when":{"timespans":[{"start":{"in":"1246"},"end":{"in":"1246"}}]}},{"toponym":"Whitley, Upper Whitley","citations":[{"label":"1822 Langd","year":1822}],"when":{"timespans":[{"start":{"in":"1822"},"end":{"in":"1822"}}]}}],"types":[{"identifier":"http://vocab.getty.edu/aat/300232418","label":"administrative division","sourceLabels":[{"label":"township","lang":"en"}]}],"geometry":{"type":"Point","coordinates":[-1.64598,53.6445],"citations":[{"label":"Key to English Place-Names (KEPN), gazetteer record 14500"}]},"when":{"timespans":[{"start":{"in":"1086"},"end":{"in":"1822"}}]},"relations":[{"relationType":"gvp:broaderPartitive","relationTo":"http://placenames.org.uk/id/placename/31/012036","label":"within Kirkheaton"}]}]}