{"@context":"https://raw.githubusercontent.com/LinkedPasts/linked-places-format/main/linkedplaces-context-v1.1.jsonld","type":"FeatureCollection","license":"Digitisation of English Placenames MADS data is licensed to Jisc by the English Place Names Society and released under a Creative Commons Attribution-NonCommercial 4.0 International License.","note":"LPF v1.3, lossy; derived from the PLATO record; plato_commit=ca0afadabec1e23a145c0b03df77e8f151f79832","features":[{"@id":"http://placenames.org.uk/id/placename/31/012778","type":"Feature","properties":{"title":"Cartworth","ccodes":["GB"],"fclasses":["A","P"]},"names":[{"toponym":"Cartworth","lang":"en","citations":[{"label":"English Place-Name Society survey, volume 31: West Riding of Yorkshire"}]},{"toponym":"Cheteruu(o)rde","citations":[{"label":"1086 DB","year":1086}],"when":{"timespans":[{"start":{"in":"1086"},"end":{"in":"1086"}}]}},{"toponym":"Karteword","citations":[{"label":"1202-10 YCh","year":1202}],"when":{"timespans":[{"start":{"earliest":"1202","latest":"1210"},"end":{"earliest":"1202","latest":"1210"}}]}},{"toponym":"Cartewrth","citations":[{"label":"1274–1307, recurring WCR","year":1274},{"label":"1274-1307 WCR","year":1274}],"when":{"timespans":[{"start":{"in":"1274"},"end":{"in":"1307"}},{"start":{"earliest":"1274","latest":"1307"},"end":{"earliest":"1274","latest":"1307"}}]}},{"toponym":"Carteword","citations":[{"label":"1325 WCR","year":1325}],"when":{"timespans":[{"start":{"in":"1325"},"end":{"in":"1325"}}]}},{"toponym":"Carteworth","citations":[{"label":"1347 DodsN","year":1347},{"label":"1392 MinAcct","year":1392}],"when":{"timespans":[{"start":{"in":"1347"},"end":{"in":"1347"}},{"start":{"in":"1392"},"end":{"in":"1392"}}]}},{"toponym":"Carthewrthe","citations":[{"label":"1286 WCR","year":1286}],"when":{"timespans":[{"start":{"in":"1286"},"end":{"in":"1286"}}]}},{"toponym":"Cartworth","citations":[{"label":"1313 WCR","year":1313},{"label":"1379–1822, recurring PT","year":1379},{"label":"1379–1822, recurring Langd"},{"label":"1379 PT","year":1379},{"label":"1822 Langd","year":1822}],"when":{"timespans":[{"start":{"in":"1313"},"end":{"in":"1313"}},{"start":{"in":"1379"},"end":{"in":"1822"}},{"start":{"in":"1379"},"end":{"in":"1379"}},{"start":{"in":"1822"},"end":{"in":"1822"}}]}}],"types":[{"identifier":"http://vocab.getty.edu/aat/300232418","label":"administrative division","sourceLabels":[{"label":"township","lang":"en"}]}],"geometry":{"type":"GeometryCollection","geometries":[{"type":"Point","coordinates":[-1.78133,53.56601],"citations":[{"label":"GeoNames, gazetteer record geonames:2653629"}]},{"type":"Point","coordinates":[-1.788627099,53.55919116],"citations":[{"label":"English Place-Name Society survey (DEEP coordinates)"}]},{"type":"Point","coordinates":[-1.781054852619959,53.56367347234246],"citations":[{"label":"Unlock (EDINA) gazetteer, gazetteer record unlock:11100405"}]},{"type":"Point","coordinates":[-1.78254,53.5639],"citations":[{"label":"Key to English Place-Names (KEPN), gazetteer record 14502"}]}]},"when":{"timespans":[{"start":{"in":"1086"},"end":{"in":"1822"}}]},"links":[{"type":"closeMatch","identifier":"https://sws.geonames.org/2653629/"}],"relations":[{"relationType":"gvp:broaderPartitive","relationTo":"http://placenames.org.uk/id/placename/31/012777","label":"within Kirkburton"}]}]}