{"@context":"https://raw.githubusercontent.com/LinkedPasts/linked-places-format/main/linkedplaces-context-v1.1.jsonld","type":"FeatureCollection","license":"Digitisation of English Placenames MADS data is licensed to Jisc by the English Place Names Society and released under a Creative Commons Attribution-NonCommercial 4.0 International License.","note":"LPF v1.3, lossy; derived from the PLATO record; plato_commit=ca0afadabec1e23a145c0b03df77e8f151f79832","features":[{"@id":"http://placenames.org.uk/id/placename/31/014339","type":"Feature","properties":{"title":"Austonley","ccodes":["GB"],"fclasses":["A","P"]},"names":[{"toponym":"Austonley","lang":"en","citations":[{"label":"English Place-Name Society survey, volume 31: West Riding of Yorkshire"}]},{"toponym":"Alstaneslei(e)","citations":[{"label":"1086 DB","year":1086}],"when":{"timespans":[{"start":{"in":"1086"},"end":{"in":"1086"}}]}},{"toponym":"Alstanley, Alstanlay","citations":[{"label":"1274–1329, recurring WCR","year":1274},{"label":"1274-1329 WCR","year":1274}],"when":{"timespans":[{"start":{"in":"1274"},"end":{"in":"1329"}},{"start":{"earliest":"1274","latest":"1329"},"end":{"earliest":"1274","latest":"1329"}}]}},{"toponym":"Alstanneley","citations":[{"label":"1313 WCR","year":1313}],"when":{"timespans":[{"start":{"in":"1313"},"end":{"in":"1313"}}]}},{"toponym":"Alstonlay","citations":[{"label":"1395 WB","year":1395}],"when":{"timespans":[{"start":{"in":"1395"},"end":{"in":"1395"}}]}},{"toponym":"Austenley","citations":[{"label":"1588 WillY","year":1588}],"when":{"timespans":[{"start":{"in":"1588"},"end":{"in":"1588"}}]}},{"toponym":"Austonley","citations":[{"label":"1709 WMB","year":1709}],"when":{"timespans":[{"start":{"in":"1709"},"end":{"in":"1709"}}]}}],"types":[{"identifier":"http://vocab.getty.edu/aat/300232418","label":"administrative division","sourceLabels":[{"label":"township","lang":"en"}]}],"geometry":{"type":"GeometryCollection","geometries":[{"type":"Point","coordinates":[-1.833921054,53.55926262],"citations":[{"label":"English Place-Name Society survey (DEEP coordinates)"}]},{"type":"Point","coordinates":[-1.88813,53.6],"citations":[{"label":"Key to English Place-Names (KEPN), gazetteer record 14511"}]}]},"when":{"timespans":[{"start":{"in":"1086"},"end":{"in":"1709"}}]},"relations":[{"relationType":"gvp:broaderPartitive","relationTo":"http://placenames.org.uk/id/placename/31/013912","label":"within Almondbury"}]}]}