{"@context":"https://raw.githubusercontent.com/LinkedPasts/linked-places-format/main/linkedplaces-context-v1.1.jsonld","type":"FeatureCollection","license":"Digitisation of English Placenames MADS data is licensed to Jisc by the English Place Names Society and released under a Creative Commons Attribution-NonCommercial 4.0 International License.","note":"LPF v1.3, lossy; derived from the PLATO record; plato_commit=ca0afadabec1e23a145c0b03df77e8f151f79832","features":[{"@id":"https://w3id.org/whg-epns/31/014748","type":"Feature","properties":{"title":"Holme","ccodes":["GB"],"fclasses":["A","P"]},"names":[{"toponym":"Holme","lang":"en","citations":[{"label":"English Place-Name Society survey, volume 31: West Riding of Yorkshire"}]},{"toponym":"Holne","citations":[{"label":"1086 DB","year":1086},{"label":"1274–1321, recurring WCR","year":1274},{"label":"1274-1321 WCR","year":1274},{"label":"1323 MinAcct","year":1323},{"label":"1591 FF","year":1591}],"when":{"timespans":[{"start":{"in":"1086"},"end":{"in":"1086"}},{"start":{"in":"1274"},"end":{"in":"1321"}},{"start":{"earliest":"1274","latest":"1321"},"end":{"earliest":"1274","latest":"1321"}},{"start":{"in":"1323"},"end":{"in":"1323"}},{"start":{"in":"1591"},"end":{"in":"1591"}}]}},{"toponym":"Holm(e)","citations":[{"label":"1316 Vill","year":1316},{"label":"1347 DodsN","year":1347},{"label":"1392 MinAcct","year":1392}],"when":{"timespans":[{"start":{"in":"1316"},"end":{"in":"1316"}},{"start":{"in":"1347"},"end":{"in":"1347"}},{"start":{"in":"1392"},"end":{"in":"1392"}},{"start":{"in":"1492"},"end":{"in":"1492"}}]}}],"types":[{"identifier":"http://vocab.getty.edu/aat/300232418","label":"administrative division","sourceLabels":[{"label":"township","lang":"en"}]}],"geometry":{"type":"GeometryCollection","geometries":[{"type":"Point","coordinates":[-1.83918,53.5503],"citations":[{"label":"GeoNames, gazetteer record geonames:2646729"}]},{"type":"Point","coordinates":[-1.849051077,53.55029328],"citations":[{"label":"English Place-Name Society survey (DEEP coordinates)"}]},{"type":"Point","coordinates":[-1.841520406013978,53.54579007518995],"citations":[{"label":"Unlock (EDINA) gazetteer, gazetteer record unlock:11177541"}]},{"type":"Point","coordinates":[-1.84296,53.555],"citations":[{"label":"Key to English Place-Names (KEPN), gazetteer record 14514"}]}]},"when":{"timespans":[{"start":{"in":"1086"},"end":{"in":"1591"}}]},"links":[{"type":"closeMatch","identifier":"https://sws.geonames.org/2646729/"}],"relations":[{"relationType":"gvp:broaderPartitive","relationTo":"https://w3id.org/whg-epns/31/013912","label":"within Almondbury"}]}]}