{"@context":"https://raw.githubusercontent.com/LinkedPasts/linked-places-format/main/linkedplaces-context-v1.1.jsonld","type":"FeatureCollection","license":"Digitisation of English Placenames MADS data is licensed to Jisc by the English Place Names Society and released under a Creative Commons Attribution-NonCommercial 4.0 International License.","note":"LPF v1.3, lossy; derived from the PLATO record; plato_commit=fa0d247ccc0263f8f19c8d7cdcd163df96935d1e","features":[{"@id":"https://w3id.org/whg-epns/31/014958","type":"Feature","properties":{"title":"Honley","ccodes":["GB"],"fclasses":["A","P"]},"names":[{"toponym":"Honley","lang":"en","citations":[{"label":"English Place-Name Society survey, volume 31: West Riding of Yorkshire"}]},{"toponym":"Hanelei(a), Hanelay","citations":[{"label":"1086 DB","year":1086},{"label":"1243 Fees","year":1243}],"when":{"timespans":[{"start":{"in":"1086"},"end":{"in":"1086"}},{"start":{"in":"1243"},"end":{"in":"1243"}}]}},{"toponym":"Honeley, Honelay","citations":[{"label":"1252 Ebor","year":1252},{"label":"1274 WCR","year":1274},{"label":"1297 LS","year":1297},{"label":"1482 WB","year":1482}],"when":{"timespans":[{"start":{"in":"1252"},"end":{"in":"1252"}},{"start":{"in":"1274"},"end":{"in":"1274"}},{"start":{"in":"1297"},"end":{"in":"1297"}},{"start":{"in":"1482"},"end":{"in":"1482"}}]}},{"toponym":"Honle(y), Honlay","citations":[{"label":"1274 WCR","year":1274},{"label":"1316 Vill","year":1316},{"label":"1370 YD","year":1370},{"label":"FA","year":1402},{"label":"Rates"},{"label":"1402 FA","year":1402},{"label":"1641 Rates","year":1641}],"when":{"timespans":[{"start":{"in":"1274"},"end":{"in":"1274"}},{"start":{"in":"1298"},"end":{"in":"1298"}},{"start":{"in":"1316"},"end":{"in":"1316"}},{"start":{"in":"1370"},"end":{"in":"1370"}},{"start":{"in":"1402"},"end":{"in":"1641"}},{"start":{"in":"1402"},"end":{"in":"1402"}},{"start":{"in":"1641"},"end":{"in":"1641"}}]}},{"toponym":"Hanneley","citations":[{"label":"1285 WCR","year":1285}],"when":{"timespans":[{"start":{"in":"1285"},"end":{"in":"1285"}},{"start":{"in":"1286"},"end":{"in":"1286"}}]}},{"toponym":"Hanley","citations":[{"label":"1323 WCR","year":1323},{"label":"1350 DodsN","year":1350}],"when":{"timespans":[{"start":{"in":"1323"},"end":{"in":"1323"}},{"start":{"in":"1350"},"end":{"in":"1350"}},{"start":{"in":"1392"},"end":{"in":"1392"}},{"start":{"in":"1397"},"end":{"in":"1397"}}]}},{"toponym":"Hanley als. Honley","citations":[{"label":"1571 FF","year":1571}],"when":{"timespans":[{"start":{"in":"1571"},"end":{"in":"1571"}}]}},{"toponym":"Hauneley","citations":[{"label":"1379 PT","year":1379}],"when":{"timespans":[{"start":{"in":"1379"},"end":{"in":"1379"}}]}},{"toponym":"Hounley Half","citations":[{"label":"1588 LS","year":1588}],"when":{"timespans":[{"start":{"in":"1588"},"end":{"in":"1588"}}]}}],"types":[{"identifier":"http://vocab.getty.edu/aat/300232418","label":"administrative division","sourceLabels":[{"label":"township","lang":"en"}]}],"geometry":{"type":"GeometryCollection","geometries":[{"type":"Point","coordinates":[-1.79393,53.60264],"citations":[{"label":"GeoNames, gazetteer record geonames:2646657"}]},{"type":"Point","coordinates":[-1.803558451,53.59517405],"citations":[{"label":"English Place-Name Society survey (DEEP coordinates)"}]},{"type":"Point","coordinates":[-1.795981343863151,53.5996572913981],"citations":[{"label":"Unlock (EDINA) gazetteer, gazetteer record unlock:11178750"}]},{"type":"Point","coordinates":[-1.79746,53.5999],"citations":[{"label":"Key to English Place-Names (KEPN), gazetteer record 14515"}]}]},"when":{"timespans":[{"start":{"in":"1086"},"end":{"in":"1641"}}]},"links":[{"type":"closeMatch","identifier":"https://sws.geonames.org/2646657/"}],"relations":[{"relationType":"gvp:broaderPartitive","relationTo":"https://w3id.org/whg-epns/31/013912","label":"within Almondbury"}]}]}