{"@context":"https://raw.githubusercontent.com/LinkedPasts/linked-places-format/main/linkedplaces-context-v1.1.jsonld","type":"FeatureCollection","license":"Digitisation of English Placenames MADS data is licensed to Jisc by the English Place Names Society and released under a Creative Commons Attribution-NonCommercial 4.0 International License.","note":"LPF v1.3, lossy; derived from the PLATO record; plato_commit=ca0afadabec1e23a145c0b03df77e8f151f79832","features":[{"@id":"http://placenames.org.uk/id/placename/31/015393","type":"Feature","properties":{"title":"Marsden","ccodes":["GB"],"fclasses":["A","P"]},"names":[{"toponym":"Marsden","lang":"en","citations":[{"label":"English Place-Name Society survey, volume 31: West Riding of Yorkshire"}]},{"toponym":"Marchesden(e)","citations":[{"label":"1177-93 Font","year":1177},{"label":"1274 WCR","year":1274},{"label":"1349 Ch","year":1349}],"when":{"timespans":[{"start":{"earliest":"1177","latest":"1193"},"end":{"earliest":"1177","latest":"1193"}},{"start":{"in":"1274"},"end":{"in":"1274"}},{"start":{"in":"1277"},"end":{"in":"1277"}},{"start":{"in":"1349"},"end":{"in":"1349"}}]}},{"toponym":"Marcheden(e)","citations":[{"label":"1275 WCR","year":1275},{"label":"1292 MinAcct","year":1292},{"label":"1306 WCR","year":1306},{"label":"1313 Pat","year":1313},{"label":"1323 MinAcct","year":1323},{"label":"1341 Surv","year":1341},{"label":"5 MinAcct","year":400}],"when":{"timespans":[{"start":{"in":"1275"},"end":{"in":"1275"}},{"start":{"in":"1292"},"end":{"in":"1292"}},{"start":{"in":"1306"},"end":{"in":"1306"}},{"start":{"in":"1313"},"end":{"in":"1313"}},{"start":{"in":"1323"},"end":{"in":"1323"}},{"start":{"in":"1341"},"end":{"in":"1341"}},{"start":{"earliest":"0400","latest":"0500"},"end":{"earliest":"0400","latest":"0500"}},{"start":{"in":"1487"},"end":{"in":"1487"}}]}},{"toponym":"Marchedone","citations":[{"label":"1331 YD","year":1331}],"when":{"timespans":[{"start":{"in":"1331"},"end":{"in":"1331"}}]}},{"toponym":"Marchden(e)","citations":[{"label":"1323 MinAcct","year":1323},{"label":"1323 WCR","year":1323},{"label":"1638 BM","year":1638},{"label":"1649 MinAcct","year":1649}],"when":{"timespans":[{"start":{"in":"1323"},"end":{"in":"1323"}},{"start":{"in":"1323"},"end":{"in":"1323"}},{"start":{"in":"1638"},"end":{"in":"1638"}},{"start":{"in":"1649"},"end":{"in":"1649"}}]}},{"toponym":"Mercheden","citations":[{"label":"1341 Surv","year":1341}],"when":{"timespans":[{"start":{"in":"1341"},"end":{"in":"1341"}}]}},{"toponym":"Mersseden'","citations":[{"label":"1379 PT","year":1379}],"when":{"timespans":[{"start":{"in":"1379"},"end":{"in":"1379"}}]}},{"toponym":"Marshden","citations":[{"label":"1619 DodsN","year":1619},{"label":"1620 Skyr","year":1620}],"when":{"timespans":[{"start":{"in":"1619"},"end":{"in":"1619"}},{"start":{"in":"1620"},"end":{"in":"1620"}}]}},{"toponym":"Marsden","citations":[{"label":"1540 Test","year":1540},{"label":"1625 YAS","year":1625},{"label":"5 Rates","year":400}],"when":{"timespans":[{"start":{"in":"1540"},"end":{"in":"1540"}},{"start":{"in":"1625"},"end":{"in":"1625"}},{"start":{"earliest":"0400","latest":"0500"},"end":{"earliest":"0400","latest":"0500"}},{"start":{"in":"1641"},"end":{"in":"1641"}}]}}],"types":[{"identifier":"http://vocab.getty.edu/aat/300232418","label":"administrative division","sourceLabels":[{"label":"township","lang":"en"}]}],"geometry":{"type":"GeometryCollection","geometries":[{"type":"Point","coordinates":[-1.91667,53.6],"citations":[{"label":"GeoNames, gazetteer record geonames:2642992"}]},{"type":"Point","coordinates":[-1.939543436,53.60430933],"citations":[{"label":"English Place-Name Society survey (DEEP coordinates)"}]},{"type":"Point","coordinates":[-1.931993570678129,53.59981187460109],"citations":[{"label":"Unlock (EDINA) gazetteer, gazetteer record unlock:11214010"}]},{"type":"Point","coordinates":[-1.93346,53.6001],"citations":[{"label":"Key to English Place-Names (KEPN), gazetteer record 14518"}]}]},"when":{"timespans":[{"start":{"in":"0400"},"end":{"in":"1649"}}]},"links":[{"type":"closeMatch","identifier":"https://sws.geonames.org/2642992/"}],"relations":[{"relationType":"gvp:broaderPartitive","relationTo":"http://placenames.org.uk/id/placename/31/013912","label":"within Almondbury"}]}]}