{"@context":"https://raw.githubusercontent.com/LinkedPasts/linked-places-format/main/linkedplaces-context-v1.1.jsonld","type":"FeatureCollection","license":"Digitisation of English Placenames MADS data is licensed to Jisc by the English Place Names Society and released under a Creative Commons Attribution-NonCommercial 4.0 International License.","note":"LPF v1.3, lossy; derived from the PLATO record; plato_commit=fa0d247ccc0263f8f19c8d7cdcd163df96935d1e","features":[{"@id":"https://w3id.org/whg-epns/31/015797","type":"Feature","properties":{"title":"Meltham","ccodes":["GB"],"fclasses":["A","P"]},"names":[{"toponym":"Meltham","lang":"en","citations":[{"label":"English Place-Name Society survey, volume 31: West Riding of Yorkshire"}]},{"toponym":"Meltha'","citations":[{"label":"1086 DB","year":1086}],"when":{"timespans":[{"start":{"in":"1086"},"end":{"in":"1086"}}]}},{"toponym":"Meltham","citations":[{"label":"1255 FF","year":1255},{"label":"1297 LS","year":1297},{"label":"1328 YD","year":1328},{"label":"DodsN","year":1347},{"label":"LS"},{"label":"1347 DodsN","year":1347},{"label":"1588 LS","year":1588}],"when":{"timespans":[{"start":{"in":"1255"},"end":{"in":"1255"}},{"start":{"in":"1297"},"end":{"in":"1297"}},{"start":{"in":"1328"},"end":{"in":"1328"}},{"start":{"in":"1347"},"end":{"in":"1588"}},{"start":{"in":"1347"},"end":{"in":"1347"}},{"start":{"in":"1361"},"end":{"in":"1361"}},{"start":{"in":"1588"},"end":{"in":"1588"}}]}},{"toponym":"Melthame","citations":[{"label":"1583 WillY","year":1583},{"label":"1608 FF","year":1608}],"when":{"timespans":[{"start":{"in":"1583"},"end":{"in":"1583"}},{"start":{"in":"1608"},"end":{"in":"1608"}}]}},{"toponym":"Melteham","citations":[{"label":"13 YD","year":1200},{"label":"1388 DodsN","year":1388}],"when":{"timespans":[{"start":{"earliest":"1200","latest":"1300"},"end":{"earliest":"1200","latest":"1300"}},{"start":{"in":"1388"},"end":{"in":"1388"}}]}},{"toponym":"Muletham","citations":[{"label":"1316 Vill","year":1316}],"when":{"timespans":[{"start":{"in":"1316"},"end":{"in":"1316"}}]}},{"toponym":"Meltam","citations":[{"label":"1405 YD","year":1405},{"label":"1421 YD","year":1421}],"when":{"timespans":[{"start":{"in":"1405"},"end":{"in":"1405"}},{"start":{"in":"1421"},"end":{"in":"1421"}}]}}],"types":[{"identifier":"http://vocab.getty.edu/aat/300232418","label":"administrative division","sourceLabels":[{"label":"township","lang":"en"}]}],"geometry":{"type":"GeometryCollection","geometries":[{"type":"Point","coordinates":[-1.85,53.58333],"citations":[{"label":"GeoNames, gazetteer record geonames:2642766"}]},{"type":"Point","coordinates":[-1.864030636,53.58626871],"citations":[{"label":"English Place-Name Society survey (DEEP coordinates)"}]},{"type":"Point","coordinates":[-1.856461535063175,53.59075578696795],"citations":[{"label":"Unlock (EDINA) gazetteer, gazetteer record unlock:11217017"}]},{"type":"Point","coordinates":[-1.85794,53.591],"citations":[{"label":"Key to English Place-Names (KEPN), gazetteer record 14519"}]}]},"when":{"timespans":[{"start":{"in":"1086"},"end":{"in":"1608"}}]},"links":[{"type":"closeMatch","identifier":"https://sws.geonames.org/2642766/"}],"relations":[{"relationType":"gvp:broaderPartitive","relationTo":"https://w3id.org/whg-epns/31/013912","label":"within Almondbury"}]}]}