{"@context":"https://raw.githubusercontent.com/LinkedPasts/linked-places-format/main/linkedplaces-context-v1.1.jsonld","type":"FeatureCollection","license":"Digitisation of English Placenames MADS data is licensed to Jisc by the English Place Names Society and released under a Creative Commons Attribution-NonCommercial 4.0 International License.","note":"LPF v1.3, lossy; derived from the PLATO record; plato_commit=ca0afadabec1e23a145c0b03df77e8f151f79832","features":[{"@id":"http://placenames.org.uk/id/placename/99/000025","type":"Feature","properties":{"title":"Caldecote","ccodes":["GB"],"fclasses":["A","P"]},"names":[{"toponym":"Caldecote","lang":"en","citations":[{"label":"English Place-Name Society survey, volume 3: Huntingdonshire"}]}],"types":[{"identifier":"http://vocab.getty.edu/aat/300232418","label":"administrative division","sourceLabels":[{"label":"parish","lang":"en"}]}],"geometry":{"type":"GeometryCollection","geometries":[{"type":"Point","coordinates":[-0.3137382261387672,52.4820256181144],"citations":[{"label":"Unlock (EDINA) gazetteer, gazetteer record unlock:11096484"}]},{"type":"Point","coordinates":[-0.31535,52.4824],"citations":[{"label":"Key to English Place-Names (KEPN), gazetteer record 4132"}]}]},"relations":[{"relationType":"gvp:broaderPartitive","relationTo":"http://placenames.org.uk/id/placename/99/000002","label":"within Normancross Hundred"}]}]}