{"@context":"https://raw.githubusercontent.com/LinkedPasts/linked-places-format/main/linkedplaces-context-v1.1.jsonld","type":"FeatureCollection","license":"Digitisation of English Placenames MADS data is licensed to Jisc by the English Place Names Society and released under a Creative Commons Attribution-NonCommercial 4.0 International License.","note":"LPF v1.3, lossy; derived from the PLATO record; plato_commit=fa0d247ccc0263f8f19c8d7cdcd163df96935d1e","features":[{"@id":"https://w3id.org/whg-epns/99/000002","type":"Feature","properties":{"title":"Normancross Hundred","ccodes":["GB"],"fclasses":["A"]},"names":[{"toponym":"Normancross Hundred","lang":"en","citations":[{"label":"English Place-Name Society survey, volume 3: Huntingdonshire"}]},{"toponym":"Norðmannescros","citations":[{"label":"963 ASC","year":963}],"when":{"timespans":[{"start":{"in":"0963"},"end":{"in":"0963"}}]}},{"toponym":"Normannes cros","citations":[{"label":"963-84 BCS","year":963},{"label":"Stephen Thorney","year":1135}],"when":{"timespans":[{"start":{"earliest":"0963","latest":"0984"},"end":{"earliest":"0963","latest":"0984"}},{"start":{"earliest":"1135","latest":"1154"},"end":{"earliest":"1135","latest":"1154"}}]}},{"toponym":"Normanescros","citations":[{"label":"1086 DB","year":1086}],"when":{"timespans":[{"start":{"in":"1086"},"end":{"in":"1086"}}]}},{"toponym":"Normanecros","citations":[{"label":"1086 DB","year":1086}],"when":{"timespans":[{"start":{"in":"1086"},"end":{"in":"1086"}}]}},{"toponym":"Normancros","citations":[{"label":"Wm 2 Thorney","year":1087},{"label":"1255 For","year":1255},{"label":"1292 Fine","year":1292}],"when":{"timespans":[{"start":{"earliest":"1087","latest":"1100"},"end":{"earliest":"1087","latest":"1100"}},{"start":{"in":"1255"},"end":{"in":"1255"}},{"start":{"in":"1292"},"end":{"in":"1292"}}]}},{"toponym":"Normannecros","citations":[{"label":"1160 P","year":1160},{"label":"1227 Ass","year":1227}],"when":{"timespans":[{"start":{"in":"1160"},"end":{"in":"1160"}},{"start":{"in":"1227"},"end":{"in":"1227"}}]}},{"toponym":"Normannescros","citations":[{"label":"Stephen Ch","year":1135}],"when":{"timespans":[{"start":{"earliest":"1135","latest":"1154"},"end":{"earliest":"1135","latest":"1154"}}]}}],"types":[{"identifier":"http://vocab.getty.edu/aat/300232418","label":"administrative division","sourceLabels":[{"label":"hundred / wapentake","lang":"en"}]}],"geometry":null,"when":{"timespans":[{"start":{"in":"0963"},"end":{"in":"1292"}}]},"relations":[{"relationType":"gvp:broaderPartitive","relationTo":"https://w3id.org/whg-epns/99/000001","label":"within Huntingdonshire"}]}]}