{"@context":"https://raw.githubusercontent.com/LinkedPasts/linked-places-format/main/linkedplaces-context-v1.1.jsonld","type":"FeatureCollection","license":"Digitisation of English Placenames MADS data is licensed to Jisc by the English Place Names Society and released under a Creative Commons Attribution-NonCommercial 4.0 International License.","note":"LPF v1.3, lossy; derived from the PLATO record; plato_commit=ca0afadabec1e23a145c0b03df77e8f151f79832","features":[{"@id":"https://w3id.org/whg-epns/99/000506","type":"Feature","properties":{"title":"Hartford","ccodes":["GB"],"fclasses":["A","P"]},"names":[{"toponym":"Hartford","lang":"en","citations":[{"label":"English Place-Name Society survey, volume 3: Huntingdonshire"}]},{"toponym":"Hereforde","citations":[{"label":"1086 DB","year":1086},{"label":"1199 Cur","year":1199},{"label":"1223 FF","year":1223},{"label":"1260 Ass","year":1260},{"label":"1276 RH","year":1276},{"label":"1285 Cl","year":1285},{"label":"1286 For","year":1286},{"label":"1308 Fine","year":1308},{"label":"1327 Cl","year":1327},{"label":"1495 BM","year":1495},{"label":"1535 VE","year":1535}],"when":{"timespans":[{"start":{"in":"1086"},"end":{"in":"1086"}},{"start":{"in":"1199"},"end":{"in":"1199"}},{"start":{"in":"1223"},"end":{"in":"1223"}},{"start":{"in":"1260"},"end":{"in":"1260"}},{"start":{"in":"1276"},"end":{"in":"1276"}},{"start":{"in":"1285"},"end":{"in":"1285"}},{"start":{"in":"1286"},"end":{"in":"1286"}},{"start":{"in":"1308"},"end":{"in":"1308"}},{"start":{"in":"1327"},"end":{"in":"1327"}},{"start":{"in":"1495"},"end":{"in":"1495"}},{"start":{"in":"1535"},"end":{"in":"1535"}}]}},{"toponym":"Herford","citations":[{"label":"1147 BM","year":1147},{"label":"1194 Cur","year":1194},{"label":"13th AD","year":1200},{"label":"1444 IpmR","year":1444}],"when":{"timespans":[{"start":{"in":"1147"},"end":{"in":"1147"}},{"start":{"in":"1194"},"end":{"in":"1194"}},{"start":{"earliest":"1200","latest":"1300"},"end":{"earliest":"1200","latest":"1300"}},{"start":{"in":"1444"},"end":{"in":"1444"}}]}},{"toponym":"Herford juxta Huntingdon","citations":[{"label":"c. 1350 Linc","year":1340}],"when":{"timespans":[{"start":{"earliest":"1340","latest":"1360"},"end":{"earliest":"1340","latest":"1360"}}]}},{"toponym":"Harford","citations":[{"label":"1410 BM","year":1410},{"label":"1535 VE","year":1535},{"label":"1558 FF","year":1558},{"label":"Eliz ChancP","year":1558}],"when":{"timespans":[{"start":{"in":"1410"},"end":{"in":"1410"}},{"start":{"in":"1535"},"end":{"in":"1535"}},{"start":{"in":"1558"},"end":{"in":"1558"}},{"start":{"earliest":"1558","latest":"1603"},"end":{"earliest":"1558","latest":"1603"}}]}},{"toponym":"Hertford","citations":[{"label":"1428 FA","year":1428},{"label":"1526 LS","year":1526},{"label":"1529 FF","year":1529},{"label":"1542 BM","year":1542}],"when":{"timespans":[{"start":{"in":"1428"},"end":{"in":"1428"}},{"start":{"in":"1526"},"end":{"in":"1526"}},{"start":{"in":"1529"},"end":{"in":"1529"}},{"start":{"in":"1542"},"end":{"in":"1542"}},{"start":{"in":"1558"},"end":{"in":"1558"}}]}}],"types":[{"identifier":"http://vocab.getty.edu/aat/300232418","label":"administrative division","sourceLabels":[{"label":"township","lang":"en"}]}],"geometry":{"type":"GeometryCollection","geometries":[{"type":"Point","coordinates":[-0.15776,52.33807],"citations":[{"label":"GeoNames, gazetteer record geonames:2647410"}]},{"type":"Point","coordinates":[-0.157828365622292,52.33582324814826],"citations":[{"label":"Unlock (EDINA) gazetteer, gazetteer record unlock:11166681"}]},{"type":"Point","coordinates":[-0.159452,52.3362],"citations":[{"label":"Key to English Place-Names (KEPN), gazetteer record 4155"}]}]},"when":{"timespans":[{"start":{"in":"1086"},"end":{"in":"1603"}}]},"links":[{"type":"closeMatch","identifier":"https://sws.geonames.org/2647410/"}],"relations":[{"relationType":"gvp:broaderPartitive","relationTo":"https://w3id.org/whg-epns/99/000505","label":"within Hartford"}]}]}