{"@context":"https://raw.githubusercontent.com/LinkedPasts/linked-places-format/main/linkedplaces-context-v1.1.jsonld","type":"FeatureCollection","license":"Digitisation of English Placenames MADS data is licensed to Jisc by the English Place Names Society and released under a Creative Commons Attribution-NonCommercial 4.0 International License.","note":"LPF v1.3, lossy; derived from the PLATO record; plato_commit=ca0afadabec1e23a145c0b03df77e8f151f79832","features":[{"@id":"http://placenames.org.uk/id/placename/99/000861","type":"Feature","properties":{"title":"Woodhurst","ccodes":["GB"],"fclasses":["A","P"]},"names":[{"toponym":"Woodhurst","lang":"en","citations":[{"label":"English Place-Name Society survey, volume 3: Huntingdonshire"}]},{"toponym":"Wdeherst","citations":[{"label":"1209 FF","year":1209}],"when":{"timespans":[{"start":{"in":"1209"},"end":{"in":"1209"}}]}},{"toponym":"Wdehirst","citations":[{"label":"1234 FF","year":1234}],"when":{"timespans":[{"start":{"in":"1234"},"end":{"in":"1234"}}]}},{"toponym":"Wodehyrst","citations":[{"label":"1252 BM","year":1252}],"when":{"timespans":[{"start":{"in":"1252"},"end":{"in":"1252"}}]}}],"types":[{"identifier":"http://vocab.getty.edu/aat/300232418","label":"administrative division","sourceLabels":[{"label":"township","lang":"en"}]}],"geometry":{"type":"GeometryCollection","geometries":[{"type":"Point","coordinates":[-0.06667,52.36667],"citations":[{"label":"GeoNames, gazetteer record geonames:2633638"}]},{"type":"Point","coordinates":[-0.06824240651685053,52.37036203731094],"citations":[{"label":"Unlock (EDINA) gazetteer, gazetteer record unlock:11326207"}]},{"type":"Point","coordinates":[-0.0698778,52.3708],"citations":[{"label":"Key to English Place-Names (KEPN), gazetteer record 4169"}]}]},"when":{"timespans":[{"start":{"in":"1209"},"end":{"in":"1252"}}]},"links":[{"type":"closeMatch","identifier":"https://sws.geonames.org/2633638/"}],"relations":[{"relationType":"gvp:broaderPartitive","relationTo":"http://placenames.org.uk/id/placename/99/000860","label":"within Woodhurst"}]}]}