{"@context":"https://raw.githubusercontent.com/LinkedPasts/linked-places-format/main/linkedplaces-context-v1.1.jsonld","type":"FeatureCollection","license":"Digitisation of English Placenames MADS data is licensed to Jisc by the English Place Names Society and released under a Creative Commons Attribution-NonCommercial 4.0 International License.","note":"LPF v1.3, lossy; derived from the PLATO record; plato_commit=ca0afadabec1e23a145c0b03df77e8f151f79832","features":[{"@id":"https://w3id.org/whg-epns/99/000959","type":"Feature","properties":{"title":"Brampton","ccodes":["GB"],"fclasses":["A","P"]},"names":[{"toponym":"Brampton","lang":"en","citations":[{"label":"English Place-Name Society survey, volume 3: Huntingdonshire"}]},{"toponym":"Brantune","citations":[{"label":"1086 DB","year":1086}],"when":{"timespans":[{"start":{"in":"1086"},"end":{"in":"1086"}}]}},{"toponym":"Branton","citations":[{"label":"Hy 1 Thorney","year":1100},{"label":"Hy 2 Ch","year":1154},{"label":"c. 1155 D and C Linc","year":1145},{"label":"1168 P","year":1168},{"label":"12th HH","year":1100},{"label":"1237 Cl","year":1237},{"label":"c. 1250 MP","year":1240},{"label":"1291 BM","year":1291}],"when":{"timespans":[{"start":{"earliest":"1100","latest":"1135"},"end":{"earliest":"1100","latest":"1135"}},{"start":{"earliest":"1154","latest":"1189"},"end":{"earliest":"1154","latest":"1189"}},{"start":{"earliest":"1145","latest":"1165"},"end":{"earliest":"1145","latest":"1165"}},{"start":{"in":"1168"},"end":{"in":"1168"}},{"start":{"earliest":"1100","latest":"1200"},"end":{"earliest":"1100","latest":"1200"}},{"start":{"in":"1237"},"end":{"in":"1237"}},{"start":{"earliest":"1240","latest":"1260"},"end":{"earliest":"1240","latest":"1260"}},{"start":{"in":"1291"},"end":{"in":"1291"}}]}},{"toponym":"Bramtona","citations":[{"label":"Hy 1 Thorney","year":1100},{"label":"c. 1150 D and C Linc","year":1140},{"label":"1168 P","year":1168},{"label":"1242 Cl","year":1242}],"when":{"timespans":[{"start":{"earliest":"1100","latest":"1135"},"end":{"earliest":"1100","latest":"1135"}},{"start":{"earliest":"1140","latest":"1160"},"end":{"earliest":"1140","latest":"1160"}},{"start":{"in":"1168"},"end":{"in":"1168"}},{"start":{"in":"1242"},"end":{"in":"1242"}}]}},{"toponym":"Brampton","citations":[{"label":"1227–1227, recurring Ass","year":1227},{"label":"1227 Ass","year":1227}],"when":{"timespans":[{"start":{"in":"1227"},"end":{"in":"1227"}},{"start":{"in":"1227"},"end":{"in":"1227"}}]}},{"toponym":"Braunton","citations":[{"label":"1241 Cl","year":1241}],"when":{"timespans":[{"start":{"in":"1241"},"end":{"in":"1241"}}]}},{"toponym":"Brampton juxta Huntyngdon","citations":[{"label":"1343 FF","year":1343}],"when":{"timespans":[{"start":{"in":"1343"},"end":{"in":"1343"}}]}}],"types":[{"identifier":"http://vocab.getty.edu/aat/300232418","label":"administrative division","sourceLabels":[{"label":"township","lang":"en"}]}],"geometry":{"type":"GeometryCollection","geometries":[{"type":"Point","coordinates":[-0.22007,52.32039],"citations":[{"label":"GeoNames, gazetteer record geonames:2654919"}]},{"type":"Point","coordinates":[-0.2318998712539006,52.31897058932406],"citations":[{"label":"Unlock (EDINA) gazetteer, gazetteer record unlock:11085578"}]},{"type":"Point","coordinates":[-0.218489,52.3282],"citations":[{"label":"Key to English Place-Names (KEPN), gazetteer record 4174"}]}]},"when":{"timespans":[{"start":{"in":"1086"},"end":{"in":"1343"}}]},"links":[{"type":"closeMatch","identifier":"https://sws.geonames.org/2654919/"}],"relations":[{"relationType":"gvp:broaderPartitive","relationTo":"https://w3id.org/whg-epns/99/000958","label":"within Brampton"}]}]}