{"@context":"https://raw.githubusercontent.com/LinkedPasts/linked-places-format/main/linkedplaces-context-v1.1.jsonld","type":"FeatureCollection","license":"Digitisation of English Placenames MADS data is licensed to Jisc by the English Place Names Society and released under a Creative Commons Attribution-NonCommercial 4.0 International License.","note":"LPF v1.3, lossy; derived from the PLATO record; plato_commit=ca0afadabec1e23a145c0b03df77e8f151f79832","features":[{"@id":"http://placenames.org.uk/id/placename/99/001454","type":"Feature","properties":{"title":"Great Gransden","ccodes":["GB"],"fclasses":["A","P"]},"names":[{"toponym":"Great Gransden","lang":"en","citations":[{"label":"English Place-Name Society survey, volume 3: Huntingdonshire"}]}],"types":[{"identifier":"http://vocab.getty.edu/aat/300232418","label":"administrative division","sourceLabels":[{"label":"parish","lang":"en"}]}],"geometry":{"type":"GeometryCollection","geometries":[{"type":"Point","coordinates":[-0.14574,52.18546],"citations":[{"label":"GeoNames, gazetteer record geonames:2648095"}]},{"type":"Point","coordinates":[-0.1349099198106813,52.18259043214463],"citations":[{"label":"Unlock (EDINA) gazetteer, gazetteer record unlock:11158783"}]},{"type":"Point","coordinates":[-0.136154,52.192],"citations":[{"label":"Key to English Place-Names (KEPN), gazetteer record 4204"}]}]},"links":[{"type":"closeMatch","identifier":"https://sws.geonames.org/2648095/"}],"relations":[{"relationType":"gvp:broaderPartitive","relationTo":"http://placenames.org.uk/id/placename/99/001337","label":"within Toseland Hundred"}]}]}