{"@context":"https://raw.githubusercontent.com/LinkedPasts/linked-places-format/main/linkedplaces-context-v1.1.jsonld","type":"FeatureCollection","license":"Digitisation of English Placenames MADS data is licensed to Jisc by the English Place Names Society and released under a Creative Commons Attribution-NonCommercial 4.0 International License.","note":"LPF v1.3, lossy; derived from the PLATO record; plato_commit=ca0afadabec1e23a145c0b03df77e8f151f79832","features":[{"@id":"http://placenames.org.uk/id/placename/99/001583","type":"Feature","properties":{"title":"Paxton","ccodes":["GB"],"fclasses":["A","P"]},"names":[{"toponym":"Paxton","lang":"en","citations":[{"label":"English Place-Name Society survey, volume 3: Huntingdonshire"}]},{"toponym":"Parchestune","citations":[{"label":"1086 DB","year":1086}],"when":{"timespans":[{"start":{"in":"1086"},"end":{"in":"1086"}}]}},{"toponym":"Pachstone","citations":[{"label":"1086 DB","year":1086}],"when":{"timespans":[{"start":{"in":"1086"},"end":{"in":"1086"}}]}},{"toponym":"Pacstonia","citations":[{"label":"Hy 2 D and C Linc","year":1154}],"when":{"timespans":[{"start":{"earliest":"1154","latest":"1189"},"end":{"earliest":"1154","latest":"1189"}}]}},{"toponym":"Magna Pacstonia","citations":[{"label":"1164 BM","year":1164}],"when":{"timespans":[{"start":{"in":"1164"},"end":{"in":"1164"}}]}},{"toponym":"Paxton","citations":[{"label":"1164 BM","year":1164},{"label":"1227–1227, recurring Ass","year":1227},{"label":"1227 Ass","year":1227}],"when":{"timespans":[{"start":{"in":"1164"},"end":{"in":"1164"}},{"start":{"in":"1227"},"end":{"in":"1227"}},{"start":{"in":"1227"},"end":{"in":"1227"}}]}},{"toponym":"Pastona","citations":[{"label":"1176 BM","year":1176}],"when":{"timespans":[{"start":{"in":"1176"},"end":{"in":"1176"}}]}},{"toponym":"Parua Paxton","citations":[{"label":"1227 Ass","year":1227}],"when":{"timespans":[{"start":{"in":"1227"},"end":{"in":"1227"}}]}},{"toponym":"Magna Praxton","citations":[{"label":"1245 For","year":1245}],"when":{"timespans":[{"start":{"in":"1245"},"end":{"in":"1245"}}]}},{"toponym":"Paxtone Parva","citations":[{"label":"1316 FA","year":1316}],"when":{"timespans":[{"start":{"in":"1316"},"end":{"in":"1316"}}]}},{"toponym":"Magna Paxton al. Muche Paxton","citations":[{"label":"1588 FF","year":1588}],"when":{"timespans":[{"start":{"in":"1588"},"end":{"in":"1588"}}]}}],"types":[{"identifier":"http://vocab.getty.edu/aat/300232418","label":"administrative division","sourceLabels":[{"label":"township","lang":"en"}]}],"geometry":{"type":"GeometryCollection","geometries":[{"type":"Point","coordinates":[-0.2344032516825718,52.25606141577207],"citations":[{"label":"Unlock (EDINA) gazetteer, gazetteer record unlock:11159135"}]},{"type":"Point","coordinates":[-0.221012,52.2652],"citations":[{"label":"Key to English Place-Names (KEPN), gazetteer record 4210"}]}]},"when":{"timespans":[{"start":{"in":"1086"},"end":{"in":"1588"}}]},"relations":[{"relationType":"gvp:broaderPartitive","relationTo":"http://placenames.org.uk/id/placename/99/001582","label":"within Great and Little Paxton"}]}]}