{"@context":"https://raw.githubusercontent.com/LinkedPasts/linked-places-format/main/linkedplaces-context-v1.1.jsonld","type":"FeatureCollection","license":"Digitisation of English Placenames MADS data is licensed to Jisc by the English Place Names Society and released under a Creative Commons Attribution-NonCommercial 4.0 International License.","note":"LPF v1.3, lossy; derived from the PLATO record; plato_commit=ca0afadabec1e23a145c0b03df77e8f151f79832","features":[{"@id":"https://w3id.org/whg-epns/99/001797","type":"Feature","properties":{"title":"Yelling","ccodes":["GB"],"fclasses":["A","P"]},"names":[{"toponym":"Yelling","lang":"en","citations":[{"label":"English Place-Name Society survey, volume 3: Huntingdonshire"}]},{"toponym":"G(h)ellinge, Gelinge","citations":[{"label":"1086 DB","year":1086}],"when":{"timespans":[{"start":{"in":"1086"},"end":{"in":"1086"}}]}},{"toponym":"Gellinches","citations":[{"label":"Steph BM","year":1135}],"when":{"timespans":[{"start":{"earliest":"1135","latest":"1154"},"end":{"earliest":"1135","latest":"1154"}}]}},{"toponym":"Gillinge, Gyllinge","citations":[{"label":"1218 FF","year":1218},{"label":"1219 For","year":1219},{"label":"1239 FF","year":1239},{"label":"1316 FA","year":1316},{"label":"1535 VE","year":1535}],"when":{"timespans":[{"start":{"in":"1218"},"end":{"in":"1218"}},{"start":{"in":"1219"},"end":{"in":"1219"}},{"start":{"in":"1239"},"end":{"in":"1239"}},{"start":{"in":"1316"},"end":{"in":"1316"}},{"start":{"in":"1535"},"end":{"in":"1535"}}]}},{"toponym":"Gillinges","citations":[{"label":"1220 Fees","year":1220},{"label":"1228 FF","year":1228}],"when":{"timespans":[{"start":{"in":"1220"},"end":{"in":"1220"}},{"start":{"in":"1228"},"end":{"in":"1228"}}]}},{"toponym":"Gilling, Gylling","citations":[{"label":"1235 Cl","year":1235},{"label":"1253 BM","year":1253},{"label":"1278 FF","year":1278},{"label":"1299 BM","year":1299},{"label":"1308 Ipm","year":1308},{"label":"1324 Cl","year":1324},{"label":"1324 Ipm","year":1324},{"label":"1325 Cl","year":1325},{"label":"1343 Ipm","year":1343},{"label":"1428 FA","year":1428},{"label":"1535 VE","year":1535}],"when":{"timespans":[{"start":{"in":"1235"},"end":{"in":"1235"}},{"start":{"in":"1253"},"end":{"in":"1253"}},{"start":{"in":"1278"},"end":{"in":"1278"}},{"start":{"in":"1299"},"end":{"in":"1299"}},{"start":{"in":"1308"},"end":{"in":"1308"}},{"start":{"in":"1324"},"end":{"in":"1324"}},{"start":{"in":"1324"},"end":{"in":"1324"}},{"start":{"in":"1325"},"end":{"in":"1325"}},{"start":{"in":"1343"},"end":{"in":"1343"}},{"start":{"in":"1361"},"end":{"in":"1361"}},{"start":{"in":"1428"},"end":{"in":"1428"}},{"start":{"in":"1485"},"end":{"in":"1485"}},{"start":{"in":"1535"},"end":{"in":"1535"}}]}},{"toponym":"Gillingg","citations":[{"label":"1276 RH","year":1276},{"label":"1303 FA","year":1303}],"when":{"timespans":[{"start":{"in":"1276"},"end":{"in":"1276"}},{"start":{"in":"1303"},"end":{"in":"1303"}}]}},{"toponym":"Gyllyngs","citations":[{"label":"1333 FF","year":1333}],"when":{"timespans":[{"start":{"in":"1333"},"end":{"in":"1333"}}]}},{"toponym":"Yillyng","citations":[{"label":"1344 Cl","year":1344}],"when":{"timespans":[{"start":{"in":"1344"},"end":{"in":"1344"}},{"start":{"in":"1385"},"end":{"in":"1385"}}]}},{"toponym":"Illyng","citations":[{"label":"1507 FF","year":1507},{"label":"1540 BM","year":1540}],"when":{"timespans":[{"start":{"in":"1507"},"end":{"in":"1507"}},{"start":{"in":"1540"},"end":{"in":"1540"}}]}},{"toponym":"Yellyng","citations":[{"label":"1535 VE","year":1535}],"when":{"timespans":[{"start":{"in":"1535"},"end":{"in":"1535"}}]}},{"toponym":"Elyng","citations":[{"label":"1535 VE","year":1535}],"when":{"timespans":[{"start":{"in":"1535"},"end":{"in":"1535"}}]}},{"toponym":"Gellyng al. Yellinge","citations":[{"label":"1545 BM","year":1545}],"when":{"timespans":[{"start":{"in":"1545"},"end":{"in":"1545"}}]}},{"toponym":"Yelling al. Yeldyng","citations":[{"label":"1569 FF","year":1569}],"when":{"timespans":[{"start":{"in":"1569"},"end":{"in":"1569"}}]}},{"toponym":"Yellinge al. Gillinge","citations":[{"label":"1594 FF","year":1594}],"when":{"timespans":[{"start":{"in":"1594"},"end":{"in":"1594"}}]}},{"toponym":"Yealding al. Yealing","citations":[{"label":"1601 FF","year":1601}],"when":{"timespans":[{"start":{"in":"1601"},"end":{"in":"1601"}}]}}],"types":[{"identifier":"http://vocab.getty.edu/aat/300232418","label":"administrative division","sourceLabels":[{"label":"township","lang":"en"}]}],"geometry":{"type":"GeometryCollection","geometries":[{"type":"Point","coordinates":[-0.15321,52.2462],"citations":[{"label":"GeoNames, gazetteer record geonames:2633385"}]},{"type":"Point","coordinates":[-0.1469130148320098,52.24572770901838],"citations":[{"label":"Unlock (EDINA) gazetteer, gazetteer record unlock:11328503"}]},{"type":"Point","coordinates":[-0.163173,52.2464],"citations":[{"label":"Key to English Place-Names (KEPN), gazetteer record 4219"}]}]},"when":{"timespans":[{"start":{"in":"1086"},"end":{"in":"1601"}}]},"links":[{"type":"closeMatch","identifier":"https://sws.geonames.org/2633385/"}],"relations":[{"relationType":"gvp:broaderPartitive","relationTo":"https://w3id.org/whg-epns/99/001796","label":"within Yelling"}]}]}