{"@context":"https://raw.githubusercontent.com/LinkedPasts/linked-places-format/main/linkedplaces-context-v1.1.jsonld","type":"FeatureCollection","license":"Digitisation of English Placenames MADS data is licensed to Jisc by the English Place Names Society and released under a Creative Commons Attribution-NonCommercial 4.0 International License.","note":"LPF v1.3, lossy; derived from the PLATO record; plato_commit=ca0afadabec1e23a145c0b03df77e8f151f79832","features":[{"@id":"http://placenames.org.uk/id/placename/66/001930","type":"Feature","properties":{"title":"South Kelsey","ccodes":["GB"],"fclasses":["A","P"]},"names":[{"toponym":"South Kelsey","lang":"en","citations":[{"label":"English Place-Name Society survey, volume 66: Lincolnshire"}]}],"types":[{"identifier":"http://vocab.getty.edu/aat/300232418","label":"administrative division","sourceLabels":[{"label":"parish","lang":"en"}]}],"geometry":{"type":"GeometryCollection","geometries":[{"type":"Point","coordinates":[-0.43099,53.47025],"citations":[{"label":"GeoNames, gazetteer record geonames:2637396"}]},{"type":"Point","coordinates":[-0.4254088073053419,53.47259515601031],"citations":[{"label":"Unlock (EDINA) gazetteer, gazetteer record unlock:11287617"}]},{"type":"Point","coordinates":[-0.42705,53.4729],"citations":[{"label":"Key to English Place-Names (KEPN), gazetteer record 10770"}]}]},"links":[{"type":"closeMatch","identifier":"https://sws.geonames.org/2637396/"}],"relations":[{"relationType":"gvp:broaderPartitive","relationTo":"http://placenames.org.uk/id/placename/66/000004","label":"within Walshcroft Wapentake"}]}]}