{"@context":"https://raw.githubusercontent.com/LinkedPasts/linked-places-format/main/linkedplaces-context-v1.1.jsonld","type":"FeatureCollection","license":"Digitisation of English Placenames MADS data is licensed to Jisc by the English Place Names Society and released under a Creative Commons Attribution-NonCommercial 4.0 International License.","note":"LPF v1.3, lossy; derived from the PLATO record; plato_commit=ca0afadabec1e23a145c0b03df77e8f151f79832","features":[{"@id":"https://w3id.org/whg-epns/66/003163","type":"Feature","properties":{"title":"Newton By Toft","ccodes":["GB"],"fclasses":["A","P"]},"names":[{"toponym":"Newton By Toft","lang":"en","citations":[{"label":"English Place-Name Society survey, volume 66: Lincolnshire"}]},{"toponym":"Neutone","citations":[{"label":"1086 DB","year":1086}],"when":{"timespans":[{"start":{"in":"1086"},"end":{"in":"1086"}}]}},{"toponym":"Neutona","citations":[{"label":"c.1155 Gilb","year":1145},{"label":"c.1160 Dane","year":1150},{"label":"1256 Gilb","year":1256}],"when":{"timespans":[{"start":{"earliest":"1145","latest":"1165"},"end":{"earliest":"1145","latest":"1165"}},{"start":{"earliest":"1150","latest":"1170"},"end":{"earliest":"1150","latest":"1170"}},{"start":{"earliest":"1154","latest":"1189"},"end":{"earliest":"1154","latest":"1189"}},{"start":{"in":"1256"},"end":{"in":"1256"}}]}},{"toponym":"Neutona iuxta West Rasen","citations":[{"label":"1279 RRGr","year":1279}],"when":{"timespans":[{"start":{"in":"1279"},"end":{"in":"1279"}}]}},{"toponym":"Neutun","citations":[{"label":"p1169 Dane","year":1169},{"label":"1170-75 RA","year":1170},{"label":"Hy2 Dane","year":1154},{"label":"e13 RA","year":1200}],"when":{"timespans":[{"start":{"earliest":"1169","latest":"1219"},"end":{"earliest":"1169","latest":"1219"}},{"start":{"earliest":"1170","latest":"1175"},"end":{"earliest":"1170","latest":"1175"}},{"start":{"earliest":"1154","latest":"1189"},"end":{"earliest":"1154","latest":"1189"}},{"start":{"earliest":"1200","latest":"1225"},"end":{"earliest":"1200","latest":"1225"}},{"start":{"earliest":"1235","latest":"1250"},"end":{"earliest":"1235","latest":"1250"}}]}},{"toponym":"Neutunia","citations":[{"label":"Hy2 RA","year":1154}],"when":{"timespans":[{"start":{"earliest":"1154","latest":"1189"},"end":{"earliest":"1154","latest":"1189"}}]}},{"toponym":"Neuton(')","citations":[{"label":"1204 Cur","year":1204},{"label":"1212 Fees","year":1212},{"label":"c.1220 RA","year":1210},{"label":"1242-43 Fees","year":1242},{"label":"1247 RA","year":1247},{"label":"1254–1363, recurring ValNor","year":1254},{"label":"1254–1363, recurring Cl"},{"label":"1254 ValNor","year":1254},{"label":"1363 Cl","year":1363}],"when":{"timespans":[{"start":{"in":"1204"},"end":{"in":"1204"}},{"start":{"in":"1212"},"end":{"in":"1212"}},{"start":{"earliest":"1210","latest":"1230"},"end":{"earliest":"1210","latest":"1230"}},{"start":{"earliest":"1174","latest":"1224"},"end":{"earliest":"1174","latest":"1224"}},{"start":{"earliest":"1242","latest":"1243"},"end":{"earliest":"1242","latest":"1243"}},{"start":{"in":"1247"},"end":{"in":"1247"}},{"start":{"earliest":"1240","latest":"1260"},"end":{"earliest":"1240","latest":"1260"}},{"start":{"in":"1254"},"end":{"in":"1363"}},{"start":{"in":"1254"},"end":{"in":"1254"}},{"start":{"in":"1363"},"end":{"in":"1363"}}]}},{"toponym":"Neuton(') iuxta Tofte","citations":[{"label":"Ed1 Foster","year":1272}],"when":{"timespans":[{"start":{"earliest":"1272","latest":"1307"},"end":{"earliest":"1272","latest":"1307"}}]}},{"toponym":"Neuton(') iuxta Westrasen","citations":[{"label":"1293 Ass","year":1293}],"when":{"timespans":[{"start":{"in":"1293"},"end":{"in":"1293"}}]}},{"toponym":"Neuton(') “by” Rasen","citations":[{"label":"1367 Ipm","year":1367}],"when":{"timespans":[{"start":{"in":"1367"},"end":{"in":"1367"}}]}},{"toponym":"Neuetune","citations":[{"label":"1198 Gilb","year":1198}],"when":{"timespans":[{"start":{"in":"1198"},"end":{"in":"1198"}}]}},{"toponym":"Toft Neuton","citations":[{"label":"1324 Pat","year":1324},{"label":"1331 Ch","year":1331},{"label":"1397 Cl","year":1397}],"when":{"timespans":[{"start":{"in":"1324"},"end":{"in":"1324"}},{"start":{"in":"1331"},"end":{"in":"1331"}},{"start":{"in":"1397"},"end":{"in":"1397"}}]}},{"toponym":"Toftneuton(')","citations":[{"label":"1327 Banco","year":1327},{"label":"1327 SR","year":1327},{"label":"1335 Pat","year":1335},{"label":"1369 Ipm","year":1369},{"label":"1364 Pat","year":1364}],"when":{"timespans":[{"start":{"in":"1327"},"end":{"in":"1327"}},{"start":{"in":"1327"},"end":{"in":"1327"}},{"start":{"in":"1335"},"end":{"in":"1335"}},{"start":{"in":"1369"},"end":{"in":"1369"}},{"start":{"in":"1364"},"end":{"in":"1364"}},{"start":{"in":"1290"},"end":{"in":"1290"}}]}},{"toponym":"Tofteneuton","citations":[{"label":"1397 Pat","year":1397}],"when":{"timespans":[{"start":{"in":"1397"},"end":{"in":"1397"}}]}},{"toponym":"Thoft Neuton","citations":[{"label":"1339 Pat","year":1339}],"when":{"timespans":[{"start":{"in":"1339"},"end":{"in":"1339"}}]}},{"toponym":"Newetuna","citations":[{"label":"c.1115 LS","year":1105}],"when":{"timespans":[{"start":{"earliest":"1105","latest":"1125"},"end":{"earliest":"1105","latest":"1125"}}]}},{"toponym":"Neweton(')","citations":[{"label":"1202 FF","year":1202},{"label":"1287 Ipm","year":1287}],"when":{"timespans":[{"start":{"in":"1202"},"end":{"in":"1202"}},{"start":{"in":"1211"},"end":{"in":"1211"}},{"start":{"in":"1272"},"end":{"in":"1272"}},{"start":{"in":"1287"},"end":{"in":"1287"}}]}},{"toponym":"Niwetun","citations":[{"label":"1170-75 RA","year":1170}],"when":{"timespans":[{"start":{"earliest":"1170","latest":"1175"},"end":{"earliest":"1170","latest":"1175"}}]}},{"toponym":"Niweton'","citations":[{"label":"1179 P all","year":1179}],"when":{"timespans":[{"start":{"in":"1179"},"end":{"in":"1179"}},{"start":{"in":"1180"},"end":{"in":"1180"}},{"start":{"in":"1181"},"end":{"in":"1181"}},{"start":{"in":"1190"},"end":{"in":"1190"}},{"start":{"in":"1193"},"end":{"in":"1193"}},{"start":{"in":"1194"},"end":{"in":"1194"}}]}},{"toponym":"Nuietun","citations":[{"label":"a1183 RA","year":1133}],"when":{"timespans":[{"start":{"earliest":"1133","latest":"1183"},"end":{"earliest":"1133","latest":"1183"}}]}},{"toponym":"Newenton'","citations":[{"label":"1226-28 Fees","year":1226},{"label":"1254 Cl","year":1254}],"when":{"timespans":[{"start":{"earliest":"1226","latest":"1228"},"end":{"earliest":"1226","latest":"1228"}},{"start":{"in":"1254"},"end":{"in":"1254"}}]}},{"toponym":"Nuton","citations":[{"label":"1402 FA","year":1402}],"when":{"timespans":[{"start":{"in":"1402"},"end":{"in":"1402"}}]}},{"toponym":"Newton(')","citations":[{"label":"1210-15 RA","year":1210},{"label":"1213-23 RA","year":1213},{"label":"1287 Ipm","year":1287},{"label":"1428 FA","year":1428},{"label":"1461 Pat","year":1461},{"label":"1526 Sub","year":1526},{"label":"1535 VE","year":1535},{"label":"1564 BT","year":1564},{"label":"1576 LER","year":1576}],"when":{"timespans":[{"start":{"earliest":"1210","latest":"1215"},"end":{"earliest":"1210","latest":"1215"}},{"start":{"earliest":"1213","latest":"1223"},"end":{"earliest":"1213","latest":"1223"}},{"start":{"in":"1287"},"end":{"in":"1287"}},{"start":{"in":"1428"},"end":{"in":"1428"}},{"start":{"in":"1461"},"end":{"in":"1461"}},{"start":{"in":"1526"},"end":{"in":"1526"}},{"start":{"in":"1535"},"end":{"in":"1535"}},{"start":{"in":"1564"},"end":{"in":"1564"}},{"start":{"in":"1576"},"end":{"in":"1576"}}]}},{"toponym":"Newton(') next Toft","citations":[{"label":"1601 Terrier","year":1601}],"when":{"timespans":[{"start":{"in":"1601"},"end":{"in":"1601"}},{"start":{"in":"1611"},"end":{"in":"1611"}}]}},{"toponym":"Newton(') Iuxta Tofte","citations":[{"label":"1603 BT","year":1603}],"when":{"timespans":[{"start":{"in":"1603"},"end":{"in":"1603"}}]}},{"toponym":"Newton(') nigh Toft","citations":[{"label":"1673 BT","year":1673}],"when":{"timespans":[{"start":{"in":"1673"},"end":{"in":"1673"}}]}},{"toponym":"Newton(') al's Newton by Toft","citations":[{"label":"1674 LCS","year":1674}],"when":{"timespans":[{"start":{"in":"1674"},"end":{"in":"1674"}}]}},{"toponym":"Toftnewton(')","citations":[{"label":"1335 Pat","year":1335},{"label":"1335 Percy","year":1335},{"label":"1412-13 RRep","year":1412},{"label":"c.1414 AASR","year":1404},{"label":"m16 Cragg","year":1525},{"label":"1653 ParlSurv","year":1653}],"when":{"timespans":[{"start":{"in":"1335"},"end":{"in":"1335"}},{"start":{"in":"1335"},"end":{"in":"1335"}},{"start":{"earliest":"1412","latest":"1413"},"end":{"earliest":"1412","latest":"1413"}},{"start":{"earliest":"1404","latest":"1424"},"end":{"earliest":"1404","latest":"1424"}},{"start":{"earliest":"1525","latest":"1575"},"end":{"earliest":"1525","latest":"1575"}},{"start":{"in":"1653"},"end":{"in":"1653"}}]}},{"toponym":"Toft Newton alias Toftnewton","citations":[{"label":"1556 Pat","year":1556}],"when":{"timespans":[{"start":{"in":"1556"},"end":{"in":"1556"}}]}},{"toponym":"Toft Newton","citations":[{"label":"1596 BT","year":1596},{"label":"1666 VL","year":1666},{"label":"1674 LCS","year":1674},{"label":"1756–1762, recurring BT","year":1756},{"label":"1756 BT","year":1756}],"when":{"timespans":[{"start":{"in":"1596"},"end":{"in":"1596"}},{"start":{"in":"1666"},"end":{"in":"1666"}},{"start":{"in":"1674"},"end":{"in":"1674"}},{"start":{"in":"1756"},"end":{"in":"1762"}},{"start":{"in":"1756"},"end":{"in":"1756"}},{"start":{"in":"1762"},"end":{"in":"1762"}}]}},{"toponym":"Tofte newton","citations":[{"label":"1582 DCLB","year":1582}],"when":{"timespans":[{"start":{"in":"1582"},"end":{"in":"1582"}}]}},{"toponym":"Tofte Newton","citations":[{"label":"1596-97 MinAcct","year":1596}],"when":{"timespans":[{"start":{"earliest":"1596","latest":"1597"},"end":{"earliest":"1596","latest":"1597"}}]}},{"toponym":"tofte Newton","citations":[{"label":"1612-14 MinAcct","year":1612}],"when":{"timespans":[{"start":{"earliest":"1612","latest":"1614"},"end":{"earliest":"1612","latest":"1614"}}]}},{"toponym":"Tofft Newton","citations":[{"label":"1502 Ipm","year":1502}],"when":{"timespans":[{"start":{"in":"1502"},"end":{"in":"1502"}}]}}],"types":[{"identifier":"http://vocab.getty.edu/aat/300232418","label":"administrative division","sourceLabels":[{"label":"township","lang":"en"}]}],"geometry":{"type":"GeometryCollection","geometries":[{"type":"Point","coordinates":[-0.42298,53.37288],"citations":[{"label":"GeoNames, gazetteer record geonames:2641553"}]},{"type":"Point","coordinates":[-0.4140310251758869,53.37354832924821],"citations":[{"label":"Unlock (EDINA) gazetteer, gazetteer record unlock:11230865"}]},{"type":"Point","coordinates":[-0.41567,53.3738],"citations":[{"label":"Key to English Place-Names (KEPN), gazetteer record 10766"}]}]},"when":{"timespans":[{"start":{"in":"1086"},"end":{"in":"1762"}}]},"links":[{"type":"closeMatch","identifier":"https://sws.geonames.org/2641553/"}],"relations":[{"relationType":"gvp:broaderPartitive","relationTo":"https://w3id.org/whg-epns/66/003162","label":"within Toft Newton"}]}]}