{"@context":"https://raw.githubusercontent.com/LinkedPasts/linked-places-format/main/linkedplaces-context-v1.1.jsonld","type":"FeatureCollection","license":"Digitisation of English Placenames MADS data is licensed to Jisc by the English Place Names Society and released under a Creative Commons Attribution-NonCommercial 4.0 International License.","note":"LPF v1.3, lossy; derived from the PLATO record; plato_commit=ca0afadabec1e23a145c0b03df77e8f151f79832","features":[{"@id":"http://placenames.org.uk/id/placename/66/004990","type":"Feature","properties":{"title":"Middle Rasen","ccodes":["GB"],"fclasses":["A","P"]},"names":[{"toponym":"Middle Rasen","lang":"en","citations":[{"label":"English Place-Name Society survey, volume 66: Lincolnshire"}]}],"types":[{"identifier":"http://vocab.getty.edu/aat/300232418","label":"administrative division","sourceLabels":[{"label":"parish","lang":"en"}]}],"geometry":{"type":"GeometryCollection","geometries":[{"type":"Point","coordinates":[-0.36202,53.38722],"citations":[{"label":"GeoNames, gazetteer record geonames:2642608"}]},{"type":"Point","coordinates":[-0.3682650206790856,53.39091278075766],"citations":[{"label":"Unlock (EDINA) gazetteer, gazetteer record unlock:11218274"}]},{"type":"Point","coordinates":[-0.36991,53.3912],"citations":[{"label":"Key to English Place-Names (KEPN), gazetteer record 10765"}]}]},"links":[{"type":"closeMatch","identifier":"https://sws.geonames.org/2642608/"}],"relations":[{"relationType":"gvp:broaderPartitive","relationTo":"http://placenames.org.uk/id/placename/66/000004","label":"within Walshcroft Wapentake"}]}]}