{"@context":"https://raw.githubusercontent.com/LinkedPasts/linked-places-format/main/linkedplaces-context-v1.1.jsonld","type":"FeatureCollection","license":"Digitisation of English Placenames MADS data is licensed to Jisc by the English Place Names Society and released under a Creative Commons Attribution-NonCommercial 4.0 International License.","note":"LPF v1.3, lossy; derived from the PLATO record; plato_commit=ca0afadabec1e23a145c0b03df77e8f151f79832","features":[{"@id":"https://w3id.org/whg-epns/66/007425","type":"Feature","properties":{"title":"Thorganby","ccodes":["GB"],"fclasses":["A","P"]},"names":[{"toponym":"Thorganby","lang":"en","citations":[{"label":"English Place-Name Society survey, volume 66: Lincolnshire"}]},{"toponym":"Turgrebi","citations":[{"label":"1086 DB","year":1086}],"when":{"timespans":[{"start":{"in":"1086"},"end":{"in":"1086"}}]}},{"toponym":"Turgrimbi","citations":[{"label":"1086 DB","year":1086},{"label":"c.1148 YD","year":1138},{"label":"1166 RBE","year":1166},{"label":"1166-80 YCh","year":1166},{"label":"1205 Cur","year":1205}],"when":{"timespans":[{"start":{"in":"1086"},"end":{"in":"1086"}},{"start":{"earliest":"1138","latest":"1158"},"end":{"earliest":"1138","latest":"1158"}},{"start":{"in":"1166"},"end":{"in":"1166"}},{"start":{"earliest":"1166","latest":"1180"},"end":{"earliest":"1166","latest":"1180"}},{"start":{"in":"1205"},"end":{"in":"1205"}}]}},{"toponym":"Turgrimb'","citations":[{"label":"1185 Templar","year":1185}],"when":{"timespans":[{"start":{"in":"1185"},"end":{"in":"1185"}}]}},{"toponym":"Turgrimby","citations":[{"label":"1202 FF","year":1202}],"when":{"timespans":[{"start":{"in":"1202"},"end":{"in":"1202"}}]}},{"toponym":"Turgrimebi","citations":[{"label":"1205 Cur","year":1205}],"when":{"timespans":[{"start":{"in":"1205"},"end":{"in":"1205"}}]}},{"toponym":"Turegrimbi","citations":[{"label":"Hy2 LN","year":1154}],"when":{"timespans":[{"start":{"earliest":"1154","latest":"1189"},"end":{"earliest":"1154","latest":"1189"}}]}},{"toponym":"Torgrembi","citations":[{"label":"1086 DB","year":1086}],"when":{"timespans":[{"start":{"in":"1086"},"end":{"in":"1086"}}]}},{"toponym":"Torgrimbi","citations":[{"label":"c.1115 DB","year":1105},{"label":"1186-1200 Dane","year":1186}],"when":{"timespans":[{"start":{"earliest":"1105","latest":"1125"},"end":{"earliest":"1105","latest":"1125"}},{"start":{"earliest":"1186","latest":"1200"},"end":{"earliest":"1186","latest":"1200"}}]}},{"toponym":"Torgrimby","citations":[{"label":"Hy2 Gilb","year":1154}],"when":{"timespans":[{"start":{"earliest":"1154","latest":"1189"},"end":{"earliest":"1154","latest":"1189"}}]}},{"toponym":"Torgrimebi","citations":[{"label":"c.1115 DB","year":1105}],"when":{"timespans":[{"start":{"earliest":"1105","latest":"1125"},"end":{"earliest":"1105","latest":"1125"}}]}},{"toponym":"Turgramebi","citations":[{"label":"Hy2 Dane","year":1154}],"when":{"timespans":[{"start":{"earliest":"1154","latest":"1189"},"end":{"earliest":"1154","latest":"1189"}}]}},{"toponym":"Turgrambi","citations":[{"label":"1202 Ass","year":1202},{"label":"1206 Ass","year":1206}],"when":{"timespans":[{"start":{"in":"1202"},"end":{"in":"1202"}},{"start":{"in":"1206"},"end":{"in":"1206"}}]}},{"toponym":"Turgramby","citations":[{"label":"1206 FF","year":1206},{"label":"1207 FF","year":1207},{"label":"1242-43 Fees","year":1242}],"when":{"timespans":[{"start":{"in":"1206"},"end":{"in":"1206"}},{"start":{"in":"1207"},"end":{"in":"1207"}},{"start":{"earliest":"1242","latest":"1243"},"end":{"earliest":"1242","latest":"1243"}}]}},{"toponym":"Turegramesbi","citations":[{"label":"1193 P","year":1193},{"label":"1194 P","year":1194}],"when":{"timespans":[{"start":{"in":"1193"},"end":{"in":"1193"}},{"start":{"in":"1194"},"end":{"in":"1194"}}]}},{"toponym":"Turganneby","citations":[{"label":"1205 FF","year":1205}],"when":{"timespans":[{"start":{"in":"1205"},"end":{"in":"1205"}}]}},{"toponym":"Torgrambi","citations":[{"label":"1212 Fees","year":1212},{"label":"1218 Ass","year":1218},{"label":"1273 RRGr","year":1273}],"when":{"timespans":[{"start":{"in":"1212"},"end":{"in":"1212"}},{"start":{"in":"1218"},"end":{"in":"1218"}},{"start":{"in":"1273"},"end":{"in":"1273"}}]}},{"toponym":"Thurgrimbi","citations":[{"label":"a1183 Dane","year":1133}],"when":{"timespans":[{"start":{"earliest":"1133","latest":"1183"},"end":{"earliest":"1133","latest":"1183"}}]}},{"toponym":"Thurgrymeby","citations":[{"label":"1331 Ch","year":1331}],"when":{"timespans":[{"start":{"in":"1331"},"end":{"in":"1331"}}]}},{"toponym":"Thorgimbi","citations":[{"label":"lHy2 Dane","year":1154}],"when":{"timespans":[{"start":{"earliest":"1154","latest":"1189"},"end":{"earliest":"1154","latest":"1189"}}]}},{"toponym":"Thorgrimebi","citations":[{"label":"1314 Ch","year":1314}],"when":{"timespans":[{"start":{"in":"1314"},"end":{"in":"1314"}}]}},{"toponym":"Thurgrambi","citations":[{"label":"1212 Fees","year":1212}],"when":{"timespans":[{"start":{"in":"1212"},"end":{"in":"1212"}}]}},{"toponym":"Thurgramby","citations":[{"label":"1242-43 Fees","year":1242},{"label":"1338 Pat","year":1338}],"when":{"timespans":[{"start":{"earliest":"1242","latest":"1243"},"end":{"earliest":"1242","latest":"1243"}},{"start":{"in":"1338"},"end":{"in":"1338"}}]}},{"toponym":"Thorgramby","citations":[{"label":"1226 FF","year":1226},{"label":"c.1240 IB","year":1230},{"label":"1242-43 Fees","year":1242},{"label":"1245 FF","year":1245},{"label":"1272 Ass","year":1272},{"label":"1275 RRGr","year":1275},{"label":"1294 RSu","year":1294},{"label":"1303 FA","year":1303},{"label":"1306 NCot","year":1306},{"label":"1311 YearBk","year":1311},{"label":"1312 Pat","year":1312},{"label":"1313 Orig","year":1313},{"label":"1316–1440, recurring FA","year":1316},{"label":"1316–1440, recurring Yarb"},{"label":"1316 FA","year":1316},{"label":"1431 Yarb","year":1431}],"when":{"timespans":[{"start":{"in":"1226"},"end":{"in":"1226"}},{"start":{"earliest":"1230","latest":"1250"},"end":{"earliest":"1230","latest":"1250"}},{"start":{"earliest":"1242","latest":"1243"},"end":{"earliest":"1242","latest":"1243"}},{"start":{"in":"1245"},"end":{"in":"1245"}},{"start":{"in":"1272"},"end":{"in":"1272"}},{"start":{"in":"1275"},"end":{"in":"1275"}},{"start":{"in":"1294"},"end":{"in":"1294"}},{"start":{"in":"1303"},"end":{"in":"1303"}},{"start":{"in":"1306"},"end":{"in":"1306"}},{"start":{"in":"1311"},"end":{"in":"1311"}},{"start":{"in":"1312"},"end":{"in":"1312"}},{"start":{"in":"1313"},"end":{"in":"1313"}},{"start":{"in":"1316"},"end":{"in":"1440"}},{"start":{"in":"1316"},"end":{"in":"1316"}},{"start":{"in":"1431"},"end":{"in":"1431"}},{"start":{"in":"1440"},"end":{"in":"1440"}}]}},{"toponym":"Thorgrambi","citations":[{"label":"Hy3 HarlCh","year":1216}],"when":{"timespans":[{"start":{"earliest":"1216","latest":"1272"},"end":{"earliest":"1216","latest":"1272"}}]}},{"toponym":"Thorgranbi","citations":[{"label":"1268 RRGr","year":1268}],"when":{"timespans":[{"start":{"in":"1268"},"end":{"in":"1268"}}]}},{"toponym":"Thorgranby","citations":[{"label":"1375 Peace","year":1375},{"label":"1472 Fine","year":1472}],"when":{"timespans":[{"start":{"in":"1375"},"end":{"in":"1375"}},{"start":{"in":"1472"},"end":{"in":"1472"}}]}},{"toponym":"Thorgraneby","citations":[{"label":"1346 Pat","year":1346}],"when":{"timespans":[{"start":{"in":"1346"},"end":{"in":"1346"}}]}},{"toponym":"Thorgamby","citations":[{"label":"1254 ValNor","year":1254},{"label":"1277 RRGr","year":1277},{"label":"1291 Tax","year":1291},{"label":"1292 NCot","year":1292},{"label":"1303 FA","year":1303},{"label":"1311 YearBk","year":1311},{"label":"1317–1482, recurring Ipm","year":1317},{"label":"1317–1482, recurring Yarb"},{"label":"1317 Ipm","year":1317},{"label":"1482 Yarb","year":1482}],"when":{"timespans":[{"start":{"in":"1254"},"end":{"in":"1254"}},{"start":{"in":"1277"},"end":{"in":"1277"}},{"start":{"in":"1291"},"end":{"in":"1291"}},{"start":{"in":"1292"},"end":{"in":"1292"}},{"start":{"in":"1303"},"end":{"in":"1303"}},{"start":{"in":"1311"},"end":{"in":"1311"}},{"start":{"in":"1317"},"end":{"in":"1482"}},{"start":{"in":"1317"},"end":{"in":"1317"}},{"start":{"in":"1482"},"end":{"in":"1482"}}]}},{"toponym":"Thorgaumby","citations":[{"label":"1268 Ch","year":1268}],"when":{"timespans":[{"start":{"in":"1268"},"end":{"in":"1268"}}]}},{"toponym":"Thorganby","citations":[{"label":"1296 AD","year":1296},{"label":"1503 Ipm","year":1503},{"label":"1526 Sub","year":1526},{"label":"1558–1618, recurring Yarb","year":1558},{"label":"1558 Yarb","year":1558}],"when":{"timespans":[{"start":{"in":"1296"},"end":{"in":"1296"}},{"start":{"in":"1503"},"end":{"in":"1503"}},{"start":{"in":"1506"},"end":{"in":"1506"}},{"start":{"in":"1526"},"end":{"in":"1526"}},{"start":{"in":"1558"},"end":{"in":"1618"}},{"start":{"in":"1558"},"end":{"in":"1558"}},{"start":{"in":"1560"},"end":{"in":"1560"}},{"start":{"in":"1565"},"end":{"in":"1565"}},{"start":{"in":"1618"},"end":{"in":"1618"}}]}},{"toponym":"Thorganbye","citations":[{"label":"1555 Yarb","year":1555},{"label":"1576 Saxton","year":1576},{"label":"1601 Terrier","year":1601},{"label":"1610 Speed","year":1610}],"when":{"timespans":[{"start":{"in":"1555"},"end":{"in":"1555"}},{"start":{"in":"1576"},"end":{"in":"1576"}},{"start":{"in":"1601"},"end":{"in":"1601"}},{"start":{"in":"1606"},"end":{"in":"1606"}},{"start":{"in":"1610"},"end":{"in":"1610"}}]}},{"toponym":"Thorganbie","citations":[{"label":"1556 InstBen","year":1556},{"label":"1558 Yarb","year":1558},{"label":"1611 Terrier","year":1611}],"when":{"timespans":[{"start":{"in":"1556"},"end":{"in":"1556"}},{"start":{"in":"1566"},"end":{"in":"1566"}},{"start":{"in":"1558"},"end":{"in":"1558"}},{"start":{"in":"1611"},"end":{"in":"1611"}},{"start":{"in":"1639"},"end":{"in":"1639"}}]}},{"toponym":"Thorgonby","citations":[{"label":"1535 Val","year":1535}],"when":{"timespans":[{"start":{"in":"1535"},"end":{"in":"1535"}}]}},{"toponym":"Thorgonbye","citations":[{"label":"1564 Pat","year":1564}],"when":{"timespans":[{"start":{"in":"1564"},"end":{"in":"1564"}}]}},{"toponym":"Thurganby","citations":[{"label":"1529 Wills","year":1529},{"label":"1666 VL","year":1666}],"when":{"timespans":[{"start":{"in":"1529"},"end":{"in":"1529"}},{"start":{"in":"1666"},"end":{"in":"1666"}}]}},{"toponym":"Thirganbie","citations":[{"label":"1576 LER","year":1576}],"when":{"timespans":[{"start":{"in":"1576"},"end":{"in":"1576"}}]}},{"toponym":"Torngrebi","citations":[{"label":"1199 P","year":1199}],"when":{"timespans":[{"start":{"in":"1199"},"end":{"in":"1199"}}]}},{"toponym":"Torngrenbi","citations":[{"label":"1199 OblR","year":1199}],"when":{"timespans":[{"start":{"in":"1199"},"end":{"in":"1199"}}]}},{"toponym":"Torngramby","citations":[{"label":"1242 RRG","year":1242}],"when":{"timespans":[{"start":{"in":"1242"},"end":{"in":"1242"}}]}},{"toponym":"Thorngramby","citations":[{"label":"1280 Ch","year":1280},{"label":"1324 Pat","year":1324}],"when":{"timespans":[{"start":{"in":"1280"},"end":{"in":"1280"}},{"start":{"in":"1324"},"end":{"in":"1324"}}]}},{"toponym":"Thorngranby","citations":[{"label":"1281 QW","year":1281}],"when":{"timespans":[{"start":{"in":"1281"},"end":{"in":"1281"}}]}},{"toponym":"Thornganbie","citations":[{"label":"1572 Yarb","year":1572}],"when":{"timespans":[{"start":{"in":"1572"},"end":{"in":"1572"}}]}}],"types":[{"identifier":"http://vocab.getty.edu/aat/300232418","label":"administrative division","sourceLabels":[{"label":"township","lang":"en"}]}],"geometry":{"type":"GeometryCollection","geometries":[{"type":"Point","coordinates":[-0.18102,53.46554],"citations":[{"label":"GeoNames, gazetteer record geonames:7297792"}]},{"type":"Point","coordinates":[-0.1848305557662437,53.46019134942646],"citations":[{"label":"Unlock (EDINA) gazetteer, gazetteer record unlock:11299540"}]},{"type":"Point","coordinates":[-0.171447,53.4602],"citations":[{"label":"Key to English Place-Names (KEPN), gazetteer record 10774"}]}]},"when":{"timespans":[{"start":{"in":"1086"},"end":{"in":"1666"}}]},"links":[{"type":"closeMatch","identifier":"https://sws.geonames.org/7297792/"}],"relations":[{"relationType":"gvp:broaderPartitive","relationTo":"https://w3id.org/whg-epns/66/007424","label":"within Thorganby"}]}]}