{"@context":"https://raw.githubusercontent.com/LinkedPasts/linked-places-format/main/linkedplaces-context-v1.1.jsonld","type":"FeatureCollection","license":"Digitisation of English Placenames MADS data is licensed to Jisc by the English Place Names Society and released under a Creative Commons Attribution-NonCommercial 4.0 International License.","note":"LPF v1.3, lossy; derived from the PLATO record; plato_commit=fa0d247ccc0263f8f19c8d7cdcd163df96935d1e","features":[{"@id":"https://w3id.org/whg-epns/45/000230","type":"Feature","properties":{"title":"Sale","ccodes":["GB"],"fclasses":["A","P"]},"names":[{"toponym":"Sale","lang":"en","citations":[{"label":"English Place-Name Society survey, volume 45: Cheshire"}]},{"toponym":"Sala","citations":[{"label":"1199-1216 Orm2","year":1199}],"when":{"timespans":[{"start":{"earliest":"1199","latest":"1216"},"end":{"earliest":"1199","latest":"1216"}},{"start":{"in":"1305"},"end":{"in":"1305"}}]}},{"toponym":"Sale","citations":[{"label":"1199-1216 Whall","year":1199},{"label":"1260 Court","year":1260}],"when":{"timespans":[{"start":{"earliest":"1199","latest":"1216"},"end":{"earliest":"1199","latest":"1216"}},{"start":{"in":"1260"},"end":{"in":"1260"}}]}},{"toponym":"la Sale","citations":[{"label":"1285 Court","year":1285},{"label":"1317 ChRR","year":1317}],"when":{"timespans":[{"start":{"in":"1285"},"end":{"in":"1285"}},{"start":{"in":"1317"},"end":{"in":"1317"}}]}},{"toponym":"Sale behind Alteringham","citations":[{"label":"c.1703 Chol","year":1693}],"when":{"timespans":[{"start":{"earliest":"1693","latest":"1713"},"end":{"earliest":"1693","latest":"1713"}}]}}],"types":[{"identifier":"http://vocab.getty.edu/aat/300232418","label":"administrative division","sourceLabels":[{"label":"township","lang":"en"}]}],"geometry":{"type":"GeometryCollection","geometries":[{"type":"Point","coordinates":[-2.32443,53.42519],"citations":[{"label":"GeoNames, gazetteer record geonames:2638678"}]},{"type":"Point","coordinates":[-2.315987118,53.41512822],"citations":[{"label":"English Place-Name Society survey (DEEP coordinates)"}]},{"type":"Point","coordinates":[-2.323544702906042,53.41960399869838],"citations":[{"label":"Unlock (EDINA) gazetteer, gazetteer record unlock:11277031"}]},{"type":"Point","coordinates":[-2.32496,53.4199],"citations":[{"label":"Key to English Place-Names (KEPN), gazetteer record 11764"}]}]},"when":{"timespans":[{"start":{"in":"1199"},"end":{"in":"1713"}}]},"links":[{"type":"closeMatch","identifier":"https://sws.geonames.org/2638678/"}],"relations":[{"relationType":"gvp:broaderPartitive","relationTo":"https://w3id.org/whg-epns/45/000229","label":"within Ashton on Mersey"}]}]}