{"@context":"https://raw.githubusercontent.com/LinkedPasts/linked-places-format/main/linkedplaces-context-v1.1.jsonld","type":"FeatureCollection","license":"Digitisation of English Placenames MADS data is licensed to Jisc by the English Place Names Society and released under a Creative Commons Attribution-NonCommercial 4.0 International License.","note":"LPF v1.3, lossy; derived from the PLATO record; plato_commit=ca0afadabec1e23a145c0b03df77e8f151f79832","features":[{"@id":"https://w3id.org/whg-epns/45/002263","type":"Feature","properties":{"title":"Lymm","ccodes":["GB"],"fclasses":["A","P"]},"names":[{"toponym":"Lymm","lang":"en","citations":[{"label":"English Place-Name Society survey, volume 45: Cheshire"}]},{"toponym":"Lime","citations":[{"label":"1086 DB","year":1086},{"label":"12 Dow","year":1100}],"when":{"timespans":[{"start":{"in":"1086"},"end":{"in":"1086"}},{"start":{"earliest":"1100","latest":"1200"},"end":{"earliest":"1100","latest":"1200"}}]}},{"toponym":"Lyme","citations":[{"label":"1190–1210, recurring Whall","year":1190},{"label":"c.1200 Whall","year":1190}],"when":{"timespans":[{"start":{"in":"1190"},"end":{"in":"1210"}},{"start":{"earliest":"1190","latest":"1210"},"end":{"earliest":"1190","latest":"1210"}}]}},{"toponym":"Lyma","citations":[{"label":"12 Sheaf","year":1100}],"when":{"timespans":[{"start":{"earliest":"1100","latest":"1200"},"end":{"earliest":"1100","latest":"1200"}}]}},{"toponym":"Lima","citations":[{"label":"13 Orm2","year":1200}],"when":{"timespans":[{"start":{"earliest":"1200","latest":"1300"},"end":{"earliest":"1200","latest":"1300"}}]}},{"toponym":"Limme","citations":[{"label":"1194 Facs","year":1194}],"when":{"timespans":[{"start":{"in":"1194"},"end":{"in":"1194"}}]}},{"toponym":"Lymme","citations":[{"label":"1200–1225, recurring Whall","year":1200},{"label":"e13 Whall","year":1200}],"when":{"timespans":[{"start":{"in":"1200"},"end":{"in":"1225"}},{"start":{"earliest":"1200","latest":"1225"},"end":{"earliest":"1200","latest":"1225"}}]}},{"toponym":"Limma","citations":[{"label":"l12 Orm2","year":1175}],"when":{"timespans":[{"start":{"earliest":"1175","latest":"1200"},"end":{"earliest":"1175","latest":"1200"}}]}},{"toponym":"Lymma","citations":[{"label":"13 Bark","year":1200}],"when":{"timespans":[{"start":{"earliest":"1200","latest":"1300"},"end":{"earliest":"1200","latest":"1300"}}]}},{"toponym":"Lymm","citations":[{"label":"1635 ChRR","year":1635}],"when":{"timespans":[{"start":{"in":"1635"},"end":{"in":"1635"}}]}},{"toponym":"Limm","citations":[{"label":"1724 NotCestr","year":1724}],"when":{"timespans":[{"start":{"in":"1724"},"end":{"in":"1724"}}]}},{"toponym":"Lymmya","citations":[{"label":"1270 Sheaf","year":1270}],"when":{"timespans":[{"start":{"in":"1270"},"end":{"in":"1270"}}]}},{"toponym":"Lym","citations":[{"label":"13 Whall","year":1200}],"when":{"timespans":[{"start":{"earliest":"1200","latest":"1300"},"end":{"earliest":"1200","latest":"1300"}}]}},{"toponym":"Lim","citations":[{"label":"1680 Sheaf","year":1680}],"when":{"timespans":[{"start":{"in":"1680"},"end":{"in":"1680"}}]}},{"toponym":"Lynm","citations":[{"label":"1496 Sheaf","year":1496}],"when":{"timespans":[{"start":{"in":"1496"},"end":{"in":"1496"}}]}},{"toponym":"Lynne","citations":[{"label":"1549 Pat","year":1549}],"when":{"timespans":[{"start":{"in":"1549"},"end":{"in":"1549"}}]}},{"toponym":"Limb","citations":[{"label":"1673 AddCh","year":1673}],"when":{"timespans":[{"start":{"in":"1673"},"end":{"in":"1673"}}]}}],"types":[{"identifier":"http://vocab.getty.edu/aat/300232418","label":"administrative division","sourceLabels":[{"label":"township","lang":"en"}]}],"geometry":{"type":"GeometryCollection","geometries":[{"type":"Point","coordinates":[-2.47763,53.38105],"citations":[{"label":"GeoNames, gazetteer record geonames:2643309"}]},{"type":"Point","coordinates":[-2.481093172,53.37861843],"citations":[{"label":"English Place-Name Society survey (DEEP coordinates)"}]},{"type":"Point","coordinates":[-2.473626390160665,53.38314434279346],"citations":[{"label":"Unlock (EDINA) gazetteer, gazetteer record unlock:11210036"}]},{"type":"Point","coordinates":[-2.47502,53.3834],"citations":[{"label":"Key to English Place-Names (KEPN), gazetteer record 11775"}]}]},"when":{"timespans":[{"start":{"in":"1086"},"end":{"in":"1724"}}]},"links":[{"type":"closeMatch","identifier":"https://sws.geonames.org/2643309/"}],"relations":[{"relationType":"gvp:broaderPartitive","relationTo":"https://w3id.org/whg-epns/45/002262","label":"within Lymm"}]}]}