{"@context":"https://raw.githubusercontent.com/LinkedPasts/linked-places-format/main/linkedplaces-context-v1.1.jsonld","type":"FeatureCollection","license":"Digitisation of English Placenames MADS data is licensed to Jisc by the English Place Names Society and released under a Creative Commons Attribution-NonCommercial 4.0 International License.","note":"LPF v1.3, lossy; derived from the PLATO record; plato_commit=fa0d247ccc0263f8f19c8d7cdcd163df96935d1e","features":[{"@id":"https://w3id.org/whg-epns/45/002730","type":"Feature","properties":{"title":"Bollington","ccodes":["GB"],"fclasses":["A","P"]},"names":[{"toponym":"Bollington","lang":"en","citations":[{"label":"English Place-Name Society survey, volume 45: Cheshire"}]},{"toponym":"Bolintun","citations":[{"label":"13 Tab","year":1200}],"when":{"timespans":[{"start":{"earliest":"1200","latest":"1300"},"end":{"earliest":"1200","latest":"1300"}}]}},{"toponym":"Bolinton(a)","citations":[{"label":"c.1222 Sheaf","year":1212},{"label":"c.1233 Dow","year":1223}],"when":{"timespans":[{"start":{"earliest":"1212","latest":"1232"},"end":{"earliest":"1212","latest":"1232"}},{"start":{"earliest":"1223","latest":"1243"},"end":{"earliest":"1223","latest":"1243"}}]}},{"toponym":"Bolynton(a)","citations":[{"label":"Plea","year":1312},{"label":"1312 Plea","year":1312}],"when":{"timespans":[{"start":{"in":"1312"},"end":{"in":"1312"}},{"start":{"in":"1312"},"end":{"in":"1312"}}]}},{"toponym":"Bolynton(a) iuxta Dunham (Mascy)","citations":[{"label":"1382 Plea","year":1382},{"label":"1408 ChRR","year":1408}],"when":{"timespans":[{"start":{"in":"1382"},"end":{"in":"1382"}},{"start":{"in":"1408"},"end":{"in":"1408"}}]}},{"toponym":"Bolynton(a) iuxta Akedon'","citations":[{"label":"1431 JRL","year":1431}],"when":{"timespans":[{"start":{"in":"1431"},"end":{"in":"1431"}}]}},{"toponym":"Bollinton","citations":[{"label":"1320 Mere","year":1320}],"when":{"timespans":[{"start":{"in":"1320"},"end":{"in":"1320"}}]}},{"toponym":"Bolington (iuxta Dunham)","citations":[{"label":"1287 Court","year":1287}],"when":{"timespans":[{"start":{"in":"1287"},"end":{"in":"1287"}}]}},{"toponym":"Bolyngton","citations":[{"label":"1353 BPR","year":1353}],"when":{"timespans":[{"start":{"in":"1353"},"end":{"in":"1353"}}]}},{"toponym":"Bollyngton","citations":[{"label":"1549 Pat","year":1549}],"when":{"timespans":[{"start":{"in":"1549"},"end":{"in":"1549"}}]}},{"toponym":"Bollington","citations":[{"label":"ChRR","year":1584},{"label":"1584 ChRR","year":1584}],"when":{"timespans":[{"start":{"in":"1584"},"end":{"in":"1584"}},{"start":{"in":"1584"},"end":{"in":"1584"}}]}}],"types":[{"identifier":"http://vocab.getty.edu/aat/300232418","label":"administrative division","sourceLabels":[{"label":"township","lang":"en"}]}],"geometry":{"type":"GeometryCollection","geometries":[{"type":"Point","coordinates":[-2.420869804,53.3698562],"citations":[{"label":"English Place-Name Society survey (DEEP coordinates)"}]},{"type":"Point","coordinates":[-2.413398129496812,53.37437836262689],"citations":[{"label":"Unlock (EDINA) gazetteer, gazetteer record unlock:11195946"}]},{"type":"Point","coordinates":[-2.4148,53.3746],"citations":[{"label":"Key to English Place-Names (KEPN), gazetteer record 11777"}]}]},"when":{"timespans":[{"start":{"in":"1200"},"end":{"in":"1584"}}]},"relations":[{"relationType":"gvp:broaderPartitive","relationTo":"https://w3id.org/whg-epns/45/002659","label":"within Bowdon & Rostherne"}]}]}