{"@context":"https://raw.githubusercontent.com/LinkedPasts/linked-places-format/main/linkedplaces-context-v1.1.jsonld","type":"FeatureCollection","license":"Digitisation of English Placenames MADS data is licensed to Jisc by the English Place Names Society and released under a Creative Commons Attribution-NonCommercial 4.0 International License.","note":"LPF v1.3, lossy; derived from the PLATO record; plato_commit=ca0afadabec1e23a145c0b03df77e8f151f79832","features":[{"@id":"https://w3id.org/whg-epns/45/003586","type":"Feature","properties":{"title":"Rostherne","ccodes":["GB"],"fclasses":["A","P"]},"names":[{"toponym":"Rostherne","lang":"en","citations":[{"label":"English Place-Name Society survey, volume 45: Cheshire"}]},{"toponym":"Rodestorne","citations":[{"label":"1086 DB","year":1086}],"when":{"timespans":[{"start":{"in":"1086"},"end":{"in":"1086"}}]}},{"toponym":"Rodest', Rodestor(n)","citations":[{"label":"l12 Chest","year":1175},{"label":"l12 Facs","year":1175},{"label":"l12 Orm2","year":1175},{"label":"l12 AddCh","year":1175},{"label":"l12 Bark","year":1175},{"label":"l12 Dieul","year":1175}],"when":{"timespans":[{"start":{"earliest":"1175","latest":"1200"},"end":{"earliest":"1175","latest":"1200"}},{"start":{"earliest":"1200","latest":"1225"},"end":{"earliest":"1200","latest":"1225"}},{"start":{"earliest":"1175","latest":"1200"},"end":{"earliest":"1175","latest":"1200"}},{"start":{"earliest":"1200","latest":"1225"},"end":{"earliest":"1200","latest":"1225"}},{"start":{"earliest":"1175","latest":"1200"},"end":{"earliest":"1175","latest":"1200"}},{"start":{"earliest":"1200","latest":"1225"},"end":{"earliest":"1200","latest":"1225"}},{"start":{"earliest":"1175","latest":"1200"},"end":{"earliest":"1175","latest":"1200"}},{"start":{"earliest":"1200","latest":"1225"},"end":{"earliest":"1200","latest":"1225"}},{"start":{"earliest":"1175","latest":"1200"},"end":{"earliest":"1175","latest":"1200"}},{"start":{"earliest":"1200","latest":"1225"},"end":{"earliest":"1200","latest":"1225"}},{"start":{"earliest":"1175","latest":"1200"},"end":{"earliest":"1175","latest":"1200"}},{"start":{"earliest":"1200","latest":"1225"},"end":{"earliest":"1200","latest":"1225"}}]}},{"toponym":"Rodesthorn(e)","citations":[{"label":"c.1190 Sheaf","year":1180},{"label":"13 Tab","year":1200}],"when":{"timespans":[{"start":{"earliest":"1180","latest":"1200"},"end":{"earliest":"1180","latest":"1200"}},{"start":{"earliest":"1200","latest":"1300"},"end":{"earliest":"1200","latest":"1300"}}]}},{"toponym":"Rodeston","citations":[{"label":"c.1220 Clif","year":1210},{"label":"c.1229 Bark","year":1219}],"when":{"timespans":[{"start":{"earliest":"1210","latest":"1230"},"end":{"earliest":"1210","latest":"1230"}},{"start":{"earliest":"1219","latest":"1239"},"end":{"earliest":"1219","latest":"1239"}}]}},{"toponym":"Rodestu","citations":[{"label":"e13 Orm2","year":1200}],"when":{"timespans":[{"start":{"earliest":"1200","latest":"1225"},"end":{"earliest":"1200","latest":"1225"}}]}},{"toponym":"Roddest'","citations":[{"label":"c.1226-8 Dieul","year":1226}],"when":{"timespans":[{"start":{"earliest":"1226","latest":"1228"},"end":{"earliest":"1226","latest":"1228"}}]}},{"toponym":"Rosthorne","citations":[{"label":"H2 Orm2","year":1154},{"label":"1188 Orm2","year":1188},{"label":"1366 MidCh","year":1366},{"label":"1581 ChRR","year":1581}],"when":{"timespans":[{"start":{"earliest":"1154","latest":"1189"},"end":{"earliest":"1154","latest":"1189"}},{"start":{"in":"1188"},"end":{"in":"1188"}},{"start":{"in":"1270"},"end":{"in":"1270"}},{"start":{"in":"1366"},"end":{"in":"1366"}},{"start":{"in":"1443"},"end":{"in":"1443"}},{"start":{"in":"1581"},"end":{"in":"1581"}}]}},{"toponym":"Rosthorn","citations":[{"label":"1408 Orm2","year":1408},{"label":"1724 NotCestr","year":1724}],"when":{"timespans":[{"start":{"in":"1408"},"end":{"in":"1408"}},{"start":{"in":"1724"},"end":{"in":"1724"}}]}},{"toponym":"Rostorn(e)","citations":[{"label":"1554 Sheaf","year":1554}],"when":{"timespans":[{"start":{"in":"1554"},"end":{"in":"1554"}},{"start":{"in":"1671"},"end":{"in":"1671"}}]}},{"toponym":"Rosthern(e)","citations":[{"label":"1324 Mere","year":1324},{"label":"1388 ChRR","year":1388},{"label":"1677 Sheaf","year":1677}],"when":{"timespans":[{"start":{"in":"1324"},"end":{"in":"1324"}},{"start":{"in":"1388"},"end":{"in":"1388"}},{"start":{"in":"1677"},"end":{"in":"1677"}}]}},{"toponym":"Rosthern(e) alias Rotherston","citations":[{"label":"1696 Dep","year":1696}],"when":{"timespans":[{"start":{"in":"1696"},"end":{"in":"1696"}}]}},{"toponym":"Rosthern","citations":[{"label":"1724 NotCestr","year":1724}],"when":{"timespans":[{"start":{"in":"1724"},"end":{"in":"1724"}}]}},{"toponym":"Rostern(e)","citations":[{"label":"1589 ChRR","year":1589},{"label":"1660 Sheaf","year":1660}],"when":{"timespans":[{"start":{"in":"1589"},"end":{"in":"1589"}},{"start":{"in":"1660"},"end":{"in":"1660"}}]}},{"toponym":"Roston","citations":[{"label":"c. 1536-9 Leland","year":1536},{"label":"1691 Sheaf","year":1691}],"when":{"timespans":[{"start":{"earliest":"1536","latest":"1539"},"end":{"earliest":"1536","latest":"1539"}},{"start":{"in":"1691"},"end":{"in":"1691"}}]}},{"toponym":"Rostarn","citations":[{"label":"1558 Orm2","year":1558}],"when":{"timespans":[{"start":{"in":"1558"},"end":{"in":"1558"}}]}},{"toponym":"Rothesterne","citations":[{"label":"c.1188 Tab","year":1178}],"when":{"timespans":[{"start":{"earliest":"1178","latest":"1198"},"end":{"earliest":"1178","latest":"1198"}}]}},{"toponym":"Rothestorn","citations":[{"label":"1346 ChRR","year":1346},{"label":"1346 Cuer","year":1346},{"label":"1346 Plea","year":1346},{"label":"1346 Adl","year":1346},{"label":"1346 Sheaf","year":1346},{"label":"1503 Plea","year":1503}],"when":{"timespans":[{"start":{"in":"1346"},"end":{"in":"1346"}},{"start":{"in":"1346"},"end":{"in":"1346"}},{"start":{"in":"1346"},"end":{"in":"1346"}},{"start":{"in":"1346"},"end":{"in":"1346"}},{"start":{"in":"1346"},"end":{"in":"1346"}},{"start":{"in":"1503"},"end":{"in":"1503"}}]}},{"toponym":"Rothstorn","citations":[{"label":"1530 Plea","year":1530}],"when":{"timespans":[{"start":{"in":"1530"},"end":{"in":"1530"}}]}},{"toponym":"Rothstorn(e)","citations":[{"label":"1606 ChRR","year":1606}],"when":{"timespans":[{"start":{"in":"1606"},"end":{"in":"1606"}}]}},{"toponym":"Rothsthorn","citations":[{"label":"1372–1503, recurring Cuer","year":1372},{"label":"1372–1503, recurring Plea"},{"label":"1372 Cuer","year":1372},{"label":"1503 Plea","year":1503}],"when":{"timespans":[{"start":{"in":"1372"},"end":{"in":"1503"}},{"start":{"in":"1372"},"end":{"in":"1372"}},{"start":{"in":"1503"},"end":{"in":"1503"}}]}},{"toponym":"Rothsterne","citations":[{"label":"1662 Sheaf","year":1662},{"label":"1694 Sheaf","year":1694}],"when":{"timespans":[{"start":{"in":"1662"},"end":{"in":"1662"}},{"start":{"in":"1673"},"end":{"in":"1673"}},{"start":{"in":"1694"},"end":{"in":"1694"}},{"start":{"in":"1694"},"end":{"in":"1694"}}]}},{"toponym":"Rothstorm","citations":[{"label":"1467 Adl","year":1467}],"when":{"timespans":[{"start":{"in":"1467"},"end":{"in":"1467"}}]}},{"toponym":"Raudestorn'","citations":[{"label":"c.1190 AddCh","year":1180},{"label":"1190-1211 ChFor","year":1190}],"when":{"timespans":[{"start":{"earliest":"1180","latest":"1200"},"end":{"earliest":"1180","latest":"1200"}},{"start":{"earliest":"1190","latest":"1211"},"end":{"earliest":"1190","latest":"1211"}}]}},{"toponym":"Raudestor'","citations":[{"label":"1202- 14 Facs","year":1202}],"when":{"timespans":[{"start":{"earliest":"1202","latest":"1214"},"end":{"earliest":"1202","latest":"1214"}}]}},{"toponym":"Raudesthoren","citations":[{"label":"c.1280 CoLegh","year":1270}],"when":{"timespans":[{"start":{"earliest":"1270","latest":"1290"},"end":{"earliest":"1270","latest":"1290"}}]}},{"toponym":"Roullestorn'","citations":[{"label":"1189-99 AddCh","year":1189}],"when":{"timespans":[{"start":{"earliest":"1189","latest":"1199"},"end":{"earliest":"1189","latest":"1199"}}]}},{"toponym":"Roulistoren","citations":[{"label":"c.1245 CoLegh","year":1235}],"when":{"timespans":[{"start":{"earliest":"1235","latest":"1255"},"end":{"earliest":"1235","latest":"1255"}}]}},{"toponym":"Roudestorn(e)","citations":[{"label":"c.1188-1209 MidCh","year":1188},{"label":"c.1210 Orm2","year":1200},{"label":"e13 Whall","year":1200},{"label":"e13 Dieul","year":1200},{"label":"1226-8 Chest","year":1226}],"when":{"timespans":[{"start":{"earliest":"1188","latest":"1209"},"end":{"earliest":"1188","latest":"1209"}},{"start":{"earliest":"1200","latest":"1220"},"end":{"earliest":"1200","latest":"1220"}},{"start":{"earliest":"1200","latest":"1225"},"end":{"earliest":"1200","latest":"1225"}},{"start":{"earliest":"1200","latest":"1225"},"end":{"earliest":"1200","latest":"1225"}},{"start":{"earliest":"1226","latest":"1228"},"end":{"earliest":"1226","latest":"1228"}}]}},{"toponym":"Roudesthorn(e)","citations":[{"label":"e13 Dieul","year":1200},{"label":"13 Sheaf","year":1200}],"when":{"timespans":[{"start":{"earliest":"1200","latest":"1225"},"end":{"earliest":"1200","latest":"1225"}},{"start":{"earliest":"1200","latest":"1300"},"end":{"earliest":"1200","latest":"1300"}}]}},{"toponym":"Roudesthoren","citations":[{"label":"13 Orm2","year":1200}],"when":{"timespans":[{"start":{"earliest":"1200","latest":"1300"},"end":{"earliest":"1200","latest":"1300"}}]}},{"toponym":"Roudestone","citations":[{"label":"e13 Sheaf","year":1200}],"when":{"timespans":[{"start":{"earliest":"1200","latest":"1225"},"end":{"earliest":"1200","latest":"1225"}}]}},{"toponym":"Roudestro","citations":[{"label":"e13 Orm2","year":1200}],"when":{"timespans":[{"start":{"earliest":"1200","latest":"1225"},"end":{"earliest":"1200","latest":"1225"}}]}},{"toponym":"Roud'","citations":[{"label":"e13 Dieul","year":1200}],"when":{"timespans":[{"start":{"earliest":"1200","latest":"1225"},"end":{"earliest":"1200","latest":"1225"}}]}},{"toponym":"Roudistor'","citations":[{"label":"c.1300 Tab","year":1290}],"when":{"timespans":[{"start":{"earliest":"1290","latest":"1310"},"end":{"earliest":"1290","latest":"1310"}}]}},{"toponym":"Reudestorn'","citations":[{"label":"1195-1205 Facs","year":1195}],"when":{"timespans":[{"start":{"earliest":"1195","latest":"1205"},"end":{"earliest":"1195","latest":"1205"}}]}},{"toponym":"Rudest'","citations":[{"label":"e13 Orm2","year":1200}],"when":{"timespans":[{"start":{"earliest":"1200","latest":"1225"},"end":{"earliest":"1200","latest":"1225"}}]}},{"toponym":"Rudeston, Ruddest'","citations":[{"label":"e13 Dieul","year":1200}],"when":{"timespans":[{"start":{"earliest":"1200","latest":"1225"},"end":{"earliest":"1200","latest":"1225"}}]}},{"toponym":"Radestr'","citations":[{"label":"1208-10 Orm2","year":1208}],"when":{"timespans":[{"start":{"earliest":"1208","latest":"1210"},"end":{"earliest":"1208","latest":"1210"}}]}},{"toponym":"Rouistr'","citations":[{"label":"1210 Mass","year":1210}],"when":{"timespans":[{"start":{"in":"1210"},"end":{"in":"1210"}}]}},{"toponym":"Rouestorn","citations":[{"label":"1214-23 Chest","year":1214},{"label":"1214-23 Tab","year":1214},{"label":"1214-23 JRL","year":1214},{"label":"1214-23 Pat","year":1214},{"label":"1214-23 ChRR","year":1214},{"label":"1214-23 Plea","year":1214},{"label":"1214-23 Chol","year":1214},{"label":"1214-23 ChCert","year":1214},{"label":"1214-23 Earw","year":1214},{"label":"1214-23 Dav","year":1214},{"label":"1214-23 Eyre","year":1214},{"label":"1214-23 Orm2","year":1214},{"label":"1214-23 Mere","year":1214},{"label":"1214-23 BM","year":1214},{"label":"1214-23 Dow","year":1214},{"label":"1428 Orm2","year":1428}],"when":{"timespans":[{"start":{"earliest":"1214","latest":"1223"},"end":{"earliest":"1214","latest":"1223"}},{"start":{"earliest":"1214","latest":"1223"},"end":{"earliest":"1214","latest":"1223"}},{"start":{"earliest":"1214","latest":"1223"},"end":{"earliest":"1214","latest":"1223"}},{"start":{"earliest":"1214","latest":"1223"},"end":{"earliest":"1214","latest":"1223"}},{"start":{"earliest":"1214","latest":"1223"},"end":{"earliest":"1214","latest":"1223"}},{"start":{"earliest":"1214","latest":"1223"},"end":{"earliest":"1214","latest":"1223"}},{"start":{"earliest":"1214","latest":"1223"},"end":{"earliest":"1214","latest":"1223"}},{"start":{"earliest":"1214","latest":"1223"},"end":{"earliest":"1214","latest":"1223"}},{"start":{"earliest":"1214","latest":"1223"},"end":{"earliest":"1214","latest":"1223"}},{"start":{"earliest":"1214","latest":"1223"},"end":{"earliest":"1214","latest":"1223"}},{"start":{"earliest":"1214","latest":"1223"},"end":{"earliest":"1214","latest":"1223"}},{"start":{"earliest":"1214","latest":"1223"},"end":{"earliest":"1214","latest":"1223"}},{"start":{"earliest":"1214","latest":"1223"},"end":{"earliest":"1214","latest":"1223"}},{"start":{"earliest":"1214","latest":"1223"},"end":{"earliest":"1214","latest":"1223"}},{"start":{"earliest":"1214","latest":"1223"},"end":{"earliest":"1214","latest":"1223"}},{"start":{"in":"1428"},"end":{"in":"1428"}}]}},{"toponym":"Roustorn","citations":[{"label":"e13 Tab","year":1200},{"label":"1319–1530, recurring JRL","year":1319},{"label":"1319–1530, recurring Plea"},{"label":"1319 JRL","year":1319},{"label":"1530 Plea","year":1530}],"when":{"timespans":[{"start":{"earliest":"1200","latest":"1225"},"end":{"earliest":"1200","latest":"1225"}},{"start":{"in":"1319"},"end":{"in":"1530"}},{"start":{"in":"1319"},"end":{"in":"1319"}},{"start":{"in":"1530"},"end":{"in":"1530"}}]}},{"toponym":"Rowestorn","citations":[{"label":"1417–1437, recurring ChRR","year":1417},{"label":"1417–1437, recurring Pat"},{"label":"1417 ChRR","year":1417},{"label":"1437 Pat","year":1437}],"when":{"timespans":[{"start":{"in":"1417"},"end":{"in":"1437"}},{"start":{"in":"1417"},"end":{"in":"1417"}},{"start":{"in":"1437"},"end":{"in":"1437"}}]}},{"toponym":"Rowstorn","citations":[{"label":"1431–1528, recurring BM","year":1431},{"label":"1431–1528, recurring Dow"},{"label":"1431 BM","year":1431},{"label":"1528 Dow","year":1528}],"when":{"timespans":[{"start":{"in":"1431"},"end":{"in":"1528"}},{"start":{"in":"1431"},"end":{"in":"1431"}},{"start":{"in":"1528"},"end":{"in":"1528"}}]}},{"toponym":"Rowstornia","citations":[{"label":"13 Tab","year":1200}],"when":{"timespans":[{"start":{"earliest":"1200","latest":"1300"},"end":{"earliest":"1200","latest":"1300"}}]}},{"toponym":"Rowstorn(e)","citations":[{"label":"1530 Plea","year":1530}],"when":{"timespans":[{"start":{"in":"1530"},"end":{"in":"1530"}}]}},{"toponym":"Rowsthorn(e)","citations":[{"label":"1319–1505, recurring JRL","year":1319},{"label":"1319–1505, recurring ChRR"},{"label":"1319 JRL","year":1319},{"label":"1505 ChRR","year":1505}],"when":{"timespans":[{"start":{"in":"1319"},"end":{"in":"1505"}},{"start":{"in":"1319"},"end":{"in":"1319"}},{"start":{"in":"1505"},"end":{"in":"1505"}}]}},{"toponym":"Rowstherne","citations":[{"label":"e13 Tab","year":1200}],"when":{"timespans":[{"start":{"earliest":"1200","latest":"1225"},"end":{"earliest":"1200","latest":"1225"}}]}},{"toponym":"Rowsterne","citations":[{"label":"1413 Mere","year":1413}],"when":{"timespans":[{"start":{"in":"1413"},"end":{"in":"1413"}}]}},{"toponym":"Roustorne","citations":[{"label":"1530 Plea","year":1530}],"when":{"timespans":[{"start":{"in":"1530"},"end":{"in":"1530"}}]}},{"toponym":"Rouston'","citations":[{"label":"c.1468 Dav","year":1458}],"when":{"timespans":[{"start":{"earliest":"1458","latest":"1478"},"end":{"earliest":"1458","latest":"1478"}}]}},{"toponym":"Rowston","citations":[{"label":"1558 Orm2","year":1558}],"when":{"timespans":[{"start":{"in":"1558"},"end":{"in":"1558"}}]}},{"toponym":"Rosethorn","citations":[{"label":"1543 Cuer","year":1543}],"when":{"timespans":[{"start":{"in":"1543"},"end":{"in":"1543"}}]}},{"toponym":"Rotherston","citations":[{"label":"c.1220 Orm2","year":1210},{"label":"1618 Sheaf","year":1618}],"when":{"timespans":[{"start":{"earliest":"1210","latest":"1230"},"end":{"earliest":"1210","latest":"1230"}},{"start":{"in":"1618"},"end":{"in":"1618"}}]}},{"toponym":"Routhist'","citations":[{"label":"c.1225 CAS NS","year":1215}],"when":{"timespans":[{"start":{"earliest":"1215","latest":"1235"},"end":{"earliest":"1215","latest":"1235"}}]}},{"toponym":"Routhestorn","citations":[{"label":"1226-8 Chest","year":1226},{"label":"c.1232 Fitt","year":1222},{"label":"c.1232 JRL","year":1222},{"label":"c.1232 Orm2","year":1222},{"label":"c.1232 Eyre","year":1222},{"label":"c.1232 ChF","year":1222},{"label":"c.1232 CRV","year":1222},{"label":"c.1232 Plea","year":1222},{"label":"c.1232 Chamb","year":1222},{"label":"c.1232 BPR","year":1222},{"label":"c.1232 ChRR","year":1222},{"label":"c.1232 Tab","year":1222},{"label":"c.1232 Chol","year":1222},{"label":"c.1232 Pat","year":1222},{"label":"c.1232 Ch","year":1222},{"label":"c.1232 CRC","year":1222},{"label":"c.1232 Cl","year":1222},{"label":"c.1232 Dav","year":1222},{"label":"c.1232 Mere","year":1222},{"label":"c.1232 Cre","year":1222},{"label":"c.1232 Tax","year":1222},{"label":"c.1232 MidCh","year":1222},{"label":"c.1232 Sheaf","year":1222},{"label":"c.1232 VE","year":1222},{"label":"c.1232 ChCert","year":1222},{"label":"c.1232 Bark","year":1222},{"label":"c.1232 CoLegh","year":1222},{"label":"1535 VE","year":1535}],"when":{"timespans":[{"start":{"earliest":"1226","latest":"1228"},"end":{"earliest":"1226","latest":"1228"}},{"start":{"earliest":"1222","latest":"1242"},"end":{"earliest":"1222","latest":"1242"}},{"start":{"earliest":"1222","latest":"1242"},"end":{"earliest":"1222","latest":"1242"}},{"start":{"earliest":"1222","latest":"1242"},"end":{"earliest":"1222","latest":"1242"}},{"start":{"earliest":"1222","latest":"1242"},"end":{"earliest":"1222","latest":"1242"}},{"start":{"earliest":"1222","latest":"1242"},"end":{"earliest":"1222","latest":"1242"}},{"start":{"earliest":"1222","latest":"1242"},"end":{"earliest":"1222","latest":"1242"}},{"start":{"earliest":"1222","latest":"1242"},"end":{"earliest":"1222","latest":"1242"}},{"start":{"earliest":"1222","latest":"1242"},"end":{"earliest":"1222","latest":"1242"}},{"start":{"earliest":"1222","latest":"1242"},"end":{"earliest":"1222","latest":"1242"}},{"start":{"earliest":"1222","latest":"1242"},"end":{"earliest":"1222","latest":"1242"}},{"start":{"earliest":"1222","latest":"1242"},"end":{"earliest":"1222","latest":"1242"}},{"start":{"earliest":"1222","latest":"1242"},"end":{"earliest":"1222","latest":"1242"}},{"start":{"earliest":"1222","latest":"1242"},"end":{"earliest":"1222","latest":"1242"}},{"start":{"earliest":"1222","latest":"1242"},"end":{"earliest":"1222","latest":"1242"}},{"start":{"earliest":"1222","latest":"1242"},"end":{"earliest":"1222","latest":"1242"}},{"start":{"earliest":"1222","latest":"1242"},"end":{"earliest":"1222","latest":"1242"}},{"start":{"earliest":"1222","latest":"1242"},"end":{"earliest":"1222","latest":"1242"}},{"start":{"earliest":"1222","latest":"1242"},"end":{"earliest":"1222","latest":"1242"}},{"start":{"earliest":"1222","latest":"1242"},"end":{"earliest":"1222","latest":"1242"}},{"start":{"earliest":"1222","latest":"1242"},"end":{"earliest":"1222","latest":"1242"}},{"start":{"earliest":"1222","latest":"1242"},"end":{"earliest":"1222","latest":"1242"}},{"start":{"earliest":"1222","latest":"1242"},"end":{"earliest":"1222","latest":"1242"}},{"start":{"earliest":"1222","latest":"1242"},"end":{"earliest":"1222","latest":"1242"}},{"start":{"earliest":"1222","latest":"1242"},"end":{"earliest":"1222","latest":"1242"}},{"start":{"earliest":"1222","latest":"1242"},"end":{"earliest":"1222","latest":"1242"}},{"start":{"earliest":"1222","latest":"1242"},"end":{"earliest":"1222","latest":"1242"}},{"start":{"in":"1535"},"end":{"in":"1535"}}]}},{"toponym":"Routhistorn","citations":[{"label":"1318 Eyre","year":1318}],"when":{"timespans":[{"start":{"in":"1318"},"end":{"in":"1318"}}]}},{"toponym":"Rowthestorn","citations":[{"label":"1225–1417, recurring Tab","year":1225},{"label":"1225–1417, recurring ChRR"},{"label":"m13 Tab","year":1225},{"label":"1417 ChRR","year":1417}],"when":{"timespans":[{"start":{"in":"1225"},"end":{"in":"1417"}},{"start":{"earliest":"1225","latest":"1275"},"end":{"earliest":"1225","latest":"1275"}},{"start":{"in":"1417"},"end":{"in":"1417"}}]}},{"toponym":"Rowthistorn","citations":[{"label":"c.1295 CoLegh","year":1285}],"when":{"timespans":[{"start":{"earliest":"1285","latest":"1305"},"end":{"earliest":"1285","latest":"1305"}}]}},{"toponym":"Routhstorn","citations":[{"label":"1511 ChRR","year":1511}],"when":{"timespans":[{"start":{"in":"1511"},"end":{"in":"1511"}},{"start":{"in":"1526"},"end":{"in":"1526"}}]}},{"toponym":"Rowthstorn","citations":[{"label":"1584 ChRR","year":1584}],"when":{"timespans":[{"start":{"in":"1584"},"end":{"in":"1584"}}]}},{"toponym":"Rowthstorn(e)","citations":[{"label":"1526 ChRR","year":1526}],"when":{"timespans":[{"start":{"in":"1526"},"end":{"in":"1526"}}]}},{"toponym":"Rowthstorna","citations":[{"label":"c.1295 CoLegh","year":1285}],"when":{"timespans":[{"start":{"earliest":"1285","latest":"1305"},"end":{"earliest":"1285","latest":"1305"}}]}},{"toponym":"Rowthsthor'","citations":[{"label":"a. 1261 Orm2","year":1211}],"when":{"timespans":[{"start":{"earliest":"1211","latest":"1261"},"end":{"earliest":"1211","latest":"1261"}}]}},{"toponym":"Rowthsthorn(e)","citations":[{"label":"1291–1584, recurring Tax","year":1291},{"label":"1291–1584, recurring ChRR"},{"label":"1291 Tax","year":1291},{"label":"1584 ChRR","year":1584}],"when":{"timespans":[{"start":{"in":"1291"},"end":{"in":"1584"}},{"start":{"in":"1291"},"end":{"in":"1291"}},{"start":{"in":"1584"},"end":{"in":"1584"}}]}},{"toponym":"Rowthsthorne","citations":[{"label":"1584 ChRR","year":1584}],"when":{"timespans":[{"start":{"in":"1584"},"end":{"in":"1584"}}]}},{"toponym":"Rowthston","citations":[{"label":"1386 IpmR","year":1386}],"when":{"timespans":[{"start":{"in":"1386"},"end":{"in":"1386"}}]}},{"toponym":"Rowthstorum","citations":[{"label":"1391 Bark","year":1391}],"when":{"timespans":[{"start":{"in":"1391"},"end":{"in":"1391"}}]}},{"toponym":"Rowthstron","citations":[{"label":"1421 Sheaf","year":1421}],"when":{"timespans":[{"start":{"in":"1421"},"end":{"in":"1421"}}]}},{"toponym":"Routhastorne","citations":[{"label":"1385 BW","year":1385}],"when":{"timespans":[{"start":{"in":"1385"},"end":{"in":"1385"}}]}},{"toponym":"Routhosturen","citations":[{"label":"1528 Dow","year":1528}],"when":{"timespans":[{"start":{"in":"1528"},"end":{"in":"1528"}}]}},{"toponym":"Rondethoren","citations":[{"label":"1263-7 Bark","year":1263}],"when":{"timespans":[{"start":{"earliest":"1263","latest":"1267"},"end":{"earliest":"1263","latest":"1267"}}]}},{"toponym":"Rousthestorne","citations":[{"label":"1308 Orm2","year":1308}],"when":{"timespans":[{"start":{"in":"1308"},"end":{"in":"1308"}}]}},{"toponym":"Rousthesthorn","citations":[{"label":"1316 JRL","year":1316},{"label":"1535 VE","year":1535}],"when":{"timespans":[{"start":{"in":"1316"},"end":{"in":"1316"}},{"start":{"in":"1535"},"end":{"in":"1535"}}]}},{"toponym":"Rousthesthern","citations":[{"label":"1318 Mere","year":1318}],"when":{"timespans":[{"start":{"in":"1318"},"end":{"in":"1318"}}]}},{"toponym":"Rousteston","citations":[{"label":"1385 IpmR","year":1385}],"when":{"timespans":[{"start":{"in":"1385"},"end":{"in":"1385"}}]}},{"toponym":"Rowthorn'","citations":[{"label":"1308 JRL","year":1308}],"when":{"timespans":[{"start":{"in":"1308"},"end":{"in":"1308"}}]}},{"toponym":"Rowthorn' alias Rosethorn","citations":[{"label":"1543 Cuer","year":1543}],"when":{"timespans":[{"start":{"in":"1543"},"end":{"in":"1543"}}]}},{"toponym":"Rowthorne","citations":[{"label":"1536 Dugd","year":1536},{"label":"1554 MinAcct","year":1554},{"label":"1560 Sheaf","year":1560}],"when":{"timespans":[{"start":{"in":"1536"},"end":{"in":"1536"}},{"start":{"in":"1554"},"end":{"in":"1554"}},{"start":{"in":"1560"},"end":{"in":"1560"}}]}},{"toponym":"Ruthesthorn","citations":[{"label":"1312 ChRR","year":1312}],"when":{"timespans":[{"start":{"in":"1312"},"end":{"in":"1312"}}]}},{"toponym":"Routhethorn'","citations":[{"label":"1443 JRL","year":1443}],"when":{"timespans":[{"start":{"in":"1443"},"end":{"in":"1443"}}]}},{"toponym":"Raustorne","citations":[{"label":"1452 Sheaf","year":1452},{"label":"1464 JRL","year":1464},{"label":"1476 Chol","year":1476},{"label":"l15 Orm2","year":1475}],"when":{"timespans":[{"start":{"in":"1452"},"end":{"in":"1452"}},{"start":{"in":"1464"},"end":{"in":"1464"}},{"start":{"in":"1476"},"end":{"in":"1476"}},{"start":{"earliest":"1475","latest":"1500"},"end":{"earliest":"1475","latest":"1500"}}]}},{"toponym":"Rausthorn","citations":[{"label":"1656 Orm2","year":1656}],"when":{"timespans":[{"start":{"in":"1656"},"end":{"in":"1656"}}]}},{"toponym":"Rawsthorne","citations":[{"label":"1493 Sheaf","year":1493}],"when":{"timespans":[{"start":{"in":"1493"},"end":{"in":"1493"}}]}},{"toponym":"Rawstorne","citations":[{"label":"1500 AddCh","year":1500},{"label":"1554 Pat","year":1554},{"label":"1626 ChRR","year":1626}],"when":{"timespans":[{"start":{"in":"1500"},"end":{"in":"1500"}},{"start":{"in":"1554"},"end":{"in":"1554"}},{"start":{"in":"1626"},"end":{"in":"1626"}}]}},{"toponym":"Rauthestorne","citations":[{"label":"1506 JRL","year":1506}],"when":{"timespans":[{"start":{"in":"1506"},"end":{"in":"1506"}}]}},{"toponym":"Rauthestorn","citations":[{"label":"1511 Plea","year":1511}],"when":{"timespans":[{"start":{"in":"1511"},"end":{"in":"1511"}}]}},{"toponym":"Rornston","citations":[{"label":"1517 AddCh","year":1517}],"when":{"timespans":[{"start":{"in":"1517"},"end":{"in":"1517"}}]}},{"toponym":"Raston","citations":[{"label":"1546 Dugd","year":1546},{"label":"1554 Pat","year":1554}],"when":{"timespans":[{"start":{"in":"1546"},"end":{"in":"1546"}},{"start":{"in":"1554"},"end":{"in":"1554"}}]}},{"toponym":"Rorstorne","citations":[{"label":"1549 Pat","year":1549}],"when":{"timespans":[{"start":{"in":"1549"},"end":{"in":"1549"}}]}},{"toponym":"Rowherstone","citations":[{"label":"1739 LRMB","year":1739}],"when":{"timespans":[{"start":{"in":"1739"},"end":{"in":"1739"}}]}}],"types":[{"identifier":"http://vocab.getty.edu/aat/300232418","label":"administrative division","sourceLabels":[{"label":"township","lang":"en"}]}],"geometry":{"type":"GeometryCollection","geometries":[{"type":"Point","coordinates":[-2.386,53.34633],"citations":[{"label":"GeoNames, gazetteer record geonames:2639108"}]},{"type":"Point","coordinates":[-2.390561841,53.34299],"citations":[{"label":"English Place-Name Society survey (DEEP coordinates)"}]},{"type":"Point","coordinates":[-2.38309162490065,53.34751026818712],"citations":[{"label":"Unlock (EDINA) gazetteer, gazetteer record unlock:11272956"}]},{"type":"Point","coordinates":[-2.38449,53.3478],"citations":[{"label":"Key to English Place-Names (KEPN), gazetteer record 11781"}]}]},"when":{"timespans":[{"start":{"in":"1086"},"end":{"in":"1739"}}]},"links":[{"type":"closeMatch","identifier":"https://sws.geonames.org/2639108/"}],"relations":[{"relationType":"gvp:broaderPartitive","relationTo":"https://w3id.org/whg-epns/45/002843","label":"within Rostherne"}]}]}