{"@context":"https://raw.githubusercontent.com/LinkedPasts/linked-places-format/main/linkedplaces-context-v1.1.jsonld","type":"FeatureCollection","license":"Digitisation of English Placenames MADS data is licensed to Jisc by the English Place Names Society and released under a Creative Commons Attribution-NonCommercial 4.0 International License.","note":"LPF v1.3, lossy; derived from the PLATO record; plato_commit=fa0d247ccc0263f8f19c8d7cdcd163df96935d1e","features":[{"@id":"https://w3id.org/whg-epns/45/004943","type":"Feature","properties":{"title":"Toft, Toft Hall","ccodes":["GB"],"fclasses":["A","P"]},"names":[{"toponym":"Toft, Toft Hall","lang":"en","citations":[{"label":"English Place-Name Society survey, volume 45: Cheshire"}]},{"toponym":"Tofte","citations":[{"label":"12 Tab","year":1100},{"label":"1210 Mass","year":1210}],"when":{"timespans":[{"start":{"earliest":"1100","latest":"1200"},"end":{"earliest":"1100","latest":"1200"}},{"start":{"in":"1210"},"end":{"in":"1210"}}]}},{"toponym":"Toft","citations":[{"label":"c.1233 Sheaf","year":1223},{"label":"Chest","year":1245},{"label":"1245 Chest","year":1245}],"when":{"timespans":[{"start":{"earliest":"1223","latest":"1243"},"end":{"earliest":"1223","latest":"1243"}},{"start":{"in":"1245"},"end":{"in":"1245"}},{"start":{"in":"1245"},"end":{"in":"1245"}}]}},{"toponym":"le Toft","citations":[{"label":"1403 Pat","year":1403}],"when":{"timespans":[{"start":{"in":"1403"},"end":{"in":"1403"}}]}},{"toponym":"Tofft(e)","citations":[{"label":"13 Dav","year":1200},{"label":"c.1270 Chol","year":1260}],"when":{"timespans":[{"start":{"earliest":"1200","latest":"1300"},"end":{"earliest":"1200","latest":"1300"}},{"start":{"earliest":"1260","latest":"1280"},"end":{"earliest":"1260","latest":"1280"}}]}},{"toponym":"Thoft","citations":[{"label":"c.1283 Chest","year":1273}],"when":{"timespans":[{"start":{"earliest":"1273","latest":"1293"},"end":{"earliest":"1273","latest":"1293"}}]}},{"toponym":"Tofth","citations":[{"label":"c.1300 Tab","year":1290}],"when":{"timespans":[{"start":{"earliest":"1290","latest":"1310"},"end":{"earliest":"1290","latest":"1310"}}]}},{"toponym":"Thofete","citations":[{"label":"c.1200 Sheaf","year":1190}],"when":{"timespans":[{"start":{"earliest":"1190","latest":"1210"},"end":{"earliest":"1190","latest":"1210"}}]}},{"toponym":"Toffet(e)","citations":[{"label":"e14 Tab","year":1300}],"when":{"timespans":[{"start":{"earliest":"1300","latest":"1325"},"end":{"earliest":"1300","latest":"1325"}},{"start":{"in":"1327"},"end":{"in":"1327"}}]}},{"toponym":"Toftes","citations":[{"label":"1305 Lacy","year":1305}],"when":{"timespans":[{"start":{"in":"1305"},"end":{"in":"1305"}}]}},{"toponym":"Toft(e)s","citations":[{"label":"1325 ChRR","year":1325}],"when":{"timespans":[{"start":{"in":"1325"},"end":{"in":"1325"}},{"start":{"in":"1327"},"end":{"in":"1327"}}]}}],"types":[{"identifier":"http://vocab.getty.edu/aat/300232418","label":"administrative division","sourceLabels":[{"label":"township","lang":"en"}]}],"geometry":{"type":"GeometryCollection","geometries":[{"type":"Point","coordinates":[-2.36864,53.27931],"citations":[{"label":"GeoNames, gazetteer record geonames:7294576"}]},{"type":"Point","coordinates":[-2.374988738,53.28011134],"citations":[{"label":"English Place-Name Society survey (DEEP coordinates)"}]},{"type":"Point","coordinates":[-2.367527806649373,53.28463065065957],"citations":[{"label":"Unlock (EDINA) gazetteer, gazetteer record unlock:11301896"}]},{"type":"Point","coordinates":[-2.36893,53.2849],"citations":[{"label":"Key to English Place-Names (KEPN), gazetteer record 11789"}]}]},"when":{"timespans":[{"start":{"in":"1100"},"end":{"in":"1403"}}]},"links":[{"type":"closeMatch","identifier":"https://sws.geonames.org/7294576/"}],"relations":[{"relationType":"gvp:broaderPartitive","relationTo":"https://w3id.org/whg-epns/45/004529","label":"within Knutsford"}]}]}