{"@context":"https://raw.githubusercontent.com/LinkedPasts/linked-places-format/main/linkedplaces-context-v1.1.jsonld","type":"FeatureCollection","license":"Digitisation of English Placenames MADS data is licensed to Jisc by the English Place Names Society and released under a Creative Commons Attribution-NonCommercial 4.0 International License.","note":"LPF v1.3, lossy; derived from the PLATO record; plato_commit=fa0d247ccc0263f8f19c8d7cdcd163df96935d1e","features":[{"@id":"https://w3id.org/whg-epns/45/007247","type":"Feature","properties":{"title":"Stretton","ccodes":["GB"],"fclasses":["A","P"]},"names":[{"toponym":"Stretton","lang":"en","citations":[{"label":"English Place-Name Society survey, volume 45: Cheshire"}]},{"toponym":"Stretton(a)","citations":[{"label":"H2 Orm2","year":1154},{"label":"1259 Court","year":1259},{"label":"1259 Plea","year":1259},{"label":"Whall","year":1263},{"label":"1263 Whall","year":1263}],"when":{"timespans":[{"start":{"earliest":"1154","latest":"1189"},"end":{"earliest":"1154","latest":"1189"}},{"start":{"earliest":"1199","latest":"1216"},"end":{"earliest":"1199","latest":"1216"}},{"start":{"in":"1259"},"end":{"in":"1259"}},{"start":{"in":"1259"},"end":{"in":"1259"}},{"start":{"in":"1263"},"end":{"in":"1263"}},{"start":{"in":"1263"},"end":{"in":"1263"}}]}},{"toponym":"Strettone","citations":[{"label":"1305 Lacy","year":1305}],"when":{"timespans":[{"start":{"in":"1305"},"end":{"in":"1305"}}]}},{"toponym":"Stretton iuxta Hulle","citations":[{"label":"1308 Plea","year":1308}],"when":{"timespans":[{"start":{"in":"1308"},"end":{"in":"1308"}}]}},{"toponym":"Stretton Overwhitelegh","citations":[{"label":"1348 Plea","year":1348}],"when":{"timespans":[{"start":{"in":"1348"},"end":{"in":"1348"}}]}},{"toponym":"Stretton Apelton","citations":[{"label":"1381 Plea","year":1381}],"when":{"timespans":[{"start":{"in":"1381"},"end":{"in":"1381"}}]}},{"toponym":"Stretton Gropenhale","citations":[{"label":"1383 Plea","year":1383}],"when":{"timespans":[{"start":{"in":"1383"},"end":{"in":"1383"}}]}},{"toponym":"Strathton","citations":[{"label":"1281 Tab","year":1281}],"when":{"timespans":[{"start":{"in":"1281"},"end":{"in":"1281"}}]}},{"toponym":"Stratton","citations":[{"label":"1287 Court","year":1287},{"label":"1329 IpmR","year":1329},{"label":"1368 Mere","year":1368},{"label":"1384 Plea","year":1384}],"when":{"timespans":[{"start":{"in":"1287"},"end":{"in":"1287"}},{"start":{"in":"1329"},"end":{"in":"1329"}},{"start":{"in":"1368"},"end":{"in":"1368"}},{"start":{"in":"1384"},"end":{"in":"1384"}}]}}],"types":[{"identifier":"http://vocab.getty.edu/aat/300232418","label":"administrative division","sourceLabels":[{"label":"township","lang":"en"}]}],"geometry":{"type":"GeometryCollection","geometries":[{"type":"Point","coordinates":[-2.56667,53.33333],"citations":[{"label":"GeoNames, gazetteer record geonames:2636658"}]},{"type":"Point","coordinates":[-2.570692876,53.33327471],"citations":[{"label":"English Place-Name Society survey (DEEP coordinates)"}]},{"type":"Point","coordinates":[-2.563125132658191,53.32881691525039],"citations":[{"label":"Unlock (EDINA) gazetteer, gazetteer record unlock:11208824"}]},{"type":"Point","coordinates":[-2.57964,53.338],"citations":[{"label":"Key to English Place-Names (KEPN), gazetteer record 11807"}]}]},"when":{"timespans":[{"start":{"in":"1154"},"end":{"in":"1384"}}]},"links":[{"type":"closeMatch","identifier":"https://sws.geonames.org/2636658/"}],"relations":[{"relationType":"gvp:broaderPartitive","relationTo":"https://w3id.org/whg-epns/45/005705","label":"within Great Budworth"}]}]}