{"@context":"https://raw.githubusercontent.com/LinkedPasts/linked-places-format/main/linkedplaces-context-v1.1.jsonld","type":"FeatureCollection","license":"Digitisation of English Placenames MADS data is licensed to Jisc by the English Place Names Society and released under a Creative Commons Attribution-NonCommercial 4.0 International License.","note":"LPF v1.3, lossy; derived from the PLATO record; plato_commit=ca0afadabec1e23a145c0b03df77e8f151f79832","features":[{"@id":"http://placenames.org.uk/id/placename/45/008000","type":"Feature","properties":{"title":"Seven Oaks, Seven Oaks Farm, Senna Green","ccodes":["GB"],"fclasses":["A","P"]},"names":[{"toponym":"Seven Oaks, Seven Oaks Farm, Senna Green","lang":"en","citations":[{"label":"English Place-Name Society survey, volume 45: Cheshire"}]},{"toponym":"Seuen okes","citations":[{"label":"1353 MinAcct","year":1353},{"label":"1477 Dav","year":1477},{"label":"1702 Chol","year":1702}],"when":{"timespans":[{"start":{"in":"1353"},"end":{"in":"1353"}},{"start":{"in":"1477"},"end":{"in":"1477"}},{"start":{"in":"1702"},"end":{"in":"1702"}}]}},{"toponym":"Seven Oakes","citations":[{"label":"1591 Rental","year":1591}],"when":{"timespans":[{"start":{"in":"1591"},"end":{"in":"1591"}}]}},{"toponym":"Seven Oaks","citations":[{"label":"1757 Sheaf","year":1757}],"when":{"timespans":[{"start":{"in":"1757"},"end":{"in":"1757"}}]}},{"toponym":"Seaven Oakes","citations":[{"label":"1666 Orm2","year":1666},{"label":"1702 Chol","year":1702}],"when":{"timespans":[{"start":{"in":"1666"},"end":{"in":"1666"}},{"start":{"in":"1702"},"end":{"in":"1702"}}]}},{"toponym":"Senokeʒ","citations":[{"label":"1500 CoLegh","year":1500}],"when":{"timespans":[{"start":{"in":"1500"},"end":{"in":"1500"}}]}},{"toponym":"Senna Green","citations":[{"label":"1831 Bry","year":1831}],"when":{"timespans":[{"start":{"in":"1831"},"end":{"in":"1831"}}]}}],"types":[{"identifier":"http://vocab.getty.edu/aat/300232418","label":"administrative division","sourceLabels":[{"label":"township","lang":"en"}]}],"geometry":{"type":"GeometryCollection","geometries":[{"type":"Point","coordinates":[-2.555325223,53.30637765],"citations":[{"label":"English Place-Name Society survey (DEEP coordinates)"}]},{"type":"Point","coordinates":[-2.547763845604446,53.30191884263467],"citations":[{"label":"Unlock (EDINA) gazetteer, gazetteer record unlock:11280256"}]},{"type":"Point","coordinates":[-2.54926,53.3112],"citations":[{"label":"Key to English Place-Names (KEPN), gazetteer record 11812"}]}]},"when":{"timespans":[{"start":{"in":"1353"},"end":{"in":"1831"}}]},"relations":[{"relationType":"gvp:broaderPartitive","relationTo":"http://placenames.org.uk/id/placename/45/005705","label":"within Great Budworth"}]}]}