{"@context":"https://raw.githubusercontent.com/LinkedPasts/linked-places-format/main/linkedplaces-context-v1.1.jsonld","type":"FeatureCollection","license":"Digitisation of English Placenames MADS data is licensed to Jisc by the English Place Names Society and released under a Creative Commons Attribution-NonCommercial 4.0 International License.","note":"LPF v1.3, lossy; derived from the PLATO record; plato_commit=ca0afadabec1e23a145c0b03df77e8f151f79832","features":[{"@id":"http://placenames.org.uk/id/placename/45/008417","type":"Feature","properties":{"title":"Grappenhall","ccodes":["GB"],"fclasses":["A","P"]},"names":[{"toponym":"Grappenhall","lang":"en","citations":[{"label":"English Place-Name Society survey, volume 45: Cheshire"}]},{"toponym":"Gropenhale","citations":[{"label":"1086 DB","year":1086},{"label":"1519 Plea","year":1519}],"when":{"timespans":[{"start":{"in":"1086"},"end":{"in":"1086"}},{"start":{"in":"1519"},"end":{"in":"1519"}}]}},{"toponym":"Gropen(h)ale","citations":[{"label":"1175–1200, recurring Tab","year":1175},{"label":"1175–1200, recurring Facs"},{"label":"l12 Tab","year":1175},{"label":"l12 Facs","year":1175}],"when":{"timespans":[{"start":{"in":"1175"},"end":{"in":"1200"}},{"start":{"earliest":"1175","latest":"1200"},"end":{"earliest":"1175","latest":"1200"}},{"start":{"earliest":"1175","latest":"1200"},"end":{"earliest":"1175","latest":"1200"}}]}},{"toponym":"Gropen(h)al","citations":[{"label":"l12-1600 unspecified sources","year":1175}],"when":{"timespans":[{"start":{"in":"1175"},"end":{"in":"1600"}}]}},{"toponym":"Gropenhall","citations":[{"label":"1349 ChRR","year":1349},{"label":"1448–1677, recurring ChRR","year":1448},{"label":"1448–1677, recurring Sheaf"},{"label":"1448 ChRR","year":1448},{"label":"1677 Sheaf","year":1677}],"when":{"timespans":[{"start":{"in":"1349"},"end":{"in":"1349"}},{"start":{"in":"1448"},"end":{"in":"1677"}},{"start":{"in":"1448"},"end":{"in":"1448"}},{"start":{"in":"1677"},"end":{"in":"1677"}}]}},{"toponym":"Gropenelle","citations":[{"label":"1384 AD","year":1384}],"when":{"timespans":[{"start":{"in":"1384"},"end":{"in":"1384"}}]}},{"toponym":"Gropenall","citations":[{"label":"1436 Pat","year":1436},{"label":"1673 AddCh","year":1673},{"label":"1705 Sheaf","year":1705}],"when":{"timespans":[{"start":{"in":"1436"},"end":{"in":"1436"}},{"start":{"in":"1673"},"end":{"in":"1673"}},{"start":{"in":"1705"},"end":{"in":"1705"}}]}},{"toponym":"Gropenehalle","citations":[{"label":"1295 Lacy","year":1295}],"when":{"timespans":[{"start":{"in":"1295"},"end":{"in":"1295"}}]}},{"toponym":"Groppenhale","citations":[{"label":"1313 CRC","year":1313}],"when":{"timespans":[{"start":{"in":"1313"},"end":{"in":"1313"}}]}},{"toponym":"Groppenhall","citations":[{"label":"1554 ChRR","year":1554}],"when":{"timespans":[{"start":{"in":"1554"},"end":{"in":"1554"}}]}},{"toponym":"Groppenhull","citations":[{"label":"1633 Sheaf","year":1633}],"when":{"timespans":[{"start":{"in":"1633"},"end":{"in":"1633"}}]}},{"toponym":"Gropinhale","citations":[{"label":"1260 Court","year":1260},{"label":"1291 Tax","year":1291}],"when":{"timespans":[{"start":{"in":"1260"},"end":{"in":"1260"}},{"start":{"in":"1291"},"end":{"in":"1291"}}]}},{"toponym":"Gropynhale","citations":[{"label":"1458 ChRR","year":1458}],"when":{"timespans":[{"start":{"in":"1458"},"end":{"in":"1458"}}]}},{"toponym":"Grapenale","citations":[{"label":"H3 JRC","year":1216}],"when":{"timespans":[{"start":{"earliest":"1216","latest":"1272"},"end":{"earliest":"1216","latest":"1272"}}]}},{"toponym":"Grapenhale","citations":[{"label":"1353 BPR","year":1353}],"when":{"timespans":[{"start":{"in":"1353"},"end":{"in":"1353"}}]}},{"toponym":"Grappenhall","citations":[{"label":"14 Mere","year":1300},{"label":"1382 ChRR","year":1382},{"label":"1724 NotCestr","year":1724}],"when":{"timespans":[{"start":{"earliest":"1300","latest":"1400"},"end":{"earliest":"1300","latest":"1400"}},{"start":{"in":"1382"},"end":{"in":"1382"}},{"start":{"in":"1724"},"end":{"in":"1724"}}]}},{"toponym":"Grapenwall","citations":[{"label":"1752 Sheaf","year":1752}],"when":{"timespans":[{"start":{"in":"1752"},"end":{"in":"1752"}}]}},{"toponym":"Cropenhale","citations":[{"label":"1297 CRV","year":1297}],"when":{"timespans":[{"start":{"in":"1297"},"end":{"in":"1297"}}]}},{"toponym":"Croppenhalle","citations":[{"label":"1536 Dugd","year":1536}],"when":{"timespans":[{"start":{"in":"1536"},"end":{"in":"1536"}}]}},{"toponym":"Croppenhall","citations":[{"label":"1739 LRMB","year":1739}],"when":{"timespans":[{"start":{"in":"1739"},"end":{"in":"1739"}}]}},{"toponym":"Grepenhale","citations":[{"label":"1338 Pat","year":1338}],"when":{"timespans":[{"start":{"in":"1338"},"end":{"in":"1338"}}]}},{"toponym":"Grepenhall","citations":[{"label":"1504 Sheaf","year":1504}],"when":{"timespans":[{"start":{"in":"1504"},"end":{"in":"1504"}}]}},{"toponym":"Gropnall","citations":[{"label":"1428 ChRR","year":1428},{"label":"1637 Chol","year":1637}],"when":{"timespans":[{"start":{"in":"1428"},"end":{"in":"1428"}},{"start":{"in":"1528"},"end":{"in":"1528"}},{"start":{"in":"1542"},"end":{"in":"1542"}},{"start":{"in":"1623"},"end":{"in":"1623"}},{"start":{"in":"1637"},"end":{"in":"1637"}}]}},{"toponym":"Gropnale","citations":[{"label":"1528 ChRR","year":1528}],"when":{"timespans":[{"start":{"in":"1528"},"end":{"in":"1528"}}]}},{"toponym":"Grovenhall","citations":[{"label":"1433 Tab","year":1433}],"when":{"timespans":[{"start":{"in":"1433"},"end":{"in":"1433"}}]}},{"toponym":"Grapnall","citations":[{"label":"1554 Sheaf","year":1554},{"label":"1660 Sheaf","year":1660}],"when":{"timespans":[{"start":{"in":"1554"},"end":{"in":"1554"}},{"start":{"in":"1660"},"end":{"in":"1660"}},{"start":{"in":"1670"},"end":{"in":"1670"}},{"start":{"in":"1698"},"end":{"in":"1698"}}]}},{"toponym":"Grapnell","citations":[{"label":"1593 Orm2","year":1593}],"when":{"timespans":[{"start":{"in":"1593"},"end":{"in":"1593"}}]}},{"toponym":"Grapnoe","citations":[{"label":"1690 Sheaf","year":1690}],"when":{"timespans":[{"start":{"in":"1690"},"end":{"in":"1690"}}]}}],"types":[{"identifier":"http://vocab.getty.edu/aat/300232418","label":"administrative division","sourceLabels":[{"label":"township","lang":"en"}]}],"geometry":{"type":"GeometryCollection","geometries":[{"type":"Point","coordinates":[-2.54675,53.37204],"citations":[{"label":"GeoNames, gazetteer record geonames:6693989"}]},{"type":"Point","coordinates":[-2.556143246,53.36930263],"citations":[{"label":"English Place-Name Society survey (DEEP coordinates)"}]},{"type":"Point","coordinates":[-2.54857059984295,53.36484396882244],"citations":[{"label":"Unlock (EDINA) gazetteer, gazetteer record unlock:11158158"}]},{"type":"Point","coordinates":[-2.55007,53.3741],"citations":[{"label":"Key to English Place-Names (KEPN), gazetteer record 12196"}]}]},"when":{"timespans":[{"start":{"in":"1086"},"end":{"in":"1752"}}]},"links":[{"type":"closeMatch","identifier":"https://sws.geonames.org/6693989/"}],"relations":[{"relationType":"gvp:broaderPartitive","relationTo":"http://placenames.org.uk/id/placename/45/008416","label":"within Grappenhall"}]}]}