{"@context":"https://raw.githubusercontent.com/LinkedPasts/linked-places-format/main/linkedplaces-context-v1.1.jsonld","type":"FeatureCollection","license":"Digitisation of English Placenames MADS data is licensed to Jisc by the English Place Names Society and released under a Creative Commons Attribution-NonCommercial 4.0 International License.","note":"LPF v1.3, lossy; derived from the PLATO record; plato_commit=ca0afadabec1e23a145c0b03df77e8f151f79832","features":[{"@id":"https://w3id.org/whg-epns/45/009288","type":"Feature","properties":{"title":"Walton Inferior","ccodes":["GB"],"fclasses":["A","P"]},"names":[{"toponym":"Walton Inferior","lang":"en","citations":[{"label":"English Place-Name Society survey, volume 45: Cheshire"}]},{"toponym":"Waletun","citations":[{"label":"12 Dow","year":1100},{"label":"John AddCh","year":1199}],"when":{"timespans":[{"start":{"earliest":"1100","latest":"1200"},"end":{"earliest":"1100","latest":"1200"}},{"start":{"earliest":"1199","latest":"1216"},"end":{"earliest":"1199","latest":"1216"}}]}},{"toponym":"Waletona","citations":[{"label":"1154-60 Ch","year":1154},{"label":"1190- 99 Facs","year":1190},{"label":"1190- 99 Cott.","year":1190}],"when":{"timespans":[{"start":{"earliest":"1154","latest":"1160"},"end":{"earliest":"1154","latest":"1160"}},{"start":{"earliest":"1190","latest":"1199"},"end":{"earliest":"1190","latest":"1199"}},{"start":{"earliest":"1190","latest":"1199"},"end":{"earliest":"1190","latest":"1199"}}]}},{"toponym":"Waleton'","citations":[{"label":"1191–1331, recurring Facs","year":1191},{"label":"1191–1331, recurring Pat"},{"label":"1191 Facs","year":1191},{"label":"1331 Pat","year":1331}],"when":{"timespans":[{"start":{"in":"1191"},"end":{"in":"1331"}},{"start":{"in":"1191"},"end":{"in":"1191"}},{"start":{"in":"1331"},"end":{"in":"1331"}}]}},{"toponym":"Walethon, Waletone","citations":[{"label":"1191-1331 unspecified sources","year":1191}],"when":{"timespans":[{"start":{"in":"1191"},"end":{"in":"1331"}}]}},{"toponym":"Waletone iuxta grangiam Actone","citations":[{"label":"1249-61 Whall","year":1249}],"when":{"timespans":[{"start":{"earliest":"1249","latest":"1261"},"end":{"earliest":"1249","latest":"1261"}}]}},{"toponym":"parua walet'","citations":[{"label":"1190-99 Facs","year":1190}],"when":{"timespans":[{"start":{"earliest":"1190","latest":"1199"},"end":{"earliest":"1190","latest":"1199"}}]}},{"toponym":"Walton","citations":[{"label":"1190–1190, recurring Orm2","year":1190},{"label":"1190 Orm2","year":1190}],"when":{"timespans":[{"start":{"in":"1190"},"end":{"in":"1190"}},{"start":{"in":"1190"},"end":{"in":"1190"}}]}},{"toponym":"Waltona, Waltone","citations":[{"label":"1190-1600 unspecified sources","year":1190}],"when":{"timespans":[{"start":{"in":"1190"},"end":{"in":"1600"}}]}},{"toponym":"Walton in Haletonshir","citations":[{"label":"1263 Whall","year":1263}],"when":{"timespans":[{"start":{"in":"1263"},"end":{"in":"1263"}}]}},{"toponym":"Walton inferior","citations":[{"label":"1270-90 Mere","year":1270}],"when":{"timespans":[{"start":{"earliest":"1270","latest":"1290"},"end":{"earliest":"1270","latest":"1290"}}]}},{"toponym":"Walton in Haltonshir","citations":[{"label":"1303 Whall","year":1303}],"when":{"timespans":[{"start":{"in":"1303"},"end":{"in":"1303"}}]}},{"toponym":"Inferior Walton (in Haltonshir)","citations":[{"label":"1286 Whall","year":1286}],"when":{"timespans":[{"start":{"in":"1286"},"end":{"in":"1286"}}]}},{"toponym":"Nether Walton","citations":[{"label":"1295 Cl","year":1295}],"when":{"timespans":[{"start":{"in":"1295"},"end":{"in":"1295"}}]}},{"toponym":"Neyther Walton","citations":[{"label":"1557 Mere","year":1557}],"when":{"timespans":[{"start":{"in":"1557"},"end":{"in":"1557"}}]}},{"toponym":"Neither Walton","citations":[{"label":"1673 AddCh","year":1673}],"when":{"timespans":[{"start":{"in":"1673"},"end":{"in":"1673"}}]}},{"toponym":"Neather Walton","citations":[{"label":"1673 ChRR","year":1673}],"when":{"timespans":[{"start":{"in":"1673"},"end":{"in":"1673"}}]}},{"toponym":"Lower Walton","citations":[{"label":"1642 Mere","year":1642}],"when":{"timespans":[{"start":{"in":"1642"},"end":{"in":"1642"}}]}},{"toponym":"Low Walton","citations":[{"label":"1775 Sheaf","year":1775}],"when":{"timespans":[{"start":{"in":"1775"},"end":{"in":"1775"}}]}},{"toponym":"Wall'","citations":[{"label":"1200-63 Whall","year":1200}],"when":{"timespans":[{"start":{"earliest":"1200","latest":"1263"},"end":{"earliest":"1200","latest":"1263"}}]}}],"types":[{"identifier":"http://vocab.getty.edu/aat/300232418","label":"administrative division","sourceLabels":[{"label":"township","lang":"en"}]}],"geometry":{"type":"GeometryCollection","geometries":[{"type":"Point","coordinates":[-2.601106784,53.36009488],"citations":[{"label":"English Place-Name Society survey (DEEP coordinates)"}]},{"type":"Point","coordinates":[-2.59503,53.3649],"citations":[{"label":"Key to English Place-Names (KEPN), gazetteer record 11822"}]}]},"when":{"timespans":[{"start":{"in":"1100"},"end":{"in":"1775"}}]},"relations":[{"relationType":"gvp:broaderPartitive","relationTo":"https://w3id.org/whg-epns/45/008639","label":"within Daresbury Chapelry"}]}]}