{"@context":"https://raw.githubusercontent.com/LinkedPasts/linked-places-format/main/linkedplaces-context-v1.1.jsonld","type":"FeatureCollection","license":"Digitisation of English Placenames MADS data is licensed to Jisc by the English Place Names Society and released under a Creative Commons Attribution-NonCommercial 4.0 International License.","note":"LPF v1.3, lossy; derived from the PLATO record; plato_commit=fa0d247ccc0263f8f19c8d7cdcd163df96935d1e","features":[{"@id":"https://w3id.org/whg-epns/45/010733","type":"Feature","properties":{"title":"Birches, Birches Hall","ccodes":["GB"],"fclasses":["A","P"]},"names":[{"toponym":"Birches, Birches Hall","lang":"en","citations":[{"label":"English Place-Name Society survey, volume 45: Cheshire"}]},{"toponym":"(le) Birches","citations":[{"label":"1265-1291 Chest","year":1265}],"when":{"timespans":[{"start":{"earliest":"1265","latest":"1291"},"end":{"earliest":"1265","latest":"1291"}}]}},{"toponym":"Byrchys","citations":[{"label":"1265-1291 Chest","year":1265}],"when":{"timespans":[{"start":{"earliest":"1265","latest":"1291"},"end":{"earliest":"1265","latest":"1291"}}]}},{"toponym":"Byrches","citations":[{"label":"1265-1291 Chest","year":1265}],"when":{"timespans":[{"start":{"earliest":"1265","latest":"1291"},"end":{"earliest":"1265","latest":"1291"}}]}},{"toponym":"Byrchis","citations":[{"label":"1265-1291 Chest","year":1265}],"when":{"timespans":[{"start":{"earliest":"1265","latest":"1291"},"end":{"earliest":"1265","latest":"1291"}}]}},{"toponym":"Burches","citations":[{"label":"1265-1291 Chest","year":1265}],"when":{"timespans":[{"start":{"earliest":"1265","latest":"1291"},"end":{"earliest":"1265","latest":"1291"}}]}},{"toponym":"Birches iuxta Shibbrok","citations":[{"label":"1308 Orm2","year":1308}],"when":{"timespans":[{"start":{"in":"1308"},"end":{"in":"1308"}}]}},{"toponym":"Birches super Rodeheyth iuxta Lostock Gralam","citations":[{"label":"1314 AddCh","year":1314}],"when":{"timespans":[{"start":{"in":"1314"},"end":{"in":"1314"}}]}},{"toponym":"Birches juxta Schidbrok et Lostock Gralam","citations":[{"label":"1321 AddCh","year":1321}],"when":{"timespans":[{"start":{"in":"1321"},"end":{"in":"1321"}}]}},{"toponym":"Birches Hall","citations":[{"label":"1690 Sheaf","year":1690}],"when":{"timespans":[{"start":{"in":"1690"},"end":{"in":"1690"}}]}}],"types":[{"identifier":"http://vocab.getty.edu/aat/300232418","label":"administrative division","sourceLabels":[{"label":"township","lang":"en"}]}],"geometry":{"type":"GeometryCollection","geometries":[{"type":"Point","coordinates":[-2.448155192,53.24839421],"citations":[{"label":"English Place-Name Society survey (DEEP coordinates)"}]},{"type":"Point","coordinates":[-2.442160133557331,53.24841774672193],"citations":[{"label":"Unlock (EDINA) gazetteer, gazetteer record unlock:11077429"}]},{"type":"Point","coordinates":[-2.44355,53.2487],"citations":[{"label":"Key to English Place-Names (KEPN), gazetteer record 11834"}]}]},"when":{"timespans":[{"start":{"in":"1265"},"end":{"in":"1690"}}]},"relations":[{"relationType":"gvp:broaderPartitive","relationTo":"https://w3id.org/whg-epns/45/010732","label":"within Witton Chapelry"}]}]}