{"@context":"https://raw.githubusercontent.com/LinkedPasts/linked-places-format/main/linkedplaces-context-v1.1.jsonld","type":"FeatureCollection","license":"Digitisation of English Placenames MADS data is licensed to Jisc by the English Place Names Society and released under a Creative Commons Attribution-NonCommercial 4.0 International License.","note":"LPF v1.3, lossy; derived from the PLATO record; plato_commit=ca0afadabec1e23a145c0b03df77e8f151f79832","features":[{"@id":"https://w3id.org/whg-epns/45/013222","type":"Feature","properties":{"title":"Kinderton cum Hulme","ccodes":["GB"],"fclasses":["A","P"]},"names":[{"toponym":"Kinderton cum Hulme","lang":"en","citations":[{"label":"English Place-Name Society survey, volume 45: Cheshire"}]},{"toponym":"Kynderton cum Hulm","citations":[{"label":"1430 Dav","year":1430}],"when":{"timespans":[{"start":{"in":"1430"},"end":{"in":"1430"}}]}}],"types":[{"identifier":"http://vocab.getty.edu/aat/300232418","label":"administrative division","sourceLabels":[{"label":"township","lang":"en"}]}],"geometry":{"type":"Point","coordinates":[-2.44392,53.2846],"citations":[{"label":"Key to English Place-Names (KEPN), gazetteer record 11860"}]},"when":{"timespans":[{"start":{"in":"1430"},"end":{"in":"1430"}}]},"relations":[{"relationType":"gvp:broaderPartitive","relationTo":"https://w3id.org/whg-epns/45/013015","label":"within Middlewich"}]}]}