{"@context":"https://raw.githubusercontent.com/LinkedPasts/linked-places-format/main/linkedplaces-context-v1.1.jsonld","type":"FeatureCollection","license":"Digitisation of English Placenames MADS data is licensed to Jisc by the English Place Names Society and released under a Creative Commons Attribution-NonCommercial 4.0 International License.","note":"LPF v1.3, lossy; derived from the PLATO record; plato_commit=fa0d247ccc0263f8f19c8d7cdcd163df96935d1e","features":[{"@id":"https://w3id.org/whg-epns/45/014028","type":"Feature","properties":{"title":"Sproston","ccodes":["GB"],"fclasses":["A","P"]},"names":[{"toponym":"Sproston","lang":"en","citations":[{"label":"English Place-Name Society survey, volume 45: Cheshire"}]},{"toponym":"Sprostune","citations":[{"label":"1086 DB","year":1086}],"when":{"timespans":[{"start":{"in":"1086"},"end":{"in":"1086"}}]}},{"toponym":"Sproston","citations":[{"label":"1240-6 MidCh","year":1240},{"label":"1503 Plea","year":1503}],"when":{"timespans":[{"start":{"earliest":"1240","latest":"1246"},"end":{"earliest":"1240","latest":"1246"}},{"start":{"in":"1503"},"end":{"in":"1503"}}]}},{"toponym":"Sprouston","citations":[{"label":"1230 Tab","year":1230},{"label":"Chest","year":1271},{"label":"Orm2"},{"label":"1271-4 Chest","year":1271},{"label":"1621 Orm2","year":1621}],"when":{"timespans":[{"start":{"in":"1230"},"end":{"in":"1230"}},{"start":{"in":"1271"},"end":{"in":"1621"}},{"start":{"earliest":"1271","latest":"1274"},"end":{"earliest":"1271","latest":"1274"}},{"start":{"in":"1621"},"end":{"in":"1621"}}]}},{"toponym":"Sprow(e)ston","citations":[{"label":"1425 Orm2","year":1425},{"label":"1429 Chol","year":1429},{"label":"1561 ChRR","year":1561},{"label":"1784 Sheaf","year":1784}],"when":{"timespans":[{"start":{"in":"1425"},"end":{"in":"1425"}},{"start":{"in":"1429"},"end":{"in":"1429"}},{"start":{"in":"1561"},"end":{"in":"1561"}},{"start":{"in":"1784"},"end":{"in":"1784"}}]}},{"toponym":"Sproustowe","citations":[{"label":"14 Chest","year":1300}],"when":{"timespans":[{"start":{"earliest":"1300","latest":"1400"},"end":{"earliest":"1300","latest":"1400"}}]}},{"toponym":"Sprovstou'","citations":[{"label":"1444 Cre","year":1444}],"when":{"timespans":[{"start":{"in":"1444"},"end":{"in":"1444"}}]}},{"toponym":"Sproxton","citations":[{"label":"1299 Fine","year":1299},{"label":"1397 Pat","year":1397}],"when":{"timespans":[{"start":{"in":"1299"},"end":{"in":"1299"}},{"start":{"in":"1397"},"end":{"in":"1397"}}]}},{"toponym":"Sproxtun","citations":[{"label":"1351 Chamb","year":1351}],"when":{"timespans":[{"start":{"in":"1351"},"end":{"in":"1351"}}]}},{"toponym":"Sprauston","citations":[{"label":"1407 ChRR","year":1407}],"when":{"timespans":[{"start":{"in":"1407"},"end":{"in":"1407"}}]}}],"types":[{"identifier":"http://vocab.getty.edu/aat/300232418","label":"administrative division","sourceLabels":[{"label":"township","lang":"en"}]}],"geometry":{"type":"GeometryCollection","geometries":[{"type":"Point","coordinates":[-2.40637,53.18905],"citations":[{"label":"GeoNames, gazetteer record geonames:7293044"}]},{"type":"Point","coordinates":[-2.404139494,53.19011687],"citations":[{"label":"English Place-Name Society survey (DEEP coordinates)"}]},{"type":"Point","coordinates":[-2.396697232564299,53.19463801516566],"citations":[{"label":"Unlock (EDINA) gazetteer, gazetteer record unlock:11289700"}]},{"type":"Point","coordinates":[-2.39809,53.1949],"citations":[{"label":"Key to English Place-Names (KEPN), gazetteer record 11865"}]}]},"when":{"timespans":[{"start":{"in":"1086"},"end":{"in":"1784"}}]},"links":[{"type":"closeMatch","identifier":"https://sws.geonames.org/7293044/"}],"relations":[{"relationType":"gvp:broaderPartitive","relationTo":"https://w3id.org/whg-epns/45/013015","label":"within Middlewich"}]}]}