{"@context":"https://raw.githubusercontent.com/LinkedPasts/linked-places-format/main/linkedplaces-context-v1.1.jsonld","type":"FeatureCollection","license":"Digitisation of English Placenames MADS data is licensed to Jisc by the English Place Names Society and released under a Creative Commons Attribution-NonCommercial 4.0 International License.","note":"LPF v1.3, lossy; derived from the PLATO record; plato_commit=fa0d247ccc0263f8f19c8d7cdcd163df96935d1e","features":[{"@id":"https://w3id.org/whg-epns/45/014223","type":"Feature","properties":{"title":"Warmingham","ccodes":["GB"],"fclasses":["A","P"]},"names":[{"toponym":"Warmingham","lang":"en","citations":[{"label":"English Place-Name Society survey, volume 45: Cheshire"}]}],"types":[{"identifier":"http://vocab.getty.edu/aat/300232418","label":"administrative division","sourceLabels":[{"label":"parish","lang":"en"}]}],"geometry":{"type":"GeometryCollection","geometries":[{"type":"Point","coordinates":[-2.43713,53.14651],"citations":[{"label":"GeoNames, gazetteer record geonames:2634758"}]},{"type":"Point","coordinates":[-2.448573479,53.14500767],"citations":[{"label":"English Place-Name Society survey (DEEP coordinates)"}]},{"type":"Point","coordinates":[-2.441143690234,53.14953158164263],"citations":[{"label":"Unlock (EDINA) gazetteer, gazetteer record unlock:11313470"}]},{"type":"Point","coordinates":[-2.42758,53.1499],"citations":[{"label":"Key to English Place-Names (KEPN), gazetteer record 11872"}]}]},"links":[{"type":"closeMatch","identifier":"https://sws.geonames.org/2634758/"}],"relations":[{"relationType":"gvp:broaderPartitive","relationTo":"https://w3id.org/whg-epns/45/010729","label":"within Northwich Hundred"}]}]}