{"@context":"https://raw.githubusercontent.com/LinkedPasts/linked-places-format/main/linkedplaces-context-v1.1.jsonld","type":"FeatureCollection","license":"Digitisation of English Placenames MADS data is licensed to Jisc by the English Place Names Society and released under a Creative Commons Attribution-NonCommercial 4.0 International License.","note":"LPF v1.3, lossy; derived from the PLATO record; plato_commit=fa0d247ccc0263f8f19c8d7cdcd163df96935d1e","features":[{"@id":"https://w3id.org/whg-epns/45/014224","type":"Feature","properties":{"title":"Elton","ccodes":["GB"],"fclasses":["A","P"]},"names":[{"toponym":"Elton","lang":"en","citations":[{"label":"English Place-Name Society survey, volume 45: Cheshire"}]},{"toponym":"Elton","citations":[{"label":"Cl","year":1289},{"label":"1289 Cl","year":1289}],"when":{"timespans":[{"start":{"in":"1289"},"end":{"in":"1289"}},{"start":{"in":"1289"},"end":{"in":"1289"}}]}},{"toponym":"Elton juxta Wyrmyncham","citations":[{"label":"1385 Ipm","year":1385}],"when":{"timespans":[{"start":{"in":"1385"},"end":{"in":"1385"}}]}},{"toponym":"Helton","citations":[{"label":"1290 Ipm","year":1290}],"when":{"timespans":[{"start":{"in":"1290"},"end":{"in":"1290"}}]}}],"types":[{"identifier":"http://vocab.getty.edu/aat/300232418","label":"administrative division","sourceLabels":[{"label":"township","lang":"en"}]}],"geometry":{"type":"GeometryCollection","geometries":[{"type":"Point","coordinates":[-2.41849473,53.127137],"citations":[{"label":"English Place-Name Society survey (DEEP coordinates)"}]},{"type":"Point","coordinates":[-2.411064836119177,53.13165905159327],"citations":[{"label":"Unlock (EDINA) gazetteer, gazetteer record unlock:11139836"}]},{"type":"Point","coordinates":[-2.41246,53.132],"citations":[{"label":"Key to English Place-Names (KEPN), gazetteer record 11869"}]}]},"when":{"timespans":[{"start":{"in":"1289"},"end":{"in":"1385"}}]},"relations":[{"relationType":"gvp:broaderPartitive","relationTo":"https://w3id.org/whg-epns/45/014223","label":"within Warmingham"}]}]}