{"@context":"https://raw.githubusercontent.com/LinkedPasts/linked-places-format/main/linkedplaces-context-v1.1.jsonld","type":"FeatureCollection","license":"Digitisation of English Placenames MADS data is licensed to Jisc by the English Place Names Society and released under a Creative Commons Attribution-NonCommercial 4.0 International License.","note":"LPF v1.3, lossy; derived from the PLATO record; plato_commit=ca0afadabec1e23a145c0b03df77e8f151f79832","features":[{"@id":"http://placenames.org.uk/id/placename/45/014910","type":"Feature","properties":{"title":"Sandbach","ccodes":["GB"],"fclasses":["A","P"]},"names":[{"toponym":"Sandbach","lang":"en","citations":[{"label":"English Place-Name Society survey, volume 45: Cheshire"}]},{"toponym":"Sanbec, Sanbecd","citations":[{"label":"1086 DB","year":1086}],"when":{"timespans":[{"start":{"in":"1086"},"end":{"in":"1086"}}]}},{"toponym":"Sanbache","citations":[{"label":"1308 Ipm","year":1308}],"when":{"timespans":[{"start":{"in":"1308"},"end":{"in":"1308"}}]}},{"toponym":"Sanbach","citations":[{"label":"1647 Cre","year":1647}],"when":{"timespans":[{"start":{"in":"1647"},"end":{"in":"1647"}}]}},{"toponym":"Sanbage","citations":[{"label":"1539 Dugd","year":1539}],"when":{"timespans":[{"start":{"in":"1539"},"end":{"in":"1539"}}]}},{"toponym":"Sanbitch","citations":[{"label":"c.1703 Chol","year":1693}],"when":{"timespans":[{"start":{"earliest":"1693","latest":"1713"},"end":{"earliest":"1693","latest":"1713"}}]}},{"toponym":"Sonbach(e)","citations":[{"label":"1210-20 Chest","year":1210},{"label":"c.1260 Tab","year":1250}],"when":{"timespans":[{"start":{"earliest":"1210","latest":"1220"},"end":{"earliest":"1210","latest":"1220"}},{"start":{"earliest":"1250","latest":"1270"},"end":{"earliest":"1250","latest":"1270"}}]}},{"toponym":"Sanbac","citations":[{"label":"c.1230 AddCh","year":1220}],"when":{"timespans":[{"start":{"earliest":"1220","latest":"1240"},"end":{"earliest":"1220","latest":"1240"}}]}},{"toponym":"Sanbaghe","citations":[{"label":"1455 Vern","year":1455}],"when":{"timespans":[{"start":{"in":"1455"},"end":{"in":"1455"}}]}},{"toponym":"Sanebache","citations":[{"label":"1308 Fine","year":1308}],"when":{"timespans":[{"start":{"in":"1308"},"end":{"in":"1308"}}]}},{"toponym":"Sonebache","citations":[{"label":"1434 Cre","year":1434}],"when":{"timespans":[{"start":{"in":"1434"},"end":{"in":"1434"}}]}},{"toponym":"Sandbach, Sond(e)bach","citations":[{"label":"1200–1225, recurring Chest","year":1200},{"label":"1200–1225, recurring Dieul"},{"label":"1200–1225, recurring Whall"},{"label":"e13 Chest","year":1200},{"label":"e13 Dieul","year":1200},{"label":"e13 Whall","year":1200}],"when":{"timespans":[{"start":{"in":"1200"},"end":{"in":"1225"}},{"start":{"earliest":"1200","latest":"1225"},"end":{"earliest":"1200","latest":"1225"}},{"start":{"earliest":"1200","latest":"1225"},"end":{"earliest":"1200","latest":"1225"}},{"start":{"earliest":"1200","latest":"1225"},"end":{"earliest":"1200","latest":"1225"}}]}},{"toponym":"Sandebach, Sandbac(c)h(e), Sandbage, Sandbatch, Sandbich, Sandback, Sandbah, Sand(e)bayche, Sond(e)bech(e), Sond(e)bac(c)h(e), Sond(e)bage, Sond(e)batch, Sond(e)bich, Sond(e)back, Sond(e)bah, Sond(e)bayche","citations":[{"label":"e13-1600 unspecified sources","year":1200}],"when":{"timespans":[{"start":{"in":"1200"},"end":{"in":"1600"}}]}},{"toponym":"Sandbech(e)","citations":[{"label":"c.1233 Earw","year":1223},{"label":"m13 Orm3","year":1225},{"label":"1365 Pat","year":1365}],"when":{"timespans":[{"start":{"earliest":"1223","latest":"1243"},"end":{"earliest":"1223","latest":"1243"}},{"start":{"earliest":"1225","latest":"1275"},"end":{"earliest":"1225","latest":"1275"}},{"start":{"in":"1365"},"end":{"in":"1365"}}]}},{"toponym":"Sondabache","citations":[{"label":"1498 ChRR","year":1498}],"when":{"timespans":[{"start":{"in":"1498"},"end":{"in":"1498"}}]}},{"toponym":"Santb'","citations":[{"label":"e13 Dieul","year":1200}],"when":{"timespans":[{"start":{"earliest":"1200","latest":"1225"},"end":{"earliest":"1200","latest":"1225"}}]}},{"toponym":"Sontbach(e)","citations":[{"label":"c.1233 Whall","year":1223},{"label":"c.1233 Orm2","year":1223}],"when":{"timespans":[{"start":{"earliest":"1223","latest":"1243"},"end":{"earliest":"1223","latest":"1243"}},{"start":{"earliest":"1223","latest":"1243"},"end":{"earliest":"1223","latest":"1243"}}]}},{"toponym":"Sambage","citations":[{"label":"1255 Pat","year":1255}],"when":{"timespans":[{"start":{"in":"1255"},"end":{"in":"1255"}}]}},{"toponym":"Sambach","citations":[{"label":"1474 Cl","year":1474}],"when":{"timespans":[{"start":{"in":"1474"},"end":{"in":"1474"}}]}},{"toponym":"Sambache","citations":[{"label":"1560 Sheaf","year":1560}],"when":{"timespans":[{"start":{"in":"1560"},"end":{"in":"1560"}}]}},{"toponym":"Sambeche","citations":[{"label":"1607 Cre","year":1607}],"when":{"timespans":[{"start":{"in":"1607"},"end":{"in":"1607"}}]}},{"toponym":"Sambech","citations":[{"label":"1629 Cre","year":1629}],"when":{"timespans":[{"start":{"in":"1629"},"end":{"in":"1629"}}]}},{"toponym":"Sambitch","citations":[{"label":"17 Chol","year":1600}],"when":{"timespans":[{"start":{"earliest":"1600","latest":"1700"},"end":{"earliest":"1600","latest":"1700"}}]}}],"types":[{"identifier":"http://vocab.getty.edu/aat/300232418","label":"administrative division","sourceLabels":[{"label":"township","lang":"en"}]}],"geometry":{"type":"GeometryCollection","geometries":[{"type":"Point","coordinates":[-2.3651,53.13905],"citations":[{"label":"GeoNames, gazetteer record geonames:7299921"}]},{"type":"Point","coordinates":[-2.37373511,53.13627598],"citations":[{"label":"English Place-Name Society survey (DEEP coordinates)"}]},{"type":"Point","coordinates":[-2.36629891919296,53.14079523600854],"citations":[{"label":"Unlock (EDINA) gazetteer, gazetteer record unlock:11277554"}]},{"type":"Point","coordinates":[-2.3677,53.1411],"citations":[{"label":"Key to English Place-Names (KEPN), gazetteer record 443"}]}]},"when":{"timespans":[{"start":{"in":"1086"},"end":{"in":"1713"}}]},"links":[{"type":"closeMatch","identifier":"https://sws.geonames.org/7299921/"}],"relations":[{"relationType":"gvp:broaderPartitive","relationTo":"http://placenames.org.uk/id/placename/45/014628","label":"within Sandbach"}]}]}