{"@context":"https://raw.githubusercontent.com/LinkedPasts/linked-places-format/main/linkedplaces-context-v1.1.jsonld","type":"FeatureCollection","license":"Digitisation of English Placenames MADS data is licensed to Jisc by the English Place Names Society and released under a Creative Commons Attribution-NonCommercial 4.0 International License.","note":"LPF v1.3, lossy; derived from the PLATO record; plato_commit=ca0afadabec1e23a145c0b03df77e8f151f79832","features":[{"@id":"http://placenames.org.uk/id/placename/45/015648","type":"Feature","properties":{"title":"Swettenham","ccodes":["GB"],"fclasses":["A","P"]},"names":[{"toponym":"Swettenham","lang":"en","citations":[{"label":"English Place-Name Society survey, volume 45: Cheshire"}]}],"types":[{"identifier":"http://vocab.getty.edu/aat/300232418","label":"administrative division","sourceLabels":[{"label":"parish","lang":"en"}]}],"geometry":{"type":"GeometryCollection","geometries":[{"type":"Point","coordinates":[-2.29929,53.20152],"citations":[{"label":"GeoNames, gazetteer record geonames:2636400"}]},{"type":"Point","coordinates":[-2.284455913,53.19945266],"citations":[{"label":"English Place-Name Society survey (DEEP coordinates)"}]},{"type":"Point","coordinates":[-2.291972122598621,53.20393059728726],"citations":[{"label":"Unlock (EDINA) gazetteer, gazetteer record unlock:11296428"}]},{"type":"Point","coordinates":[-2.29338,53.2042],"citations":[{"label":"Key to English Place-Names (KEPN), gazetteer record 11881"}]}]},"links":[{"type":"closeMatch","identifier":"https://sws.geonames.org/2636400/"}],"relations":[{"relationType":"gvp:broaderPartitive","relationTo":"http://placenames.org.uk/id/placename/45/010729","label":"within Northwich Hundred"}]}]}