{"@context":"https://raw.githubusercontent.com/LinkedPasts/linked-places-format/main/linkedplaces-context-v1.1.jsonld","type":"FeatureCollection","license":"Digitisation of English Placenames MADS data is licensed to Jisc by the English Place Names Society and released under a Creative Commons Attribution-NonCommercial 4.0 International License.","note":"LPF v1.3, lossy; derived from the PLATO record; plato_commit=ca0afadabec1e23a145c0b03df77e8f151f79832","features":[{"@id":"https://w3id.org/whg-epns/45/017604","type":"Feature","properties":{"title":"Smallwood","ccodes":["GB"],"fclasses":["A","P"]},"names":[{"toponym":"Smallwood","lang":"en","citations":[{"label":"English Place-Name Society survey, volume 45: Cheshire"}]},{"toponym":"Smelewde","citations":[{"label":"e13 Orm2","year":1200}],"when":{"timespans":[{"start":{"earliest":"1200","latest":"1225"},"end":{"earliest":"1200","latest":"1225"}}]}},{"toponym":"Smelwood","citations":[{"label":"1209 Tab","year":1209}],"when":{"timespans":[{"start":{"in":"1209"},"end":{"in":"1209"}}]}},{"toponym":"Smal(e)wode(e)","citations":[{"label":"1252 Ch","year":1252},{"label":"1274 Ipm","year":1274},{"label":"1275–1275, recurring Cl","year":1275},{"label":"1275 Cl","year":1275}],"when":{"timespans":[{"start":{"in":"1252"},"end":{"in":"1252"}},{"start":{"in":"1274"},"end":{"in":"1274"}},{"start":{"in":"1276"},"end":{"in":"1276"}},{"start":{"in":"1283"},"end":{"in":"1283"}},{"start":{"in":"1275"},"end":{"in":"1275"}},{"start":{"in":"1275"},"end":{"in":"1275"}}]}},{"toponym":"Smal(e)wood(e), Smal(e)wodde","citations":[{"label":"1275-1600 unspecified sources","year":1275}],"when":{"timespans":[{"start":{"in":"1275"},"end":{"in":"1600"}}]}},{"toponym":"Smal(e)wode(e) iuxta Astbury","citations":[{"label":"1443 Plea","year":1443}],"when":{"timespans":[{"start":{"in":"1443"},"end":{"in":"1443"}}]}},{"toponym":"Smal(e)wode(e) in Astburye","citations":[{"label":"1559 Pat","year":1559}],"when":{"timespans":[{"start":{"in":"1559"},"end":{"in":"1559"}}]}},{"toponym":"Smallwode","citations":[{"label":"1398 ChRR","year":1398}],"when":{"timespans":[{"start":{"in":"1398"},"end":{"in":"1398"}}]}},{"toponym":"Smallwod","citations":[{"label":"1452 Orm2","year":1452}],"when":{"timespans":[{"start":{"in":"1452"},"end":{"in":"1452"}}]}},{"toponym":"Smallwood","citations":[{"label":"1558 AddCh","year":1558}],"when":{"timespans":[{"start":{"in":"1558"},"end":{"in":"1558"}}]}},{"toponym":"Smawode","citations":[{"label":"1460 ChRR","year":1460}],"when":{"timespans":[{"start":{"in":"1460"},"end":{"in":"1460"}}]}}],"types":[{"identifier":"http://vocab.getty.edu/aat/300232418","label":"administrative division","sourceLabels":[{"label":"township","lang":"en"}]}],"geometry":{"type":"GeometryCollection","geometries":[{"type":"Point","coordinates":[-2.29069,53.14316],"citations":[{"label":"GeoNames, gazetteer record geonames:7294572"}]},{"type":"Point","coordinates":[-2.298989341,53.1364871],"citations":[{"label":"English Place-Name Society survey (DEEP coordinates)"}]},{"type":"Point","coordinates":[-2.291545232243734,53.14100170243593],"citations":[{"label":"Unlock (EDINA) gazetteer, gazetteer record unlock:11285824"}]},{"type":"Point","coordinates":[-2.29295,53.1413],"citations":[{"label":"Key to English Place-Names (KEPN), gazetteer record 11889"}]}]},"when":{"timespans":[{"start":{"in":"1200"},"end":{"in":"1600"}}]},"links":[{"type":"closeMatch","identifier":"https://sws.geonames.org/7294572/"}],"relations":[{"relationType":"gvp:broaderPartitive","relationTo":"https://w3id.org/whg-epns/45/015887","label":"within Astbury"}]}]}