{"@context":"https://raw.githubusercontent.com/LinkedPasts/linked-places-format/main/linkedplaces-context-v1.1.jsonld","type":"FeatureCollection","license":"Digitisation of English Placenames MADS data is licensed to Jisc by the English Place Names Society and released under a Creative Commons Attribution-NonCommercial 4.0 International License.","note":"LPF v1.3, lossy; derived from the PLATO record; plato_commit=fa0d247ccc0263f8f19c8d7cdcd163df96935d1e","features":[{"@id":"https://w3id.org/whg-epns/30/000816","type":"Feature","properties":{"title":"Sykehouse","ccodes":["GB"],"fclasses":["A","P"]},"names":[{"toponym":"Sykehouse","lang":"en","citations":[{"label":"English Place-Name Society survey, volume 30: West Riding of Yorkshire"}]},{"toponym":"Sikehouse, Sykehouse","citations":[{"label":"1404 MinAcct","year":1404},{"label":"1547 WillY","year":1547},{"label":"YChant","year":1548},{"label":"1548 YChant","year":1548}],"when":{"timespans":[{"start":{"in":"1404"},"end":{"in":"1404"}},{"start":{"in":"1547"},"end":{"in":"1547"}},{"start":{"in":"1548"},"end":{"in":"1548"}},{"start":{"in":"1548"},"end":{"in":"1548"}}]}},{"toponym":"Sike Howses","citations":[{"label":"1546 YChant","year":1546}],"when":{"timespans":[{"start":{"in":"1546"},"end":{"in":"1546"}}]}},{"toponym":"Sikehowse","citations":[{"label":"1580 FF","year":1580},{"label":"1682 Comm","year":1682}],"when":{"timespans":[{"start":{"in":"1580"},"end":{"in":"1580"}},{"start":{"in":"1623"},"end":{"in":"1623"}},{"start":{"in":"1682"},"end":{"in":"1682"}}]}},{"toponym":"Syk house","citations":[{"label":"1555 FF","year":1555}],"when":{"timespans":[{"start":{"in":"1555"},"end":{"in":"1555"}}]}},{"toponym":"Sikhouse","citations":[{"label":"1591 WillY","year":1591}],"when":{"timespans":[{"start":{"in":"1591"},"end":{"in":"1591"}}]}},{"toponym":"Sickhouse(s)","citations":[{"label":"1620 FF","year":1620}],"when":{"timespans":[{"start":{"in":"1620"},"end":{"in":"1620"}}]}}],"types":[{"identifier":"http://vocab.getty.edu/aat/300232418","label":"administrative division","sourceLabels":[{"label":"township","lang":"en"}]}],"geometry":{"type":"GeometryCollection","geometries":[{"type":"Point","coordinates":[-1.04936,53.64478],"citations":[{"label":"GeoNames, gazetteer record geonames:2636354"}]},{"type":"Point","coordinates":[-1.047071683,53.63648916],"citations":[{"label":"English Place-Name Society survey (DEEP coordinates)"}]},{"type":"Point","coordinates":[-1.03940753156801,53.64092398289232],"citations":[{"label":"Unlock (EDINA) gazetteer, gazetteer record unlock:11296853"}]},{"type":"Point","coordinates":[-1.04078,53.6502],"citations":[{"label":"Key to English Place-Names (KEPN), gazetteer record 14262"}]}]},"when":{"timespans":[{"start":{"in":"1404"},"end":{"in":"1682"}}]},"links":[{"type":"closeMatch","identifier":"https://sws.geonames.org/2636354/"}],"relations":[{"relationType":"gvp:broaderPartitive","relationTo":"https://w3id.org/whg-epns/30/000727","label":"within Fishlake"}]}]}