{"@context":"https://raw.githubusercontent.com/LinkedPasts/linked-places-format/main/linkedplaces-context-v1.1.jsonld","type":"FeatureCollection","license":"Digitisation of English Placenames MADS data is licensed to Jisc by the English Place Names Society and released under a Creative Commons Attribution-NonCommercial 4.0 International License.","note":"LPF v1.3, lossy; derived from the PLATO record; plato_commit=fa0d247ccc0263f8f19c8d7cdcd163df96935d1e","features":[{"@id":"https://w3id.org/whg-epns/30/001802","type":"Feature","properties":{"title":"Wheatley","ccodes":["GB"],"fclasses":["A","P"]},"names":[{"toponym":"Wheatley","lang":"en","citations":[{"label":"English Place-Name Society survey, volume 30: West Riding of Yorkshire"}]},{"toponym":"Watelag(e)","citations":[{"label":"1086 DB","year":1086}],"when":{"timespans":[{"start":{"in":"1086"},"end":{"in":"1086"}}]}},{"toponym":"Wateleia","citations":[{"label":"1199 Ch","year":1199}],"when":{"timespans":[{"start":{"in":"1199"},"end":{"in":"1199"}}]}},{"toponym":"Wetelag","citations":[{"label":"1219 FF","year":1219}],"when":{"timespans":[{"start":{"in":"1219"},"end":{"in":"1219"}}]}},{"toponym":"Wetele","citations":[{"label":"14 Linds","year":1300}],"when":{"timespans":[{"start":{"earliest":"1300","latest":"1400"},"end":{"earliest":"1300","latest":"1400"}}]}},{"toponym":"Weytelay, Waitelay, Waytelay, -l'","citations":[{"label":"1246 Ass","year":1246},{"label":"1295 YD","year":1295},{"label":"14 YD","year":1300}],"when":{"timespans":[{"start":{"in":"1246"},"end":{"in":"1246"}},{"start":{"in":"1295"},"end":{"in":"1295"}},{"start":{"earliest":"1300","latest":"1400"},"end":{"earliest":"1300","latest":"1400"}}]}},{"toponym":"-lagh","citations":[{"label":"1339 Ass","year":1339},{"label":"1370 DoncD","year":1370}],"when":{"timespans":[{"start":{"in":"1339"},"end":{"in":"1339"}},{"start":{"in":"1370"},"end":{"in":"1370"}}]}},{"toponym":"Waitele","citations":[{"label":"1279 YI","year":1279}],"when":{"timespans":[{"start":{"in":"1279"},"end":{"in":"1279"}}]}},{"toponym":"Wheteley, Whetelay","citations":[{"label":"1254 Pat","year":1254},{"label":"1323 MinAcct","year":1323},{"label":"1346 YD","year":1346},{"label":"Pat","year":1401},{"label":"YChant"},{"label":"1401 Pat","year":1401},{"label":"1546 YChant","year":1546}],"when":{"timespans":[{"start":{"in":"1254"},"end":{"in":"1254"}},{"start":{"in":"1323"},"end":{"in":"1323"}},{"start":{"in":"1346"},"end":{"in":"1346"}},{"start":{"in":"1401"},"end":{"in":"1546"}},{"start":{"in":"1401"},"end":{"in":"1401"}},{"start":{"in":"1546"},"end":{"in":"1546"}}]}},{"toponym":"Whetelagh","citations":[{"label":"1280 Ch","year":1280},{"label":"1315 Pat","year":1315}],"when":{"timespans":[{"start":{"in":"1280"},"end":{"in":"1280"}},{"start":{"in":"1315"},"end":{"in":"1315"}}]}},{"toponym":"Whaytelagh, Whaitelagh","citations":[{"label":"1328 Banco","year":1328},{"label":"1352 FF","year":1352}],"when":{"timespans":[{"start":{"in":"1328"},"end":{"in":"1328"}},{"start":{"in":"1352"},"end":{"in":"1352"}}]}},{"toponym":"Whaitlagh, Whaytlagh","citations":[{"label":"1353 FF","year":1353},{"label":"1367 DoncD","year":1367}],"when":{"timespans":[{"start":{"in":"1353"},"end":{"in":"1353"}},{"start":{"in":"1364"},"end":{"in":"1364"}},{"start":{"in":"1367"},"end":{"in":"1367"}}]}},{"toponym":"Whaitlay","citations":[{"label":"1363 FF","year":1363},{"label":"1401 Pat","year":1401}],"when":{"timespans":[{"start":{"in":"1363"},"end":{"in":"1363"}},{"start":{"in":"1401"},"end":{"in":"1401"}}]}},{"toponym":"Whetlawe","citations":[{"label":"1347 Ch","year":1347}],"when":{"timespans":[{"start":{"in":"1347"},"end":{"in":"1347"}}]}},{"toponym":"Whetley, Whetlay","citations":[{"label":"1379 PT","year":1379},{"label":"Pat","year":1460},{"label":"YD"},{"label":"1460 Pat","year":1460},{"label":"1526 YD","year":1526}],"when":{"timespans":[{"start":{"in":"1379"},"end":{"in":"1379"}},{"start":{"in":"1460"},"end":{"in":"1526"}},{"start":{"in":"1460"},"end":{"in":"1460"}},{"start":{"in":"1526"},"end":{"in":"1526"}}]}}],"types":[{"identifier":"http://vocab.getty.edu/aat/300232418","label":"administrative division","sourceLabels":[{"label":"township","lang":"en"}]}],"geometry":{"type":"GeometryCollection","geometries":[{"type":"Point","coordinates":[-1.124921505,53.52920781],"citations":[{"label":"English Place-Name Society survey (DEEP coordinates)"}]},{"type":"Point","coordinates":[-1.117284979977888,53.53364777580597],"citations":[{"label":"Unlock (EDINA) gazetteer, gazetteer record unlock:11319675"}]},{"type":"Point","coordinates":[-1.11885,53.5339],"citations":[{"label":"Key to English Place-Names (KEPN), gazetteer record 14270"}]}]},"when":{"timespans":[{"start":{"in":"1086"},"end":{"in":"1546"}}]},"relations":[{"relationType":"gvp:broaderPartitive","relationTo":"https://w3id.org/whg-epns/30/001299","label":"within Doncaster"}]}]}