{"@context":"https://raw.githubusercontent.com/LinkedPasts/linked-places-format/main/linkedplaces-context-v1.1.jsonld","type":"FeatureCollection","license":"Digitisation of English Placenames MADS data is licensed to Jisc by the English Place Names Society and released under a Creative Commons Attribution-NonCommercial 4.0 International License.","note":"LPF v1.3, lossy; derived from the PLATO record; plato_commit=ca0afadabec1e23a145c0b03df77e8f151f79832","features":[{"@id":"https://w3id.org/whg-epns/30/002162","type":"Feature","properties":{"title":"Finningley","ccodes":["GB"],"fclasses":["A","P"]},"names":[{"toponym":"Finningley","lang":"en","citations":[{"label":"English Place-Name Society survey, volume 30: West Riding of Yorkshire"}]},{"toponym":"Feniglei","citations":[{"label":"1086 DB","year":1086}],"when":{"timespans":[{"start":{"in":"1086"},"end":{"in":"1086"}}]}},{"toponym":"Feningelay","citations":[{"label":"1175 P","year":1175}],"when":{"timespans":[{"start":{"in":"1175"},"end":{"in":"1175"}}]}}],"types":[{"identifier":"http://vocab.getty.edu/aat/300232418","label":"administrative division","sourceLabels":[{"label":"parish","lang":"en"}]}],"geometry":{"type":"GeometryCollection","geometries":[{"type":"Point","coordinates":[-0.99083,53.48696],"citations":[{"label":"GeoNames, gazetteer record geonames:2649403"}]},{"type":"Point","coordinates":[-0.984157,53.4879],"citations":[{"label":"Key to English Place-Names (KEPN), gazetteer record 284"}]}]},"when":{"timespans":[{"start":{"in":"1086"},"end":{"in":"1175"}}]},"links":[{"type":"closeMatch","identifier":"https://sws.geonames.org/2649403/"}],"relations":[{"relationType":"gvp:broaderPartitive","relationTo":"https://w3id.org/whg-epns/30/000012","label":"within Lower Strafforth Division"}]}]}