{"@context":"https://raw.githubusercontent.com/LinkedPasts/linked-places-format/main/linkedplaces-context-v1.1.jsonld","type":"FeatureCollection","license":"Digitisation of English Placenames MADS data is licensed to Jisc by the English Place Names Society and released under a Creative Commons Attribution-NonCommercial 4.0 International License.","note":"LPF v1.3, lossy; derived from the PLATO record; plato_commit=ca0afadabec1e23a145c0b03df77e8f151f79832","features":[{"@id":"https://w3id.org/whg-epns/30/002260","type":"Feature","properties":{"title":"Austerfield","ccodes":["GB"],"fclasses":["A","P"]},"names":[{"toponym":"Austerfield","lang":"en","citations":[{"label":"English Place-Name Society survey, volume 30: West Riding of Yorkshire"}]},{"toponym":"Ouestraefelda, Eostrefeld","citations":[{"label":"c. 715 Eddi","year":705}],"when":{"timespans":[{"start":{"earliest":"0705","latest":"0725"},"end":{"earliest":"0705","latest":"0725"}}]}},{"toponym":"Oustrefeld","citations":[{"label":"1086 DB","year":1086}],"when":{"timespans":[{"start":{"in":"1086"},"end":{"in":"1086"}}]}},{"toponym":"Ousterfeud","citations":[{"label":"1279 YI","year":1279}],"when":{"timespans":[{"start":{"in":"1279"},"end":{"in":"1279"}}]}},{"toponym":"Ousterfeld","citations":[{"label":"1276 RH","year":1276}],"when":{"timespans":[{"start":{"in":"1276"},"end":{"in":"1276"}}]}},{"toponym":"Ostrefeld","citations":[{"label":"1247 Pat","year":1247},{"label":"1294 QW","year":1294}],"when":{"timespans":[{"start":{"in":"1247"},"end":{"in":"1247"}},{"start":{"in":"1294"},"end":{"in":"1294"}}]}},{"toponym":"Osterfield","citations":[{"label":"1759 PRCnt","year":1759}],"when":{"timespans":[{"start":{"in":"1759"},"end":{"in":"1759"}}]}},{"toponym":"Westerfeud","citations":[{"label":"1247 YI","year":1247}],"when":{"timespans":[{"start":{"in":"1247"},"end":{"in":"1247"}}]}},{"toponym":"Oysterfelde","citations":[{"label":"1284 YI","year":1284}],"when":{"timespans":[{"start":{"in":"1284"},"end":{"in":"1284"}},{"start":{"in":"1294"},"end":{"in":"1294"}}]}},{"toponym":"Hoysterfeld'","citations":[{"label":"1323 MinAcct","year":1323}],"when":{"timespans":[{"start":{"in":"1323"},"end":{"in":"1323"}}]}},{"toponym":"Austerfeld(e)","citations":[{"label":"1328 Banco","year":1328},{"label":"1332 Ch","year":1332},{"label":"1376–1594, recurring Ipm","year":1376},{"label":"1376–1594, recurring FF"},{"label":"1376 Ipm","year":1376},{"label":"1594 FF","year":1594}],"when":{"timespans":[{"start":{"in":"1328"},"end":{"in":"1328"}},{"start":{"in":"1332"},"end":{"in":"1332"}},{"start":{"in":"1376"},"end":{"in":"1594"}},{"start":{"in":"1376"},"end":{"in":"1376"}},{"start":{"in":"1594"},"end":{"in":"1594"}}]}},{"toponym":"Austerfeild","citations":[{"label":"1592 WillY","year":1592},{"label":"1619–1619, recurring FF","year":1619},{"label":"1619 FF","year":1619}],"when":{"timespans":[{"start":{"in":"1592"},"end":{"in":"1592"}},{"start":{"in":"1619"},"end":{"in":"1619"}},{"start":{"in":"1619"},"end":{"in":"1619"}}]}},{"toponym":"Awsterfelde","citations":[{"label":"1550 WillY","year":1550}],"when":{"timespans":[{"start":{"in":"1550"},"end":{"in":"1550"}}]}},{"toponym":"Austrefeld(e)","citations":[{"label":"1456 AD","year":1456},{"label":"1465 YD","year":1465}],"when":{"timespans":[{"start":{"in":"1456"},"end":{"in":"1456"}},{"start":{"in":"1465"},"end":{"in":"1465"}}]}}],"types":[{"identifier":"http://vocab.getty.edu/aat/300232418","label":"administrative division","sourceLabels":[{"label":"township","lang":"en"}]}],"geometry":{"type":"GeometryCollection","geometries":[{"type":"Point","coordinates":[-1.00565,53.44601],"citations":[{"label":"GeoNames, gazetteer record geonames:2656764"}]},{"type":"Point","coordinates":[-1.02139554,53.43850665],"citations":[{"label":"English Place-Name Society survey (DEEP coordinates)"}]},{"type":"Point","coordinates":[-0.9987101390311842,53.44281483319865],"citations":[{"label":"Unlock (EDINA) gazetteer, gazetteer record unlock:11065930"}]},{"type":"Point","coordinates":[-1.00028,53.4431],"citations":[{"label":"Key to English Place-Names (KEPN), gazetteer record 14276"}]}]},"when":{"timespans":[{"start":{"in":"0705"},"end":{"in":"1759"}}]},"links":[{"type":"closeMatch","identifier":"https://sws.geonames.org/2656764/"}],"relations":[{"relationType":"gvp:broaderPartitive","relationTo":"https://w3id.org/whg-epns/30/002258","label":"within Blyth"}]}]}