{"@context":"https://raw.githubusercontent.com/LinkedPasts/linked-places-format/main/linkedplaces-context-v1.1.jsonld","type":"FeatureCollection","license":"Digitisation of English Placenames MADS data is licensed to Jisc by the English Place Names Society and released under a Creative Commons Attribution-NonCommercial 4.0 International License.","note":"LPF v1.3, lossy; derived from the PLATO record; plato_commit=ca0afadabec1e23a145c0b03df77e8f151f79832","features":[{"@id":"https://w3id.org/whg-epns/30/003310","type":"Feature","properties":{"title":"Adwick le Street","ccodes":["GB"],"fclasses":["A","P"]},"names":[{"toponym":"Adwick le Street","lang":"en","citations":[{"label":"English Place-Name Society survey, volume 30: West Riding of Yorkshire"}]}],"types":[{"identifier":"http://vocab.getty.edu/aat/300232418","label":"administrative division","sourceLabels":[{"label":"parish","lang":"en"}]}],"geometry":{"type":"GeometryCollection","geometries":[{"type":"Point","coordinates":[-1.18454,53.57077],"citations":[{"label":"GeoNames, gazetteer record geonames:2657658"}]},{"type":"Point","coordinates":[-1.199672815,53.56569009],"citations":[{"label":"English Place-Name Society survey (DEEP coordinates)"}]},{"type":"Point","coordinates":[-1.19220877124924,53.56114634486077],"citations":[{"label":"Unlock (EDINA) gazetteer, gazetteer record unlock:11056714"}]},{"type":"Point","coordinates":[-1.19359,53.5704],"citations":[{"label":"Key to English Place-Names (KEPN), gazetteer record 14284"}]}]},"links":[{"type":"closeMatch","identifier":"https://sws.geonames.org/2657658/"}],"relations":[{"relationType":"gvp:broaderPartitive","relationTo":"https://w3id.org/whg-epns/30/000012","label":"within Lower Strafforth Division"}]}]}