{"@context":"https://raw.githubusercontent.com/LinkedPasts/linked-places-format/main/linkedplaces-context-v1.1.jsonld","type":"FeatureCollection","license":"Digitisation of English Placenames MADS data is licensed to Jisc by the English Place Names Society and released under a Creative Commons Attribution-NonCommercial 4.0 International License.","note":"LPF v1.3, lossy; derived from the PLATO record; plato_commit=ca0afadabec1e23a145c0b03df77e8f151f79832","features":[{"@id":"https://w3id.org/whg-epns/30/003311","type":"Feature","properties":{"title":"Adwick le Street","ccodes":["GB"],"fclasses":["A","P"]},"names":[{"toponym":"Adwick le Street","lang":"en","citations":[{"label":"English Place-Name Society survey, volume 30: West Riding of Yorkshire"}]},{"toponym":"Adeuuic, Adewic, Adeuuinc, Hadeuuic","citations":[{"label":"1086 DB","year":1086}],"when":{"timespans":[{"start":{"in":"1086"},"end":{"in":"1086"}}]}},{"toponym":"Addewic","citations":[{"label":"13 Brett","year":1200}],"when":{"timespans":[{"start":{"earliest":"1200","latest":"1300"},"end":{"earliest":"1200","latest":"1300"}}]}},{"toponym":"Addewyk","citations":[{"label":"1262 FF","year":1262}],"when":{"timespans":[{"start":{"in":"1262"},"end":{"in":"1262"}}]}},{"toponym":"Adewyk, Adewic, Adewike","citations":[{"label":"1241 Font","year":1241},{"label":"1269 Ch","year":1269},{"label":"1279-81 QW","year":1279},{"label":"1304 YI","year":1304},{"label":"1428 FA","year":1428}],"when":{"timespans":[{"start":{"in":"1241"},"end":{"in":"1241"}},{"start":{"in":"1269"},"end":{"in":"1269"}},{"start":{"earliest":"1279","latest":"1281"},"end":{"earliest":"1279","latest":"1281"}},{"start":{"in":"1304"},"end":{"in":"1304"}},{"start":{"in":"1428"},"end":{"in":"1428"}}]}},{"toponym":"Awike","citations":[{"label":"1248 YI","year":1248}],"when":{"timespans":[{"start":{"in":"1248"},"end":{"in":"1248"}}]}},{"toponym":"Atthewik","citations":[{"label":"1246 Ass","year":1246}],"when":{"timespans":[{"start":{"in":"1246"},"end":{"in":"1246"}}]}},{"toponym":"Athewyk(e), Athewik","citations":[{"label":"1259 FF","year":1259},{"label":"1291 Ch","year":1291},{"label":"1303 Aid","year":1303},{"label":"1304 YI","year":1304},{"label":"1316–1520, recurring Vill","year":1316},{"label":"1316–1520, recurring FF"},{"label":"1316 Vill","year":1316},{"label":"1520 FF","year":1520}],"when":{"timespans":[{"start":{"in":"1259"},"end":{"in":"1259"}},{"start":{"in":"1291"},"end":{"in":"1291"}},{"start":{"in":"1303"},"end":{"in":"1303"}},{"start":{"in":"1304"},"end":{"in":"1304"}},{"start":{"in":"1316"},"end":{"in":"1520"}},{"start":{"in":"1316"},"end":{"in":"1316"}},{"start":{"in":"1520"},"end":{"in":"1520"}}]}},{"toponym":"Athewik by the Streete","citations":[{"label":"1546 YChant","year":1546}],"when":{"timespans":[{"start":{"in":"1546"},"end":{"in":"1546"}}]}},{"toponym":"Atheweeke super Stratum","citations":[{"label":"1554 FF","year":1554}],"when":{"timespans":[{"start":{"in":"1554"},"end":{"in":"1554"}}]}},{"toponym":"Athewicke by Streite","citations":[{"label":"1566 WillY","year":1566}],"when":{"timespans":[{"start":{"in":"1566"},"end":{"in":"1566"}}]}},{"toponym":"Adwik, Adwyk, Adwick(e)","citations":[{"label":"13 Brett","year":1200},{"label":"1303 KF","year":1303}],"when":{"timespans":[{"start":{"earliest":"1200","latest":"1300"},"end":{"earliest":"1200","latest":"1300"}},{"start":{"in":"1303"},"end":{"in":"1303"}}]}},{"toponym":"Adwik (up)on Street, Adwik by Street, Adwik in the Street","citations":[{"label":"1565 FF","year":1565},{"label":"1590 WillY","year":1590},{"label":"1750 PRHtnP","year":1750},{"label":"1769 PRFrick","year":1769}],"when":{"timespans":[{"start":{"in":"1565"},"end":{"in":"1565"}},{"start":{"in":"1590"},"end":{"in":"1590"}},{"start":{"in":"1637"},"end":{"in":"1637"}},{"start":{"in":"1750"},"end":{"in":"1750"}},{"start":{"in":"1769"},"end":{"in":"1769"}}]}},{"toponym":"Adwicke le Strete","citations":[{"label":"1589 FF","year":1589}],"when":{"timespans":[{"start":{"in":"1589"},"end":{"in":"1589"}}]}},{"toponym":"Adwicke Super Stratam","citations":[{"label":"1603 FF","year":1603}],"when":{"timespans":[{"start":{"in":"1603"},"end":{"in":"1603"}}]}},{"toponym":"Adwick le Street","citations":[{"label":"1732 PRBw","year":1732}],"when":{"timespans":[{"start":{"in":"1732"},"end":{"in":"1732"}}]}},{"toponym":"Aithwike by (the) Strete","citations":[{"label":"1529 WillY","year":1529}],"when":{"timespans":[{"start":{"in":"1529"},"end":{"in":"1529"}},{"start":{"in":"1550"},"end":{"in":"1550"}},{"start":{"in":"1557"},"end":{"in":"1557"}}]}},{"toponym":"Addik o' th Street","citations":[{"label":"1765 PRThl","year":1765}],"when":{"timespans":[{"start":{"in":"1765"},"end":{"in":"1765"}}]}}],"types":[{"identifier":"http://vocab.getty.edu/aat/300232418","label":"administrative division","sourceLabels":[{"label":"township","lang":"en"}]}],"geometry":{"type":"GeometryCollection","geometries":[{"type":"Point","coordinates":[-1.18454,53.57077],"citations":[{"label":"GeoNames, gazetteer record geonames:2657658"}]},{"type":"Point","coordinates":[-1.199672815,53.56569009],"citations":[{"label":"English Place-Name Society survey (DEEP coordinates)"}]},{"type":"Point","coordinates":[-1.19220877124924,53.56114634486077],"citations":[{"label":"Unlock (EDINA) gazetteer, gazetteer record unlock:11056714"}]},{"type":"Point","coordinates":[-1.19359,53.5704],"citations":[{"label":"Key to English Place-Names (KEPN), gazetteer record 14284"}]}]},"when":{"timespans":[{"start":{"in":"1086"},"end":{"in":"1769"}}]},"links":[{"type":"closeMatch","identifier":"https://sws.geonames.org/2657658/"}],"relations":[{"relationType":"gvp:broaderPartitive","relationTo":"https://w3id.org/whg-epns/30/003310","label":"within Adwick le Street"}]}]}