{"@context":"https://raw.githubusercontent.com/LinkedPasts/linked-places-format/main/linkedplaces-context-v1.1.jsonld","type":"FeatureCollection","license":"Digitisation of English Placenames MADS data is licensed to Jisc by the English Place Names Society and released under a Creative Commons Attribution-NonCommercial 4.0 International License.","note":"LPF v1.3, lossy; derived from the PLATO record; plato_commit=ca0afadabec1e23a145c0b03df77e8f151f79832","features":[{"@id":"http://placenames.org.uk/id/placename/30/006050","type":"Feature","properties":{"title":"Wentworth","ccodes":["GB"],"fclasses":["A","P"]},"names":[{"toponym":"Wentworth","lang":"en","citations":[{"label":"English Place-Name Society survey, volume 30: West Riding of Yorkshire"}]},{"toponym":"Wintreuuorde","citations":[{"label":"1086 DB","year":1086}],"when":{"timespans":[{"start":{"in":"1086"},"end":{"in":"1086"}}]}},{"toponym":"Winterwurd","citations":[{"label":"1196 P","year":1196}],"when":{"timespans":[{"start":{"in":"1196"},"end":{"in":"1196"}}]}},{"toponym":"Winteuuorde","citations":[{"label":"1086 DB","year":1086}],"when":{"timespans":[{"start":{"in":"1086"},"end":{"in":"1086"}}]}},{"toponym":"Winteword(a)","citations":[{"label":"1152-5 YCh","year":1152},{"label":"1202-10 YCh","year":1202}],"when":{"timespans":[{"start":{"earliest":"1152","latest":"1155"},"end":{"earliest":"1152","latest":"1155"}},{"start":{"earliest":"1202","latest":"1210"},"end":{"earliest":"1202","latest":"1210"}}]}},{"toponym":"Wintewurda","citations":[{"label":"1194 P","year":1194}],"when":{"timespans":[{"start":{"in":"1194"},"end":{"in":"1194"}}]}},{"toponym":"Wintewrd(e)","citations":[{"label":"l. 12 Nost","year":1175},{"label":"1234 Ebor","year":1234},{"label":"1252 YI","year":1252}],"when":{"timespans":[{"start":{"earliest":"1175","latest":"1200"},"end":{"earliest":"1175","latest":"1200"}},{"start":{"in":"1234"},"end":{"in":"1234"}},{"start":{"in":"1252"},"end":{"in":"1252"}}]}},{"toponym":"Wintew(u)rth(e), Wyntew(u)rth(e), Wynteworth(e)","citations":[{"label":"1160-80 YCh","year":1160},{"label":"1180-90 Bodl","year":1180},{"label":"1185-9 BM","year":1185},{"label":"1200–1432, recurring Brett","year":1200},{"label":"1200–1432, recurring YD"},{"label":"13 Brett","year":1200},{"label":"1432 YD","year":1432}],"when":{"timespans":[{"start":{"earliest":"1160","latest":"1180"},"end":{"earliest":"1160","latest":"1180"}},{"start":{"earliest":"1170","latest":"1200"},"end":{"earliest":"1170","latest":"1200"}},{"start":{"earliest":"1180","latest":"1190"},"end":{"earliest":"1180","latest":"1190"}},{"start":{"earliest":"1185","latest":"1189"},"end":{"earliest":"1185","latest":"1189"}},{"start":{"in":"1200"},"end":{"in":"1432"}},{"start":{"earliest":"1200","latest":"1300"},"end":{"earliest":"1200","latest":"1300"}},{"start":{"in":"1432"},"end":{"in":"1432"}}]}},{"toponym":"Wyntworth","citations":[{"label":"13 Brett","year":1200},{"label":"1285 KI","year":1285},{"label":"1304–1455, recurring YI","year":1304},{"label":"1304–1455, recurring Pat"},{"label":"1304 YI","year":1304},{"label":"1455 Pat","year":1455}],"when":{"timespans":[{"start":{"earliest":"1200","latest":"1300"},"end":{"earliest":"1200","latest":"1300"}},{"start":{"in":"1285"},"end":{"in":"1285"}},{"start":{"in":"1304"},"end":{"in":"1455"}},{"start":{"in":"1304"},"end":{"in":"1304"}},{"start":{"in":"1455"},"end":{"in":"1455"}}]}},{"toponym":"Wentworth","citations":[{"label":"1498 Test","year":1498},{"label":"1504–1822, recurring FF","year":1504},{"label":"1504–1822, recurring Langd"},{"label":"1504 FF","year":1504},{"label":"1822 Langd","year":1822}],"when":{"timespans":[{"start":{"in":"1498"},"end":{"in":"1498"}},{"start":{"in":"1504"},"end":{"in":"1822"}},{"start":{"in":"1504"},"end":{"in":"1504"}},{"start":{"in":"1822"},"end":{"in":"1822"}}]}}],"types":[{"identifier":"http://vocab.getty.edu/aat/300232418","label":"administrative division","sourceLabels":[{"label":"township","lang":"en"}]}],"geometry":{"type":"GeometryCollection","geometries":[{"type":"Point","coordinates":[-1.41667,53.46667],"citations":[{"label":"GeoNames, gazetteer record geonames:2634527"}]},{"type":"Point","coordinates":[-1.427379066,53.47710122],"citations":[{"label":"English Place-Name Society survey (DEEP coordinates)"}]},{"type":"Point","coordinates":[-1.419783510713435,53.48156061192629],"citations":[{"label":"Unlock (EDINA) gazetteer, gazetteer record unlock:11316047"}]},{"type":"Point","coordinates":[-1.42131,53.4818],"citations":[{"label":"Key to English Place-Names (KEPN), gazetteer record 14309"}]}]},"when":{"timespans":[{"start":{"in":"1086"},"end":{"in":"1822"}}]},"links":[{"type":"closeMatch","identifier":"https://sws.geonames.org/2634527/"}],"relations":[{"relationType":"gvp:broaderPartitive","relationTo":"http://placenames.org.uk/id/placename/30/005294","label":"within Wath upon Dearne"}]}]}