{"@context":"https://raw.githubusercontent.com/LinkedPasts/linked-places-format/main/linkedplaces-context-v1.1.jsonld","type":"FeatureCollection","license":"Digitisation of English Placenames MADS data is licensed to Jisc by the English Place Names Society and released under a Creative Commons Attribution-NonCommercial 4.0 International License.","note":"LPF v1.3, lossy; derived from the PLATO record; plato_commit=ca0afadabec1e23a145c0b03df77e8f151f79832","features":[{"@id":"https://w3id.org/whg-epns/30/006608","type":"Feature","properties":{"title":"Edlington","ccodes":["GB"],"fclasses":["A","P"]},"names":[{"toponym":"Edlington","lang":"en","citations":[{"label":"English Place-Name Society survey, volume 30: West Riding of Yorkshire"}]},{"toponym":"Eilintone, Ellintone","citations":[{"label":"1086 DB","year":1086}],"when":{"timespans":[{"start":{"in":"1086"},"end":{"in":"1086"}}]}},{"toponym":"Edelington'","citations":[{"label":"1194-9 YCh","year":1194},{"label":"1223 Pat","year":1223},{"label":"1250 Ebor","year":1250},{"label":"1268–1316, recurring FF","year":1268},{"label":"1268–1316, recurring Vill"},{"label":"1268 FF","year":1268},{"label":"1316 Vill","year":1316}],"when":{"timespans":[{"start":{"earliest":"1194","latest":"1199"},"end":{"earliest":"1194","latest":"1199"}},{"start":{"in":"1223"},"end":{"in":"1223"}},{"start":{"in":"1250"},"end":{"in":"1250"}},{"start":{"in":"1268"},"end":{"in":"1316"}},{"start":{"in":"1268"},"end":{"in":"1268"}},{"start":{"in":"1316"},"end":{"in":"1316"}}]}},{"toponym":"Edelinton'","citations":[{"label":"1210 P","year":1210},{"label":"1276 RH","year":1276}],"when":{"timespans":[{"start":{"in":"1210"},"end":{"in":"1210"}},{"start":{"in":"1276"},"end":{"in":"1276"}}]}},{"toponym":"Edlingtun, Edlington', Edlyngton'","citations":[{"label":"1196-1201 YCh","year":1196},{"label":"13 Lewes","year":1200},{"label":"1202 FF","year":1202},{"label":"1243 Fees","year":1243},{"label":"1246 FF","year":1246},{"label":"1285–1641, recurring KI","year":1285},{"label":"1285–1641, recurring Rates"},{"label":"1285 KI","year":1285},{"label":"1641 Rates","year":1641}],"when":{"timespans":[{"start":{"earliest":"1196","latest":"1201"},"end":{"earliest":"1196","latest":"1201"}},{"start":{"earliest":"1200","latest":"1300"},"end":{"earliest":"1200","latest":"1300"}},{"start":{"in":"1202"},"end":{"in":"1202"}},{"start":{"in":"1243"},"end":{"in":"1243"}},{"start":{"in":"1246"},"end":{"in":"1246"}},{"start":{"in":"1285"},"end":{"in":"1641"}},{"start":{"in":"1285"},"end":{"in":"1285"}},{"start":{"in":"1641"},"end":{"in":"1641"}}]}},{"toponym":"Edlinton","citations":[{"label":"1202-8 Ass","year":1202},{"label":"1208 P","year":1208}],"when":{"timespans":[{"start":{"earliest":"1202","latest":"1208"},"end":{"earliest":"1202","latest":"1208"}},{"start":{"in":"1208"},"end":{"in":"1208"}}]}}],"types":[{"identifier":"http://vocab.getty.edu/aat/300232418","label":"administrative division","sourceLabels":[{"label":"township","lang":"en"}]}],"geometry":{"type":"GeometryCollection","geometries":[{"type":"Point","coordinates":[-1.18293,53.47339],"citations":[{"label":"GeoNames, gazetteer record geonames:7291078"}]},{"type":"Point","coordinates":[-1.201533915,53.46681591],"citations":[{"label":"English Place-Name Society survey (DEEP coordinates)"}]},{"type":"Point","coordinates":[-1.193916636871136,53.47126087102918],"citations":[{"label":"Unlock (EDINA) gazetteer, gazetteer record unlock:11235548"}]},{"type":"Point","coordinates":[-1.18023,53.4804],"citations":[{"label":"Key to English Place-Names (KEPN), gazetteer record 14313"}]}]},"when":{"timespans":[{"start":{"in":"1086"},"end":{"in":"1641"}}]},"links":[{"type":"closeMatch","identifier":"https://sws.geonames.org/7291078/"}],"relations":[{"relationType":"gvp:broaderPartitive","relationTo":"https://w3id.org/whg-epns/30/006607","label":"within Edlington"}]}]}