{"@context":"https://raw.githubusercontent.com/LinkedPasts/linked-places-format/main/linkedplaces-context-v1.1.jsonld","type":"FeatureCollection","license":"Digitisation of English Placenames MADS data is licensed to Jisc by the English Place Names Society and released under a Creative Commons Attribution-NonCommercial 4.0 International License.","note":"LPF v1.3, lossy; derived from the PLATO record; plato_commit=ca0afadabec1e23a145c0b03df77e8f151f79832","features":[{"@id":"http://placenames.org.uk/id/placename/30/007515","type":"Feature","properties":{"title":"Dinnington","ccodes":["GB"],"fclasses":["A","P"]},"names":[{"toponym":"Dinnington","lang":"en","citations":[{"label":"English Place-Name Society survey, volume 30: West Riding of Yorkshire"}]},{"toponym":"Dunintone, Dunnitone, Domnitone","citations":[{"label":"1086 DB","year":1086}],"when":{"timespans":[{"start":{"in":"1086"},"end":{"in":"1086"}}]}},{"toponym":"Duninton(e)","citations":[{"label":"1091-7 YCh","year":1091},{"label":"l. 12 Lewes","year":1175},{"label":"1200 OblR","year":1200},{"label":"1201 ChR","year":1201}],"when":{"timespans":[{"start":{"earliest":"1091","latest":"1097"},"end":{"earliest":"1091","latest":"1097"}},{"start":{"earliest":"1180","latest":"1202"},"end":{"earliest":"1180","latest":"1202"}},{"start":{"earliest":"1175","latest":"1200"},"end":{"earliest":"1175","latest":"1200"}},{"start":{"in":"1200"},"end":{"in":"1200"}},{"start":{"in":"1201"},"end":{"in":"1201"}}]}},{"toponym":"Duningtun, Dunington","citations":[{"label":"1147-59 YCh","year":1147},{"label":"1200 ChR","year":1200},{"label":"1305 Pat","year":1305}],"when":{"timespans":[{"start":{"earliest":"1147","latest":"1159"},"end":{"earliest":"1147","latest":"1159"}},{"start":{"earliest":"1164","latest":"1181"},"end":{"earliest":"1164","latest":"1181"}},{"start":{"in":"1200"},"end":{"in":"1200"}},{"start":{"in":"1305"},"end":{"in":"1305"}}]}},{"toponym":"Dunigton","citations":[{"label":"1280 Ass","year":1280}],"when":{"timespans":[{"start":{"in":"1280"},"end":{"in":"1280"}}]}},{"toponym":"Donington, Donyngton","citations":[{"label":"1147 YCh","year":1147},{"label":"13 Ch","year":1200},{"label":"c. 1230 YCh","year":1220},{"label":"1271 Ebor","year":1271}],"when":{"timespans":[{"start":{"in":"1147"},"end":{"in":"1147"}},{"start":{"earliest":"1194","latest":"1199"},"end":{"earliest":"1194","latest":"1199"}},{"start":{"earliest":"1200","latest":"1300"},"end":{"earliest":"1200","latest":"1300"}},{"start":{"earliest":"1220","latest":"1240"},"end":{"earliest":"1220","latest":"1240"}},{"start":{"in":"1271"},"end":{"in":"1271"}}]}},{"toponym":"Donigthon","citations":[{"label":"1300 Ebor","year":1300}],"when":{"timespans":[{"start":{"in":"1300"},"end":{"in":"1300"}}]}},{"toponym":"Donyton","citations":[{"label":"1324 Lewes","year":1324}],"when":{"timespans":[{"start":{"in":"1324"},"end":{"in":"1324"}}]}},{"toponym":"Dinington, Dinyngton","citations":[{"label":"1271 Ebor","year":1271},{"label":"14 Sawl","year":1300},{"label":"1322 BM","year":1322},{"label":"1329–1526, recurring FF","year":1329},{"label":"1329–1526, recurring FF"},{"label":"1329 FF","year":1329},{"label":"1526 FF","year":1526}],"when":{"timespans":[{"start":{"in":"1271"},"end":{"in":"1271"}},{"start":{"earliest":"1300","latest":"1400"},"end":{"earliest":"1300","latest":"1400"}},{"start":{"in":"1322"},"end":{"in":"1322"}},{"start":{"in":"1329"},"end":{"in":"1526"}},{"start":{"in":"1329"},"end":{"in":"1329"}},{"start":{"in":"1344"},"end":{"in":"1344"}},{"start":{"in":"1526"},"end":{"in":"1526"}}]}},{"toponym":"Dinington in Morthing","citations":[{"label":"1301 Ebor","year":1301}],"when":{"timespans":[{"start":{"in":"1301"},"end":{"in":"1301"}}]}},{"toponym":"Dyninton","citations":[{"label":"1289 Abbr","year":1289}],"when":{"timespans":[{"start":{"in":"1289"},"end":{"in":"1289"}}]}},{"toponym":"Dynigton(a)","citations":[{"label":"l. 13 BM","year":1275},{"label":"1318 YD","year":1318}],"when":{"timespans":[{"start":{"earliest":"1275","latest":"1300"},"end":{"earliest":"1275","latest":"1300"}},{"start":{"in":"1318"},"end":{"in":"1318"}},{"start":{"in":"1321"},"end":{"in":"1321"}}]}},{"toponym":"Dynnyngton, Dynnington","citations":[{"label":"1379 PT","year":1379},{"label":"1399 Pat","year":1399},{"label":"1410–1591, recurring YI","year":1410},{"label":"1410–1591, recurring FF"},{"label":"1410 YI","year":1410},{"label":"1591 FF","year":1591}],"when":{"timespans":[{"start":{"in":"1379"},"end":{"in":"1379"}},{"start":{"in":"1399"},"end":{"in":"1399"}},{"start":{"in":"1410"},"end":{"in":"1591"}},{"start":{"in":"1410"},"end":{"in":"1410"}},{"start":{"in":"1591"},"end":{"in":"1591"}}]}},{"toponym":"Denyngton(e)","citations":[{"label":"1499 YD","year":1499}],"when":{"timespans":[{"start":{"in":"1499"},"end":{"in":"1499"}},{"start":{"in":"1578"},"end":{"in":"1578"}}]}}],"types":[{"identifier":"http://vocab.getty.edu/aat/300232418","label":"administrative division","sourceLabels":[{"label":"township","lang":"en"}]}],"geometry":{"type":"GeometryCollection","geometries":[{"type":"Point","coordinates":[-1.2,53.36667],"citations":[{"label":"GeoNames, gazetteer record geonames:2651241"}]},{"type":"Point","coordinates":[-1.20338402,53.36794005],"citations":[{"label":"English Place-Name Society survey (DEEP coordinates)"}]},{"type":"Point","coordinates":[-1.210981288247344,53.36349674507483],"citations":[{"label":"Unlock (EDINA) gazetteer, gazetteer record unlock:11129627"}]},{"type":"Point","coordinates":[-1.19733,53.3727],"citations":[{"label":"Key to English Place-Names (KEPN), gazetteer record 14323"}]}]},"when":{"timespans":[{"start":{"in":"1086"},"end":{"in":"1591"}}]},"links":[{"type":"closeMatch","identifier":"https://sws.geonames.org/2651241/"}],"relations":[{"relationType":"gvp:broaderPartitive","relationTo":"http://placenames.org.uk/id/placename/30/007514","label":"within Dinnington"}]}]}