{"@context":"https://raw.githubusercontent.com/LinkedPasts/linked-places-format/main/linkedplaces-context-v1.1.jsonld","type":"FeatureCollection","license":"Digitisation of English Placenames MADS data is licensed to Jisc by the English Place Names Society and released under a Creative Commons Attribution-NonCommercial 4.0 International License.","note":"LPF v1.3, lossy; derived from the PLATO record; plato_commit=ca0afadabec1e23a145c0b03df77e8f151f79832","features":[{"@id":"http://placenames.org.uk/id/placename/30/008469","type":"Feature","properties":{"title":"Handsworth","ccodes":["GB"],"fclasses":["A","P"]},"names":[{"toponym":"Handsworth","lang":"en","citations":[{"label":"English Place-Name Society survey, volume 30: West Riding of Yorkshire"}]},{"toponym":"Handesuuord, Handesuurde","citations":[{"label":"1086 DB","year":1086}],"when":{"timespans":[{"start":{"in":"1086"},"end":{"in":"1086"}}]}},{"toponym":"Handeswrth, Handeswrd(a), Handesworth(e), Handeswurth(e)","citations":[{"label":"12 Dugd","year":1100},{"label":"1181-1210 YCh","year":1181},{"label":"l. 12 BM","year":1175},{"label":"13 RegAlb","year":1200},{"label":"13 YD","year":1200},{"label":"1210–1428, recurring Ch","year":1210},{"label":"1210–1428, recurring FA"},{"label":"1210 Ch","year":1210},{"label":"1428 FA","year":1428}],"when":{"timespans":[{"start":{"earliest":"1100","latest":"1200"},"end":{"earliest":"1100","latest":"1200"}},{"start":{"earliest":"1181","latest":"1210"},"end":{"earliest":"1181","latest":"1210"}},{"start":{"earliest":"1175","latest":"1200"},"end":{"earliest":"1175","latest":"1200"}},{"start":{"earliest":"1200","latest":"1300"},"end":{"earliest":"1200","latest":"1300"}},{"start":{"earliest":"1200","latest":"1300"},"end":{"earliest":"1200","latest":"1300"}},{"start":{"in":"1210"},"end":{"in":"1428"}},{"start":{"in":"1210"},"end":{"in":"1210"}},{"start":{"in":"1428"},"end":{"in":"1428"}}]}},{"toponym":"Handelesworth","citations":[{"label":"1193-9 RegAlb","year":1193},{"label":"c. 1201 YCh","year":1191}],"when":{"timespans":[{"start":{"earliest":"1193","latest":"1199"},"end":{"earliest":"1193","latest":"1199"}},{"start":{"earliest":"1191","latest":"1211"},"end":{"earliest":"1191","latest":"1211"}}]}},{"toponym":"Handisworth","citations":[{"label":"1342 FF","year":1342}],"when":{"timespans":[{"start":{"in":"1342"},"end":{"in":"1342"}}]}},{"toponym":"Hannesworth(e)","citations":[{"label":"1367 BM","year":1367},{"label":"1441 SheffMan","year":1441},{"label":"1472–1573, recurring Fabr","year":1472},{"label":"1472–1573, recurring SheffMan"},{"label":"1472 Fabr","year":1472},{"label":"1573 SheffMan","year":1573}],"when":{"timespans":[{"start":{"in":"1367"},"end":{"in":"1367"}},{"start":{"in":"1473"},"end":{"in":"1473"}},{"start":{"in":"1441"},"end":{"in":"1441"}},{"start":{"in":"1472"},"end":{"in":"1573"}},{"start":{"in":"1472"},"end":{"in":"1472"}},{"start":{"in":"1573"},"end":{"in":"1573"}}]}},{"toponym":"Hansworth","citations":[{"label":"1473 Pat","year":1473},{"label":"1529–1641, recurring FF","year":1529},{"label":"1529–1641, recurring Rates"},{"label":"1529 FF","year":1529},{"label":"1641 Rates","year":1641}],"when":{"timespans":[{"start":{"in":"1473"},"end":{"in":"1473"}},{"start":{"in":"1529"},"end":{"in":"1641"}},{"start":{"in":"1529"},"end":{"in":"1529"}},{"start":{"in":"1641"},"end":{"in":"1641"}}]}},{"toponym":"Honnesworth","citations":[{"label":"1474 Pat","year":1474}],"when":{"timespans":[{"start":{"in":"1474"},"end":{"in":"1474"}}]}},{"toponym":"Handsworth","citations":[{"label":"1692 Hall","year":1692}],"when":{"timespans":[{"start":{"in":"1692"},"end":{"in":"1692"}}]}}],"types":[{"identifier":"http://vocab.getty.edu/aat/300232418","label":"administrative division","sourceLabels":[{"label":"township","lang":"en"}]}],"geometry":{"type":"GeometryCollection","geometries":[{"type":"Point","coordinates":[-1.37621,53.37084],"citations":[{"label":"GeoNames, gazetteer record geonames:2647531"}]},{"type":"Point","coordinates":[-1.383736788,53.3690074],"citations":[{"label":"English Place-Name Society survey (DEEP coordinates)"}]},{"type":"Point","coordinates":[-1.37768,53.3737],"citations":[{"label":"Key to English Place-Names (KEPN), gazetteer record 14336"}]}]},"when":{"timespans":[{"start":{"in":"1086"},"end":{"in":"1692"}}]},"links":[{"type":"closeMatch","identifier":"https://sws.geonames.org/2647531/"}],"relations":[{"relationType":"gvp:broaderPartitive","relationTo":"http://placenames.org.uk/id/placename/30/008468","label":"within Handsworth"}]}]}