{"@context":"https://raw.githubusercontent.com/LinkedPasts/linked-places-format/main/linkedplaces-context-v1.1.jsonld","type":"FeatureCollection","license":"Digitisation of English Placenames MADS data is licensed to Jisc by the English Place Names Society and released under a Creative Commons Attribution-NonCommercial 4.0 International License.","note":"LPF v1.3, lossy; derived from the PLATO record; plato_commit=ca0afadabec1e23a145c0b03df77e8f151f79832","features":[{"@id":"https://w3id.org/whg-epns/30/008622","type":"Feature","properties":{"title":"Whiston","ccodes":["GB"],"fclasses":["A","P"]},"names":[{"toponym":"Whiston","lang":"en","citations":[{"label":"English Place-Name Society survey, volume 30: West Riding of Yorkshire"}]},{"toponym":"Witestan, Widestha', Widestan","citations":[{"label":"1086 DB","year":1086}],"when":{"timespans":[{"start":{"in":"1086"},"end":{"in":"1086"}}]}},{"toponym":"Witstan(e), Wytstan","citations":[{"label":"12 YD","year":1100},{"label":"a. 1194 YCh","year":1144},{"label":"1280 Ass","year":1280},{"label":"1285 KI","year":1285},{"label":"1293 Ebor","year":1293},{"label":"1428 FA","year":1428}],"when":{"timespans":[{"start":{"earliest":"1100","latest":"1200"},"end":{"earliest":"1100","latest":"1200"}},{"start":{"earliest":"1144","latest":"1194"},"end":{"earliest":"1144","latest":"1194"}},{"start":{"in":"1280"},"end":{"in":"1280"}},{"start":{"in":"1285"},"end":{"in":"1285"}},{"start":{"in":"1293"},"end":{"in":"1293"}},{"start":{"in":"1428"},"end":{"in":"1428"}}]}},{"toponym":"Wytestan","citations":[{"label":"1302 Ebor","year":1302}],"when":{"timespans":[{"start":{"in":"1302"},"end":{"in":"1302"}}]}},{"toponym":"Wistan(e), Wystan(e)","citations":[{"label":"12 Hlm","year":1100},{"label":"1188 YCh","year":1188},{"label":"1202-8 Ass","year":1202},{"label":"1236 Ebor","year":1236},{"label":"1285–1323, recurring KI","year":1285},{"label":"1285–1323, recurring BM"},{"label":"1285 KI","year":1285},{"label":"1323 BM","year":1323}],"when":{"timespans":[{"start":{"earliest":"1100","latest":"1200"},"end":{"earliest":"1100","latest":"1200"}},{"start":{"in":"1188"},"end":{"in":"1188"}},{"start":{"earliest":"1202","latest":"1208"},"end":{"earliest":"1202","latest":"1208"}},{"start":{"in":"1236"},"end":{"in":"1236"}},{"start":{"in":"1285"},"end":{"in":"1323"}},{"start":{"in":"1285"},"end":{"in":"1285"}},{"start":{"in":"1323"},"end":{"in":"1323"}}]}},{"toponym":"Wiʒestan'","citations":[{"label":"1195 FF","year":1195}],"when":{"timespans":[{"start":{"in":"1195"},"end":{"in":"1195"}}]}},{"toponym":"Wizestan","citations":[{"label":"1196 YCh","year":1196}],"when":{"timespans":[{"start":{"in":"1196"},"end":{"in":"1196"}}]}},{"toponym":"Hwitstan","citations":[{"label":"13 YD","year":1200},{"label":"1347 Linds","year":1347}],"when":{"timespans":[{"start":{"earliest":"1200","latest":"1300"},"end":{"earliest":"1200","latest":"1300"}},{"start":{"in":"1347"},"end":{"in":"1347"}}]}},{"toponym":"Whytstan, Whitstan","citations":[{"label":"1301 YI","year":1301},{"label":"1316 Pat","year":1316},{"label":"1345 YD","year":1345},{"label":"1376 BM","year":1376},{"label":"1420 YI","year":1420}],"when":{"timespans":[{"start":{"in":"1301"},"end":{"in":"1301"}},{"start":{"in":"1316"},"end":{"in":"1316"}},{"start":{"in":"1345"},"end":{"in":"1345"}},{"start":{"in":"1376"},"end":{"in":"1376"}},{"start":{"in":"1420"},"end":{"in":"1420"}}]}},{"toponym":"Whyston","citations":[{"label":"1407 YI","year":1407}],"when":{"timespans":[{"start":{"in":"1407"},"end":{"in":"1407"}}]}},{"toponym":"Whistan, Whystan","citations":[{"label":"1316 Vill","year":1316},{"label":"1342 FF","year":1342},{"label":"1355 BM","year":1355},{"label":"1379 PT","year":1379}],"when":{"timespans":[{"start":{"in":"1316"},"end":{"in":"1316"}},{"start":{"in":"1342"},"end":{"in":"1342"}},{"start":{"in":"1355"},"end":{"in":"1355"}},{"start":{"in":"1379"},"end":{"in":"1379"}}]}},{"toponym":"Withstan","citations":[{"label":"1323 BM","year":1323}],"when":{"timespans":[{"start":{"in":"1323"},"end":{"in":"1323"}}]}},{"toponym":"Withstone","citations":[{"label":"1409 BM","year":1409}],"when":{"timespans":[{"start":{"in":"1409"},"end":{"in":"1409"}}]}},{"toponym":"Whiston, Whyston","citations":[{"label":"14 Sawl","year":1300},{"label":"1386 YD","year":1386},{"label":"1409 DiocV","year":1409},{"label":"1446–1646, recurring Test","year":1446},{"label":"1446–1646, recurring PRWath"},{"label":"1446 Test","year":1446},{"label":"1646 PRWath","year":1646}],"when":{"timespans":[{"start":{"earliest":"1300","latest":"1400"},"end":{"earliest":"1300","latest":"1400"}},{"start":{"in":"1386"},"end":{"in":"1386"}},{"start":{"in":"1409"},"end":{"in":"1409"}},{"start":{"in":"1446"},"end":{"in":"1646"}},{"start":{"in":"1446"},"end":{"in":"1446"}},{"start":{"in":"1646"},"end":{"in":"1646"}}]}}],"types":[{"identifier":"http://vocab.getty.edu/aat/300232418","label":"administrative division","sourceLabels":[{"label":"township","lang":"en"}]}],"geometry":{"type":"GeometryCollection","geometries":[{"type":"Point","coordinates":[-1.3151,53.40851],"citations":[{"label":"GeoNames, gazetteer record geonames:2634143"}]},{"type":"Point","coordinates":[-1.323047768,53.40463791],"citations":[{"label":"English Place-Name Society survey (DEEP coordinates)"}]},{"type":"Point","coordinates":[-1.315454306648493,53.40909071689196],"citations":[{"label":"Unlock (EDINA) gazetteer, gazetteer record unlock:11320138"}]},{"type":"Point","coordinates":[-1.31699,53.4094],"citations":[{"label":"Key to English Place-Names (KEPN), gazetteer record 14337"}]}]},"when":{"timespans":[{"start":{"in":"1086"},"end":{"in":"1646"}}]},"links":[{"type":"closeMatch","identifier":"https://sws.geonames.org/2634143/"}],"relations":[{"relationType":"gvp:broaderPartitive","relationTo":"https://w3id.org/whg-epns/30/008621","label":"within Whiston"}]}]}