{"@context":"https://raw.githubusercontent.com/LinkedPasts/linked-places-format/main/linkedplaces-context-v1.1.jsonld","type":"FeatureCollection","license":"Digitisation of English Placenames MADS data is licensed to Jisc by the English Place Names Society and released under a Creative Commons Attribution-NonCommercial 4.0 International License.","note":"LPF v1.3, lossy; derived from the PLATO record; plato_commit=fa0d247ccc0263f8f19c8d7cdcd163df96935d1e","features":[{"@id":"https://w3id.org/whg-epns/30/015251","type":"Feature","properties":{"title":"Worsborough","ccodes":["GB"],"fclasses":["A","P"]},"names":[{"toponym":"Worsborough","lang":"en","citations":[{"label":"English Place-Name Society survey, volume 30: West Riding of Yorkshire"}]},{"toponym":"Wircesburg","citations":[{"label":"1086 DB","year":1086}],"when":{"timespans":[{"start":{"in":"1086"},"end":{"in":"1086"}}]}},{"toponym":"Wircasburc","citations":[{"label":"1148 YCh","year":1148}],"when":{"timespans":[{"start":{"in":"1148"},"end":{"in":"1148"}}]}},{"toponym":"Wyrcaburc","citations":[{"label":"1156 YCh","year":1156}],"when":{"timespans":[{"start":{"in":"1156"},"end":{"in":"1156"}}]}},{"toponym":"Wirkeburc, Wirkeburg(a)","citations":[{"label":"Hy 2 Riev","year":1154},{"label":"1172-81 YCh","year":1172},{"label":"1173 YCh","year":1173},{"label":"1196 P","year":1196},{"label":"1219 Ass","year":1219},{"label":"1260-80 Bodl","year":1260}],"when":{"timespans":[{"start":{"earliest":"1154","latest":"1189"},"end":{"earliest":"1154","latest":"1189"}},{"start":{"earliest":"1172","latest":"1181"},"end":{"earliest":"1172","latest":"1181"}},{"start":{"in":"1173"},"end":{"in":"1173"}},{"start":{"in":"1196"},"end":{"in":"1196"}},{"start":{"in":"1219"},"end":{"in":"1219"}},{"start":{"earliest":"1260","latest":"1280"},"end":{"earliest":"1260","latest":"1280"}}]}},{"toponym":"Wirkesburg(h), Wyrkesburg(h), Wirkesburc","citations":[{"label":"1170-84 YCh","year":1170},{"label":"1175-85 YCh","year":1175},{"label":"1180-90 Bodl","year":1180},{"label":"1194 P","year":1194},{"label":"13 Brett","year":1200},{"label":"13 YD","year":1200},{"label":"Ch","year":1249},{"label":"YD"},{"label":"1249 Ch","year":1249},{"label":"1382 YD","year":1382}],"when":{"timespans":[{"start":{"earliest":"1170","latest":"1184"},"end":{"earliest":"1170","latest":"1184"}},{"start":{"earliest":"1175","latest":"1185"},"end":{"earliest":"1175","latest":"1185"}},{"start":{"earliest":"1180","latest":"1190"},"end":{"earliest":"1180","latest":"1190"}},{"start":{"in":"1194"},"end":{"in":"1194"}},{"start":{"in":"1196"},"end":{"in":"1196"}},{"start":{"earliest":"1200","latest":"1300"},"end":{"earliest":"1200","latest":"1300"}},{"start":{"earliest":"1200","latest":"1300"},"end":{"earliest":"1200","latest":"1300"}},{"start":{"in":"1249"},"end":{"in":"1382"}},{"start":{"in":"1249"},"end":{"in":"1249"}},{"start":{"in":"1382"},"end":{"in":"1382"}}]}},{"toponym":"Wirkisburg","citations":[{"label":"1196 Riev","year":1196},{"label":"l. 12 YCh","year":1175}],"when":{"timespans":[{"start":{"in":"1196"},"end":{"in":"1196"}},{"start":{"earliest":"1175","latest":"1200"},"end":{"earliest":"1175","latest":"1200"}}]}},{"toponym":"Werkesburg(h)","citations":[{"label":"1219 FF","year":1219},{"label":"1381 Ch","year":1381},{"label":"1433 Hall","year":1433}],"when":{"timespans":[{"start":{"in":"1219"},"end":{"in":"1219"}},{"start":{"in":"1381"},"end":{"in":"1381"}},{"start":{"in":"1433"},"end":{"in":"1433"}},{"start":{"in":"1435"},"end":{"in":"1435"}}]}},{"toponym":"Wyrseburgh","citations":[{"label":"1363 Edmunds","year":1363}],"when":{"timespans":[{"start":{"in":"1363"},"end":{"in":"1363"}}]}},{"toponym":"Wirsburgh","citations":[{"label":"1366 Test","year":1366}],"when":{"timespans":[{"start":{"in":"1366"},"end":{"in":"1366"}}]}},{"toponym":"Workesburg, Workesburgh, Workesburge, Workesburghe","citations":[{"label":"1449 Hall","year":1449},{"label":"1474 Brett","year":1474},{"label":"1524 Edmunds","year":1524}],"when":{"timespans":[{"start":{"in":"1449"},"end":{"in":"1449"}},{"start":{"in":"1474"},"end":{"in":"1474"}},{"start":{"in":"1491"},"end":{"in":"1491"}},{"start":{"in":"1524"},"end":{"in":"1524"}}]}},{"toponym":"Worsburgh","citations":[{"label":"1458 Brett","year":1458},{"label":"FF","year":1519},{"label":"YD"},{"label":"1519 FF","year":1519},{"label":"1612 YD","year":1612}],"when":{"timespans":[{"start":{"in":"1458"},"end":{"in":"1458"}},{"start":{"in":"1519"},"end":{"in":"1612"}},{"start":{"in":"1519"},"end":{"in":"1519"}},{"start":{"in":"1612"},"end":{"in":"1612"}}]}},{"toponym":"Worsburght","citations":[{"label":"1522 Test","year":1522}],"when":{"timespans":[{"start":{"in":"1522"},"end":{"in":"1522"}}]}},{"toponym":"Worsborghe","citations":[{"label":"1537 Edmunds","year":1537}],"when":{"timespans":[{"start":{"in":"1537"},"end":{"in":"1537"}}]}},{"toponym":"Worsbroughe","citations":[{"label":"1570 WillY","year":1570}],"when":{"timespans":[{"start":{"in":"1570"},"end":{"in":"1570"}}]}},{"toponym":"Worsseburgh","citations":[{"label":"1489 Brett","year":1489}],"when":{"timespans":[{"start":{"in":"1489"},"end":{"in":"1489"}}]}},{"toponym":"Worseborghe","citations":[{"label":"1550 WillY","year":1550}],"when":{"timespans":[{"start":{"in":"1550"},"end":{"in":"1550"}}]}},{"toponym":"Wursbrughe","citations":[{"label":"1559 Edmunds","year":1559}],"when":{"timespans":[{"start":{"in":"1559"},"end":{"in":"1559"}}]}},{"toponym":"Woursbroughe","citations":[{"label":"1575 Dep","year":1575}],"when":{"timespans":[{"start":{"in":"1575"},"end":{"in":"1575"}}]}},{"toponym":"Worspur","citations":[{"label":"1556 WillY","year":1556},{"label":"1695 M","year":1695}],"when":{"timespans":[{"start":{"in":"1556"},"end":{"in":"1556"}},{"start":{"in":"1695"},"end":{"in":"1695"}}]}},{"toponym":"Wosper","citations":[{"label":"1669 PRCnt","year":1669},{"label":"1796 PRFrick","year":1796}],"when":{"timespans":[{"start":{"in":"1669"},"end":{"in":"1669"}},{"start":{"in":"1796"},"end":{"in":"1796"}}]}}],"types":[{"identifier":"http://vocab.getty.edu/aat/300232418","label":"administrative division","sourceLabels":[{"label":"township","lang":"en"}]}],"geometry":{"type":"GeometryCollection","geometries":[{"type":"Point","coordinates":[-1.47243,53.5298],"citations":[{"label":"GeoNames, gazetteer record geonames:2633531"}]},{"type":"Point","coordinates":[-1.456941438,53.5221871],"citations":[{"label":"English Place-Name Society survey (DEEP coordinates)"}]},{"type":"Point","coordinates":[-1.46595,53.527],"citations":[{"label":"Key to English Place-Names (KEPN), gazetteer record 292"}]}]},"when":{"timespans":[{"start":{"in":"1086"},"end":{"in":"1796"}}]},"links":[{"type":"closeMatch","identifier":"https://sws.geonames.org/2633531/"}],"relations":[{"relationType":"gvp:broaderPartitive","relationTo":"https://w3id.org/whg-epns/30/015140","label":"within Darfield"}]}]}