{"@context":"https://raw.githubusercontent.com/LinkedPasts/linked-places-format/main/linkedplaces-context-v1.1.jsonld","type":"FeatureCollection","license":"Digitisation of English Placenames MADS data is licensed to Jisc by the English Place Names Society and released under a Creative Commons Attribution-NonCommercial 4.0 International License.","note":"LPF v1.3, lossy; derived from the PLATO record; plato_commit=fa0d247ccc0263f8f19c8d7cdcd163df96935d1e","features":[{"@id":"https://w3id.org/whg-epns/30/017192","type":"Feature","properties":{"title":"Upper Denby","ccodes":["GB"],"fclasses":["A","P"]},"names":[{"toponym":"Upper Denby","lang":"en","citations":[{"label":"English Place-Name Society survey, volume 30: West Riding of Yorkshire"}]},{"toponym":"Overdeneby","citations":[{"label":"1261 YD","year":1261}],"when":{"timespans":[{"start":{"in":"1261"},"end":{"in":"1261"}}]}},{"toponym":"Over Denbe","citations":[{"label":"1564 WillY","year":1564}],"when":{"timespans":[{"start":{"in":"1564"},"end":{"in":"1564"}}]}},{"toponym":"Over Denby(e)","citations":[{"label":"1573 SheffCh","year":1573},{"label":"1588 FF","year":1588},{"label":"1633 PRThl","year":1633}],"when":{"timespans":[{"start":{"in":"1573"},"end":{"in":"1573"}},{"start":{"in":"1588"},"end":{"in":"1588"}},{"start":{"in":"1633"},"end":{"in":"1633"}}]}},{"toponym":"High Denby","citations":[{"label":"1822 Langd","year":1822}],"when":{"timespans":[{"start":{"in":"1822"},"end":{"in":"1822"}}]}}],"types":[{"identifier":"http://vocab.getty.edu/aat/300232418","label":"administrative division","sourceLabels":[{"label":"township","lang":"en"}]}],"geometry":{"type":"GeometryCollection","geometries":[{"type":"Point","coordinates":[-1.660259448392572,53.56339139564663],"citations":[{"label":"Unlock (EDINA) gazetteer, gazetteer record unlock:11309903"}]},{"type":"Point","coordinates":[-1.66176,53.5636],"citations":[{"label":"Key to English Place-Names (KEPN), gazetteer record 14385"}]}]},"when":{"timespans":[{"start":{"in":"1261"},"end":{"in":"1822"}}]},"relations":[{"relationType":"gvp:broaderPartitive","relationTo":"https://w3id.org/whg-epns/30/017181","label":"within Penistone"}]}]}