{"@context":"https://raw.githubusercontent.com/LinkedPasts/linked-places-format/main/linkedplaces-context-v1.1.jsonld","type":"FeatureCollection","license":"Digitisation of English Placenames MADS data is licensed to Jisc by the English Place Names Society and released under a Creative Commons Attribution-NonCommercial 4.0 International License.","note":"LPF v1.3, lossy; derived from the PLATO record; plato_commit=fa0d247ccc0263f8f19c8d7cdcd163df96935d1e","features":[{"@id":"https://w3id.org/whg-epns/30/017669","type":"Feature","properties":{"title":"Oxspring","ccodes":["GB"],"fclasses":["A","P"]},"names":[{"toponym":"Oxspring","lang":"en","citations":[{"label":"English Place-Name Society survey, volume 30: West Riding of Yorkshire"}]},{"toponym":"Ospring, Osprinc","citations":[{"label":"1086 DB","year":1086}],"when":{"timespans":[{"start":{"in":"1086"},"end":{"in":"1086"}}]}},{"toponym":"Ospring","citations":[{"label":"1305 YI","year":1305},{"label":"1316 Vill","year":1316}],"when":{"timespans":[{"start":{"in":"1305"},"end":{"in":"1305"}},{"start":{"in":"1316"},"end":{"in":"1316"}}]}},{"toponym":"Oxspring, Oxspryng","citations":[{"label":"1154-9 YCh","year":1154},{"label":"1310 Brett","year":1310},{"label":"1328 Banco","year":1328},{"label":"1371 Brett","year":1371},{"label":"1371 FF","year":1371},{"label":"1374 AD","year":1374},{"label":"FA","year":1402},{"label":"FF"},{"label":"1402 FA","year":1402},{"label":"1588 FF","year":1588}],"when":{"timespans":[{"start":{"earliest":"1154","latest":"1159"},"end":{"earliest":"1154","latest":"1159"}},{"start":{"in":"1310"},"end":{"in":"1310"}},{"start":{"in":"1328"},"end":{"in":"1328"}},{"start":{"in":"1371"},"end":{"in":"1371"}},{"start":{"in":"1371"},"end":{"in":"1371"}},{"start":{"in":"1374"},"end":{"in":"1374"}},{"start":{"in":"1402"},"end":{"in":"1588"}},{"start":{"in":"1402"},"end":{"in":"1402"}},{"start":{"in":"1588"},"end":{"in":"1588"}}]}},{"toponym":"Oxpring, Oxpryng(e)","citations":[{"label":"13 YD","year":1200},{"label":"1348 AD","year":1348},{"label":"1365 YD","year":1365},{"label":"1378 PT","year":1378},{"label":"1434 AD","year":1434}],"when":{"timespans":[{"start":{"earliest":"1200","latest":"1300"},"end":{"earliest":"1200","latest":"1300"}},{"start":{"in":"1348"},"end":{"in":"1348"}},{"start":{"in":"1365"},"end":{"in":"1365"}},{"start":{"in":"1378"},"end":{"in":"1378"}},{"start":{"in":"1434"},"end":{"in":"1434"}}]}},{"toponym":"Oxprig'","citations":[{"label":"1259 Ass","year":1259}],"when":{"timespans":[{"start":{"in":"1259"},"end":{"in":"1259"}}]}}],"types":[{"identifier":"http://vocab.getty.edu/aat/300232418","label":"administrative division","sourceLabels":[{"label":"township","lang":"en"}]}],"geometry":{"type":"GeometryCollection","geometries":[{"type":"Point","coordinates":[-1.6011,53.51852],"citations":[{"label":"GeoNames, gazetteer record geonames:7301678"}]},{"type":"Point","coordinates":[-1.607869421,53.51378783],"citations":[{"label":"English Place-Name Society survey (DEEP coordinates)"}]},{"type":"Point","coordinates":[-1.600286230322368,53.51825869957187],"citations":[{"label":"Unlock (EDINA) gazetteer, gazetteer record unlock:11238400"}]},{"type":"Point","coordinates":[-1.60145,53.5545],"citations":[{"label":"Key to English Place-Names (KEPN), gazetteer record 14390"}]}]},"when":{"timespans":[{"start":{"in":"1086"},"end":{"in":"1588"}}]},"links":[{"type":"closeMatch","identifier":"https://sws.geonames.org/7301678/"}],"relations":[{"relationType":"gvp:broaderPartitive","relationTo":"https://w3id.org/whg-epns/30/017181","label":"within Penistone"}]}]}