{"@context":"https://raw.githubusercontent.com/LinkedPasts/linked-places-format/main/linkedplaces-context-v1.1.jsonld","type":"FeatureCollection","license":"Digitisation of English Placenames MADS data is licensed to Jisc by the English Place Names Society and released under a Creative Commons Attribution-NonCommercial 4.0 International License.","note":"LPF v1.3, lossy; derived from the PLATO record; plato_commit=fa0d247ccc0263f8f19c8d7cdcd163df96935d1e","features":[{"@id":"https://w3id.org/whg-epns/10/000351","type":"Feature","properties":{"title":"Dodford","ccodes":["GB"],"fclasses":["A","P"]},"names":[{"toponym":"Dodford","lang":"en","citations":[{"label":"English Place-Name Society survey, volume 10: Northamptonshire"}]}],"types":[{"identifier":"http://vocab.getty.edu/aat/300232418","label":"administrative division","sourceLabels":[{"label":"parish","lang":"en"}]}],"geometry":{"type":"GeometryCollection","geometries":[{"type":"Point","coordinates":[-1.10099,52.24026],"citations":[{"label":"GeoNames, gazetteer record geonames:2651176"}]},{"type":"Point","coordinates":[-1.099261232226542,52.23885334358844],"citations":[{"label":"Unlock (EDINA) gazetteer, gazetteer record unlock:11130112"}]},{"type":"Point","coordinates":[-1.10077,52.2393],"citations":[{"label":"Key to English Place-Names (KEPN), gazetteer record 10877"}]}]},"links":[{"type":"closeMatch","identifier":"https://sws.geonames.org/2651176/"}],"relations":[{"relationType":"gvp:broaderPartitive","relationTo":"https://w3id.org/whg-epns/10/000130","label":"within Fawsley Hundred"}]}]}