{"@context":"https://raw.githubusercontent.com/LinkedPasts/linked-places-format/main/linkedplaces-context-v1.1.jsonld","type":"FeatureCollection","license":"Digitisation of English Placenames MADS data is licensed to Jisc by the English Place Names Society and released under a Creative Commons Attribution-NonCommercial 4.0 International License.","note":"LPF v1.3, lossy; derived from the PLATO record; plato_commit=ca0afadabec1e23a145c0b03df77e8f151f79832","features":[{"@id":"http://placenames.org.uk/id/placename/10/000677","type":"Feature","properties":{"title":"Edgcote","ccodes":["GB"],"fclasses":["A","P"]},"names":[{"toponym":"Edgcote","lang":"en","citations":[{"label":"English Place-Name Society survey, volume 10: Northamptonshire"}]},{"toponym":"Hocecote","citations":[{"label":"1086 DB","year":1086}],"when":{"timespans":[{"start":{"in":"1086"},"end":{"in":"1086"}}]}},{"toponym":"Hochecote","citations":[{"label":"1154–1428, recurring Cott","year":1154},{"label":"1154–1428, recurring FA"},{"label":"t. Hy 2 Cott","year":1154},{"label":"1428 FA","year":1428}],"when":{"timespans":[{"start":{"in":"1154"},"end":{"in":"1428"}},{"start":{"earliest":"1154","latest":"1189"},"end":{"earliest":"1154","latest":"1189"}},{"start":{"in":"1428"},"end":{"in":"1428"}}]}},{"toponym":"Hochcote","citations":[{"label":"1297 Cl","year":1297}],"when":{"timespans":[{"start":{"in":"1297"},"end":{"in":"1297"}}]}},{"toponym":"Ochecot'","citations":[{"label":"1220 Fees","year":1220},{"label":"1404 Ass","year":1404}],"when":{"timespans":[{"start":{"in":"1220"},"end":{"in":"1220"}},{"start":{"in":"1404"},"end":{"in":"1404"}}]}},{"toponym":"Ochecott","citations":[{"label":"1223 WellsR","year":1223}],"when":{"timespans":[{"start":{"in":"1223"},"end":{"in":"1223"}}]}},{"toponym":"Ochocote","citations":[{"label":"1383 AD","year":1383}],"when":{"timespans":[{"start":{"in":"1383"},"end":{"in":"1383"}}]}},{"toponym":"Hechcot","citations":[{"label":"1284 FA","year":1284}],"when":{"timespans":[{"start":{"in":"1284"},"end":{"in":"1284"}}]}},{"toponym":"Hogecote","citations":[{"label":"1275 RH","year":1275},{"label":"t. Ed 3 SR","year":1327}],"when":{"timespans":[{"start":{"in":"1275"},"end":{"in":"1275"}},{"start":{"earliest":"1327","latest":"1377"},"end":{"earliest":"1327","latest":"1377"}}]}},{"toponym":"Hogekote","citations":[{"label":"1285 Ass","year":1285}],"when":{"timespans":[{"start":{"in":"1285"},"end":{"in":"1285"}}]}},{"toponym":"Hoggecote","citations":[{"label":"1323 AD","year":1323}],"when":{"timespans":[{"start":{"in":"1323"},"end":{"in":"1323"}}]}},{"toponym":"Oggecote","citations":[{"label":"1404 Ass","year":1404}],"when":{"timespans":[{"start":{"in":"1404"},"end":{"in":"1404"}}]}},{"toponym":"Hegecote","citations":[{"label":"15th Hist. Croyland. Continuatio","year":1400}],"when":{"timespans":[{"start":{"earliest":"1400","latest":"1500"},"end":{"earliest":"1400","latest":"1500"}}]}},{"toponym":"Edgecotte","citations":[{"label":"1526 SR","year":1526}],"when":{"timespans":[{"start":{"in":"1526"},"end":{"in":"1526"}}]}},{"toponym":"Edgecoote","citations":[{"label":"1535 VE","year":1535}],"when":{"timespans":[{"start":{"in":"1535"},"end":{"in":"1535"}}]}},{"toponym":"Ogecott","citations":[{"label":"c. 1530 CtRequests","year":1520}],"when":{"timespans":[{"start":{"earliest":"1520","latest":"1540"},"end":{"earliest":"1520","latest":"1540"}}]}}],"types":[{"identifier":"http://vocab.getty.edu/aat/300232418","label":"administrative division","sourceLabels":[{"label":"township","lang":"en"}]}],"geometry":{"type":"GeometryCollection","geometries":[{"type":"Point","coordinates":[-1.262289392896153,52.12309330454702],"citations":[{"label":"Unlock (EDINA) gazetteer, gazetteer record unlock:11137916"}]},{"type":"Point","coordinates":[-1.26378,52.1235],"citations":[{"label":"Key to English Place-Names (KEPN), gazetteer record 10895"}]}]},"when":{"timespans":[{"start":{"in":"1086"},"end":{"in":"1540"}}]},"relations":[{"relationType":"gvp:broaderPartitive","relationTo":"http://placenames.org.uk/id/placename/10/000676","label":"within Edgcote"}]}]}