{"@context":"https://raw.githubusercontent.com/LinkedPasts/linked-places-format/main/linkedplaces-context-v1.1.jsonld","type":"FeatureCollection","license":"Digitisation of English Placenames MADS data is licensed to Jisc by the English Place Names Society and released under a Creative Commons Attribution-NonCommercial 4.0 International License.","note":"LPF v1.3, lossy; derived from the PLATO record; plato_commit=ca0afadabec1e23a145c0b03df77e8f151f79832","features":[{"@id":"https://w3id.org/whg-epns/10/000699","type":"Feature","properties":{"title":"Eydon","ccodes":["GB"],"fclasses":["A","P"]},"names":[{"toponym":"Eydon","lang":"en","citations":[{"label":"English Place-Name Society survey, volume 10: Northamptonshire"}]},{"toponym":"Egedone","citations":[{"label":"1086 DB","year":1086}],"when":{"timespans":[{"start":{"in":"1086"},"end":{"in":"1086"}}]}},{"toponym":"Eindune","citations":[{"label":"c. 1200 Wardon","year":1190}],"when":{"timespans":[{"start":{"earliest":"1190","latest":"1210"},"end":{"earliest":"1190","latest":"1210"}}]}},{"toponym":"Eindon(a)","citations":[{"label":"t. John BM","year":1199},{"label":"1202 Ass","year":1202}],"when":{"timespans":[{"start":{"earliest":"1199","latest":"1216"},"end":{"earliest":"1199","latest":"1216"}},{"start":{"in":"1202"},"end":{"in":"1202"}}]}},{"toponym":"Eyndon(a)","citations":[{"label":"1219–1253, recurring Bracton","year":1219},{"label":"1219–1253, recurring Ass"},{"label":"1219 Bracton","year":1219},{"label":"1253 Ass","year":1253}],"when":{"timespans":[{"start":{"in":"1219"},"end":{"in":"1253"}},{"start":{"in":"1219"},"end":{"in":"1219"}},{"start":{"in":"1253"},"end":{"in":"1253"}}]}},{"toponym":"Aydona","citations":[{"label":"12th Survey","year":1100}],"when":{"timespans":[{"start":{"earliest":"1100","latest":"1200"},"end":{"earliest":"1100","latest":"1200"}}]}},{"toponym":"Ayndona","citations":[{"label":"1219 Bracton","year":1219}],"when":{"timespans":[{"start":{"in":"1219"},"end":{"in":"1219"}}]}},{"toponym":"Heydon","citations":[{"label":"1219 WellsR","year":1219}],"when":{"timespans":[{"start":{"in":"1219"},"end":{"in":"1219"}}]}},{"toponym":"Eidon(e)","citations":[{"label":"1210–1230, recurring AD","year":1210},{"label":"c. 1220 AD","year":1210}],"when":{"timespans":[{"start":{"in":"1210"},"end":{"in":"1230"}},{"start":{"earliest":"1210","latest":"1230"},"end":{"earliest":"1210","latest":"1230"}}]}},{"toponym":"Eydon","citations":[{"label":"c. 1220-1600 unspecified sources","year":1210}],"when":{"timespans":[{"start":{"in":"1210"},"end":{"in":"1600"}}]}},{"toponym":"Edon","citations":[{"label":"1549 SR","year":1549}],"when":{"timespans":[{"start":{"in":"1549"},"end":{"in":"1549"}}]}},{"toponym":"Edon al. Eadon","citations":[{"label":"1593 FF","year":1593}],"when":{"timespans":[{"start":{"in":"1593"},"end":{"in":"1593"}}]}},{"toponym":"Eydon al. Eden","citations":[{"label":"1727 Recov","year":1727}],"when":{"timespans":[{"start":{"in":"1727"},"end":{"in":"1727"}}]}}],"types":[{"identifier":"http://vocab.getty.edu/aat/300232418","label":"administrative division","sourceLabels":[{"label":"township","lang":"en"}]}],"geometry":{"type":"GeometryCollection","geometries":[{"type":"Point","coordinates":[-1.20807,52.14887],"citations":[{"label":"GeoNames, gazetteer record geonames:2649791"}]},{"type":"Point","coordinates":[-1.203381736502027,52.14968531230726],"citations":[{"label":"Unlock (EDINA) gazetteer, gazetteer record unlock:11141193"}]},{"type":"Point","coordinates":[-1.20488,52.1501],"citations":[{"label":"Key to English Place-Names (KEPN), gazetteer record 10896"}]}]},"when":{"timespans":[{"start":{"in":"1086"},"end":{"in":"1727"}}]},"links":[{"type":"closeMatch","identifier":"https://sws.geonames.org/2649791/"}],"relations":[{"relationType":"gvp:broaderPartitive","relationTo":"https://w3id.org/whg-epns/10/000698","label":"within Eydon"}]}]}