{"@context":"https://raw.githubusercontent.com/LinkedPasts/linked-places-format/main/linkedplaces-context-v1.1.jsonld","type":"FeatureCollection","license":"Digitisation of English Placenames MADS data is licensed to Jisc by the English Place Names Society and released under a Creative Commons Attribution-NonCommercial 4.0 International License.","note":"LPF v1.3, lossy; derived from the PLATO record; plato_commit=ca0afadabec1e23a145c0b03df77e8f151f79832","features":[{"@id":"http://placenames.org.uk/id/placename/10/000751","type":"Feature","properties":{"title":"Chipping Warden","ccodes":["GB"],"fclasses":["A","P"]},"names":[{"toponym":"Chipping Warden","lang":"en","citations":[{"label":"English Place-Name Society survey, volume 10: Northamptonshire"}]},{"toponym":"Waredon(e)","citations":[{"label":"1086 DB","year":1086},{"label":"1205 ClR","year":1205}],"when":{"timespans":[{"start":{"in":"1086"},"end":{"in":"1086"}},{"start":{"in":"1205"},"end":{"in":"1205"}}]}},{"toponym":"Wardon","citations":[{"label":"1163–1163, recurring BM","year":1163},{"label":"1163 BM","year":1163}],"when":{"timespans":[{"start":{"in":"1163"},"end":{"in":"1163"}},{"start":{"in":"1163"},"end":{"in":"1163"}}]}},{"toponym":"Westwardon","citations":[{"label":"1205 FF","year":1205},{"label":"1242 Fees","year":1242},{"label":"1349 Ipm","year":1349}],"when":{"timespans":[{"start":{"in":"1205"},"end":{"in":"1205"}},{"start":{"in":"1242"},"end":{"in":"1242"}},{"start":{"in":"1349"},"end":{"in":"1349"}}]}},{"toponym":"Chepyng Wardoun","citations":[{"label":"1389 Cl","year":1389}],"when":{"timespans":[{"start":{"in":"1389"},"end":{"in":"1389"}}]}},{"toponym":"Westwardyn al. Chepingwarden","citations":[{"label":"1483 IpmR","year":1483}],"when":{"timespans":[{"start":{"in":"1483"},"end":{"in":"1483"}}]}}],"types":[{"identifier":"http://vocab.getty.edu/aat/300232418","label":"administrative division","sourceLabels":[{"label":"township","lang":"en"}]}],"geometry":{"type":"GeometryCollection","geometries":[{"type":"Point","coordinates":[-1.2729,52.13536],"citations":[{"label":"GeoNames, gazetteer record geonames:2653136"}]},{"type":"Point","coordinates":[-1.27675069450124,52.13217460960568],"citations":[{"label":"Unlock (EDINA) gazetteer, gazetteer record unlock:11106628"}]},{"type":"Point","coordinates":[-1.27824,52.1326],"citations":[{"label":"Key to English Place-Names (KEPN), gazetteer record 10899"}]}]},"when":{"timespans":[{"start":{"in":"1086"},"end":{"in":"1483"}}]},"links":[{"type":"closeMatch","identifier":"https://sws.geonames.org/2653136/"}],"relations":[{"relationType":"gvp:broaderPartitive","relationTo":"http://placenames.org.uk/id/placename/10/000750","label":"within Chipping Warden"}]}]}