{"@context":"https://raw.githubusercontent.com/LinkedPasts/linked-places-format/main/linkedplaces-context-v1.1.jsonld","type":"FeatureCollection","license":"Digitisation of English Placenames MADS data is licensed to Jisc by the English Place Names Society and released under a Creative Commons Attribution-NonCommercial 4.0 International License.","note":"LPF v1.3, lossy; derived from the PLATO record; plato_commit=ca0afadabec1e23a145c0b03df77e8f151f79832","features":[{"@id":"http://placenames.org.uk/id/placename/10/001200","type":"Feature","properties":{"title":"Culworth","ccodes":["GB"],"fclasses":["A","P"]},"names":[{"toponym":"Culworth","lang":"en","citations":[{"label":"English Place-Name Society survey, volume 10: Northamptonshire"}]},{"toponym":"Culeorde","citations":[{"label":"1086 DB","year":1086}],"when":{"timespans":[{"start":{"in":"1086"},"end":{"in":"1086"}}]}},{"toponym":"Culwurda","citations":[{"label":"1184–1371, recurring P","year":1184},{"label":"1184–1371, recurring AD"},{"label":"1184 P","year":1184},{"label":"1371 AD","year":1371}],"when":{"timespans":[{"start":{"in":"1184"},"end":{"in":"1371"}},{"start":{"in":"1184"},"end":{"in":"1184"}},{"start":{"in":"1371"},"end":{"in":"1371"}}]}},{"toponym":"Culworth(e)","citations":[{"label":"1184-1371 unspecified sources","year":1184}],"when":{"timespans":[{"start":{"in":"1184"},"end":{"in":"1371"}}]}},{"toponym":"Culleworth","citations":[{"label":"AD"}]},{"toponym":"Colewyth","citations":[{"label":"12th Survey","year":1100}],"when":{"timespans":[{"start":{"earliest":"1100","latest":"1200"},"end":{"earliest":"1100","latest":"1200"}}]}},{"toponym":"Coleworth","citations":[{"label":"1376–1376, recurring AD","year":1376},{"label":"1376–1376, recurring Cl"},{"label":"AD"},{"label":"1376 Cl","year":1376}],"when":{"timespans":[{"start":{"in":"1376"},"end":{"in":"1376"}},{"start":{"in":"1376"},"end":{"in":"1376"}}]}},{"toponym":"Coleswrth","citations":[{"label":"1235 Fees","year":1235}],"when":{"timespans":[{"start":{"in":"1235"},"end":{"in":"1235"}}]}},{"toponym":"Collewrth","citations":[{"label":"AD"}]},{"toponym":"Colleworth","citations":[{"label":"1380 Cl","year":1380}],"when":{"timespans":[{"start":{"in":"1380"},"end":{"in":"1380"}}]}},{"toponym":"Colworth","citations":[{"label":"1331 Ipm","year":1331},{"label":"1378 Cl","year":1378}],"when":{"timespans":[{"start":{"in":"1331"},"end":{"in":"1331"}},{"start":{"in":"1378"},"end":{"in":"1378"}}]}}],"types":[{"identifier":"http://vocab.getty.edu/aat/300232418","label":"administrative division","sourceLabels":[{"label":"township","lang":"en"}]}],"geometry":{"type":"GeometryCollection","geometries":[{"type":"Point","coordinates":[-1.20523,52.11757],"citations":[{"label":"GeoNames, gazetteer record geonames:2651719"}]},{"type":"Point","coordinates":[-1.204022923270438,52.11372262305539],"citations":[{"label":"Unlock (EDINA) gazetteer, gazetteer record unlock:11124800"}]},{"type":"Point","coordinates":[-1.20552,52.1141],"citations":[{"label":"Key to English Place-Names (KEPN), gazetteer record 10920"}]}]},"when":{"timespans":[{"start":{"in":"1086"},"end":{"in":"1380"}}]},"links":[{"type":"closeMatch","identifier":"https://sws.geonames.org/2651719/"}],"relations":[{"relationType":"gvp:broaderPartitive","relationTo":"http://placenames.org.uk/id/placename/10/001199","label":"within Culworth"}]}]}