{"@context":"https://raw.githubusercontent.com/LinkedPasts/linked-places-format/main/linkedplaces-context-v1.1.jsonld","type":"FeatureCollection","license":"Digitisation of English Placenames MADS data is licensed to Jisc by the English Place Names Society and released under a Creative Commons Attribution-NonCommercial 4.0 International License.","note":"LPF v1.3, lossy; derived from the PLATO record; plato_commit=ca0afadabec1e23a145c0b03df77e8f151f79832","features":[{"@id":"http://placenames.org.uk/id/placename/10/001294","type":"Feature","properties":{"title":"Marston St Lawrence","ccodes":["GB"],"fclasses":["A","P"]},"names":[{"toponym":"Marston St Lawrence","lang":"en","citations":[{"label":"English Place-Name Society survey, volume 10: Northamptonshire"}]},{"toponym":"Merestone, Merestona","citations":[{"label":"1086 DB","year":1086},{"label":"1121-9 France","year":1121},{"label":"1336 AD","year":1336}],"when":{"timespans":[{"start":{"in":"1086"},"end":{"in":"1086"}},{"start":{"earliest":"1121","latest":"1129"},"end":{"earliest":"1121","latest":"1129"}},{"start":{"in":"1336"},"end":{"in":"1336"}}]}},{"toponym":"Merston(e)","citations":[{"label":"1181–1316, recurring P","year":1181},{"label":"1181–1316, recurring FA"},{"label":"1181 P","year":1181},{"label":"1316 FA","year":1316}],"when":{"timespans":[{"start":{"in":"1181"},"end":{"in":"1316"}},{"start":{"in":"1181"},"end":{"in":"1181"}},{"start":{"in":"1316"},"end":{"in":"1316"}}]}},{"toponym":"Merston by Bannebury","citations":[{"label":"1396 Pat","year":1396}],"when":{"timespans":[{"start":{"in":"1396"},"end":{"in":"1396"}}]}},{"toponym":"Mersshton Scī Laurencii","citations":[{"label":"1330 QW","year":1330}],"when":{"timespans":[{"start":{"in":"1330"},"end":{"in":"1330"}}]}},{"toponym":"Mersshton","citations":[{"label":"1383 Cl","year":1383}],"when":{"timespans":[{"start":{"in":"1383"},"end":{"in":"1383"}}]}},{"toponym":"Lawrence Marston","citations":[{"label":"t. Hy 8 AD","year":1509}],"when":{"timespans":[{"start":{"earliest":"1509","latest":"1547"},"end":{"earliest":"1509","latest":"1547"}}]}},{"toponym":"Larrens Marston","citations":[{"label":"1539 LP","year":1539}],"when":{"timespans":[{"start":{"in":"1539"},"end":{"in":"1539"}}]}}],"types":[{"identifier":"http://vocab.getty.edu/aat/300232418","label":"administrative division","sourceLabels":[{"label":"township","lang":"en"}]}],"geometry":{"type":"GeometryCollection","geometries":[{"type":"Point","coordinates":[-1.219254630322488,52.07785726193696],"citations":[{"label":"Unlock (EDINA) gazetteer, gazetteer record unlock:11214291"}]},{"type":"Point","coordinates":[-1.22074,52.0783],"citations":[{"label":"Key to English Place-Names (KEPN), gazetteer record 10925"}]}]},"when":{"timespans":[{"start":{"in":"1086"},"end":{"in":"1547"}}]},"relations":[{"relationType":"gvp:broaderPartitive","relationTo":"http://placenames.org.uk/id/placename/10/001293","label":"within Marston St Lawrence"}]}]}