{"@context":"https://raw.githubusercontent.com/LinkedPasts/linked-places-format/main/linkedplaces-context-v1.1.jsonld","type":"FeatureCollection","license":"Digitisation of English Placenames MADS data is licensed to Jisc by the English Place Names Society and released under a Creative Commons Attribution-NonCommercial 4.0 International License.","note":"LPF v1.3, lossy; derived from the PLATO record; plato_commit=ca0afadabec1e23a145c0b03df77e8f151f79832","features":[{"@id":"https://w3id.org/whg-epns/10/001667","type":"Feature","properties":{"title":"Cold Ashby","ccodes":["GB"],"fclasses":["A","P"]},"names":[{"toponym":"Cold Ashby","lang":"en","citations":[{"label":"English Place-Name Society survey, volume 10: Northamptonshire"}]},{"toponym":"Essebi","citations":[{"label":"1086 DB","year":1086}],"when":{"timespans":[{"start":{"in":"1086"},"end":{"in":"1086"}}]}},{"toponym":"Caldessebi","citations":[{"label":"c. 1150 BM","year":1140}],"when":{"timespans":[{"start":{"earliest":"1140","latest":"1160"},"end":{"earliest":"1140","latest":"1160"}}]}},{"toponym":"Kaldessebi","citations":[{"label":"1205 FF","year":1205}],"when":{"timespans":[{"start":{"in":"1205"},"end":{"in":"1205"}}]}},{"toponym":"Caldeassheby","citations":[{"label":"1401 Cl","year":1401}],"when":{"timespans":[{"start":{"in":"1401"},"end":{"in":"1401"}}]}},{"toponym":"Chaldessebi","citations":[{"label":"c. 1160 AD","year":1150}],"when":{"timespans":[{"start":{"earliest":"1150","latest":"1170"},"end":{"earliest":"1150","latest":"1170"}}]}},{"toponym":"Chaldessby","citations":[{"label":"1212 FF","year":1212}],"when":{"timespans":[{"start":{"in":"1212"},"end":{"in":"1212"}},{"start":{"in":"1219"},"end":{"in":"1219"}}]}},{"toponym":"Chald Asseby","citations":[{"label":"early Hy 3 BM","year":1216}],"when":{"timespans":[{"start":{"earliest":"1216","latest":"1272"},"end":{"earliest":"1216","latest":"1272"}}]}},{"toponym":"Coldessebi","citations":[{"label":"1199 FF","year":1199}],"when":{"timespans":[{"start":{"in":"1199"},"end":{"in":"1199"}}]}},{"toponym":"Coldessby","citations":[{"label":"c. 1230 AD","year":1220},{"label":"1235 Ch","year":1235}],"when":{"timespans":[{"start":{"earliest":"1220","latest":"1240"},"end":{"earliest":"1220","latest":"1240"}},{"start":{"in":"1235"},"end":{"in":"1235"}}]}},{"toponym":"Colde Assheby","citations":[{"label":"1359 Ipm","year":1359}],"when":{"timespans":[{"start":{"in":"1359"},"end":{"in":"1359"}}]}},{"toponym":"Haldaskebi, Kolekebi","citations":[{"label":"1200 Cur","year":1200}],"when":{"timespans":[{"start":{"in":"1200"},"end":{"in":"1200"}}]}},{"toponym":"Asheby","citations":[{"label":"1233 Cl","year":1233}],"when":{"timespans":[{"start":{"in":"1233"},"end":{"in":"1233"}}]}},{"toponym":"Cole Ashbye","citations":[{"label":"1631 NRS","year":1631}],"when":{"timespans":[{"start":{"in":"1631"},"end":{"in":"1631"}}]}},{"toponym":"Cole Ashby al. Cold Ashby","citations":[{"label":"1780 FF","year":1780}],"when":{"timespans":[{"start":{"in":"1780"},"end":{"in":"1780"}}]}}],"types":[{"identifier":"http://vocab.getty.edu/aat/300232418","label":"administrative division","sourceLabels":[{"label":"township","lang":"en"}]}],"geometry":{"type":"GeometryCollection","geometries":[{"type":"Point","coordinates":[-1.03735,52.38122],"citations":[{"label":"GeoNames, gazetteer record geonames:2652616"}]},{"type":"Point","coordinates":[-1.037570497806121,52.38223188768793],"citations":[{"label":"Unlock (EDINA) gazetteer, gazetteer record unlock:11113452"}]},{"type":"Point","coordinates":[-1.03909,52.3826],"citations":[{"label":"Key to English Place-Names (KEPN), gazetteer record 10938"}]}]},"when":{"timespans":[{"start":{"in":"1086"},"end":{"in":"1780"}}]},"links":[{"type":"closeMatch","identifier":"https://sws.geonames.org/2652616/"}],"relations":[{"relationType":"gvp:broaderPartitive","relationTo":"https://w3id.org/whg-epns/10/001666","label":"within Cold Ashby"}]}]}