{"@context":"https://raw.githubusercontent.com/LinkedPasts/linked-places-format/main/linkedplaces-context-v1.1.jsonld","type":"FeatureCollection","license":"Digitisation of English Placenames MADS data is licensed to Jisc by the English Place Names Society and released under a Creative Commons Attribution-NonCommercial 4.0 International License.","note":"LPF v1.3, lossy; derived from the PLATO record; plato_commit=ca0afadabec1e23a145c0b03df77e8f151f79832","features":[{"@id":"http://placenames.org.uk/id/placename/10/001900","type":"Feature","properties":{"title":"Stanford on Avon","ccodes":["GB"],"fclasses":["A","P"]},"names":[{"toponym":"Stanford on Avon","lang":"en","citations":[{"label":"English Place-Name Society survey, volume 10: Northamptonshire"}]},{"toponym":"Stanford","citations":[{"label":"1086–1086, recurring DB","year":1086},{"label":"1086 DB","year":1086}],"when":{"timespans":[{"start":{"in":"1086"},"end":{"in":"1086"}},{"start":{"in":"1086"},"end":{"in":"1086"}}]}},{"toponym":"Stanford abbatis de Selebi","citations":[{"label":"1190 P","year":1190}],"when":{"timespans":[{"start":{"in":"1190"},"end":{"in":"1190"}}]}},{"toponym":"Stanford juxta Lilleburne","citations":[{"label":"1242 Fees","year":1242}],"when":{"timespans":[{"start":{"in":"1242"},"end":{"in":"1242"}}]}},{"toponym":"Staneford","citations":[{"label":"1275 RH","year":1275},{"label":"1483 AD","year":1483}],"when":{"timespans":[{"start":{"in":"1275"},"end":{"in":"1275"}},{"start":{"in":"1483"},"end":{"in":"1483"}}]}},{"toponym":"Stanfort","citations":[{"label":"c. 1125 BM","year":1115}],"when":{"timespans":[{"start":{"earliest":"1115","latest":"1135"},"end":{"earliest":"1115","latest":"1135"}}]}},{"toponym":"Stanford super Hauen","citations":[{"label":"12th Selby","year":1100}],"when":{"timespans":[{"start":{"earliest":"1100","latest":"1200"},"end":{"earliest":"1100","latest":"1200"}}]}},{"toponym":"Stanford super Aven","citations":[{"label":"1367 Ass","year":1367}],"when":{"timespans":[{"start":{"in":"1367"},"end":{"in":"1367"}}]}},{"toponym":"Stanford upon Aven","citations":[{"label":"1540 LP","year":1540}],"when":{"timespans":[{"start":{"in":"1540"},"end":{"in":"1540"}}]}}],"types":[{"identifier":"http://vocab.getty.edu/aat/300232418","label":"administrative division","sourceLabels":[{"label":"township","lang":"en"}]}],"geometry":{"type":"GeometryCollection","geometries":[{"type":"Point","coordinates":[-1.13333,52.4],"citations":[{"label":"GeoNames, gazetteer record geonames:2637086"}]},{"type":"Point","coordinates":[-1.140062839822616,52.40100479328274],"citations":[{"label":"Unlock (EDINA) gazetteer, gazetteer record unlock:11290906"}]},{"type":"Point","coordinates":[-1.14157,52.4014],"citations":[{"label":"Key to English Place-Names (KEPN), gazetteer record 10951"}]}]},"when":{"timespans":[{"start":{"in":"1086"},"end":{"in":"1540"}}]},"links":[{"type":"closeMatch","identifier":"https://sws.geonames.org/2637086/"}],"relations":[{"relationType":"gvp:broaderPartitive","relationTo":"http://placenames.org.uk/id/placename/10/001899","label":"within Stanford on Avon"}]}]}