{"@context":"https://raw.githubusercontent.com/LinkedPasts/linked-places-format/main/linkedplaces-context-v1.1.jsonld","type":"FeatureCollection","license":"Digitisation of English Placenames MADS data is licensed to Jisc by the English Place Names Society and released under a Creative Commons Attribution-NonCommercial 4.0 International License.","note":"LPF v1.3, lossy; derived from the PLATO record; plato_commit=ca0afadabec1e23a145c0b03df77e8f151f79832","features":[{"@id":"https://w3id.org/whg-epns/10/002066","type":"Feature","properties":{"title":"Great Brington","ccodes":["GB"],"fclasses":["A","P"]},"names":[{"toponym":"Great Brington","lang":"en","citations":[{"label":"English Place-Name Society survey, volume 10: Northamptonshire"}]},{"toponym":"Brinintone","citations":[{"label":"1086 DB","year":1086}],"when":{"timespans":[{"start":{"in":"1086"},"end":{"in":"1086"}}]}},{"toponym":"Brinton(e), Brynton","citations":[{"label":"1086–1334, recurring DB","year":1086},{"label":"1086–1334, recurring Cl"},{"label":"1086 DB","year":1086},{"label":"1334 Cl","year":1334}],"when":{"timespans":[{"start":{"in":"1086"},"end":{"in":"1334"}},{"start":{"in":"1086"},"end":{"in":"1086"}},{"start":{"in":"1334"},"end":{"in":"1334"}}]}},{"toponym":"Little Brinton","citations":[{"label":"1284 Ipm","year":1284}],"when":{"timespans":[{"start":{"in":"1284"},"end":{"in":"1284"}}]}},{"toponym":"Chyrchebrynton","citations":[{"label":"1312 Ass","year":1312}],"when":{"timespans":[{"start":{"in":"1312"},"end":{"in":"1312"}}]}},{"toponym":"Greate Brinton","citations":[{"label":"1657 NRS","year":1657}],"when":{"timespans":[{"start":{"in":"1657"},"end":{"in":"1657"}}]}},{"toponym":"Brunton","citations":[{"label":"1248 Ch","year":1248},{"label":"1284 FA","year":1284},{"label":"1288 Ipm","year":1288}],"when":{"timespans":[{"start":{"in":"1248"},"end":{"in":"1248"}},{"start":{"in":"1284"},"end":{"in":"1284"}},{"start":{"in":"1288"},"end":{"in":"1288"}}]}},{"toponym":"Bruynton","citations":[{"label":"1253 Ch","year":1253},{"label":"1298 Ipm","year":1298}],"when":{"timespans":[{"start":{"in":"1253"},"end":{"in":"1253"}},{"start":{"in":"1298"},"end":{"in":"1298"}}]}},{"toponym":"Bryngton, Brington","citations":[{"label":"1325 Ipm","year":1325}],"when":{"timespans":[{"start":{"in":"1325"},"end":{"in":"1325"}}]}},{"toponym":"Brynkton","citations":[{"label":"1330 FA","year":1330}],"when":{"timespans":[{"start":{"in":"1330"},"end":{"in":"1330"}}]}},{"toponym":"Brynketon","citations":[{"label":"1350 Cl","year":1350}],"when":{"timespans":[{"start":{"in":"1350"},"end":{"in":"1350"}}]}},{"toponym":"Churche Bryngton al. Moche Bryngton","citations":[{"label":"1559 Spencer","year":1559}],"when":{"timespans":[{"start":{"in":"1559"},"end":{"in":"1559"}}]}}],"types":[{"identifier":"http://vocab.getty.edu/aat/300232418","label":"administrative division","sourceLabels":[{"label":"township","lang":"en"}]}],"geometry":{"type":"GeometryCollection","geometries":[{"type":"Point","coordinates":[-1.02465,52.27852],"citations":[{"label":"GeoNames, gazetteer record geonames:2648148"}]},{"type":"Point","coordinates":[-1.025056129478598,52.28322213187192],"citations":[{"label":"Unlock (EDINA) gazetteer, gazetteer record unlock:11158524"}]},{"type":"Point","coordinates":[-1.02658,52.2836],"citations":[{"label":"Key to English Place-Names (KEPN), gazetteer record 10959"}]}]},"when":{"timespans":[{"start":{"in":"1086"},"end":{"in":"1657"}}]},"links":[{"type":"closeMatch","identifier":"https://sws.geonames.org/2648148/"}],"relations":[{"relationType":"gvp:broaderPartitive","relationTo":"https://w3id.org/whg-epns/10/002065","label":"within Great Brington"}]}]}