{"@context":"https://raw.githubusercontent.com/LinkedPasts/linked-places-format/main/linkedplaces-context-v1.1.jsonld","type":"FeatureCollection","license":"Digitisation of English Placenames MADS data is licensed to Jisc by the English Place Names Society and released under a Creative Commons Attribution-NonCommercial 4.0 International License.","note":"LPF v1.3, lossy; derived from the PLATO record; plato_commit=ca0afadabec1e23a145c0b03df77e8f151f79832","features":[{"@id":"http://placenames.org.uk/id/placename/10/002176","type":"Feature","properties":{"title":"East Haddon","ccodes":["GB"],"fclasses":["A","P"]},"names":[{"toponym":"East Haddon","lang":"en","citations":[{"label":"English Place-Name Society survey, volume 10: Northamptonshire"}]},{"toponym":"Ed(d)one","citations":[{"label":"1086 DB","year":1086}],"when":{"timespans":[{"start":{"in":"1086"},"end":{"in":"1086"}}]}},{"toponym":"Hadone","citations":[{"label":"1086 DB","year":1086}],"when":{"timespans":[{"start":{"in":"1086"},"end":{"in":"1086"}}]}},{"toponym":"Haddun","citations":[{"label":"1185 RotDom","year":1185},{"label":"1187 P","year":1187}],"when":{"timespans":[{"start":{"in":"1185"},"end":{"in":"1185"}},{"start":{"in":"1187"},"end":{"in":"1187"}}]}},{"toponym":"Haduna","citations":[{"label":"12th AD","year":1100}],"when":{"timespans":[{"start":{"earliest":"1100","latest":"1200"},"end":{"earliest":"1100","latest":"1200"}}]}},{"toponym":"Haddon","citations":[{"label":"1195 P","year":1195}],"when":{"timespans":[{"start":{"in":"1195"},"end":{"in":"1195"}}]}},{"toponym":"Esthaddon","citations":[{"label":"1265 Ipm","year":1265}],"when":{"timespans":[{"start":{"in":"1265"},"end":{"in":"1265"}},{"start":{"in":"1279"},"end":{"in":"1279"}},{"start":{"in":"1305"},"end":{"in":"1305"}}]}},{"toponym":"Hed(d)on(e)","citations":[{"label":"1230 P","year":1230}],"when":{"timespans":[{"start":{"in":"1230"},"end":{"in":"1230"}}]}}],"types":[{"identifier":"http://vocab.getty.edu/aat/300232418","label":"administrative division","sourceLabels":[{"label":"township","lang":"en"}]}],"geometry":{"type":"GeometryCollection","geometries":[{"type":"Point","coordinates":[-1.02361,52.30718],"citations":[{"label":"GeoNames, gazetteer record geonames:2650433"}]},{"type":"Point","coordinates":[-1.024463676676306,52.3101920894851],"citations":[{"label":"Unlock (EDINA) gazetteer, gazetteer record unlock:11136041"}]},{"type":"Point","coordinates":[-1.02599,52.3106],"citations":[{"label":"Key to English Place-Names (KEPN), gazetteer record 10965"}]}]},"when":{"timespans":[{"start":{"in":"1086"},"end":{"in":"1305"}}]},"links":[{"type":"closeMatch","identifier":"https://sws.geonames.org/2650433/"}],"relations":[{"relationType":"gvp:broaderPartitive","relationTo":"http://placenames.org.uk/id/placename/10/002175","label":"within East Haddon"}]}]}