{"@context":"https://raw.githubusercontent.com/LinkedPasts/linked-places-format/main/linkedplaces-context-v1.1.jsonld","type":"FeatureCollection","license":"Digitisation of English Placenames MADS data is licensed to Jisc by the English Place Names Society and released under a Creative Commons Attribution-NonCommercial 4.0 International License.","note":"LPF v1.3, lossy; derived from the PLATO record; plato_commit=ca0afadabec1e23a145c0b03df77e8f151f79832","features":[{"@id":"https://w3id.org/whg-epns/10/002116","type":"Feature","properties":{"title":"Bugbrooke","ccodes":["GB"],"fclasses":["A","P"]},"names":[{"toponym":"Bugbrooke","lang":"en","citations":[{"label":"English Place-Name Society survey, volume 10: Northamptonshire"}]},{"toponym":"Buchebroc","citations":[{"label":"1086–1359, recurring DB","year":1086},{"label":"1086–1359, recurring Ipm"},{"label":"1086 DB","year":1086},{"label":"1359 Ipm","year":1359}],"when":{"timespans":[{"start":{"in":"1086"},"end":{"in":"1359"}},{"start":{"in":"1086"},"end":{"in":"1086"}},{"start":{"in":"1359"},"end":{"in":"1359"}}]}},{"toponym":"Buckebroc, Bukkebroc, and Buchebrok","citations":[{"label":"1086-1359 unspecified sources","year":1086}],"when":{"timespans":[{"start":{"in":"1086"},"end":{"in":"1359"}}]}},{"toponym":"Buchebroch","citations":[{"label":"1086 DB","year":1086}],"when":{"timespans":[{"start":{"in":"1086"},"end":{"in":"1086"}}]}},{"toponym":"Buttebroc","citations":[{"label":"c. 1175 Dunstable","year":1165}],"when":{"timespans":[{"start":{"earliest":"1165","latest":"1185"},"end":{"earliest":"1165","latest":"1185"}}]}},{"toponym":"Butebroc","citations":[{"label":"1194 P","year":1194},{"label":"1206 Cur","year":1206}],"when":{"timespans":[{"start":{"in":"1194"},"end":{"in":"1194"}},{"start":{"in":"1206"},"end":{"in":"1206"}}]}},{"toponym":"Buddebroc","citations":[{"label":"1195 Abbr","year":1195}],"when":{"timespans":[{"start":{"in":"1195"},"end":{"in":"1195"}}]}},{"toponym":"Bockebrok","citations":[{"label":"1247 Ass","year":1247},{"label":"1293 Ipm","year":1293},{"label":"1330 FA","year":1330}],"when":{"timespans":[{"start":{"in":"1247"},"end":{"in":"1247"}},{"start":{"in":"1293"},"end":{"in":"1293"}},{"start":{"in":"1330"},"end":{"in":"1330"}}]}},{"toponym":"Bukbrok","citations":[{"label":"1332 Cl","year":1332}],"when":{"timespans":[{"start":{"in":"1332"},"end":{"in":"1332"}}]}},{"toponym":"Bucbroke","citations":[{"label":"1428 FA","year":1428}],"when":{"timespans":[{"start":{"in":"1428"},"end":{"in":"1428"}}]}},{"toponym":"Boogbrooke","citations":[{"label":"1595 NRS","year":1595}],"when":{"timespans":[{"start":{"in":"1595"},"end":{"in":"1595"}}]}},{"toponym":"Bugbroke al. Budbroke","citations":[{"label":"1598 Recov","year":1598}],"when":{"timespans":[{"start":{"in":"1598"},"end":{"in":"1598"}}]}}],"types":[{"identifier":"http://vocab.getty.edu/aat/300232418","label":"administrative division","sourceLabels":[{"label":"township","lang":"en"}]}],"geometry":{"type":"GeometryCollection","geometries":[{"type":"Point","coordinates":[-1.01304,52.21006],"citations":[{"label":"GeoNames, gazetteer record geonames:2654372"}]},{"type":"Point","coordinates":[-1.011996660604259,52.21118000151781],"citations":[{"label":"Unlock (EDINA) gazetteer, gazetteer record unlock:11091965"}]},{"type":"Point","coordinates":[-1.01352,52.2116],"citations":[{"label":"Key to English Place-Names (KEPN), gazetteer record 10961"}]}]},"when":{"timespans":[{"start":{"in":"1086"},"end":{"in":"1598"}}]},"links":[{"type":"closeMatch","identifier":"https://sws.geonames.org/2654372/"}],"relations":[{"relationType":"gvp:broaderPartitive","relationTo":"https://w3id.org/whg-epns/10/002115","label":"within Bugbrooke"}]}]}