{"@context":"https://raw.githubusercontent.com/LinkedPasts/linked-places-format/main/linkedplaces-context-v1.1.jsonld","type":"FeatureCollection","license":"Digitisation of English Placenames MADS data is licensed to Jisc by the English Place Names Society and released under a Creative Commons Attribution-NonCommercial 4.0 International License.","note":"LPF v1.3, lossy; derived from the PLATO record; plato_commit=ca0afadabec1e23a145c0b03df77e8f151f79832","features":[{"@id":"https://w3id.org/whg-epns/10/002301","type":"Feature","properties":{"title":"Teeton","ccodes":["GB"],"fclasses":["A","P"]},"names":[{"toponym":"Teeton","lang":"en","citations":[{"label":"English Place-Name Society survey, volume 10: Northamptonshire"}]},{"toponym":"Teche","citations":[{"label":"1086 DB","year":1086}],"when":{"timespans":[{"start":{"in":"1086"},"end":{"in":"1086"}}]}},{"toponym":"Theche","citations":[{"label":"c. 1160 NRS","year":1150}],"when":{"timespans":[{"start":{"earliest":"1150","latest":"1170"},"end":{"earliest":"1150","latest":"1170"}}]}},{"toponym":"Teacne","citations":[{"label":"1195 P","year":1195}],"when":{"timespans":[{"start":{"in":"1195"},"end":{"in":"1195"}}]}},{"toponym":"Cheta","citations":[{"label":"12th Survey","year":1100}],"when":{"timespans":[{"start":{"earliest":"1100","latest":"1200"},"end":{"earliest":"1100","latest":"1200"}}]}},{"toponym":"Tecnat","citations":[{"label":"t. early Hy 3 BM","year":1216}],"when":{"timespans":[{"start":{"earliest":"1216","latest":"1272"},"end":{"earliest":"1216","latest":"1272"}}]}},{"toponym":"Tekne","citations":[{"label":"1220–1326, recurring Fees","year":1220},{"label":"1220–1326, recurring AD"},{"label":"1220 Fees","year":1220},{"label":"1326 AD","year":1326}],"when":{"timespans":[{"start":{"in":"1220"},"end":{"in":"1326"}},{"start":{"in":"1220"},"end":{"in":"1220"}},{"start":{"in":"1326"},"end":{"in":"1326"}}]}},{"toponym":"Tecne","citations":[{"label":"1220-1326 unspecified sources","year":1220}],"when":{"timespans":[{"start":{"in":"1220"},"end":{"in":"1326"}}]}},{"toponym":"Teghne","citations":[{"label":"13th AD","year":1200}],"when":{"timespans":[{"start":{"earliest":"1200","latest":"1300"},"end":{"earliest":"1200","latest":"1300"}}]}},{"toponym":"Thekene","citations":[{"label":"1221 Bracton","year":1221}],"when":{"timespans":[{"start":{"in":"1221"},"end":{"in":"1221"}}]}},{"toponym":"Tekene","citations":[{"label":"1227–1386, recurring Ass","year":1227},{"label":"1227–1386, recurring Cl"},{"label":"1227 Ass","year":1227},{"label":"1386 Cl","year":1386}],"when":{"timespans":[{"start":{"in":"1227"},"end":{"in":"1386"}},{"start":{"in":"1227"},"end":{"in":"1227"}},{"start":{"in":"1386"},"end":{"in":"1386"}}]}},{"toponym":"Tekyn","citations":[{"label":"1414 AD","year":1414}],"when":{"timespans":[{"start":{"in":"1414"},"end":{"in":"1414"}}]}},{"toponym":"Teken","citations":[{"label":"1467 AD","year":1467}],"when":{"timespans":[{"start":{"in":"1467"},"end":{"in":"1467"}}]}},{"toponym":"Tokene","citations":[{"label":"1275 RH","year":1275}],"when":{"timespans":[{"start":{"in":"1275"},"end":{"in":"1275"}}]}},{"toponym":"Tetene","citations":[{"label":"1316 FA","year":1316}],"when":{"timespans":[{"start":{"in":"1316"},"end":{"in":"1316"}}]}},{"toponym":"Tikene","citations":[{"label":"1346 FA","year":1346}],"when":{"timespans":[{"start":{"in":"1346"},"end":{"in":"1346"}}]}},{"toponym":"Teton","citations":[{"label":"1551 FF","year":1551}],"when":{"timespans":[{"start":{"in":"1551"},"end":{"in":"1551"}}]}},{"toponym":"Tecon al. Teton","citations":[{"label":"1647 Recov","year":1647}],"when":{"timespans":[{"start":{"in":"1647"},"end":{"in":"1647"}}]}}],"types":[{"identifier":"http://vocab.getty.edu/aat/300232418","label":"administrative division","sourceLabels":[{"label":"township","lang":"en"}]}],"geometry":{"type":"GeometryCollection","geometries":[{"type":"Point","coordinates":[-0.9800485942202426,52.32780014272392],"citations":[{"label":"Unlock (EDINA) gazetteer, gazetteer record unlock:11298394"}]},{"type":"Point","coordinates":[-0.981576,52.3282],"citations":[{"label":"Key to English Place-Names (KEPN), gazetteer record 10972"}]}]},"when":{"timespans":[{"start":{"in":"1086"},"end":{"in":"1647"}}]},"relations":[{"relationType":"gvp:broaderPartitive","relationTo":"https://w3id.org/whg-epns/10/002300","label":"within Teeton"}]}]}