{"@context":"https://raw.githubusercontent.com/LinkedPasts/linked-places-format/main/linkedplaces-context-v1.1.jsonld","type":"FeatureCollection","license":"Digitisation of English Placenames MADS data is licensed to Jisc by the English Place Names Society and released under a Creative Commons Attribution-NonCommercial 4.0 International License.","note":"LPF v1.3, lossy; derived from the PLATO record; plato_commit=ca0afadabec1e23a145c0b03df77e8f151f79832","features":[{"@id":"http://placenames.org.uk/id/placename/10/002641","type":"Feature","properties":{"title":"Easton Neston","ccodes":["GB"],"fclasses":["A","P"]},"names":[{"toponym":"Easton Neston","lang":"en","citations":[{"label":"English Place-Name Society survey, volume 10: Northamptonshire"}]},{"toponym":"Adestanestone, Estanestone","citations":[{"label":"1086 DB","year":1086}],"when":{"timespans":[{"start":{"in":"1086"},"end":{"in":"1086"}}]}},{"toponym":"Estaneston","citations":[{"label":"1196 P","year":1196},{"label":"1220 Fees","year":1220}],"when":{"timespans":[{"start":{"in":"1196"},"end":{"in":"1196"}},{"start":{"in":"1220"},"end":{"in":"1220"}}]}},{"toponym":"Esteneston","citations":[{"label":"1100–1273, recurring Survey","year":1100},{"label":"1100–1273, recurring Ipm"},{"label":"12th Survey","year":1100},{"label":"1273 Ipm","year":1273}],"when":{"timespans":[{"start":{"in":"1100"},"end":{"in":"1273"}},{"start":{"earliest":"1100","latest":"1200"},"end":{"earliest":"1100","latest":"1200"}},{"start":{"in":"1273"},"end":{"in":"1273"}}]}},{"toponym":"Estenstona","citations":[{"label":"t. Hy 3 AD","year":1216}],"when":{"timespans":[{"start":{"earliest":"1216","latest":"1272"},"end":{"earliest":"1216","latest":"1272"}}]}},{"toponym":"Estenstonne","citations":[{"label":"c. 1226 AD","year":1216}],"when":{"timespans":[{"start":{"earliest":"1216","latest":"1236"},"end":{"earliest":"1216","latest":"1236"}}]}},{"toponym":"Estonston","citations":[{"label":"1240 Cl","year":1240}],"when":{"timespans":[{"start":{"in":"1240"},"end":{"in":"1240"}}]}},{"toponym":"Astaneston","citations":[{"label":"c. 1220 WellsR","year":1210}],"when":{"timespans":[{"start":{"earliest":"1210","latest":"1230"},"end":{"earliest":"1210","latest":"1230"}}]}},{"toponym":"Estneston","citations":[{"label":"1300–1490, recurring Ipm","year":1300},{"label":"1300–1490, recurring ECP"},{"label":"1300 Ipm","year":1300},{"label":"c. 1480 ECP","year":1470}],"when":{"timespans":[{"start":{"in":"1300"},"end":{"in":"1490"}},{"start":{"in":"1300"},"end":{"in":"1300"}},{"start":{"earliest":"1470","latest":"1490"},"end":{"earliest":"1470","latest":"1490"}}]}},{"toponym":"Eston","citations":[{"label":"1316 FA","year":1316}],"when":{"timespans":[{"start":{"in":"1316"},"end":{"in":"1316"}}]}},{"toponym":"Eston by Toucestre","citations":[{"label":"1379 Cl","year":1379}],"when":{"timespans":[{"start":{"in":"1379"},"end":{"in":"1379"}}]}},{"toponym":"Esteston","citations":[{"label":"1328 AD","year":1328}],"when":{"timespans":[{"start":{"in":"1328"},"end":{"in":"1328"}}]}},{"toponym":"Eston Nesson","citations":[{"label":"1610 Camden","year":1610}],"when":{"timespans":[{"start":{"in":"1610"},"end":{"in":"1610"}}]}},{"toponym":"Eston-Neston","citations":[{"label":"1791 Bridges","year":1791}],"when":{"timespans":[{"start":{"in":"1791"},"end":{"in":"1791"}}]}}],"types":[{"identifier":"http://vocab.getty.edu/aat/300232418","label":"administrative division","sourceLabels":[{"label":"township","lang":"en"}]}],"geometry":{"type":"GeometryCollection","geometries":[{"type":"Point","coordinates":[-0.96399,52.14499],"citations":[{"label":"GeoNames, gazetteer record geonames:7295749"}]},{"type":"Point","coordinates":[-0.9697559610991794,52.13888411818958],"citations":[{"label":"Unlock (EDINA) gazetteer, gazetteer record unlock:11137478"}]},{"type":"Point","coordinates":[-0.971277,52.1393],"citations":[{"label":"Key to English Place-Names (KEPN), gazetteer record 10984"}]}]},"when":{"timespans":[{"start":{"in":"1086"},"end":{"in":"1791"}}]},"links":[{"type":"closeMatch","identifier":"https://sws.geonames.org/7295749/"}],"relations":[{"relationType":"gvp:broaderPartitive","relationTo":"http://placenames.org.uk/id/placename/10/002640","label":"within Easton Neston"}]}]}