{"@context":"https://raw.githubusercontent.com/LinkedPasts/linked-places-format/main/linkedplaces-context-v1.1.jsonld","type":"FeatureCollection","license":"Digitisation of English Placenames MADS data is licensed to Jisc by the English Place Names Society and released under a Creative Commons Attribution-NonCommercial 4.0 International License.","note":"LPF v1.3, lossy; derived from the PLATO record; plato_commit=ca0afadabec1e23a145c0b03df77e8f151f79832","features":[{"@id":"https://w3id.org/whg-epns/10/003065","type":"Feature","properties":{"title":"Braybrooke","ccodes":["GB"],"fclasses":["A","P"]},"names":[{"toponym":"Braybrooke","lang":"en","citations":[{"label":"English Place-Name Society survey, volume 10: Northamptonshire"}]}],"types":[{"identifier":"http://vocab.getty.edu/aat/300232418","label":"administrative division","sourceLabels":[{"label":"parish","lang":"en"}]}],"geometry":{"type":"GeometryCollection","geometries":[{"type":"Point","coordinates":[-0.87384,52.45224],"citations":[{"label":"GeoNames, gazetteer record geonames:2654851"}]},{"type":"Point","coordinates":[-0.8741421900593819,52.45272054046642],"citations":[{"label":"Unlock (EDINA) gazetteer, gazetteer record unlock:11086010"}]},{"type":"Point","coordinates":[-0.875687,52.4531],"citations":[{"label":"Key to English Place-Names (KEPN), gazetteer record 10998"}]}]},"links":[{"type":"closeMatch","identifier":"https://sws.geonames.org/2654851/"}],"relations":[{"relationType":"gvp:broaderPartitive","relationTo":"https://w3id.org/whg-epns/10/003019","label":"within Rothwell Hundred"}]}]}