{"@context":"https://raw.githubusercontent.com/LinkedPasts/linked-places-format/main/linkedplaces-context-v1.1.jsonld","type":"FeatureCollection","license":"Digitisation of English Placenames MADS data is licensed to Jisc by the English Place Names Society and released under a Creative Commons Attribution-NonCommercial 4.0 International License.","note":"LPF v1.3, lossy; derived from the PLATO record; plato_commit=fa0d247ccc0263f8f19c8d7cdcd163df96935d1e","features":[{"@id":"https://w3id.org/whg-epns/10/003047","type":"Feature","properties":{"title":"Little Bowden","ccodes":["GB"],"fclasses":["A","P"]},"names":[{"toponym":"Little Bowden","lang":"en","citations":[{"label":"English Place-Name Society survey, volume 10: Northamptonshire"}]},{"toponym":"Bugedone","citations":[{"label":"1086 DB","year":1086},{"label":"1235 Fees","year":1235}],"when":{"timespans":[{"start":{"in":"1086"},"end":{"in":"1086"}},{"start":{"in":"1235"},"end":{"in":"1235"}}]}},{"toponym":"Bugeden","citations":[{"label":"t. John BM","year":1199}],"when":{"timespans":[{"start":{"earliest":"1199","latest":"1216"},"end":{"earliest":"1199","latest":"1216"}}]}},{"toponym":"Bugedune","citations":[{"label":"1228 WellsR","year":1228}],"when":{"timespans":[{"start":{"in":"1228"},"end":{"in":"1228"}}]}},{"toponym":"Parva Bughedone","citations":[{"label":"1220 Fees","year":1220}],"when":{"timespans":[{"start":{"in":"1220"},"end":{"in":"1220"}}]}},{"toponym":"Bowdon","citations":[{"label":"12th Survey","year":1100}],"when":{"timespans":[{"start":{"earliest":"1100","latest":"1200"},"end":{"earliest":"1100","latest":"1200"}}]}},{"toponym":"Bowedon","citations":[{"label":"1235 Fees","year":1235}],"when":{"timespans":[{"start":{"in":"1235"},"end":{"in":"1235"}}]}},{"toponym":"Bowedon parva","citations":[{"label":"1253 FF","year":1253}],"when":{"timespans":[{"start":{"in":"1253"},"end":{"in":"1253"}}]}},{"toponym":"Bogedone","citations":[{"label":"c. 1200 PipewellA","year":1190}],"when":{"timespans":[{"start":{"earliest":"1190","latest":"1210"},"end":{"earliest":"1190","latest":"1210"}}]}},{"toponym":"Boghedon","citations":[{"label":"1258 Cl","year":1258}],"when":{"timespans":[{"start":{"in":"1258"},"end":{"in":"1258"}}]}},{"toponym":"Budune","citations":[{"label":"early 13th BM","year":1200}],"when":{"timespans":[{"start":{"earliest":"1200","latest":"1225"},"end":{"earliest":"1200","latest":"1225"}}]}},{"toponym":"Budon","citations":[{"label":"1304 Ch","year":1304}],"when":{"timespans":[{"start":{"in":"1304"},"end":{"in":"1304"}}]}},{"toponym":"Buggedone","citations":[{"label":"c. 1210 WellsR","year":1200}],"when":{"timespans":[{"start":{"earliest":"1200","latest":"1220"},"end":{"earliest":"1200","latest":"1220"}}]}},{"toponym":"Parva Bukeden","citations":[{"label":"1219 FF","year":1219}],"when":{"timespans":[{"start":{"in":"1219"},"end":{"in":"1219"}}]}},{"toponym":"Parva Buwedon","citations":[{"label":"1248 WellsR","year":1248}],"when":{"timespans":[{"start":{"in":"1248"},"end":{"in":"1248"}}]}},{"toponym":"Boudon","citations":[{"label":"1284 FA","year":1284}],"when":{"timespans":[{"start":{"in":"1284"},"end":{"in":"1284"}}]}},{"toponym":"Boudon parva","citations":[{"label":"1285 Ass","year":1285},{"label":"1292-1300 Ipm","year":1292}],"when":{"timespans":[{"start":{"in":"1285"},"end":{"in":"1285"}},{"start":{"earliest":"1292","latest":"1300"},"end":{"earliest":"1292","latest":"1300"}}]}},{"toponym":"The Lasse Bouudon","citations":[{"label":"1450-3 ECP","year":1450}],"when":{"timespans":[{"start":{"earliest":"1450","latest":"1453"},"end":{"earliest":"1450","latest":"1453"}}]}}],"types":[{"identifier":"http://vocab.getty.edu/aat/300232418","label":"administrative division","sourceLabels":[{"label":"township","lang":"en"}]}],"geometry":{"type":"GeometryCollection","geometries":[{"type":"Point","coordinates":[-0.9029000887367373,52.47996515960926],"citations":[{"label":"Unlock (EDINA) gazetteer, gazetteer record unlock:11195955"}]},{"type":"Point","coordinates":[-0.904443,52.4804],"citations":[{"label":"Key to English Place-Names (KEPN), gazetteer record 10997"}]}]},"when":{"timespans":[{"start":{"in":"1086"},"end":{"in":"1453"}}]},"relations":[{"relationType":"gvp:broaderPartitive","relationTo":"https://w3id.org/whg-epns/10/003046","label":"within Little Bowden"}]}]}