{"@context":"https://raw.githubusercontent.com/LinkedPasts/linked-places-format/main/linkedplaces-context-v1.1.jsonld","type":"FeatureCollection","license":"Digitisation of English Placenames MADS data is licensed to Jisc by the English Place Names Society and released under a Creative Commons Attribution-NonCommercial 4.0 International License.","note":"LPF v1.3, lossy; derived from the PLATO record; plato_commit=ca0afadabec1e23a145c0b03df77e8f151f79832","features":[{"@id":"https://w3id.org/whg-epns/10/003279","type":"Feature","properties":{"title":"Marston Trussell","ccodes":["GB"],"fclasses":["A","P"]},"names":[{"toponym":"Marston Trussell","lang":"en","citations":[{"label":"English Place-Name Society survey, volume 10: Northamptonshire"}]},{"toponym":"Mersitone","citations":[{"label":"1086 DB","year":1086}],"when":{"timespans":[{"start":{"in":"1086"},"end":{"in":"1086"}}]}},{"toponym":"Merston(e)","citations":[{"label":"1220–1361, recurring Fees","year":1220},{"label":"1220–1361, recurring Cl"},{"label":"1220 Fees","year":1220},{"label":"1361 Cl","year":1361}],"when":{"timespans":[{"start":{"in":"1220"},"end":{"in":"1361"}},{"start":{"in":"1220"},"end":{"in":"1220"}},{"start":{"in":"1361"},"end":{"in":"1361"}}]}},{"toponym":"Merston Trussel","citations":[{"label":"1235 Fees","year":1235},{"label":"1298 Ipm","year":1298}],"when":{"timespans":[{"start":{"in":"1235"},"end":{"in":"1235"}},{"start":{"in":"1298"},"end":{"in":"1298"}}]}}],"types":[{"identifier":"http://vocab.getty.edu/aat/300232418","label":"administrative division","sourceLabels":[{"label":"township","lang":"en"}]}],"geometry":{"type":"GeometryCollection","geometries":[{"type":"Point","coordinates":[-0.9965,52.46026],"citations":[{"label":"GeoNames, gazetteer record geonames:7301948"}]},{"type":"Point","coordinates":[-0.9769347719288698,52.46264577822109],"citations":[{"label":"Unlock (EDINA) gazetteer, gazetteer record unlock:11214294"}]},{"type":"Point","coordinates":[-0.978468,52.463],"citations":[{"label":"Key to English Place-Names (KEPN), gazetteer record 0144"}]}]},"when":{"timespans":[{"start":{"in":"1086"},"end":{"in":"1361"}}]},"links":[{"type":"closeMatch","identifier":"https://sws.geonames.org/7301948/"}],"relations":[{"relationType":"gvp:broaderPartitive","relationTo":"https://w3id.org/whg-epns/10/003278","label":"within Marston Trussel"}]}]}