{"@context":"https://raw.githubusercontent.com/LinkedPasts/linked-places-format/main/linkedplaces-context-v1.1.jsonld","type":"FeatureCollection","license":"Digitisation of English Placenames MADS data is licensed to Jisc by the English Place Names Society and released under a Creative Commons Attribution-NonCommercial 4.0 International License.","note":"LPF v1.3, lossy; derived from the PLATO record; plato_commit=ca0afadabec1e23a145c0b03df77e8f151f79832","features":[{"@id":"http://placenames.org.uk/id/placename/10/003352","type":"Feature","properties":{"title":"Sibbertoft","ccodes":["GB"],"fclasses":["A","P"]},"names":[{"toponym":"Sibbertoft","lang":"en","citations":[{"label":"English Place-Name Society survey, volume 10: Northamptonshire"}]},{"toponym":"Sibertod","citations":[{"label":"1086 DB","year":1086}],"when":{"timespans":[{"start":{"in":"1086"},"end":{"in":"1086"}}]}},{"toponym":"Sibertoft, Sybertod","citations":[{"label":"1100–1317, recurring Survey","year":1100},{"label":"1100–1317, recurring Cl"},{"label":"12th Survey","year":1100},{"label":"1317 Cl","year":1317}],"when":{"timespans":[{"start":{"in":"1100"},"end":{"in":"1317"}},{"start":{"earliest":"1100","latest":"1200"},"end":{"earliest":"1100","latest":"1200"}},{"start":{"in":"1317"},"end":{"in":"1317"}}]}},{"toponym":"Sibretoft","citations":[{"label":"1236 WellsR","year":1236},{"label":"1273 Ipm","year":1273}],"when":{"timespans":[{"start":{"in":"1236"},"end":{"in":"1236"}},{"start":{"in":"1273"},"end":{"in":"1273"}}]}},{"toponym":"Sipertoft","citations":[{"label":"1256 Fees","year":1256}],"when":{"timespans":[{"start":{"in":"1256"},"end":{"in":"1256"}}]}},{"toponym":"Sibirtoft","citations":[{"label":"1285 Ass","year":1285}],"when":{"timespans":[{"start":{"in":"1285"},"end":{"in":"1285"}}]}},{"toponym":"Siburtoft","citations":[{"label":"1380 Cl","year":1380}],"when":{"timespans":[{"start":{"in":"1380"},"end":{"in":"1380"}}]}},{"toponym":"Sibetoft","citations":[{"label":"1221 WellsR","year":1221}],"when":{"timespans":[{"start":{"in":"1221"},"end":{"in":"1221"}}]}},{"toponym":"Sybetoft","citations":[{"label":"13th Fees","year":1200}],"when":{"timespans":[{"start":{"earliest":"1200","latest":"1300"},"end":{"earliest":"1200","latest":"1300"}}]}},{"toponym":"Sybbertofte al. Sibbtofte","citations":[{"label":"1564 FF","year":1564}],"when":{"timespans":[{"start":{"in":"1564"},"end":{"in":"1564"}}]}},{"toponym":"Sibethorp","citations":[{"label":"1250 Fees","year":1250}],"when":{"timespans":[{"start":{"in":"1250"},"end":{"in":"1250"}}]}},{"toponym":"Sybercroft","citations":[{"label":"1284 FA","year":1284}],"when":{"timespans":[{"start":{"in":"1284"},"end":{"in":"1284"}}]}}],"types":[{"identifier":"http://vocab.getty.edu/aat/300232418","label":"administrative division","sourceLabels":[{"label":"township","lang":"en"}]}],"geometry":{"type":"GeometryCollection","geometries":[{"type":"Point","coordinates":[-0.99941,52.43732],"citations":[{"label":"GeoNames, gazetteer record geonames:2637873"}]},{"type":"Point","coordinates":[-0.9922683930147699,52.43580316703265],"citations":[{"label":"Unlock (EDINA) gazetteer, gazetteer record unlock:11283684"}]},{"type":"Point","coordinates":[-0.993799,52.4362],"citations":[{"label":"Key to English Place-Names (KEPN), gazetteer record 11015"}]}]},"when":{"timespans":[{"start":{"in":"1086"},"end":{"in":"1564"}}]},"links":[{"type":"closeMatch","identifier":"https://sws.geonames.org/2637873/"}],"relations":[{"relationType":"gvp:broaderPartitive","relationTo":"http://placenames.org.uk/id/placename/10/003351","label":"within Sibbertoft"}]}]}