{"@context":"https://raw.githubusercontent.com/LinkedPasts/linked-places-format/main/linkedplaces-context-v1.1.jsonld","type":"FeatureCollection","license":"Digitisation of English Placenames MADS data is licensed to Jisc by the English Place Names Society and released under a Creative Commons Attribution-NonCommercial 4.0 International License.","note":"LPF v1.3, lossy; derived from the PLATO record; plato_commit=ca0afadabec1e23a145c0b03df77e8f151f79832","features":[{"@id":"http://placenames.org.uk/id/placename/10/003693","type":"Feature","properties":{"title":"Boughton","ccodes":["GB"],"fclasses":["A","P"]},"names":[{"toponym":"Boughton","lang":"en","citations":[{"label":"English Place-Name Society survey, volume 10: Northamptonshire"}]}],"types":[{"identifier":"http://vocab.getty.edu/aat/300232418","label":"administrative division","sourceLabels":[{"label":"parish","lang":"en"}]}],"geometry":{"type":"GeometryCollection","geometries":[{"type":"Point","coordinates":[-0.9,52.28333],"citations":[{"label":"GeoNames, gazetteer record geonames:2655118"}]},{"type":"Point","coordinates":[-0.8931339479620249,52.2820592707898],"citations":[{"label":"Unlock (EDINA) gazetteer, gazetteer record unlock:11083718"}]},{"type":"Point","coordinates":[-0.89467,52.2825],"citations":[{"label":"Key to English Place-Names (KEPN), gazetteer record 11037"}]}]},"links":[{"type":"closeMatch","identifier":"https://sws.geonames.org/2655118/"}],"relations":[{"relationType":"gvp:broaderPartitive","relationTo":"http://placenames.org.uk/id/placename/10/003654","label":"within Spelhoe Hundred"}]}]}