{"@context":"https://raw.githubusercontent.com/LinkedPasts/linked-places-format/main/linkedplaces-context-v1.1.jsonld","type":"FeatureCollection","license":"Digitisation of English Placenames MADS data is licensed to Jisc by the English Place Names Society and released under a Creative Commons Attribution-NonCommercial 4.0 International License.","note":"LPF v1.3, lossy; derived from the PLATO record; plato_commit=ca0afadabec1e23a145c0b03df77e8f151f79832","features":[{"@id":"http://placenames.org.uk/id/placename/10/003836","type":"Feature","properties":{"title":"Earls Barton","ccodes":["GB"],"fclasses":["A","P"]},"names":[{"toponym":"Earls Barton","lang":"en","citations":[{"label":"English Place-Name Society survey, volume 10: Northamptonshire"}]},{"toponym":"Barton(e)","citations":[{"label":"1086–1086, recurring DB","year":1086},{"label":"1086 DB","year":1086}],"when":{"timespans":[{"start":{"in":"1086"},"end":{"in":"1086"}},{"start":{"in":"1086"},"end":{"in":"1086"}}]}},{"toponym":"Barton comitis David","citations":[{"label":"1187 P","year":1187}],"when":{"timespans":[{"start":{"in":"1187"},"end":{"in":"1187"}}]}},{"toponym":"Erlesbarton","citations":[{"label":"1261 Ass","year":1261}],"when":{"timespans":[{"start":{"in":"1261"},"end":{"in":"1261"}}]}},{"toponym":"Barton Pynkenye","citations":[{"label":"1334 Cl","year":1334}],"when":{"timespans":[{"start":{"in":"1334"},"end":{"in":"1334"}}]}},{"toponym":"Barton Yerles","citations":[{"label":"1545 LP","year":1545}],"when":{"timespans":[{"start":{"in":"1545"},"end":{"in":"1545"}}]}},{"toponym":"Erles Barton al. Barton Comitis","citations":[{"label":"1574 Recov","year":1574}],"when":{"timespans":[{"start":{"in":"1574"},"end":{"in":"1574"}}]}},{"toponym":"Berton(a)","citations":[{"label":"1155-8 Ch","year":1155},{"label":"1166 P","year":1166},{"label":"1200 Cur","year":1200}],"when":{"timespans":[{"start":{"earliest":"1155","latest":"1158"},"end":{"earliest":"1155","latest":"1158"}},{"start":{"in":"1166"},"end":{"in":"1166"}},{"start":{"in":"1200"},"end":{"in":"1200"}}]}}],"types":[{"identifier":"http://vocab.getty.edu/aat/300232418","label":"administrative division","sourceLabels":[{"label":"township","lang":"en"}]}],"geometry":{"type":"GeometryCollection","geometries":[{"type":"Point","coordinates":[-0.75248,52.26627],"citations":[{"label":"GeoNames, gazetteer record geonames:2650552"}]},{"type":"Point","coordinates":[-0.7470720504816305,52.26261605636368],"citations":[{"label":"Unlock (EDINA) gazetteer, gazetteer record unlock:11135250"}]},{"type":"Point","coordinates":[-0.748624,52.263],"citations":[{"label":"Key to English Place-Names (KEPN), gazetteer record 11045"}]}]},"when":{"timespans":[{"start":{"in":"1086"},"end":{"in":"1574"}}]},"links":[{"type":"closeMatch","identifier":"https://sws.geonames.org/2650552/"}],"relations":[{"relationType":"gvp:broaderPartitive","relationTo":"http://placenames.org.uk/id/placename/10/003835","label":"within Earls Barton"}]}]}