{"@context":"https://raw.githubusercontent.com/LinkedPasts/linked-places-format/main/linkedplaces-context-v1.1.jsonld","type":"FeatureCollection","license":"Digitisation of English Placenames MADS data is licensed to Jisc by the English Place Names Society and released under a Creative Commons Attribution-NonCommercial 4.0 International License.","note":"LPF v1.3, lossy; derived from the PLATO record; plato_commit=fa0d247ccc0263f8f19c8d7cdcd163df96935d1e","features":[{"@id":"https://w3id.org/whg-epns/10/003876","type":"Feature","properties":{"title":"Ecton","ccodes":["GB"],"fclasses":["A","P"]},"names":[{"toponym":"Ecton","lang":"en","citations":[{"label":"English Place-Name Society survey, volume 10: Northamptonshire"}]},{"toponym":"Echentone","citations":[{"label":"1086 DB","year":1086}],"when":{"timespans":[{"start":{"in":"1086"},"end":{"in":"1086"}}]}},{"toponym":"Ecchenton","citations":[{"label":"t. Hy 2 D & C Linc","year":1154}],"when":{"timespans":[{"start":{"earliest":"1154","latest":"1189"},"end":{"earliest":"1154","latest":"1189"}}]}},{"toponym":"Echeton","citations":[{"label":"P","year":1164},{"label":"FA"},{"label":"1164 P","year":1164},{"label":"1428 FA","year":1428}],"when":{"timespans":[{"start":{"in":"1164"},"end":{"in":"1428"}},{"start":{"in":"1164"},"end":{"in":"1164"}},{"start":{"in":"1428"},"end":{"in":"1428"}}]}},{"toponym":"Eketon, Ecketon","citations":[{"label":"1164-1428 unspecified sources","year":1164}],"when":{"timespans":[{"start":{"in":"1164"},"end":{"in":"1428"}}]}},{"toponym":"Ekiton","citations":[{"label":"1169 P","year":1169}],"when":{"timespans":[{"start":{"in":"1169"},"end":{"in":"1169"}}]}},{"toponym":"Hecheton","citations":[{"label":"1168 P","year":1168}],"when":{"timespans":[{"start":{"in":"1168"},"end":{"in":"1168"}}]}},{"toponym":"Hekinton","citations":[{"label":"1182 P (CR)","year":1182}],"when":{"timespans":[{"start":{"in":"1182"},"end":{"in":"1182"}}]}},{"toponym":"Heketon","citations":[{"label":"t. Hy 2 D & C Linc","year":1154},{"label":"1235 Fees","year":1235}],"when":{"timespans":[{"start":{"earliest":"1154","latest":"1189"},"end":{"earliest":"1154","latest":"1189"}},{"start":{"in":"1235"},"end":{"in":"1235"}}]}},{"toponym":"Ekinton","citations":[{"label":"1175 P","year":1175}],"when":{"timespans":[{"start":{"in":"1175"},"end":{"in":"1175"}},{"start":{"in":"1181"},"end":{"in":"1181"}},{"start":{"in":"1190"},"end":{"in":"1190"}}]}},{"toponym":"Ekenton","citations":[{"label":"1285 FA","year":1285}],"when":{"timespans":[{"start":{"in":"1285"},"end":{"in":"1285"}}]}},{"toponym":"Ekyngton","citations":[{"label":"1355 Cl","year":1355}],"when":{"timespans":[{"start":{"in":"1355"},"end":{"in":"1355"}}]}},{"toponym":"Neketon","citations":[{"label":"1235 Fees","year":1235}],"when":{"timespans":[{"start":{"in":"1235"},"end":{"in":"1235"}}]}},{"toponym":"Ecton al. Egton","citations":[{"label":"1585 Recov","year":1585}],"when":{"timespans":[{"start":{"in":"1585"},"end":{"in":"1585"}}]}},{"toponym":"Ecken","citations":[{"label":"1675 Ogilby","year":1675}],"when":{"timespans":[{"start":{"in":"1675"},"end":{"in":"1675"}}]}}],"types":[{"identifier":"http://vocab.getty.edu/aat/300232418","label":"administrative division","sourceLabels":[{"label":"township","lang":"en"}]}],"geometry":{"type":"GeometryCollection","geometries":[{"type":"Point","coordinates":[-0.78913,52.26543],"citations":[{"label":"GeoNames, gazetteer record geonames:2650263"}]},{"type":"Point","coordinates":[-0.791023630936045,52.2630743168033],"citations":[{"label":"Unlock (EDINA) gazetteer, gazetteer record unlock:11137779"}]},{"type":"Point","coordinates":[-0.79257,52.2635],"citations":[{"label":"Key to English Place-Names (KEPN), gazetteer record 11047"}]}]},"when":{"timespans":[{"start":{"in":"1086"},"end":{"in":"1675"}}]},"links":[{"type":"closeMatch","identifier":"https://sws.geonames.org/2650263/"}],"relations":[{"relationType":"gvp:broaderPartitive","relationTo":"https://w3id.org/whg-epns/10/003875","label":"within Ecton"}]}]}