{"@context":"https://raw.githubusercontent.com/LinkedPasts/linked-places-format/main/linkedplaces-context-v1.1.jsonld","type":"FeatureCollection","license":"Digitisation of English Placenames MADS data is licensed to Jisc by the English Place Names Society and released under a Creative Commons Attribution-NonCommercial 4.0 International License.","note":"LPF v1.3, lossy; derived from the PLATO record; plato_commit=ca0afadabec1e23a145c0b03df77e8f151f79832","features":[{"@id":"https://w3id.org/whg-epns/10/003986","type":"Feature","properties":{"title":"Castle Ashby","ccodes":["GB"],"fclasses":["A","P"]},"names":[{"toponym":"Castle Ashby","lang":"en","citations":[{"label":"English Place-Name Society survey, volume 10: Northamptonshire"}]},{"toponym":"Asebi","citations":[{"label":"1086 DB","year":1086}],"when":{"timespans":[{"start":{"in":"1086"},"end":{"in":"1086"}}]}},{"toponym":"Esseby","citations":[{"label":"12th Survey","year":1100}],"when":{"timespans":[{"start":{"earliest":"1100","latest":"1200"},"end":{"earliest":"1100","latest":"1200"}}]}},{"toponym":"Esseby David","citations":[{"label":"1275 RH","year":1275}],"when":{"timespans":[{"start":{"in":"1275"},"end":{"in":"1275"}}]}},{"toponym":"Axeby","citations":[{"label":"1235 Fees","year":1235}],"when":{"timespans":[{"start":{"in":"1235"},"end":{"in":"1235"}}]}},{"toponym":"Assheby Davy","citations":[{"label":"1325 Ipm","year":1325}],"when":{"timespans":[{"start":{"in":"1325"},"end":{"in":"1325"}}]}},{"toponym":"Castel Assheby","citations":[{"label":"1361 Cl","year":1361}],"when":{"timespans":[{"start":{"in":"1361"},"end":{"in":"1361"}}]}},{"toponym":"Chastel Assheby","citations":[{"label":"1362 Cl","year":1362},{"label":"1362 Ashby","year":1362}],"when":{"timespans":[{"start":{"in":"1362"},"end":{"in":"1362"}},{"start":{"in":"1362"},"end":{"in":"1362"}}]}},{"toponym":"Ashby Davy al. Castle Ashby","citations":[{"label":"1611 Recov","year":1611}],"when":{"timespans":[{"start":{"in":"1611"},"end":{"in":"1611"}}]}}],"types":[{"identifier":"http://vocab.getty.edu/aat/300232418","label":"administrative division","sourceLabels":[{"label":"township","lang":"en"}]}],"geometry":{"type":"GeometryCollection","geometries":[{"type":"Point","coordinates":[-0.74055,52.22691],"citations":[{"label":"GeoNames, gazetteer record geonames:2653611"}]},{"type":"Point","coordinates":[-0.7334461399619994,52.22650299344568],"citations":[{"label":"Unlock (EDINA) gazetteer, gazetteer record unlock:11100708"}]},{"type":"Point","coordinates":[-0.734998,52.2269],"citations":[{"label":"Key to English Place-Names (KEPN), gazetteer record 11052"}]}]},"when":{"timespans":[{"start":{"in":"1086"},"end":{"in":"1611"}}]},"links":[{"type":"closeMatch","identifier":"https://sws.geonames.org/2653611/"}],"relations":[{"relationType":"gvp:broaderPartitive","relationTo":"https://w3id.org/whg-epns/10/003985","label":"within Castle Ashby"}]}]}