{"@context":"https://raw.githubusercontent.com/LinkedPasts/linked-places-format/main/linkedplaces-context-v1.1.jsonld","type":"FeatureCollection","license":"Digitisation of English Placenames MADS data is licensed to Jisc by the English Place Names Society and released under a Creative Commons Attribution-NonCommercial 4.0 International License.","note":"LPF v1.3, lossy; derived from the PLATO record; plato_commit=fa0d247ccc0263f8f19c8d7cdcd163df96935d1e","features":[{"@id":"https://w3id.org/whg-epns/10/004005","type":"Feature","properties":{"title":"Blisworth","ccodes":["GB"],"fclasses":["A","P"]},"names":[{"toponym":"Blisworth","lang":"en","citations":[{"label":"English Place-Name Society survey, volume 10: Northamptonshire"}]}],"types":[{"identifier":"http://vocab.getty.edu/aat/300232418","label":"administrative division","sourceLabels":[{"label":"parish","lang":"en"}]}],"geometry":{"type":"GeometryCollection","geometries":[{"type":"Point","coordinates":[-0.94131,52.17498],"citations":[{"label":"GeoNames, gazetteer record geonames:2655341"}]},{"type":"Point","coordinates":[-0.9396803362307286,52.17458507693947],"citations":[{"label":"Unlock (EDINA) gazetteer, gazetteer record unlock:11081215"}]},{"type":"Point","coordinates":[-0.941206,52.175],"citations":[{"label":"Key to English Place-Names (KEPN), gazetteer record 11053"}]}]},"links":[{"type":"closeMatch","identifier":"https://sws.geonames.org/2655341/"}],"relations":[{"relationType":"gvp:broaderPartitive","relationTo":"https://w3id.org/whg-epns/10/003976","label":"within Wymersley Hundred"}]}]}