{"@context":"https://raw.githubusercontent.com/LinkedPasts/linked-places-format/main/linkedplaces-context-v1.1.jsonld","type":"FeatureCollection","license":"Digitisation of English Placenames MADS data is licensed to Jisc by the English Place Names Society and released under a Creative Commons Attribution-NonCommercial 4.0 International License.","note":"LPF v1.3, lossy; derived from the PLATO record; plato_commit=fa0d247ccc0263f8f19c8d7cdcd163df96935d1e","features":[{"@id":"https://w3id.org/whg-epns/10/004112","type":"Feature","properties":{"title":"Denton","ccodes":["GB"],"fclasses":["A","P"]},"names":[{"toponym":"Denton","lang":"en","citations":[{"label":"English Place-Name Society survey, volume 10: Northamptonshire"}]},{"toponym":"Dodintone","citations":[{"label":"DB","year":1086},{"label":"Cl"},{"label":"1086 DB","year":1086},{"label":"1376 Cl","year":1376}],"when":{"timespans":[{"start":{"in":"1086"},"end":{"in":"1376"}},{"start":{"in":"1086"},"end":{"in":"1086"}},{"start":{"in":"1376"},"end":{"in":"1376"}}]}},{"toponym":"Dodington, Dodyngton","citations":[{"label":"12th Survey","year":1100},{"label":"1275 RH","year":1275},{"label":"1325 Ipm","year":1325}],"when":{"timespans":[{"start":{"earliest":"1100","latest":"1200"},"end":{"earliest":"1100","latest":"1200"}},{"start":{"in":"1275"},"end":{"in":"1275"}},{"start":{"in":"1325"},"end":{"in":"1325"}}]}},{"toponym":"Dudintun","citations":[{"label":"1195 FF","year":1195}],"when":{"timespans":[{"start":{"in":"1195"},"end":{"in":"1195"}}]}},{"toponym":"Dudinton","citations":[{"label":"1200 Cur","year":1200}],"when":{"timespans":[{"start":{"in":"1200"},"end":{"in":"1200"}}]}},{"toponym":"Parva Dudinton","citations":[{"label":"1220 Fees","year":1220},{"label":"1229 Cl","year":1229}],"when":{"timespans":[{"start":{"in":"1220"},"end":{"in":"1220"}},{"start":{"in":"1229"},"end":{"in":"1229"}}]}},{"toponym":"Parva Dudington","citations":[{"label":"1235 Fees","year":1235}],"when":{"timespans":[{"start":{"in":"1235"},"end":{"in":"1235"}}]}},{"toponym":"Little Denynton","citations":[{"label":"1371 AD","year":1371}],"when":{"timespans":[{"start":{"in":"1371"},"end":{"in":"1371"}}]}},{"toponym":"Denenton","citations":[{"label":"1483 Charter","year":1483}],"when":{"timespans":[{"start":{"in":"1483"},"end":{"in":"1483"}}]}},{"toponym":"Dodington al. Deynton","citations":[{"label":"1563 FF","year":1563}],"when":{"timespans":[{"start":{"in":"1563"},"end":{"in":"1563"}}]}},{"toponym":"Doddington parva al. Deynton","citations":[{"label":"1579 FF","year":1579}],"when":{"timespans":[{"start":{"in":"1579"},"end":{"in":"1579"}}]}},{"toponym":"Denton or Doddington Parva","citations":[{"label":"1749 Recov","year":1749}],"when":{"timespans":[{"start":{"in":"1749"},"end":{"in":"1749"}}]}},{"toponym":"Denton or Little Doddington","citations":[{"label":"1768 Recov","year":1768}],"when":{"timespans":[{"start":{"in":"1768"},"end":{"in":"1768"}}]}}],"types":[{"identifier":"http://vocab.getty.edu/aat/300232418","label":"administrative division","sourceLabels":[{"label":"township","lang":"en"}]}],"geometry":{"type":"GeometryCollection","geometries":[{"type":"Point","coordinates":[-0.77664,52.21379],"citations":[{"label":"GeoNames, gazetteer record geonames:2651359"}]},{"type":"Point","coordinates":[-0.7776087189692311,52.21797675492544],"citations":[{"label":"Unlock (EDINA) gazetteer, gazetteer record unlock:11128783"}]},{"type":"Point","coordinates":[-0.779155,52.2184],"citations":[{"label":"Key to English Place-Names (KEPN), gazetteer record 11058"}]}]},"when":{"timespans":[{"start":{"in":"1086"},"end":{"in":"1768"}}]},"links":[{"type":"closeMatch","identifier":"https://sws.geonames.org/2651359/"}],"relations":[{"relationType":"gvp:broaderPartitive","relationTo":"https://w3id.org/whg-epns/10/004111","label":"within Denton"}]}]}