{"@context":"https://raw.githubusercontent.com/LinkedPasts/linked-places-format/main/linkedplaces-context-v1.1.jsonld","type":"FeatureCollection","license":"Digitisation of English Placenames MADS data is licensed to Jisc by the English Place Names Society and released under a Creative Commons Attribution-NonCommercial 4.0 International License.","note":"LPF v1.3, lossy; derived from the PLATO record; plato_commit=ca0afadabec1e23a145c0b03df77e8f151f79832","features":[{"@id":"https://w3id.org/whg-epns/10/004325","type":"Feature","properties":{"title":"Wootton","ccodes":["GB"],"fclasses":["A","P"]},"names":[{"toponym":"Wootton","lang":"en","citations":[{"label":"English Place-Name Society survey, volume 10: Northamptonshire"}]},{"toponym":"Witone","citations":[{"label":"1086 DB","year":1086}],"when":{"timespans":[{"start":{"in":"1086"},"end":{"in":"1086"}}]}},{"toponym":"Witton'","citations":[{"label":"1235 Fees","year":1235}],"when":{"timespans":[{"start":{"in":"1235"},"end":{"in":"1235"}}]}},{"toponym":"Wutton(a)","citations":[{"label":"1162 P","year":1162},{"label":"1220 Fees","year":1220},{"label":"1231 Bracton","year":1231},{"label":"1234 Cl","year":1234},{"label":"1271 FF","year":1271}],"when":{"timespans":[{"start":{"in":"1162"},"end":{"in":"1162"}},{"start":{"in":"1220"},"end":{"in":"1220"}},{"start":{"in":"1231"},"end":{"in":"1231"}},{"start":{"in":"1234"},"end":{"in":"1234"}},{"start":{"in":"1271"},"end":{"in":"1271"}}]}},{"toponym":"Whutton","citations":[{"label":"1313 Ipm","year":1313}],"when":{"timespans":[{"start":{"in":"1313"},"end":{"in":"1313"}}]}},{"toponym":"Weton","citations":[{"label":"1198 Cur","year":1198}],"when":{"timespans":[{"start":{"in":"1198"},"end":{"in":"1198"}}]}},{"toponym":"Wotton","citations":[{"label":"1100–1324, recurring Survey","year":1100},{"label":"1100–1324, recurring Ipm"},{"label":"12th Survey","year":1100},{"label":"1324 Ipm","year":1324}],"when":{"timespans":[{"start":{"in":"1100"},"end":{"in":"1324"}},{"start":{"earliest":"1100","latest":"1200"},"end":{"earliest":"1100","latest":"1200"}},{"start":{"in":"1324"},"end":{"in":"1324"}}]}},{"toponym":"Wutton al. Wotton","citations":[{"label":"1304 Ipm","year":1304}],"when":{"timespans":[{"start":{"in":"1304"},"end":{"in":"1304"}}]}},{"toponym":"Wootton","citations":[{"label":"1346 FA","year":1346}],"when":{"timespans":[{"start":{"in":"1346"},"end":{"in":"1346"}}]}}],"types":[{"identifier":"http://vocab.getty.edu/aat/300232418","label":"administrative division","sourceLabels":[{"label":"township","lang":"en"}]}],"geometry":{"type":"GeometryCollection","geometries":[{"type":"Point","coordinates":[-0.88517,52.20166],"citations":[{"label":"GeoNames, gazetteer record geonames:2633574"}]},{"type":"Point","coordinates":[-0.8805145079798651,52.20101409301427],"citations":[{"label":"Unlock (EDINA) gazetteer, gazetteer record unlock:11327130"}]},{"type":"Point","coordinates":[-0.882048,52.2014],"citations":[{"label":"Key to English Place-Names (KEPN), gazetteer record 11070"}]}]},"when":{"timespans":[{"start":{"in":"1086"},"end":{"in":"1346"}}]},"links":[{"type":"closeMatch","identifier":"https://sws.geonames.org/2633574/"}],"relations":[{"relationType":"gvp:broaderPartitive","relationTo":"https://w3id.org/whg-epns/10/004324","label":"within Wootton"}]}]}