{"@context":"https://raw.githubusercontent.com/LinkedPasts/linked-places-format/main/linkedplaces-context-v1.1.jsonld","type":"FeatureCollection","license":"Digitisation of English Placenames MADS data is licensed to Jisc by the English Place Names Society and released under a Creative Commons Attribution-NonCommercial 4.0 International License.","note":"LPF v1.3, lossy; derived from the PLATO record; plato_commit=ca0afadabec1e23a145c0b03df77e8f151f79832","features":[{"@id":"https://w3id.org/whg-epns/10/004402","type":"Feature","properties":{"title":"Ashley","ccodes":["GB"],"fclasses":["A","P"]},"names":[{"toponym":"Ashley","lang":"en","citations":[{"label":"English Place-Name Society survey, volume 10: Northamptonshire"}]},{"toponym":"Ascele","citations":[{"label":"1086 DB","year":1086}],"when":{"timespans":[{"start":{"in":"1086"},"end":{"in":"1086"}}]}},{"toponym":"Estelai","citations":[{"label":"1109 Eynsham","year":1109}],"when":{"timespans":[{"start":{"in":"1109"},"end":{"in":"1109"}}]}},{"toponym":"Estlaia","citations":[{"label":"c. 1160 Reg Antiquiss","year":1150}],"when":{"timespans":[{"start":{"earliest":"1150","latest":"1170"},"end":{"earliest":"1150","latest":"1170"}}]}},{"toponym":"Esselega","citations":[{"label":"1195–1195, recurring P","year":1195},{"label":"1195 P","year":1195}],"when":{"timespans":[{"start":{"in":"1195"},"end":{"in":"1195"}},{"start":{"in":"1195"},"end":{"in":"1195"}}]}},{"toponym":"As(s)helega, Asselega, and Essele, Esselee","citations":[{"label":"1195-1600 unspecified sources","year":1195}],"when":{"timespans":[{"start":{"in":"1195"},"end":{"in":"1600"}}]}}],"types":[{"identifier":"http://vocab.getty.edu/aat/300232418","label":"administrative division","sourceLabels":[{"label":"township","lang":"en"}]}],"geometry":{"type":"GeometryCollection","geometries":[{"type":"Point","coordinates":[-0.83196,52.51142],"citations":[{"label":"GeoNames, gazetteer record geonames:2656939"}]},{"type":"Point","coordinates":[-0.8285689493342056,52.50622690123187],"citations":[{"label":"Unlock (EDINA) gazetteer, gazetteer record unlock:11064565"}]},{"type":"Point","coordinates":[-0.830121,52.5066],"citations":[{"label":"Key to English Place-Names (KEPN), gazetteer record 11072"}]}]},"when":{"timespans":[{"start":{"in":"1086"},"end":{"in":"1600"}}]},"links":[{"type":"closeMatch","identifier":"https://sws.geonames.org/2656939/"}],"relations":[{"relationType":"gvp:broaderPartitive","relationTo":"https://w3id.org/whg-epns/10/004401","label":"within Ashley"}]}]}