{"@context":"https://raw.githubusercontent.com/LinkedPasts/linked-places-format/main/linkedplaces-context-v1.1.jsonld","type":"FeatureCollection","license":"Digitisation of English Placenames MADS data is licensed to Jisc by the English Place Names Society and released under a Creative Commons Attribution-NonCommercial 4.0 International License.","note":"LPF v1.3, lossy; derived from the PLATO record; plato_commit=ca0afadabec1e23a145c0b03df77e8f151f79832","features":[{"@id":"https://w3id.org/whg-epns/10/004745","type":"Feature","properties":{"title":"Gretton","ccodes":["GB"],"fclasses":["A","P"]},"names":[{"toponym":"Gretton","lang":"en","citations":[{"label":"English Place-Name Society survey, volume 10: Northamptonshire"}]},{"toponym":"Gretone","citations":[{"label":"1086 DB","year":1086},{"label":"1215 ClR","year":1215}],"when":{"timespans":[{"start":{"in":"1086"},"end":{"in":"1086"}},{"start":{"in":"1215"},"end":{"in":"1215"}}]}},{"toponym":"Grettone, Grettun","citations":[{"label":"1163–1346, recurring P","year":1163},{"label":"1163–1346, recurring FA"},{"label":"1163 P","year":1163},{"label":"1346 FA","year":1346}],"when":{"timespans":[{"start":{"in":"1163"},"end":{"in":"1346"}},{"start":{"in":"1163"},"end":{"in":"1163"}},{"start":{"in":"1346"},"end":{"in":"1346"}}]}},{"toponym":"Grettone super Weland","citations":[{"label":"1297 Pat","year":1297}],"when":{"timespans":[{"start":{"in":"1297"},"end":{"in":"1297"}}]}},{"toponym":"Gratton","citations":[{"label":"c. 1220 For","year":1210},{"label":"1274 Ipm","year":1274}],"when":{"timespans":[{"start":{"earliest":"1210","latest":"1230"},"end":{"earliest":"1210","latest":"1230"}},{"start":{"in":"1274"},"end":{"in":"1274"}}]}},{"toponym":"Gratton al. Gretton","citations":[{"label":"1670 Recov","year":1670}],"when":{"timespans":[{"start":{"in":"1670"},"end":{"in":"1670"}}]}},{"toponym":"Cretton","citations":[{"label":"1285 FA","year":1285}],"when":{"timespans":[{"start":{"in":"1285"},"end":{"in":"1285"}}]}}],"types":[{"identifier":"http://vocab.getty.edu/aat/300232418","label":"administrative division","sourceLabels":[{"label":"township","lang":"en"}]}],"geometry":{"type":"GeometryCollection","geometries":[{"type":"Point","coordinates":[-0.676,52.53485],"citations":[{"label":"GeoNames, gazetteer record geonames:7299048"}]},{"type":"Point","coordinates":[-0.6801818806828358,52.54063108198812],"citations":[{"label":"Unlock (EDINA) gazetteer, gazetteer record unlock:11160982"}]},{"type":"Point","coordinates":[-0.681753,52.541],"citations":[{"label":"Key to English Place-Names (KEPN), gazetteer record 11086"}]}]},"when":{"timespans":[{"start":{"in":"1086"},"end":{"in":"1670"}}]},"links":[{"type":"closeMatch","identifier":"https://sws.geonames.org/7299048/"}],"relations":[{"relationType":"gvp:broaderPartitive","relationTo":"https://w3id.org/whg-epns/10/004744","label":"within Gretton"}]}]}