{"@context":"https://raw.githubusercontent.com/LinkedPasts/linked-places-format/main/linkedplaces-context-v1.1.jsonld","type":"FeatureCollection","license":"Digitisation of English Placenames MADS data is licensed to Jisc by the English Place Names Society and released under a Creative Commons Attribution-NonCommercial 4.0 International License.","note":"LPF v1.3, lossy; derived from the PLATO record; plato_commit=ca0afadabec1e23a145c0b03df77e8f151f79832","features":[{"@id":"https://w3id.org/whg-epns/10/005170","type":"Feature","properties":{"title":"Barton Seagrave","ccodes":["GB"],"fclasses":["A","P"]},"names":[{"toponym":"Barton Seagrave","lang":"en","citations":[{"label":"English Place-Name Society survey, volume 10: Northamptonshire"}]},{"toponym":"Berton(e)","citations":[{"label":"1086 DB","year":1086},{"label":"1166 P","year":1166},{"label":"1200 Cur","year":1200}],"when":{"timespans":[{"start":{"in":"1086"},"end":{"in":"1086"}},{"start":{"in":"1166"},"end":{"in":"1166"}},{"start":{"in":"1194"},"end":{"in":"1194"}},{"start":{"in":"1200"},"end":{"in":"1200"}}]}},{"toponym":"Barton(e)","citations":[{"label":"1179–1179, recurring P","year":1179},{"label":"1179 P","year":1179}],"when":{"timespans":[{"start":{"in":"1179"},"end":{"in":"1179"}},{"start":{"in":"1179"},"end":{"in":"1179"}}]}},{"toponym":"Northbarton'","citations":[{"label":"1242 Fees","year":1242},{"label":"1303 AD","year":1303}],"when":{"timespans":[{"start":{"in":"1242"},"end":{"in":"1242"}},{"start":{"in":"1303"},"end":{"in":"1303"}}]}},{"toponym":"Barton Haurad","citations":[{"label":"1307 Ipm","year":1307}],"when":{"timespans":[{"start":{"in":"1307"},"end":{"in":"1307"}}]}},{"toponym":"Barton Segrave","citations":[{"label":"1321 Ipm","year":1321}],"when":{"timespans":[{"start":{"in":"1321"},"end":{"in":"1321"}}]}},{"toponym":"Barton by Keteringe","citations":[{"label":"1322 Ipm","year":1322}],"when":{"timespans":[{"start":{"in":"1322"},"end":{"in":"1322"}}]}},{"toponym":"Barton Hanred","citations":[{"label":"1372 Cl","year":1372},{"label":"1462 AD","year":1462}],"when":{"timespans":[{"start":{"in":"1372"},"end":{"in":"1372"}},{"start":{"in":"1462"},"end":{"in":"1462"}}]}}],"types":[{"identifier":"http://vocab.getty.edu/aat/300232418","label":"administrative division","sourceLabels":[{"label":"township","lang":"en"}]}],"geometry":{"type":"GeometryCollection","geometries":[{"type":"Point","coordinates":[-0.69278,52.37852],"citations":[{"label":"GeoNames, gazetteer record geonames:7291343"}]},{"type":"Point","coordinates":[-0.684744746741271,52.38782394906852],"citations":[{"label":"Unlock (EDINA) gazetteer, gazetteer record unlock:11071284"}]},{"type":"Point","coordinates":[-0.686309,52.3882],"citations":[{"label":"Key to English Place-Names (KEPN), gazetteer record 11104"}]}]},"when":{"timespans":[{"start":{"in":"1086"},"end":{"in":"1462"}}]},"links":[{"type":"closeMatch","identifier":"https://sws.geonames.org/7291343/"}],"relations":[{"relationType":"gvp:broaderPartitive","relationTo":"https://w3id.org/whg-epns/10/005169","label":"within Barton Seagrave"}]}]}