{"@context":"https://raw.githubusercontent.com/LinkedPasts/linked-places-format/main/linkedplaces-context-v1.1.jsonld","type":"FeatureCollection","license":"Digitisation of English Placenames MADS data is licensed to Jisc by the English Place Names Society and released under a Creative Commons Attribution-NonCommercial 4.0 International License.","note":"LPF v1.3, lossy; derived from the PLATO record; plato_commit=fa0d247ccc0263f8f19c8d7cdcd163df96935d1e","features":[{"@id":"https://w3id.org/whg-epns/10/005220","type":"Feature","properties":{"title":"Finedon","ccodes":["GB"],"fclasses":["A","P"]},"names":[{"toponym":"Finedon","lang":"en","citations":[{"label":"English Place-Name Society survey, volume 10: Northamptonshire"}]},{"toponym":"Tingden(e)","citations":[{"label":"DB","year":1086},{"label":"RH"},{"label":"1086 DB","year":1086},{"label":"1274 RH","year":1274}],"when":{"timespans":[{"start":{"in":"1086"},"end":{"in":"1274"}},{"start":{"in":"1086"},"end":{"in":"1086"}},{"start":{"in":"1274"},"end":{"in":"1274"}}]}},{"toponym":"Tyngden","citations":[{"label":"1086-1274 unspecified sources","year":1086}],"when":{"timespans":[{"start":{"in":"1086"},"end":{"in":"1274"}}]}},{"toponym":"Tindena, Tindene","citations":[{"label":"P","year":1167},{"label":"Cl"},{"label":"1167 P","year":1167},{"label":"1241 Cl","year":1241}],"when":{"timespans":[{"start":{"in":"1167"},"end":{"in":"1241"}},{"start":{"in":"1167"},"end":{"in":"1167"}},{"start":{"in":"1241"},"end":{"in":"1241"}}]}},{"toponym":"Thynden","citations":[{"label":"1281 Cl","year":1281}],"when":{"timespans":[{"start":{"in":"1281"},"end":{"in":"1281"}}]}},{"toponym":"Thingden(e)","citations":[{"label":"Survey","year":1100},{"label":"Cl"},{"label":"12th Survey","year":1100},{"label":"1363 Cl","year":1363}],"when":{"timespans":[{"start":{"in":"1100"},"end":{"in":"1363"}},{"start":{"earliest":"1100","latest":"1200"},"end":{"earliest":"1100","latest":"1200"}},{"start":{"in":"1363"},"end":{"in":"1363"}}]}},{"toponym":"Thyngden","citations":[{"label":"12th-1363 unspecified sources","year":1100}],"when":{"timespans":[{"start":{"in":"1100"},"end":{"in":"1363"}}]}},{"toponym":"Tingdon","citations":[{"label":"1247 Ass","year":1247}],"when":{"timespans":[{"start":{"in":"1247"},"end":{"in":"1247"}}]}},{"toponym":"Thingdon","citations":[{"label":"1302 Ipm","year":1302},{"label":"1318 Ipm","year":1318},{"label":"1702 Poll","year":1702}],"when":{"timespans":[{"start":{"in":"1302"},"end":{"in":"1302"}},{"start":{"in":"1318"},"end":{"in":"1318"}},{"start":{"in":"1702"},"end":{"in":"1702"}}]}},{"toponym":"Thingdoun","citations":[{"label":"1396 Cl","year":1396}],"when":{"timespans":[{"start":{"in":"1396"},"end":{"in":"1396"}}]}},{"toponym":"Fyndon","citations":[{"label":"t. Jas 1 ECP","year":1603}],"when":{"timespans":[{"start":{"earliest":"1603","latest":"1625"},"end":{"earliest":"1603","latest":"1625"}}]}},{"toponym":"Thingdon al. Fyndon","citations":[{"label":"1606 Recov","year":1606}],"when":{"timespans":[{"start":{"in":"1606"},"end":{"in":"1606"}}]}},{"toponym":"Thindon al. Thingdon al. Finedon","citations":[{"label":"1685 Recov","year":1685}],"when":{"timespans":[{"start":{"in":"1685"},"end":{"in":"1685"}}]}},{"toponym":"Finedon al. Thingden","citations":[{"label":"1719 Recov","year":1719}],"when":{"timespans":[{"start":{"in":"1719"},"end":{"in":"1719"}}]}}],"types":[{"identifier":"http://vocab.getty.edu/aat/300232418","label":"administrative division","sourceLabels":[{"label":"township","lang":"en"}]}],"geometry":{"type":"GeometryCollection","geometries":[{"type":"Point","coordinates":[-0.65008,52.33917],"citations":[{"label":"GeoNames, gazetteer record geonames:2649428"}]},{"type":"Point","coordinates":[-0.6567262947957702,52.34254978031407],"citations":[{"label":"Unlock (EDINA) gazetteer, gazetteer record unlock:11144457"}]},{"type":"Point","coordinates":[-0.658292,52.343],"citations":[{"label":"Key to English Place-Names (KEPN), gazetteer record 11108"}]}]},"when":{"timespans":[{"start":{"in":"1086"},"end":{"in":"1719"}}]},"links":[{"type":"closeMatch","identifier":"https://sws.geonames.org/2649428/"}],"relations":[{"relationType":"gvp:broaderPartitive","relationTo":"https://w3id.org/whg-epns/10/005219","label":"within Finedon"}]}]}