{"@context":"https://raw.githubusercontent.com/LinkedPasts/linked-places-format/main/linkedplaces-context-v1.1.jsonld","type":"FeatureCollection","license":"Digitisation of English Placenames MADS data is licensed to Jisc by the English Place Names Society and released under a Creative Commons Attribution-NonCommercial 4.0 International License.","note":"LPF v1.3, lossy; derived from the PLATO record; plato_commit=ca0afadabec1e23a145c0b03df77e8f151f79832","features":[{"@id":"http://placenames.org.uk/id/placename/10/005298","type":"Feature","properties":{"title":"Islip","ccodes":["GB"],"fclasses":["A","P"]},"names":[{"toponym":"Islip","lang":"en","citations":[{"label":"English Place-Name Society survey, volume 10: Northamptonshire"}]},{"toponym":"Is slepe, Hyslepe","citations":[{"label":"c. 980 BCS","year":970}],"when":{"timespans":[{"start":{"earliest":"0970","latest":"0990"},"end":{"earliest":"0970","latest":"0990"}}]}},{"toponym":"Islep, Slepe","citations":[{"label":"1086 DB","year":1086}],"when":{"timespans":[{"start":{"in":"1086"},"end":{"in":"1086"}}]}},{"toponym":"Islep(e)","citations":[{"label":"1175–1316, recurring P","year":1175},{"label":"1175–1316, recurring FA"},{"label":"1175 P","year":1175},{"label":"1316 FA","year":1316}],"when":{"timespans":[{"start":{"in":"1175"},"end":{"in":"1316"}},{"start":{"in":"1175"},"end":{"in":"1175"}},{"start":{"in":"1316"},"end":{"in":"1316"}}]}},{"toponym":"Yslep","citations":[{"label":"1175-1316 unspecified sources","year":1175}],"when":{"timespans":[{"start":{"in":"1175"},"end":{"in":"1316"}}]}},{"toponym":"Hystlapa","citations":[{"label":"1190 P","year":1190}],"when":{"timespans":[{"start":{"in":"1190"},"end":{"in":"1190"}}]}},{"toponym":"Ystlapa","citations":[{"label":"1191 P","year":1191}],"when":{"timespans":[{"start":{"in":"1191"},"end":{"in":"1191"}}]}},{"toponym":"Istlepe","citations":[{"label":"1247 Ass","year":1247}],"when":{"timespans":[{"start":{"in":"1247"},"end":{"in":"1247"}}]}},{"toponym":"Ystlepe","citations":[{"label":"1273 Swaffham","year":1273}],"when":{"timespans":[{"start":{"in":"1273"},"end":{"in":"1273"}}]}},{"toponym":"Islape","citations":[{"label":"1205 Cur","year":1205},{"label":"1242 Fees","year":1242}],"when":{"timespans":[{"start":{"in":"1205"},"end":{"in":"1205"}},{"start":{"in":"1242"},"end":{"in":"1242"}}]}},{"toponym":"Isalop","citations":[{"label":"1205 Cur","year":1205}],"when":{"timespans":[{"start":{"in":"1205"},"end":{"in":"1205"}}]}},{"toponym":"Isselep(e)","citations":[{"label":"c. 1220 WellsR","year":1210}],"when":{"timespans":[{"start":{"earliest":"1210","latest":"1230"},"end":{"earliest":"1210","latest":"1230"}}]}},{"toponym":"Isselep juxta Thrapston","citations":[{"label":"1317 Ass","year":1317}],"when":{"timespans":[{"start":{"in":"1317"},"end":{"in":"1317"}}]}},{"toponym":"Itheslepe","citations":[{"label":"c. 1220 WellsR","year":1210}],"when":{"timespans":[{"start":{"earliest":"1210","latest":"1230"},"end":{"earliest":"1210","latest":"1230"}}]}},{"toponym":"Itteslep'","citations":[{"label":"1253 Ipm","year":1253}],"when":{"timespans":[{"start":{"in":"1253"},"end":{"in":"1253"}}]}},{"toponym":"Hislep","citations":[{"label":"1241 P","year":1241}],"when":{"timespans":[{"start":{"in":"1241"},"end":{"in":"1241"}}]}},{"toponym":"Islip","citations":[{"label":"1275 RH","year":1275},{"label":"1346 FA","year":1346}],"when":{"timespans":[{"start":{"in":"1275"},"end":{"in":"1275"}},{"start":{"in":"1346"},"end":{"in":"1346"}}]}},{"toponym":"Eslep","citations":[{"label":"1284 FA","year":1284}],"when":{"timespans":[{"start":{"in":"1284"},"end":{"in":"1284"}}]}},{"toponym":"Iselep","citations":[{"label":"1294 Ass","year":1294},{"label":"1331 Cl","year":1331}],"when":{"timespans":[{"start":{"in":"1294"},"end":{"in":"1294"}},{"start":{"in":"1331"},"end":{"in":"1331"}}]}}],"types":[{"identifier":"http://vocab.getty.edu/aat/300232418","label":"administrative division","sourceLabels":[{"label":"township","lang":"en"}]}],"geometry":{"type":"GeometryCollection","geometries":[{"type":"Point","coordinates":[-0.55695,52.40026],"citations":[{"label":"GeoNames, gazetteer record geonames:7295725"}]},{"type":"Point","coordinates":[-0.5519397759806088,52.40425519231817],"citations":[{"label":"Unlock (EDINA) gazetteer, gazetteer record unlock:11183531"}]},{"type":"Point","coordinates":[-0.55352,52.4047],"citations":[{"label":"Key to English Place-Names (KEPN), gazetteer record 11111"}]}]},"when":{"timespans":[{"start":{"in":"0970"},"end":{"in":"1346"}}]},"links":[{"type":"closeMatch","identifier":"https://sws.geonames.org/7295725/"}],"relations":[{"relationType":"gvp:broaderPartitive","relationTo":"http://placenames.org.uk/id/placename/10/005297","label":"within Islip"}]}]}