{"@context":"https://raw.githubusercontent.com/LinkedPasts/linked-places-format/main/linkedplaces-context-v1.1.jsonld","type":"FeatureCollection","license":"Digitisation of English Placenames MADS data is licensed to Jisc by the English Place Names Society and released under a Creative Commons Attribution-NonCommercial 4.0 International License.","note":"LPF v1.3, lossy; derived from the PLATO record; plato_commit=fa0d247ccc0263f8f19c8d7cdcd163df96935d1e","features":[{"@id":"https://w3id.org/whg-epns/10/005337","type":"Feature","properties":{"title":"Lilford-cum-Wigsthorpe","ccodes":["GB"],"fclasses":["A","P"]},"names":[{"toponym":"Lilford-cum-Wigsthorpe","lang":"en","citations":[{"label":"English Place-Name Society survey, volume 10: Northamptonshire"}]}],"types":[{"identifier":"http://vocab.getty.edu/aat/300232418","label":"administrative division","sourceLabels":[{"label":"parish","lang":"en"}]}],"geometry":{"type":"GeometryCollection","geometries":[{"type":"Point","coordinates":[-0.45982,52.43755],"citations":[{"label":"GeoNames, gazetteer record geonames:7299548"}]},{"type":"Point","coordinates":[-0.478504,52.4487],"citations":[{"label":"Key to English Place-Names (KEPN), gazetteer record 11113"}]}]},"links":[{"type":"closeMatch","identifier":"https://sws.geonames.org/7299548/"}],"relations":[{"relationType":"gvp:broaderPartitive","relationTo":"https://w3id.org/whg-epns/10/005090","label":"within Huxloe Hundred"}]}]}