{"@context":"https://raw.githubusercontent.com/LinkedPasts/linked-places-format/main/linkedplaces-context-v1.1.jsonld","type":"FeatureCollection","license":"Digitisation of English Placenames MADS data is licensed to Jisc by the English Place Names Society and released under a Creative Commons Attribution-NonCommercial 4.0 International License.","note":"LPF v1.3, lossy; derived from the PLATO record; plato_commit=ca0afadabec1e23a145c0b03df77e8f151f79832","features":[{"@id":"https://w3id.org/whg-epns/10/005564","type":"Feature","properties":{"title":"Irchester","ccodes":["GB"],"fclasses":["A","P"]},"names":[{"toponym":"Irchester","lang":"en","citations":[{"label":"English Place-Name Society survey, volume 10: Northamptonshire"}]},{"toponym":"Yranceaster","citations":[{"label":"973 BCS","year":973}],"when":{"timespans":[{"start":{"in":"0973"},"end":{"in":"0973"}}]}},{"toponym":"Hirecestre","citations":[{"label":"1086 DB","year":1086}],"when":{"timespans":[{"start":{"in":"1086"},"end":{"in":"1086"}}]}},{"toponym":"Hirencestre","citations":[{"label":"1205 Pap","year":1205}],"when":{"timespans":[{"start":{"in":"1205"},"end":{"in":"1205"}}]}},{"toponym":"Irencestre","citations":[{"label":"1086 DB","year":1086},{"label":"1109–1428, recurring Ch","year":1109},{"label":"1109–1428, recurring FA"},{"label":"1109-22 Ch","year":1109},{"label":"1428 FA","year":1428}],"when":{"timespans":[{"start":{"in":"1086"},"end":{"in":"1086"}},{"start":{"in":"1109"},"end":{"in":"1428"}},{"start":{"earliest":"1109","latest":"1122"},"end":{"earliest":"1109","latest":"1122"}},{"start":{"in":"1428"},"end":{"in":"1428"}}]}},{"toponym":"Yrencestre","citations":[{"label":"1109-1428 unspecified sources","year":1109}],"when":{"timespans":[{"start":{"in":"1109"},"end":{"in":"1428"}}]}},{"toponym":"Yrincestre","citations":[{"label":"1200 Cur","year":1200},{"label":"1248 Ch","year":1248}],"when":{"timespans":[{"start":{"in":"1200"},"end":{"in":"1200"}},{"start":{"in":"1248"},"end":{"in":"1248"}}]}},{"toponym":"Irincestre","citations":[{"label":"1227 FF","year":1227},{"label":"1289 Cl","year":1289}],"when":{"timespans":[{"start":{"in":"1227"},"end":{"in":"1227"}},{"start":{"in":"1289"},"end":{"in":"1289"}}]}},{"toponym":"Irecestre","citations":[{"label":"1167 P","year":1167},{"label":"1203 Cur","year":1203},{"label":"1242 Fees","year":1242},{"label":"1316 Ch","year":1316},{"label":"1339 FF","year":1339}],"when":{"timespans":[{"start":{"in":"1167"},"end":{"in":"1167"}},{"start":{"in":"1203"},"end":{"in":"1203"}},{"start":{"in":"1242"},"end":{"in":"1242"}},{"start":{"in":"1316"},"end":{"in":"1316"}},{"start":{"in":"1339"},"end":{"in":"1339"}}]}},{"toponym":"Irnecestre","citations":[{"label":"1261 Ass","year":1261}],"when":{"timespans":[{"start":{"in":"1261"},"end":{"in":"1261"}}]}},{"toponym":"Irncestre","citations":[{"label":"1270 Ass","year":1270},{"label":"1327 Ipm","year":1327}],"when":{"timespans":[{"start":{"in":"1270"},"end":{"in":"1270"}},{"start":{"in":"1327"},"end":{"in":"1327"}}]}},{"toponym":"Irrencestre","citations":[{"label":"1290 Cl","year":1290},{"label":"1306 FF","year":1306}],"when":{"timespans":[{"start":{"in":"1290"},"end":{"in":"1290"}},{"start":{"in":"1306"},"end":{"in":"1306"}}]}},{"toponym":"Irchestre","citations":[{"label":"1291 Ass","year":1291}],"when":{"timespans":[{"start":{"in":"1291"},"end":{"in":"1291"}}]}},{"toponym":"Irchester al. Irenchester","citations":[{"label":"1565 Recov","year":1565}],"when":{"timespans":[{"start":{"in":"1565"},"end":{"in":"1565"}}]}},{"toponym":"Ircestre","citations":[{"label":"1330 FA","year":1330},{"label":"1346 Pat","year":1346}],"when":{"timespans":[{"start":{"in":"1330"},"end":{"in":"1330"}},{"start":{"in":"1346"},"end":{"in":"1346"}}]}},{"toponym":"Archestre","citations":[{"label":"1503 Ipm","year":1503}],"when":{"timespans":[{"start":{"in":"1503"},"end":{"in":"1503"}}]}},{"toponym":"Archester","citations":[{"label":"1510 FF","year":1510},{"label":"1712 Morton","year":1712}],"when":{"timespans":[{"start":{"in":"1510"},"end":{"in":"1510"}},{"start":{"in":"1712"},"end":{"in":"1712"}}]}},{"toponym":"Erchester","citations":[{"label":"1657 NRS","year":1657}],"when":{"timespans":[{"start":{"in":"1657"},"end":{"in":"1657"}}]}},{"toponym":"Axchester","citations":[{"label":"1675 Ogilby","year":1675}],"when":{"timespans":[{"start":{"in":"1675"},"end":{"in":"1675"}}]}}],"types":[{"identifier":"http://vocab.getty.edu/aat/300232418","label":"administrative division","sourceLabels":[{"label":"township","lang":"en"}]}],"geometry":{"type":"GeometryCollection","geometries":[{"type":"Point","coordinates":[-0.6451,52.28108],"citations":[{"label":"GeoNames, gazetteer record geonames:2646055"}]},{"type":"Point","coordinates":[-0.6439745680395685,52.27946079544594],"citations":[{"label":"Unlock (EDINA) gazetteer, gazetteer record unlock:11183208"}]},{"type":"Point","coordinates":[-0.645539,52.2799],"citations":[{"label":"Key to English Place-Names (KEPN), gazetteer record 11127"}]}]},"when":{"timespans":[{"start":{"in":"0973"},"end":{"in":"1712"}}]},"links":[{"type":"closeMatch","identifier":"https://sws.geonames.org/2646055/"}],"relations":[{"relationType":"gvp:broaderPartitive","relationTo":"https://w3id.org/whg-epns/10/005563","label":"within Irchester"}]}]}