{"@context":"https://raw.githubusercontent.com/LinkedPasts/linked-places-format/main/linkedplaces-context-v1.1.jsonld","type":"FeatureCollection","license":"Digitisation of English Placenames MADS data is licensed to Jisc by the English Place Names Society and released under a Creative Commons Attribution-NonCommercial 4.0 International License.","note":"LPF v1.3, lossy; derived from the PLATO record; plato_commit=ca0afadabec1e23a145c0b03df77e8f151f79832","features":[{"@id":"https://w3id.org/whg-epns/10/005699","type":"Feature","properties":{"title":"Wollaston","ccodes":["GB"],"fclasses":["A","P"]},"names":[{"toponym":"Wollaston","lang":"en","citations":[{"label":"English Place-Name Society survey, volume 10: Northamptonshire"}]},{"toponym":"Wilavestone","citations":[{"label":"1086 DB","year":1086}],"when":{"timespans":[{"start":{"in":"1086"},"end":{"in":"1086"}}]}},{"toponym":"Willeveston","citations":[{"label":"1219 WellsR","year":1219}],"when":{"timespans":[{"start":{"in":"1219"},"end":{"in":"1219"}}]}},{"toponym":"Wullauestonia","citations":[{"label":"c. 1150 BM","year":1140}],"when":{"timespans":[{"start":{"earliest":"1140","latest":"1160"},"end":{"earliest":"1140","latest":"1160"}}]}},{"toponym":"Wullaueston","citations":[{"label":"1190–1274, recurring P","year":1190},{"label":"1190–1274, recurring RH"},{"label":"1190 P","year":1190},{"label":"1274 RH","year":1274}],"when":{"timespans":[{"start":{"in":"1190"},"end":{"in":"1274"}},{"start":{"in":"1190"},"end":{"in":"1190"}},{"start":{"in":"1274"},"end":{"in":"1274"}}]}},{"toponym":"Wollaueston, Wullaveston, Wulaueston, Wolaueston, Wl-","citations":[{"label":"1190-1274 unspecified sources","year":1190}],"when":{"timespans":[{"start":{"in":"1190"},"end":{"in":"1274"}}]}},{"toponym":"Wulauston","citations":[{"label":"1226 ClR","year":1226}],"when":{"timespans":[{"start":{"in":"1226"},"end":{"in":"1226"}}]}},{"toponym":"Wurdlaueston","citations":[{"label":"1190 P","year":1190}],"when":{"timespans":[{"start":{"in":"1190"},"end":{"in":"1190"}}]}},{"toponym":"Wolaston","citations":[{"label":"12th Survey","year":1100},{"label":"1274 RH","year":1274},{"label":"1284 FA","year":1284}],"when":{"timespans":[{"start":{"earliest":"1100","latest":"1200"},"end":{"earliest":"1100","latest":"1200"}},{"start":{"in":"1274"},"end":{"in":"1274"}},{"start":{"in":"1284"},"end":{"in":"1284"}}]}},{"toponym":"Wollaston","citations":[{"label":"1279 Cl","year":1279}],"when":{"timespans":[{"start":{"in":"1279"},"end":{"in":"1279"}}]}}],"types":[{"identifier":"http://vocab.getty.edu/aat/300232418","label":"administrative division","sourceLabels":[{"label":"township","lang":"en"}]}],"geometry":{"type":"GeometryCollection","geometries":[{"type":"Point","coordinates":[-0.67038,52.25794],"citations":[{"label":"GeoNames, gazetteer record geonames:2633697"}]},{"type":"Point","coordinates":[-0.6594436188401638,52.25266158079473],"citations":[{"label":"Unlock (EDINA) gazetteer, gazetteer record unlock:11324941"}]},{"type":"Point","coordinates":[-0.661005,52.2531],"citations":[{"label":"Key to English Place-Names (KEPN), gazetteer record 11134"}]}]},"when":{"timespans":[{"start":{"in":"1086"},"end":{"in":"1284"}}]},"links":[{"type":"closeMatch","identifier":"https://sws.geonames.org/2633697/"}],"relations":[{"relationType":"gvp:broaderPartitive","relationTo":"https://w3id.org/whg-epns/10/005698","label":"within Wollaston"}]}]}