{"@context":"https://raw.githubusercontent.com/LinkedPasts/linked-places-format/main/linkedplaces-context-v1.1.jsonld","type":"FeatureCollection","license":"Digitisation of English Placenames MADS data is licensed to Jisc by the English Place Names Society and released under a Creative Commons Attribution-NonCommercial 4.0 International License.","note":"LPF v1.3, lossy; derived from the PLATO record; plato_commit=ca0afadabec1e23a145c0b03df77e8f151f79832","features":[{"@id":"https://w3id.org/whg-epns/10/005755","type":"Feature","properties":{"title":"King's Cliffe","ccodes":["GB"],"fclasses":["A","P"]},"names":[{"toponym":"King's Cliffe","lang":"en","citations":[{"label":"English Place-Name Society survey, volume 10: Northamptonshire"}]}],"types":[{"identifier":"http://vocab.getty.edu/aat/300232418","label":"administrative division","sourceLabels":[{"label":"parish","lang":"en"}]}],"geometry":{"type":"GeometryCollection","geometries":[{"type":"Point","coordinates":[-0.51081,52.57278],"citations":[{"label":"GeoNames, gazetteer record geonames:7299547"}]},{"type":"Point","coordinates":[-0.5171165236727643,52.56567548323055],"citations":[{"label":"Unlock (EDINA) gazetteer, gazetteer record unlock:11186805"}]},{"type":"Point","coordinates":[-0.518708,52.5661],"citations":[{"label":"Key to English Place-Names (KEPN), gazetteer record 11136"}]}]},"links":[{"type":"closeMatch","identifier":"https://sws.geonames.org/7299547/"}],"relations":[{"relationType":"gvp:broaderPartitive","relationTo":"https://w3id.org/whg-epns/10/005719","label":"within Willybrook Hundred"}]}]}