{"@context":"https://raw.githubusercontent.com/LinkedPasts/linked-places-format/main/linkedplaces-context-v1.1.jsonld","type":"FeatureCollection","license":"Digitisation of English Placenames MADS data is licensed to Jisc by the English Place Names Society and released under a Creative Commons Attribution-NonCommercial 4.0 International License.","note":"LPF v1.3, lossy; derived from the PLATO record; plato_commit=fa0d247ccc0263f8f19c8d7cdcd163df96935d1e","features":[{"@id":"https://w3id.org/whg-epns/10/006501","type":"Feature","properties":{"title":"Peterborough","ccodes":["GB"],"fclasses":["A","P"]},"names":[{"toponym":"Peterborough","lang":"en","citations":[{"label":"English Place-Name Society survey, volume 10: Northamptonshire"}]},{"toponym":"Burg","citations":[{"label":"1086 DB","year":1086}],"when":{"timespans":[{"start":{"in":"1086"},"end":{"in":"1086"}}]}},{"toponym":"Burh","citations":[{"label":"c. 1115 Dugd","year":1105}],"when":{"timespans":[{"start":{"earliest":"1105","latest":"1125"},"end":{"earliest":"1105","latest":"1125"}}]}},{"toponym":"Burc","citations":[{"label":"1155 P","year":1155}],"when":{"timespans":[{"start":{"in":"1155"},"end":{"in":"1155"}}]}},{"toponym":"Burch","citations":[{"label":"1167 P","year":1167}],"when":{"timespans":[{"start":{"in":"1167"},"end":{"in":"1167"}}]}},{"toponym":"Medeshamstede qui modo Burg dicitur","citations":[{"label":"12th Ord","year":1100}],"when":{"timespans":[{"start":{"earliest":"1100","latest":"1200"},"end":{"earliest":"1100","latest":"1200"}}]}},{"toponym":"Petreburgh","citations":[{"label":"1333 Cl","year":1333},{"label":"1385 Pat","year":1385}],"when":{"timespans":[{"start":{"in":"1333"},"end":{"in":"1333"}},{"start":{"in":"1385"},"end":{"in":"1385"}}]}},{"toponym":"Peterburgh","citations":[{"label":"1397 Cl","year":1397}],"when":{"timespans":[{"start":{"in":"1397"},"end":{"in":"1397"}}]}},{"toponym":"Petirburgh","citations":[{"label":"1401 Cl","year":1401}],"when":{"timespans":[{"start":{"in":"1401"},"end":{"in":"1401"}}]}},{"toponym":"Borowe Seynt Per'","citations":[{"label":"1378 AD","year":1378}],"when":{"timespans":[{"start":{"in":"1378"},"end":{"in":"1378"}}]}},{"toponym":"Borough Seynt Peter","citations":[{"label":"1571 AD","year":1571}],"when":{"timespans":[{"start":{"in":"1571"},"end":{"in":"1571"}}]}},{"toponym":"Petreborow","citations":[{"label":"1512 LP","year":1512}],"when":{"timespans":[{"start":{"in":"1512"},"end":{"in":"1512"}}]}},{"toponym":"Peterborough al. Borough Saynt Peter","citations":[{"label":"1588 Recov","year":1588}],"when":{"timespans":[{"start":{"in":"1588"},"end":{"in":"1588"}}]}},{"toponym":"Peeterborrow","citations":[{"label":"1657 NRS","year":1657}],"when":{"timespans":[{"start":{"in":"1657"},"end":{"in":"1657"}}]}}],"types":[{"identifier":"http://vocab.getty.edu/aat/300232418","label":"administrative division","sourceLabels":[{"label":"township","lang":"en"}]}],"geometry":{"type":"GeometryCollection","geometries":[{"type":"Point","coordinates":[-0.24777,52.57364],"citations":[{"label":"GeoNames, gazetteer record geonames:2640354"}]},{"type":"Point","coordinates":[-0.236182064319284,52.57980695125243],"citations":[{"label":"Unlock (EDINA) gazetteer, gazetteer record unlock:11244560"}]},{"type":"Point","coordinates":[-0.237807,52.5802],"citations":[{"label":"Key to English Place-Names (KEPN), gazetteer record 11165"}]}]},"when":{"timespans":[{"start":{"in":"1086"},"end":{"in":"1657"}}]},"links":[{"type":"closeMatch","identifier":"https://sws.geonames.org/2640354/"}],"relations":[{"relationType":"gvp:broaderPartitive","relationTo":"https://w3id.org/whg-epns/10/006500","label":"within Peterborough"}]}]}