{"@context":"https://raw.githubusercontent.com/LinkedPasts/linked-places-format/main/linkedplaces-context-v1.1.jsonld","type":"FeatureCollection","license":"Digitisation of English Placenames MADS data is licensed to Jisc by the English Place Names Society and released under a Creative Commons Attribution-NonCommercial 4.0 International License.","note":"LPF v1.3, lossy; derived from the PLATO record; plato_commit=ca0afadabec1e23a145c0b03df77e8f151f79832","features":[{"@id":"https://w3id.org/whg-epns/10/006886","type":"Feature","properties":{"title":"Marholm","ccodes":["GB"],"fclasses":["A","P"]},"names":[{"toponym":"Marholm","lang":"en","citations":[{"label":"English Place-Name Society survey, volume 10: Northamptonshire"}]},{"toponym":"Marham","citations":[{"label":"1052–1525, recurring Ramsey","year":1052},{"label":"1052–1525, recurring AD"},{"label":"1052-65 Ramsey","year":1052},{"label":"1525 AD","year":1525}],"when":{"timespans":[{"start":{"in":"1052"},"end":{"in":"1525"}},{"start":{"earliest":"1052","latest":"1065"},"end":{"earliest":"1052","latest":"1065"}},{"start":{"in":"1525"},"end":{"in":"1525"}}]}},{"toponym":"Marhamwode, Marhamhirne","citations":[{"label":"1398 Rental","year":1398}],"when":{"timespans":[{"start":{"in":"1398"},"end":{"in":"1398"}}]}},{"toponym":"Marreham","citations":[{"label":"1166 P (CR)","year":1166}],"when":{"timespans":[{"start":{"in":"1166"},"end":{"in":"1166"}}]}},{"toponym":"Marram","citations":[{"label":"1428 FA","year":1428}],"when":{"timespans":[{"start":{"in":"1428"},"end":{"in":"1428"}}]}},{"toponym":"Marenham","citations":[{"label":"1236 WellsR","year":1236}],"when":{"timespans":[{"start":{"in":"1236"},"end":{"in":"1236"}}]}},{"toponym":"Morham","citations":[{"label":"1308 Cl","year":1308}],"when":{"timespans":[{"start":{"in":"1308"},"end":{"in":"1308"}}]}},{"toponym":"Marome","citations":[{"label":"1526 SR","year":1526}],"when":{"timespans":[{"start":{"in":"1526"},"end":{"in":"1526"}}]}},{"toponym":"Marholme","citations":[{"label":"1739 Recov","year":1739}],"when":{"timespans":[{"start":{"in":"1739"},"end":{"in":"1739"}}]}}],"types":[{"identifier":"http://vocab.getty.edu/aat/300232418","label":"administrative division","sourceLabels":[{"label":"township","lang":"en"}]}],"geometry":{"type":"GeometryCollection","geometries":[{"type":"Point","coordinates":[-0.30824,52.60469],"citations":[{"label":"GeoNames, gazetteer record geonames:2643039"}]},{"type":"Point","coordinates":[-0.3089082970518468,52.6078436589389],"citations":[{"label":"Unlock (EDINA) gazetteer, gazetteer record unlock:11213664"}]},{"type":"Point","coordinates":[-0.310526,52.6082],"citations":[{"label":"Key to English Place-Names (KEPN), gazetteer record 11177"}]}]},"when":{"timespans":[{"start":{"in":"1052"},"end":{"in":"1739"}}]},"links":[{"type":"closeMatch","identifier":"https://sws.geonames.org/2643039/"}],"relations":[{"relationType":"gvp:broaderPartitive","relationTo":"https://w3id.org/whg-epns/10/006885","label":"within Marholm"}]}]}