{"@context":"https://raw.githubusercontent.com/LinkedPasts/linked-places-format/main/linkedplaces-context-v1.1.jsonld","type":"FeatureCollection","license":"Digitisation of English Placenames MADS data is licensed to Jisc by the English Place Names Society and released under a Creative Commons Attribution-NonCommercial 4.0 International License.","note":"LPF v1.3, lossy; derived from the PLATO record; plato_commit=fa0d247ccc0263f8f19c8d7cdcd163df96935d1e","features":[{"@id":"https://w3id.org/whg-epns/10/007173","type":"Feature","properties":{"title":"Werrington","ccodes":["GB"],"fclasses":["A","P"]},"names":[{"toponym":"Werrington","lang":"en","citations":[{"label":"English Place-Name Society survey, volume 10: Northamptonshire"}]},{"toponym":"Witheringtun, Wiðringtun","citations":[{"label":"972 BCS","year":972}],"when":{"timespans":[{"start":{"in":"0972"},"end":{"in":"0972"}}]}},{"toponym":"Witherington","citations":[{"label":"1202 Ass","year":1202},{"label":"1284 FA","year":1284}],"when":{"timespans":[{"start":{"in":"1202"},"end":{"in":"1202"}},{"start":{"in":"1284"},"end":{"in":"1284"}}]}},{"toponym":"Witheringtune","citations":[{"label":"c. 1250 Swaffham","year":1240}],"when":{"timespans":[{"start":{"earliest":"1240","latest":"1260"},"end":{"earliest":"1240","latest":"1260"}}]}},{"toponym":"Wytherington","citations":[{"label":"13th AD","year":1200}],"when":{"timespans":[{"start":{"earliest":"1200","latest":"1300"},"end":{"earliest":"1200","latest":"1300"}}]}},{"toponym":"Widerinton(e)","citations":[{"label":"1086 DB","year":1086},{"label":"1178 P","year":1178},{"label":"1189 Ch","year":1189},{"label":"1227 Ch","year":1227}],"when":{"timespans":[{"start":{"in":"1086"},"end":{"in":"1086"}},{"start":{"in":"1178"},"end":{"in":"1178"}},{"start":{"in":"1189"},"end":{"in":"1189"}},{"start":{"in":"1227"},"end":{"in":"1227"}}]}},{"toponym":"Wide Rīton","citations":[{"label":"t. Ric 1 Cur","year":1189}],"when":{"timespans":[{"start":{"earliest":"1189","latest":"1199"},"end":{"earliest":"1189","latest":"1199"}}]}},{"toponym":"Widerington","citations":[{"label":"1227 Ch","year":1227}],"when":{"timespans":[{"start":{"in":"1227"},"end":{"in":"1227"}}]}},{"toponym":"Wirrintona","citations":[{"label":"1125-8 ChronPetro","year":1125}],"when":{"timespans":[{"start":{"earliest":"1125","latest":"1128"},"end":{"earliest":"1125","latest":"1128"}}]}},{"toponym":"Wirrington","citations":[{"label":"1712 Morton","year":1712}],"when":{"timespans":[{"start":{"in":"1712"},"end":{"in":"1712"}}]}},{"toponym":"Wiðerinton","citations":[{"label":"1162 P","year":1162}],"when":{"timespans":[{"start":{"in":"1162"},"end":{"in":"1162"}}]}},{"toponym":"Witherinton","citations":[{"label":"1199 FF","year":1199},{"label":"1209 FF","year":1209}],"when":{"timespans":[{"start":{"in":"1199"},"end":{"in":"1199"}},{"start":{"in":"1209"},"end":{"in":"1209"}}]}},{"toponym":"Wit(e)rinto","citations":[{"label":"1166 P","year":1166}],"when":{"timespans":[{"start":{"in":"1166"},"end":{"in":"1166"}}]}},{"toponym":"Wittirinton","citations":[{"label":"1199 FF","year":1199}],"when":{"timespans":[{"start":{"in":"1199"},"end":{"in":"1199"}}]}},{"toponym":"Widringeton","citations":[{"label":"1198 Cur","year":1198}],"when":{"timespans":[{"start":{"in":"1198"},"end":{"in":"1198"}}]}},{"toponym":"Weteryngton","citations":[{"label":"1285 Ass","year":1285}],"when":{"timespans":[{"start":{"in":"1285"},"end":{"in":"1285"}}]}},{"toponym":"Weryngton","citations":[{"label":"1428 FA","year":1428},{"label":"1525 AD","year":1525}],"when":{"timespans":[{"start":{"in":"1428"},"end":{"in":"1428"}},{"start":{"in":"1525"},"end":{"in":"1525"}}]}},{"toponym":"Wyrryngton al. Wytheryngton","citations":[{"label":"1563 Recov","year":1563}],"when":{"timespans":[{"start":{"in":"1563"},"end":{"in":"1563"}}]}}],"types":[{"identifier":"http://vocab.getty.edu/aat/300232418","label":"administrative division","sourceLabels":[{"label":"township","lang":"en"}]}],"geometry":{"type":"GeometryCollection","geometries":[{"type":"Point","coordinates":[-0.27234,52.61405],"citations":[{"label":"GeoNames, gazetteer record geonames:2634520"}]},{"type":"Point","coordinates":[-0.2790315395937345,52.61640512912676],"citations":[{"label":"Unlock (EDINA) gazetteer, gazetteer record unlock:11316247"}]},{"type":"Point","coordinates":[-0.280653,52.6168],"citations":[{"label":"Key to English Place-Names (KEPN), gazetteer record 11191"}]}]},"when":{"timespans":[{"start":{"in":"0972"},"end":{"in":"1712"}}]},"links":[{"type":"closeMatch","identifier":"https://sws.geonames.org/2634520/"}],"relations":[{"relationType":"gvp:broaderPartitive","relationTo":"https://w3id.org/whg-epns/10/007172","label":"within Werrington"}]}]}