{"@context":"https://raw.githubusercontent.com/LinkedPasts/linked-places-format/main/linkedplaces-context-v1.1.jsonld","type":"FeatureCollection","license":"Digitisation of English Placenames MADS data is licensed to Jisc by the English Place Names Society and released under a Creative Commons Attribution-NonCommercial 4.0 International License.","note":"LPF v1.3, lossy; derived from the PLATO record; plato_commit=ca0afadabec1e23a145c0b03df77e8f151f79832","features":[{"@id":"https://w3id.org/whg-epns/35/002093","type":"Feature","properties":{"title":"Carleton","ccodes":["GB"],"fclasses":["A","P"]},"names":[{"toponym":"Carleton","lang":"en","citations":[{"label":"English Place-Name Society survey, volume 35: West Riding of Yorkshire"}]},{"toponym":"Carlentone","citations":[{"label":"1086 DB","year":1086}],"when":{"timespans":[{"start":{"in":"1086"},"end":{"in":"1086"}}]}},{"toponym":"Carleton(e), Karleton(e)","citations":[{"label":"1119-47 Dugd","year":1119},{"label":"1120-35 YCh","year":1120},{"label":"1184–1441, recurring BM","year":1184},{"label":"1184–1441, recurring DiocV"},{"label":"1184 BM","year":1184},{"label":"1441 DiocV","year":1441}],"when":{"timespans":[{"start":{"earliest":"1119","latest":"1147"},"end":{"earliest":"1119","latest":"1147"}},{"start":{"earliest":"1120","latest":"1135"},"end":{"earliest":"1120","latest":"1135"}},{"start":{"earliest":"1135","latest":"1140"},"end":{"earliest":"1135","latest":"1140"}},{"start":{"in":"1184"},"end":{"in":"1184"}},{"start":{"in":"1184"},"end":{"in":"1441"}},{"start":{"in":"1184"},"end":{"in":"1184"}},{"start":{"in":"1441"},"end":{"in":"1441"}}]}},{"toponym":"Karleton(e) in Craven(e)","citations":[{"label":"1292 Ebor","year":1292},{"label":"1304–1399, recurring YI","year":1304},{"label":"1304–1399, recurring WillY"},{"label":"1304 YI","year":1304},{"label":"1399 WillY","year":1399}],"when":{"timespans":[{"start":{"in":"1292"},"end":{"in":"1292"}},{"start":{"in":"1304"},"end":{"in":"1399"}},{"start":{"in":"1304"},"end":{"in":"1304"}},{"start":{"in":"1399"},"end":{"in":"1399"}}]}},{"toponym":"Carlton","citations":[{"label":"1120 Dugd","year":1120}],"when":{"timespans":[{"start":{"in":"1120"},"end":{"in":"1120"}}]}},{"toponym":"Carlton in Craven","citations":[{"label":"1459 Calv","year":1459}],"when":{"timespans":[{"start":{"in":"1459"},"end":{"in":"1459"}}]}}],"types":[{"identifier":"http://vocab.getty.edu/aat/300232418","label":"administrative division","sourceLabels":[{"label":"township","lang":"en"}]}],"geometry":{"type":"GeometryCollection","geometries":[{"type":"Point","coordinates":[-2.05,53.93333],"citations":[{"label":"GeoNames, gazetteer record geonames:2653780"}]},{"type":"Point","coordinates":[-2.060936327,53.93690415],"citations":[{"label":"English Place-Name Society survey (DEEP coordinates)"}]},{"type":"Point","coordinates":[-2.068560751473226,53.94139578791683],"citations":[{"label":"Unlock (EDINA) gazetteer, gazetteer record unlock:11098456"}]},{"type":"Point","coordinates":[-2.03956,53.9416],"citations":[{"label":"Key to English Place-Names (KEPN), gazetteer record 14852"}]}]},"when":{"timespans":[{"start":{"in":"1086"},"end":{"in":"1459"}}]},"links":[{"type":"closeMatch","identifier":"https://sws.geonames.org/2653780/"}],"relations":[{"relationType":"gvp:broaderPartitive","relationTo":"https://w3id.org/whg-epns/35/002092","label":"within Carleton"}]}]}