{"@context":"https://raw.githubusercontent.com/LinkedPasts/linked-places-format/main/linkedplaces-context-v1.1.jsonld","type":"FeatureCollection","license":"Digitisation of English Placenames MADS data is licensed to Jisc by the English Place Names Society and released under a Creative Commons Attribution-NonCommercial 4.0 International License.","note":"LPF v1.3, lossy; derived from the PLATO record; plato_commit=ca0afadabec1e23a145c0b03df77e8f151f79832","features":[{"@id":"http://placenames.org.uk/id/placename/35/003886","type":"Feature","properties":{"title":"Addingham","ccodes":["GB"],"fclasses":["A","P"]},"names":[{"toponym":"Addingham","lang":"en","citations":[{"label":"English Place-Name Society survey, volume 35: West Riding of Yorkshire"}]}],"types":[{"identifier":"http://vocab.getty.edu/aat/300232418","label":"administrative division","sourceLabels":[{"label":"parish","lang":"en"}]}],"geometry":{"type":"GeometryCollection","geometries":[{"type":"Point","coordinates":[-1.89503,53.93731],"citations":[{"label":"GeoNames, gazetteer record geonames:7300548"}]},{"type":"Point","coordinates":[-1.893361496,53.93687228],"citations":[{"label":"English Place-Name Society survey (DEEP coordinates)"}]},{"type":"Point","coordinates":[-1.885732161079175,53.94136100637991],"citations":[{"label":"Unlock (EDINA) gazetteer, gazetteer record unlock:11056604"}]},{"type":"Point","coordinates":[-1.88722,53.9416],"citations":[{"label":"Key to English Place-Names (KEPN), gazetteer record 14868"}]}]},"links":[{"type":"closeMatch","identifier":"https://sws.geonames.org/7300548/"}],"relations":[{"relationType":"gvp:broaderPartitive","relationTo":"http://placenames.org.uk/id/placename/35/000002","label":"within East Staincliffe Wapentake"}]}]}