{"@context":"https://raw.githubusercontent.com/LinkedPasts/linked-places-format/main/linkedplaces-context-v1.1.jsonld","type":"FeatureCollection","license":"Digitisation of English Placenames MADS data is licensed to Jisc by the English Place Names Society and released under a Creative Commons Attribution-NonCommercial 4.0 International License.","note":"LPF v1.3, lossy; derived from the PLATO record; plato_commit=fa0d247ccc0263f8f19c8d7cdcd163df96935d1e","features":[{"@id":"https://w3id.org/whg-epns/35/007460","type":"Feature","properties":{"title":"Ribblesdale","ccodes":["GB"],"fclasses":["A"]},"names":[{"toponym":"Ribblesdale","lang":"en","citations":[{"label":"English Place-Name Society survey, volume 35: West Riding of Yorkshire"}]},{"toponym":"Riblesdale","citations":[{"label":"1198 Fount","year":1198},{"label":"1258 Percy","year":1258},{"label":"1462 Pat","year":1462}],"when":{"timespans":[{"start":{"in":"1198"},"end":{"in":"1198"}},{"start":{"in":"1258"},"end":{"in":"1258"}},{"start":{"in":"1462"},"end":{"in":"1462"}}]}},{"toponym":"Ribbesdale, Rybbesdale","citations":[{"label":"1258 Percy","year":1258},{"label":"1293 QW","year":1293}],"when":{"timespans":[{"start":{"in":"1258"},"end":{"in":"1258"}},{"start":{"in":"1293"},"end":{"in":"1293"}}]}},{"toponym":"Rebilsdale","citations":[{"label":"1417 Pat","year":1417}],"when":{"timespans":[{"start":{"in":"1417"},"end":{"in":"1417"}}]}},{"toponym":"Ribeldesdale","citations":[{"label":"1540 Fount","year":1540}],"when":{"timespans":[{"start":{"in":"1540"},"end":{"in":"1540"}}]}}],"types":[{"identifier":"http://vocab.getty.edu/aat/300232418","label":"administrative division","sourceLabels":[{"label":"local district","lang":"en"}]}],"geometry":null,"when":{"timespans":[{"start":{"in":"1198"},"end":{"in":"1540"}}]},"relations":[{"relationType":"gvp:broaderPartitive","relationTo":"https://w3id.org/whg-epns/35/007459","label":"within West Staincliffe Wapentake"}]}]}