{"@context":"https://raw.githubusercontent.com/LinkedPasts/linked-places-format/main/linkedplaces-context-v1.1.jsonld","type":"FeatureCollection","license":"Digitisation of English Placenames MADS data is licensed to Jisc by the English Place Names Society and released under a Creative Commons Attribution-NonCommercial 4.0 International License.","note":"LPF v1.3, lossy; derived from the PLATO record; plato_commit=ca0afadabec1e23a145c0b03df77e8f151f79832","features":[{"@id":"http://placenames.org.uk/id/placename/35/008137","type":"Feature","properties":{"title":"Litton","ccodes":["GB"],"fclasses":["A","P"]},"names":[{"toponym":"Litton","lang":"en","citations":[{"label":"English Place-Name Society survey, volume 35: West Riding of Yorkshire"}]},{"toponym":"Litone","citations":[{"label":"1086 DB","year":1086}],"when":{"timespans":[{"start":{"in":"1086"},"end":{"in":"1086"}}]}},{"toponym":"Lituna","citations":[{"label":"1173 YCh","year":1173}],"when":{"timespans":[{"start":{"in":"1173"},"end":{"in":"1173"}}]}},{"toponym":"Lyton","citations":[{"label":"1276 RH","year":1276}],"when":{"timespans":[{"start":{"in":"1276"},"end":{"in":"1276"}}]}},{"toponym":"Lictona","citations":[{"label":"1182-5 YCh","year":1182}],"when":{"timespans":[{"start":{"earliest":"1182","latest":"1185"},"end":{"earliest":"1182","latest":"1185"}}]}},{"toponym":"Litton(a), Lytton(a), Lyttun(a)","citations":[{"label":"12 Font","year":1100},{"label":"c. 1150 Sawl","year":1140},{"label":"Hy 2 Ch","year":1154},{"label":"1156 YCh","year":1156},{"label":"1176–1671, recurring Percy","year":1176},{"label":"1176–1671, recurring PRArn"},{"label":"1176 Percy","year":1176},{"label":"1671 PRArn","year":1671}],"when":{"timespans":[{"start":{"earliest":"1100","latest":"1200"},"end":{"earliest":"1100","latest":"1200"}},{"start":{"earliest":"1140","latest":"1160"},"end":{"earliest":"1140","latest":"1160"}},{"start":{"earliest":"1154","latest":"1189"},"end":{"earliest":"1154","latest":"1189"}},{"start":{"in":"1156"},"end":{"in":"1156"}},{"start":{"in":"1176"},"end":{"in":"1671"}},{"start":{"in":"1176"},"end":{"in":"1176"}},{"start":{"in":"1671"},"end":{"in":"1671"}}]}},{"toponym":"Lyttun(a) in Craven","citations":[{"label":"1239 Ch","year":1239},{"label":"c. 1270 Font","year":1260},{"label":"1632 WRC","year":1632}],"when":{"timespans":[{"start":{"in":"1239"},"end":{"in":"1239"}},{"start":{"earliest":"1260","latest":"1280"},"end":{"earliest":"1260","latest":"1280"}},{"start":{"in":"1632"},"end":{"in":"1632"}}]}}],"types":[{"identifier":"http://vocab.getty.edu/aat/300232418","label":"administrative division","sourceLabels":[{"label":"township","lang":"en"}]}],"geometry":{"type":"GeometryCollection","geometries":[{"type":"Point","coordinates":[-2.14905,54.16605],"citations":[{"label":"GeoNames, gazetteer record geonames:7291822"}]},{"type":"Point","coordinates":[-2.153164743,54.16153811],"citations":[{"label":"English Place-Name Society survey (DEEP coordinates)"}]},{"type":"Point","coordinates":[-2.14552234680496,54.16604323087079],"citations":[{"label":"Unlock (EDINA) gazetteer, gazetteer record unlock:11197430"}]},{"type":"Point","coordinates":[-2.14699,54.1662],"citations":[{"label":"Key to English Place-Names (KEPN), gazetteer record 14893"}]}]},"when":{"timespans":[{"start":{"in":"1086"},"end":{"in":"1671"}}]},"links":[{"type":"closeMatch","identifier":"https://sws.geonames.org/7291822/"}],"relations":[{"relationType":"gvp:broaderPartitive","relationTo":"http://placenames.org.uk/id/placename/35/007478","label":"within Arncliffe"}]}]}