{"@context":"https://raw.githubusercontent.com/LinkedPasts/linked-places-format/main/linkedplaces-context-v1.1.jsonld","type":"FeatureCollection","license":"Digitisation of English Placenames MADS data is licensed to Jisc by the English Place Names Society and released under a Creative Commons Attribution-NonCommercial 4.0 International License.","note":"LPF v1.3, lossy; derived from the PLATO record; plato_commit=ca0afadabec1e23a145c0b03df77e8f151f79832","features":[{"@id":"https://w3id.org/whg-epns/35/008440","type":"Feature","properties":{"title":"Hanlith","ccodes":["GB"],"fclasses":["A","P"]},"names":[{"toponym":"Hanlith","lang":"en","citations":[{"label":"English Place-Name Society survey, volume 35: West Riding of Yorkshire"}]},{"toponym":"Hangelif","citations":[{"label":"1086 DB","year":1086}],"when":{"timespans":[{"start":{"in":"1086"},"end":{"in":"1086"}}]}},{"toponym":"Haghnelit","citations":[{"label":"12 Font","year":1100}],"when":{"timespans":[{"start":{"earliest":"1100","latest":"1200"},"end":{"earliest":"1100","latest":"1200"}}]}},{"toponym":"Hahenelid","citations":[{"label":"1218 FF","year":1218},{"label":"1219 Font","year":1219}],"when":{"timespans":[{"start":{"in":"1218"},"end":{"in":"1218"}},{"start":{"in":"1219"},"end":{"in":"1219"}}]}},{"toponym":"Hahgenlid","citations":[{"label":"12 Font","year":1100}],"when":{"timespans":[{"start":{"earliest":"1100","latest":"1200"},"end":{"earliest":"1100","latest":"1200"}}]}},{"toponym":"Haghenlith, Haghenlythe","citations":[{"label":"13 YD","year":1200},{"label":"1316 Vill","year":1316},{"label":"1344 YD","year":1344}],"when":{"timespans":[{"start":{"earliest":"1200","latest":"1300"},"end":{"earliest":"1200","latest":"1300"}},{"start":{"in":"1316"},"end":{"in":"1316"}},{"start":{"in":"1344"},"end":{"in":"1344"}},{"start":{"in":"1349"},"end":{"in":"1349"}}]}},{"toponym":"Haghenlythe in Craven","citations":[{"label":"1349 YD","year":1349}],"when":{"timespans":[{"start":{"in":"1349"},"end":{"in":"1349"}}]}},{"toponym":"Haghenlath, Heghenlath","citations":[{"label":"1382 YD","year":1382}],"when":{"timespans":[{"start":{"in":"1382"},"end":{"in":"1382"}}]}},{"toponym":"Hagnlith","citations":[{"label":"1198 Fount","year":1198}],"when":{"timespans":[{"start":{"in":"1198"},"end":{"in":"1198"}}]}},{"toponym":"Hagnleth","citations":[{"label":"1360 FountPres","year":1360}],"when":{"timespans":[{"start":{"in":"1360"},"end":{"in":"1360"}},{"start":{"in":"1471"},"end":{"in":"1471"}}]}},{"toponym":"Hagenlit","citations":[{"label":"1293 YI","year":1293}],"when":{"timespans":[{"start":{"in":"1293"},"end":{"in":"1293"}}]}},{"toponym":"Hagenlith, Hagenlyth","citations":[{"label":"1348 YD","year":1348}],"when":{"timespans":[{"start":{"in":"1348"},"end":{"in":"1348"}},{"start":{"in":"1349"},"end":{"in":"1349"}}]}},{"toponym":"Haggenlith","citations":[{"label":"1361 YD","year":1361}],"when":{"timespans":[{"start":{"in":"1361"},"end":{"in":"1361"}}]}},{"toponym":"Hevenlyth","citations":[{"label":"1285 KI","year":1285}],"when":{"timespans":[{"start":{"in":"1285"},"end":{"in":"1285"}}]}},{"toponym":"Hahmlith","citations":[{"label":"1303 KF","year":1303}],"when":{"timespans":[{"start":{"in":"1303"},"end":{"in":"1303"}}]}},{"toponym":"Haun(e)lith, Hawn(e)lith, Hawn(e)lyth","citations":[{"label":"1260 YI","year":1260},{"label":"1373 YD","year":1373}],"when":{"timespans":[{"start":{"in":"1260"},"end":{"in":"1260"}},{"start":{"in":"1373"},"end":{"in":"1373"}}]}},{"toponym":"Hawn(e)leth(e)","citations":[{"label":"1471 FountPres","year":1471},{"label":"1524 Test","year":1524}],"when":{"timespans":[{"start":{"in":"1471"},"end":{"in":"1471"}},{"start":{"in":"1524"},"end":{"in":"1524"}}]}},{"toponym":"Haghelyth","citations":[{"label":"1349 YD","year":1349}],"when":{"timespans":[{"start":{"in":"1349"},"end":{"in":"1349"}}]}},{"toponym":"Hannlith","citations":[{"label":"1407 YI","year":1407},{"label":"1621 FF","year":1621}],"when":{"timespans":[{"start":{"in":"1407"},"end":{"in":"1407"}},{"start":{"in":"1621"},"end":{"in":"1621"}}]}},{"toponym":"Hanleth","citations":[{"label":"1544 FF","year":1544},{"label":"1641 Rates","year":1641}],"when":{"timespans":[{"start":{"in":"1544"},"end":{"in":"1544"}},{"start":{"in":"1606"},"end":{"in":"1606"}},{"start":{"in":"1641"},"end":{"in":"1641"}}]}},{"toponym":"Hanlieth","citations":[{"label":"1607 FF","year":1607},{"label":"1674 Comm","year":1674}],"when":{"timespans":[{"start":{"in":"1607"},"end":{"in":"1607"}},{"start":{"in":"1674"},"end":{"in":"1674"}}]}},{"toponym":"Hanleyth","citations":[{"label":"1632 PRMl","year":1632}],"when":{"timespans":[{"start":{"in":"1632"},"end":{"in":"1632"}}]}},{"toponym":"Hanliss","citations":[{"label":"1719 WYD","year":1719}],"when":{"timespans":[{"start":{"in":"1719"},"end":{"in":"1719"}}]}},{"toponym":"Hanlith","citations":[{"label":"1796 PRAdd","year":1796}],"when":{"timespans":[{"start":{"in":"1796"},"end":{"in":"1796"}}]}},{"toponym":"Handleth(e)","citations":[{"label":"1573 WillY","year":1573},{"label":"1597 PRMl","year":1597}],"when":{"timespans":[{"start":{"in":"1573"},"end":{"in":"1573"}},{"start":{"in":"1588"},"end":{"in":"1588"}},{"start":{"in":"1597"},"end":{"in":"1597"}}]}},{"toponym":"Hawndlythe","citations":[{"label":"1592 FF","year":1592}],"when":{"timespans":[{"start":{"in":"1592"},"end":{"in":"1592"}}]}}],"types":[{"identifier":"http://vocab.getty.edu/aat/300232418","label":"administrative division","sourceLabels":[{"label":"township","lang":"en"}]}],"geometry":{"type":"GeometryCollection","geometries":[{"type":"Point","coordinates":[-2.13624,54.04976],"citations":[{"label":"GeoNames, gazetteer record geonames:7291818"}]},{"type":"Point","coordinates":[-2.15273477,54.04468731],"citations":[{"label":"English Place-Name Society survey (DEEP coordinates)"}]},{"type":"Point","coordinates":[-2.145113760454561,54.04919244418577],"citations":[{"label":"Unlock (EDINA) gazetteer, gazetteer record unlock:11165404"}]},{"type":"Point","coordinates":[-2.14657,54.0494],"citations":[{"label":"Key to English Place-Names (KEPN), gazetteer record 14897"}]}]},"when":{"timespans":[{"start":{"in":"1086"},"end":{"in":"1796"}}]},"links":[{"type":"closeMatch","identifier":"https://sws.geonames.org/7291818/"}],"relations":[{"relationType":"gvp:broaderPartitive","relationTo":"https://w3id.org/whg-epns/35/008277","label":"within Kirkby Malham"}]}]}