{"@context":"https://raw.githubusercontent.com/LinkedPasts/linked-places-format/main/linkedplaces-context-v1.1.jsonld","type":"FeatureCollection","license":"Digitisation of English Placenames MADS data is licensed to Jisc by the English Place Names Society and released under a Creative Commons Attribution-NonCommercial 4.0 International License.","note":"LPF v1.3, lossy; derived from the PLATO record; plato_commit=ca0afadabec1e23a145c0b03df77e8f151f79832","features":[{"@id":"http://placenames.org.uk/id/placename/35/012324","type":"Feature","properties":{"title":"Bashall Eaves","ccodes":["GB"],"fclasses":["A","P"]},"names":[{"toponym":"Bashall Eaves","lang":"en","citations":[{"label":"English Place-Name Society survey, volume 35: West Riding of Yorkshire"}]},{"toponym":"Bacschelf","citations":[{"label":"1086 DB","year":1086},{"label":"1251 Ch","year":1251}],"when":{"timespans":[{"start":{"in":"1086"},"end":{"in":"1086"}},{"start":{"in":"1251"},"end":{"in":"1251"}}]}},{"toponym":"Bacs(c)holf(e)","citations":[{"label":"12 YD","year":1100},{"label":"1304 Ch","year":1304},{"label":"1328 Banco","year":1328},{"label":"1343 MinAcct","year":1343}],"when":{"timespans":[{"start":{"earliest":"1100","latest":"1200"},"end":{"earliest":"1100","latest":"1200"}},{"start":{"in":"1304"},"end":{"in":"1304"}},{"start":{"in":"1328"},"end":{"in":"1328"}},{"start":{"in":"1343"},"end":{"in":"1343"}}]}},{"toponym":"Bacsol(f)","citations":[{"label":"1212-19 Puds","year":1212}],"when":{"timespans":[{"start":{"earliest":"1212","latest":"1219"},"end":{"earliest":"1212","latest":"1219"}}]}},{"toponym":"Bacsolve","citations":[{"label":"1285 KI","year":1285}],"when":{"timespans":[{"start":{"in":"1285"},"end":{"in":"1285"}}]}},{"toponym":"Bakescolf","citations":[{"label":"1316 Vill","year":1316}],"when":{"timespans":[{"start":{"in":"1316"},"end":{"in":"1316"}}]}},{"toponym":"Bacshulf","citations":[{"label":"1206-35 Cockers","year":1206}],"when":{"timespans":[{"start":{"earliest":"1206","latest":"1235"},"end":{"earliest":"1206","latest":"1235"}}]}},{"toponym":"Bacskalf","citations":[{"label":"1276 RH","year":1276}],"when":{"timespans":[{"start":{"in":"1276"},"end":{"in":"1276"}}]}},{"toponym":"Baschell","citations":[{"label":"1250 DodsN","year":1250}],"when":{"timespans":[{"start":{"in":"1250"},"end":{"in":"1250"}}]}},{"toponym":"Basscholf","citations":[{"label":"l. 14 Kirkst","year":1375}],"when":{"timespans":[{"start":{"earliest":"1375","latest":"1400"},"end":{"earliest":"1375","latest":"1400"}}]}},{"toponym":"Bagsholf","citations":[{"label":"1434 Pat","year":1434}],"when":{"timespans":[{"start":{"in":"1434"},"end":{"in":"1434"}}]}},{"toponym":"Bax(h)all","citations":[{"label":"1516 Ch","year":1516},{"label":"1566 FF","year":1566}],"when":{"timespans":[{"start":{"in":"1516"},"end":{"in":"1516"}},{"start":{"in":"1566"},"end":{"in":"1566"}}]}},{"toponym":"Bas(s)hall","citations":[{"label":"1562 FF","year":1562},{"label":"1587–1641, recurring WillY","year":1587},{"label":"1587–1641, recurring Rates"},{"label":"1587 WillY","year":1587},{"label":"1641 Rates","year":1641}],"when":{"timespans":[{"start":{"in":"1562"},"end":{"in":"1562"}},{"start":{"in":"1590"},"end":{"in":"1590"}},{"start":{"in":"1587"},"end":{"in":"1641"}},{"start":{"in":"1587"},"end":{"in":"1587"}},{"start":{"in":"1641"},"end":{"in":"1641"}}]}},{"toponym":"Bas(s)hall Eaues","citations":[{"label":"1582 PRGis","year":1582}],"when":{"timespans":[{"start":{"in":"1582"},"end":{"in":"1582"}}]}},{"toponym":"Bas(s)hall Eves","citations":[{"label":"1584 WillY","year":1584},{"label":"1593 FF","year":1593},{"label":"1618 PRWd","year":1618}],"when":{"timespans":[{"start":{"in":"1584"},"end":{"in":"1584"}},{"start":{"in":"1593"},"end":{"in":"1593"}},{"start":{"in":"1618"},"end":{"in":"1618"}}]}},{"toponym":"Bashawe","citations":[{"label":"1591 WillY","year":1591}],"when":{"timespans":[{"start":{"in":"1591"},"end":{"in":"1591"}}]}},{"toponym":"Bashull Eaves","citations":[{"label":"1608 PRBlt","year":1608}],"when":{"timespans":[{"start":{"in":"1608"},"end":{"in":"1608"}}]}}],"types":[{"identifier":"http://vocab.getty.edu/aat/300232418","label":"administrative division","sourceLabels":[{"label":"township","lang":"en"}]}],"geometry":{"type":"GeometryCollection","geometries":[{"type":"Point","coordinates":[-2.46382,53.88544],"citations":[{"label":"GeoNames, gazetteer record geonames:7289683"}]},{"type":"Point","coordinates":[-2.471639847,53.88206006],"citations":[{"label":"English Place-Name Society survey (DEEP coordinates)"}]},{"type":"Point","coordinates":[-2.464082945188183,53.88658532587272],"citations":[{"label":"Unlock (EDINA) gazetteer, gazetteer record unlock:11071391"}]},{"type":"Point","coordinates":[-2.4655,53.8868],"citations":[{"label":"Key to English Place-Names (KEPN), gazetteer record 14923"}]}]},"when":{"timespans":[{"start":{"in":"1086"},"end":{"in":"1641"}}]},"links":[{"type":"closeMatch","identifier":"https://sws.geonames.org/7289683/"}],"relations":[{"relationType":"gvp:broaderPartitive","relationTo":"http://placenames.org.uk/id/placename/35/012323","label":"within Great Mitton"}]}]}