{"@context":"https://raw.githubusercontent.com/LinkedPasts/linked-places-format/main/linkedplaces-context-v1.1.jsonld","type":"FeatureCollection","license":"Digitisation of English Placenames MADS data is licensed to Jisc by the English Place Names Society and released under a Creative Commons Attribution-NonCommercial 4.0 International License.","note":"LPF v1.3, lossy; derived from the PLATO record; plato_commit=fa0d247ccc0263f8f19c8d7cdcd163df96935d1e","features":[{"@id":"https://w3id.org/whg-epns/35/012443","type":"Feature","properties":{"title":"West Bradford","ccodes":["GB"],"fclasses":["A","P"]},"names":[{"toponym":"West Bradford","lang":"en","citations":[{"label":"English Place-Name Society survey, volume 35: West Riding of Yorkshire"}]},{"toponym":"Bradeford(e)","citations":[{"label":"1086 DB","year":1086},{"label":"1280 Ass","year":1280},{"label":"KF","year":1303},{"label":"FF"},{"label":"1303 KF","year":1303},{"label":"1348 FF","year":1348}],"when":{"timespans":[{"start":{"in":"1086"},"end":{"in":"1086"}},{"start":{"in":"1280"},"end":{"in":"1280"}},{"start":{"in":"1303"},"end":{"in":"1348"}},{"start":{"in":"1303"},"end":{"in":"1303"}},{"start":{"in":"1348"},"end":{"in":"1348"}}]}},{"toponym":"Bradeford(e) in Bouland","citations":[{"label":"1370 FF","year":1370}],"when":{"timespans":[{"start":{"in":"1370"},"end":{"in":"1370"}}]}},{"toponym":"Braford","citations":[{"label":"1258 YI","year":1258}],"when":{"timespans":[{"start":{"in":"1258"},"end":{"in":"1258"}}]}},{"toponym":"Braford in Bouland","citations":[{"label":"1251 Ch","year":1251}],"when":{"timespans":[{"start":{"in":"1251"},"end":{"in":"1251"}}]}},{"toponym":"Bradford","citations":[{"label":"KI","year":1285},{"label":"YD"},{"label":"1285 KI","year":1285},{"label":"1438 YD","year":1438}],"when":{"timespans":[{"start":{"in":"1285"},"end":{"in":"1438"}},{"start":{"in":"1285"},"end":{"in":"1285"}},{"start":{"in":"1438"},"end":{"in":"1438"}}]}},{"toponym":"Bardford in Bolland","citations":[{"label":"1546 FF","year":1546},{"label":"1565 WillY","year":1565}],"when":{"timespans":[{"start":{"in":"1546"},"end":{"in":"1546"}},{"start":{"in":"1565"},"end":{"in":"1565"}}]}},{"toponym":"West Bradford","citations":[{"label":"1614 FF","year":1614},{"label":"1654 PRWd","year":1654}],"when":{"timespans":[{"start":{"in":"1614"},"end":{"in":"1614"}},{"start":{"in":"1654"},"end":{"in":"1654"}}]}},{"toponym":"Bradforth(e)","citations":[{"label":"Cockers","year":1497},{"label":"Rates"},{"label":"1497 Cockers","year":1497},{"label":"1641 Rates","year":1641}],"when":{"timespans":[{"start":{"in":"1497"},"end":{"in":"1641"}},{"start":{"in":"1497"},"end":{"in":"1497"}},{"start":{"in":"1641"},"end":{"in":"1641"}}]}},{"toponym":"Weste Bradforth(e)","citations":[{"label":"1587 WillY","year":1587}],"when":{"timespans":[{"start":{"in":"1587"},"end":{"in":"1587"}}]}},{"toponym":"Bradforth(e) in Bolland","citations":[{"label":"1605 FF","year":1605}],"when":{"timespans":[{"start":{"in":"1605"},"end":{"in":"1605"}}]}}],"types":[{"identifier":"http://vocab.getty.edu/aat/300232418","label":"administrative division","sourceLabels":[{"label":"township","lang":"en"}]}],"geometry":{"type":"GeometryCollection","geometries":[{"type":"Point","coordinates":[-2.39762,53.91002],"citations":[{"label":"GeoNames, gazetteer record geonames:7295952"}]},{"type":"Point","coordinates":[-2.395655969,53.89132348],"citations":[{"label":"English Place-Name Society survey (DEEP coordinates)"}]},{"type":"Point","coordinates":[-2.38808914995723,53.89584397787605],"citations":[{"label":"Unlock (EDINA) gazetteer, gazetteer record unlock:11316414"}]},{"type":"Point","coordinates":[-2.38951,53.896],"citations":[{"label":"Key to English Place-Names (KEPN), gazetteer record 14924"}]}]},"when":{"timespans":[{"start":{"in":"1086"},"end":{"in":"1654"}}]},"links":[{"type":"closeMatch","identifier":"https://sws.geonames.org/7295952/"}],"relations":[{"relationType":"gvp:broaderPartitive","relationTo":"https://w3id.org/whg-epns/35/012323","label":"within Great Mitton"}]}]}