{"@context":"https://raw.githubusercontent.com/LinkedPasts/linked-places-format/main/linkedplaces-context-v1.1.jsonld","type":"FeatureCollection","license":"Digitisation of English Placenames MADS data is licensed to Jisc by the English Place Names Society and released under a Creative Commons Attribution-NonCommercial 4.0 International License.","note":"LPF v1.3, lossy; derived from the PLATO record; plato_commit=ca0afadabec1e23a145c0b03df77e8f151f79832","features":[{"@id":"http://placenames.org.uk/id/placename/04/000170","type":"Feature","properties":{"title":"Abberley","ccodes":["GB"],"fclasses":["A","P"]},"names":[{"toponym":"Abberley","lang":"en","citations":[{"label":"English Place-Name Society survey, volume 4: Worcestershire"}]}],"types":[{"identifier":"http://vocab.getty.edu/aat/300232418","label":"administrative division","sourceLabels":[{"label":"parish","lang":"en"}]}],"geometry":{"type":"GeometryCollection","geometries":[{"type":"Point","coordinates":[-2.36398,52.30798],"citations":[{"label":"GeoNames, gazetteer record geonames:2657881"}]},{"type":"Point","coordinates":[-2.374027141070442,52.30463685309093],"citations":[{"label":"Unlock (EDINA) gazetteer, gazetteer record unlock:11055050"}]},{"type":"Point","coordinates":[-2.36073,52.3051],"citations":[{"label":"Key to English Place-Names (KEPN), gazetteer record 5180"}]}]},"links":[{"type":"closeMatch","identifier":"https://sws.geonames.org/2657881/"}],"relations":[{"relationType":"gvp:broaderPartitive","relationTo":"http://placenames.org.uk/id/placename/04/000166","label":"within Doddingtree Hundred"}]}]}