{"@context":"https://raw.githubusercontent.com/LinkedPasts/linked-places-format/main/linkedplaces-context-v1.1.jsonld","type":"FeatureCollection","license":"Digitisation of English Placenames MADS data is licensed to Jisc by the English Place Names Society and released under a Creative Commons Attribution-NonCommercial 4.0 International License.","note":"LPF v1.3, lossy; derived from the PLATO record; plato_commit=fa0d247ccc0263f8f19c8d7cdcd163df96935d1e","features":[{"@id":"https://w3id.org/whg-epns/04/000166","type":"Feature","properties":{"title":"Doddingtree Hundred","ccodes":["GB"],"fclasses":["A"]},"names":[{"toponym":"Doddingtree Hundred","lang":"en","citations":[{"label":"English Place-Name Society survey, volume 4: Worcestershire"}]},{"toponym":"Dodintret, Dodintreu, Dodentreu","citations":[{"label":"1086 DB","year":1086}],"when":{"timespans":[{"start":{"in":"1086"},"end":{"in":"1086"}}]}},{"toponym":"Dudintree","citations":[{"label":"c. 1150 Surv","year":1140},{"label":"1175 P","year":1175}],"when":{"timespans":[{"start":{"earliest":"1140","latest":"1160"},"end":{"earliest":"1140","latest":"1160"}},{"start":{"in":"1175"},"end":{"in":"1175"}}]}},{"toponym":"Dodintre","citations":[{"label":"1276 RH","year":1276}],"when":{"timespans":[{"start":{"in":"1276"},"end":{"in":"1276"}}]}}],"types":[{"identifier":"http://vocab.getty.edu/aat/300232418","label":"administrative division","sourceLabels":[{"label":"hundred / wapentake","lang":"en"}]}],"geometry":null,"when":{"timespans":[{"start":{"in":"1086"},"end":{"in":"1276"}}]},"relations":[{"relationType":"gvp:broaderPartitive","relationTo":"https://w3id.org/whg-epns/04/000001","label":"within Worcestershire"}]}]}