{"@context":"https://raw.githubusercontent.com/LinkedPasts/linked-places-format/main/linkedplaces-context-v1.1.jsonld","type":"FeatureCollection","license":"Digitisation of English Placenames MADS data is licensed to Jisc by the English Place Names Society and released under a Creative Commons Attribution-NonCommercial 4.0 International License.","note":"LPF v1.3, lossy; derived from the PLATO record; plato_commit=ca0afadabec1e23a145c0b03df77e8f151f79832","features":[{"@id":"https://w3id.org/whg-epns/04/000447","type":"Feature","properties":{"title":"Clifton-on-Teme","ccodes":["GB"],"fclasses":["A","P"]},"names":[{"toponym":"Clifton-on-Teme","lang":"en","citations":[{"label":"English Place-Name Society survey, volume 4: Worcestershire"}]},{"toponym":"Cliftun ultra Tamedam","citations":[{"label":"934 BCS","year":934}],"when":{"timespans":[{"start":{"in":"0934"},"end":{"in":"0934"}}]}},{"toponym":"Clistune","citations":[{"label":"1086 DB","year":1086}],"when":{"timespans":[{"start":{"in":"1086"},"end":{"in":"1086"}}]}}],"types":[{"identifier":"http://vocab.getty.edu/aat/300232418","label":"administrative division","sourceLabels":[{"label":"township","lang":"en"}]}],"geometry":{"type":"Point","coordinates":[-2.41888,52.2509],"citations":[{"label":"Key to English Place-Names (KEPN), gazetteer record 5188"}]},"when":{"timespans":[{"start":{"in":"0934"},"end":{"in":"1086"}}]},"relations":[{"relationType":"gvp:broaderPartitive","relationTo":"https://w3id.org/whg-epns/04/000446","label":"within Clifton-on-Teme"}]}]}