{"@context":"https://raw.githubusercontent.com/LinkedPasts/linked-places-format/main/linkedplaces-context-v1.1.jsonld","type":"FeatureCollection","license":"Digitisation of English Placenames MADS data is licensed to Jisc by the English Place Names Society and released under a Creative Commons Attribution-NonCommercial 4.0 International License.","note":"LPF v1.3, lossy; derived from the PLATO record; plato_commit=ca0afadabec1e23a145c0b03df77e8f151f79832","features":[{"@id":"http://placenames.org.uk/id/placename/04/000691","type":"Feature","properties":{"title":"Lindridge","ccodes":["GB"],"fclasses":["A","P"]},"names":[{"toponym":"Lindridge","lang":"en","citations":[{"label":"English Place-Name Society survey, volume 4: Worcestershire"}]}],"types":[{"identifier":"http://vocab.getty.edu/aat/300232418","label":"administrative division","sourceLabels":[{"label":"parish","lang":"en"}]}],"geometry":{"type":"GeometryCollection","geometries":[{"type":"Point","coordinates":[-2.47555,52.31653],"citations":[{"label":"GeoNames, gazetteer record geonames:2644475"}]},{"type":"Point","coordinates":[-2.476891040875788,52.32224903462418],"citations":[{"label":"Unlock (EDINA) gazetteer, gazetteer record unlock:11195228"}]},{"type":"Point","coordinates":[-2.47824,52.3226],"citations":[{"label":"Key to English Place-Names (KEPN), gazetteer record 5201"}]}]},"links":[{"type":"closeMatch","identifier":"https://sws.geonames.org/2644475/"}],"relations":[{"relationType":"gvp:broaderPartitive","relationTo":"http://placenames.org.uk/id/placename/04/000166","label":"within Doddingtree Hundred"}]}]}