{"@context":"https://raw.githubusercontent.com/LinkedPasts/linked-places-format/main/linkedplaces-context-v1.1.jsonld","type":"FeatureCollection","license":"Digitisation of English Placenames MADS data is licensed to Jisc by the English Place Names Society and released under a Creative Commons Attribution-NonCommercial 4.0 International License.","note":"LPF v1.3, lossy; derived from the PLATO record; plato_commit=ca0afadabec1e23a145c0b03df77e8f151f79832","features":[{"@id":"https://w3id.org/whg-epns/04/000735","type":"Feature","properties":{"title":"Lulsley","ccodes":["GB"],"fclasses":["A","P"]},"names":[{"toponym":"Lulsley","lang":"en","citations":[{"label":"English Place-Name Society survey, volume 4: Worcestershire"}]}],"types":[{"identifier":"http://vocab.getty.edu/aat/300232418","label":"administrative division","sourceLabels":[{"label":"parish","lang":"en"}]}],"geometry":{"type":"GeometryCollection","geometries":[{"type":"Point","coordinates":[-2.37682,52.19308],"citations":[{"label":"GeoNames, gazetteer record geonames:7297517"}]},{"type":"Point","coordinates":[-2.37312083016162,52.19674283133342],"citations":[{"label":"Unlock (EDINA) gazetteer, gazetteer record unlock:11209548"}]},{"type":"Point","coordinates":[-2.37448,52.1971],"citations":[{"label":"Key to English Place-Names (KEPN), gazetteer record 5203"}]}]},"links":[{"type":"closeMatch","identifier":"https://sws.geonames.org/7297517/"}],"relations":[{"relationType":"gvp:broaderPartitive","relationTo":"https://w3id.org/whg-epns/04/000166","label":"within Doddingtree Hundred"}]}]}