{"@context":"https://raw.githubusercontent.com/LinkedPasts/linked-places-format/main/linkedplaces-context-v1.1.jsonld","type":"FeatureCollection","license":"Digitisation of English Placenames MADS data is licensed to Jisc by the English Place Names Society and released under a Creative Commons Attribution-NonCommercial 4.0 International License.","note":"LPF v1.3, lossy; derived from the PLATO record; plato_commit=ca0afadabec1e23a145c0b03df77e8f151f79832","features":[{"@id":"https://w3id.org/whg-epns/04/000864","type":"Feature","properties":{"title":"Orleton","ccodes":["GB"],"fclasses":["A","P"]},"names":[{"toponym":"Orleton","lang":"en","citations":[{"label":"English Place-Name Society survey, volume 4: Worcestershire"}]},{"toponym":"Ealretune","citations":[{"label":"1023 KCD","year":1023}],"when":{"timespans":[{"start":{"in":"1023"},"end":{"in":"1023"}}]}},{"toponym":"Alretune","citations":[{"label":"1086 DB","year":1086}],"when":{"timespans":[{"start":{"in":"1086"},"end":{"in":"1086"}}]}},{"toponym":"Alreton","citations":[{"label":"1212 Fees","year":1212}],"when":{"timespans":[{"start":{"in":"1212"},"end":{"in":"1212"}}]}},{"toponym":"Holreton","citations":[{"label":"1242 Fees","year":1242}],"when":{"timespans":[{"start":{"in":"1242"},"end":{"in":"1242"}}]}},{"toponym":"Olreton","citations":[{"label":"1275 SR","year":1275}],"when":{"timespans":[{"start":{"in":"1275"},"end":{"in":"1275"}}]}},{"toponym":"Olreton super Temedam","citations":[{"label":"1275 FF","year":1275}],"when":{"timespans":[{"start":{"in":"1275"},"end":{"in":"1275"}}]}},{"toponym":"Orleton","citations":[{"label":"1357 Ipm","year":1357}],"when":{"timespans":[{"start":{"in":"1357"},"end":{"in":"1357"}}]}}],"types":[{"identifier":"http://vocab.getty.edu/aat/300232418","label":"administrative division","sourceLabels":[{"label":"township","lang":"en"}]}],"geometry":{"type":"GeometryCollection","geometries":[{"type":"Point","coordinates":[-2.447363570074447,52.30438187049329],"citations":[{"label":"Unlock (EDINA) gazetteer, gazetteer record unlock:11237083"}]},{"type":"Point","coordinates":[-2.44872,52.3048],"citations":[{"label":"Key to English Place-Names (KEPN), gazetteer record 5207"}]}]},"when":{"timespans":[{"start":{"in":"1023"},"end":{"in":"1357"}}]},"relations":[{"relationType":"gvp:broaderPartitive","relationTo":"https://w3id.org/whg-epns/04/000863","label":"within Orleton"}]}]}