{"@context":"https://raw.githubusercontent.com/LinkedPasts/linked-places-format/main/linkedplaces-context-v1.1.jsonld","type":"FeatureCollection","license":"Digitisation of English Placenames MADS data is licensed to Jisc by the English Place Names Society and released under a Creative Commons Attribution-NonCommercial 4.0 International License.","note":"LPF v1.3, lossy; derived from the PLATO record; plato_commit=fa0d247ccc0263f8f19c8d7cdcd163df96935d1e","features":[{"@id":"https://w3id.org/whg-epns/04/000891","type":"Feature","properties":{"title":"Ribbesford","ccodes":["GB"],"fclasses":["A","P"]},"names":[{"toponym":"Ribbesford","lang":"en","citations":[{"label":"English Place-Name Society survey, volume 4: Worcestershire"}]}],"types":[{"identifier":"http://vocab.getty.edu/aat/300232418","label":"administrative division","sourceLabels":[{"label":"parish","lang":"en"}]}],"geometry":{"type":"GeometryCollection","geometries":[{"type":"Point","coordinates":[-2.31437,52.36363],"citations":[{"label":"GeoNames, gazetteer record geonames:2639400"}]},{"type":"Point","coordinates":[-2.315805260259196,52.36774570594767],"citations":[{"label":"Unlock (EDINA) gazetteer, gazetteer record unlock:11255530"}]},{"type":"Point","coordinates":[-2.31718,52.3681],"citations":[{"label":"Key to English Place-Names (KEPN), gazetteer record 5209"}]}]},"links":[{"type":"closeMatch","identifier":"https://sws.geonames.org/2639400/"}],"relations":[{"relationType":"gvp:broaderPartitive","relationTo":"https://w3id.org/whg-epns/04/000166","label":"within Doddingtree Hundred"}]}]}