{"@context":"https://raw.githubusercontent.com/LinkedPasts/linked-places-format/main/linkedplaces-context-v1.1.jsonld","type":"FeatureCollection","license":"Digitisation of English Placenames MADS data is licensed to Jisc by the English Place Names Society and released under a Creative Commons Attribution-NonCommercial 4.0 International License.","note":"LPF v1.3, lossy; derived from the PLATO record; plato_commit=ca0afadabec1e23a145c0b03df77e8f151f79832","features":[{"@id":"http://placenames.org.uk/id/placename/04/001137","type":"Feature","properties":{"title":"Stoke Bliss","ccodes":["GB"],"fclasses":["A","P"]},"names":[{"toponym":"Stoke Bliss","lang":"en","citations":[{"label":"English Place-Name Society survey, volume 4: Worcestershire"}]},{"toponym":"Stoch","citations":[{"label":"1086 DB","year":1086}],"when":{"timespans":[{"start":{"in":"1086"},"end":{"in":"1086"}}]}},{"toponym":"Stoke de Blez","citations":[{"label":"1242 Fees","year":1242}],"when":{"timespans":[{"start":{"in":"1242"},"end":{"in":"1242"}}]}},{"toponym":"Bles","citations":[{"label":"1277 Heref","year":1277}],"when":{"timespans":[{"start":{"in":"1277"},"end":{"in":"1277"}}]}},{"toponym":"Blez","citations":[{"label":"1291 Tax","year":1291}],"when":{"timespans":[{"start":{"in":"1291"},"end":{"in":"1291"}}]}},{"toponym":"Bleez, Bles","citations":[{"label":"1303-1431 FA","year":1303}],"when":{"timespans":[{"start":{"earliest":"1303","latest":"1431"},"end":{"earliest":"1303","latest":"1431"}}]}},{"toponym":"Blys, Blisse","citations":[{"label":"1535 VE","year":1535},{"label":"1544 LP","year":1544}],"when":{"timespans":[{"start":{"in":"1535"},"end":{"in":"1535"}},{"start":{"in":"1544"},"end":{"in":"1544"}}]}}],"types":[{"identifier":"http://vocab.getty.edu/aat/300232418","label":"administrative division","sourceLabels":[{"label":"township","lang":"en"}]}],"geometry":{"type":"GeometryCollection","geometries":[{"type":"Point","coordinates":[-2.50356,52.26355],"citations":[{"label":"GeoNames, gazetteer record geonames:2636865"}]},{"type":"Point","coordinates":[-2.505520029954134,52.25919029432809],"citations":[{"label":"Unlock (EDINA) gazetteer, gazetteer record unlock:11292678"}]},{"type":"Point","coordinates":[-2.50687,52.2596],"citations":[{"label":"Key to English Place-Names (KEPN), gazetteer record 0009"}]}]},"when":{"timespans":[{"start":{"in":"1086"},"end":{"in":"1544"}}]},"links":[{"type":"closeMatch","identifier":"https://sws.geonames.org/2636865/"}],"relations":[{"relationType":"gvp:broaderPartitive","relationTo":"http://placenames.org.uk/id/placename/04/001136","label":"within Stoke Bliss"}]}]}