{"@context":"https://raw.githubusercontent.com/LinkedPasts/linked-places-format/main/linkedplaces-context-v1.1.jsonld","type":"FeatureCollection","license":"Digitisation of English Placenames MADS data is licensed to Jisc by the English Place Names Society and released under a Creative Commons Attribution-NonCommercial 4.0 International License.","note":"LPF v1.3, lossy; derived from the PLATO record; plato_commit=fa0d247ccc0263f8f19c8d7cdcd163df96935d1e","features":[{"@id":"https://w3id.org/whg-epns/04/001231","type":"Feature","properties":{"title":"Great Witley","ccodes":["GB"],"fclasses":["A","P"]},"names":[{"toponym":"Great Witley","lang":"en","citations":[{"label":"English Place-Name Society survey, volume 4: Worcestershire"}]}],"types":[{"identifier":"http://vocab.getty.edu/aat/300232418","label":"administrative division","sourceLabels":[{"label":"parish","lang":"en"}]}],"geometry":{"type":"GeometryCollection","geometries":[{"type":"Point","coordinates":[-2.36489,52.29319],"citations":[{"label":"GeoNames, gazetteer record geonames:2647989"}]},{"type":"Point","coordinates":[-2.359286954929736,52.29569127875473],"citations":[{"label":"Unlock (EDINA) gazetteer, gazetteer record unlock:11159384"}]},{"type":"Point","coordinates":[-2.36065,52.2961],"citations":[{"label":"Key to English Place-Names (KEPN), gazetteer record 5194"}]}]},"links":[{"type":"closeMatch","identifier":"https://sws.geonames.org/2647989/"}],"relations":[{"relationType":"gvp:broaderPartitive","relationTo":"https://w3id.org/whg-epns/04/000166","label":"within Doddingtree Hundred"}]}]}