{"@context":"https://raw.githubusercontent.com/LinkedPasts/linked-places-format/main/linkedplaces-context-v1.1.jsonld","type":"FeatureCollection","license":"Digitisation of English Placenames MADS data is licensed to Jisc by the English Place Names Society and released under a Creative Commons Attribution-NonCommercial 4.0 International License.","note":"LPF v1.3, lossy; derived from the PLATO record; plato_commit=ca0afadabec1e23a145c0b03df77e8f151f79832","features":[{"@id":"http://placenames.org.uk/id/placename/04/001457","type":"Feature","properties":{"title":"Bredicot","ccodes":["GB"],"fclasses":["A","P"]},"names":[{"toponym":"Bredicot","lang":"en","citations":[{"label":"English Place-Name Society survey, volume 4: Worcestershire"}]}],"types":[{"identifier":"http://vocab.getty.edu/aat/300232418","label":"administrative division","sourceLabels":[{"label":"parish","lang":"en"}]}],"geometry":{"type":"GeometryCollection","geometries":[{"type":"Point","coordinates":[-2.13624,52.19138],"citations":[{"label":"GeoNames, gazetteer record geonames:7299690"}]},{"type":"Point","coordinates":[-2.13897913262624,52.188259415878],"citations":[{"label":"Unlock (EDINA) gazetteer, gazetteer record unlock:11086335"}]},{"type":"Point","coordinates":[-2.14037,52.1887],"citations":[{"label":"Key to English Place-Names (KEPN), gazetteer record 5226"}]}]},"links":[{"type":"closeMatch","identifier":"https://sws.geonames.org/7299690/"}],"relations":[{"relationType":"gvp:broaderPartitive","relationTo":"http://placenames.org.uk/id/placename/04/001250","label":"within Oswaldslow Hundred"}]}]}