{"@context":"https://raw.githubusercontent.com/LinkedPasts/linked-places-format/main/linkedplaces-context-v1.1.jsonld","type":"FeatureCollection","license":"Digitisation of English Placenames MADS data is licensed to Jisc by the English Place Names Society and released under a Creative Commons Attribution-NonCommercial 4.0 International License.","note":"LPF v1.3, lossy; derived from the PLATO record; plato_commit=ca0afadabec1e23a145c0b03df77e8f151f79832","features":[{"@id":"https://w3id.org/whg-epns/04/001686","type":"Feature","properties":{"title":"Cotheridge","ccodes":["GB"],"fclasses":["A","P"]},"names":[{"toponym":"Cotheridge","lang":"en","citations":[{"label":"English Place-Name Society survey, volume 4: Worcestershire"}]},{"toponym":"æt Coddan hrycce, Coddanhrycge","citations":[{"label":"963 BCS","year":963}],"when":{"timespans":[{"start":{"in":"0963"},"end":{"in":"0963"}}]}},{"toponym":"Codrie","citations":[{"label":"1086 DB","year":1086}],"when":{"timespans":[{"start":{"in":"1086"},"end":{"in":"1086"}}]}},{"toponym":"Codere","citations":[{"label":"c. 1150 Surv","year":1140}],"when":{"timespans":[{"start":{"earliest":"1140","latest":"1160"},"end":{"earliest":"1140","latest":"1160"}}]}},{"toponym":"Codderegge","citations":[{"label":"c. 1086 EveB","year":1076}],"when":{"timespans":[{"start":{"earliest":"1076","latest":"1096"},"end":{"earliest":"1076","latest":"1096"}}]}},{"toponym":"Cod(d)erug(ge)","citations":[{"label":"1208 Fees","year":1208},{"label":"1240 WoP","year":1240},{"label":"1250 Ipm","year":1250},{"label":"1275 SR","year":1275}],"when":{"timespans":[{"start":{"in":"1208"},"end":{"in":"1208"}},{"start":{"in":"1240"},"end":{"in":"1240"}},{"start":{"in":"1250"},"end":{"in":"1250"}},{"start":{"in":"1275"},"end":{"in":"1275"}}]}},{"toponym":"Codrugg","citations":[{"label":"1274 Ipm","year":1274}],"when":{"timespans":[{"start":{"in":"1274"},"end":{"in":"1274"}}]}},{"toponym":"Codrigg","citations":[{"label":"1287 Cl","year":1287}],"when":{"timespans":[{"start":{"in":"1287"},"end":{"in":"1287"}}]}},{"toponym":"Coterich","citations":[{"label":"1474 IpmR","year":1474}],"when":{"timespans":[{"start":{"in":"1474"},"end":{"in":"1474"}}]}},{"toponym":"Coderych, Coderich","citations":[{"label":"1539 LP","year":1539}],"when":{"timespans":[{"start":{"in":"1539"},"end":{"in":"1539"}}]}},{"toponym":"Cotridge","citations":[{"label":"1549 Pat","year":1549}],"when":{"timespans":[{"start":{"in":"1549"},"end":{"in":"1549"}}]}},{"toponym":"Cotheridge al. Cotteridge","citations":[{"label":"c. 1760 Bowen","year":1750}],"when":{"timespans":[{"start":{"earliest":"1750","latest":"1770"},"end":{"earliest":"1750","latest":"1770"}}]}}],"types":[{"identifier":"http://vocab.getty.edu/aat/300232418","label":"administrative division","sourceLabels":[{"label":"township","lang":"en"}]}],"geometry":{"type":"GeometryCollection","geometries":[{"type":"Point","coordinates":[-2.30602,52.19104],"citations":[{"label":"GeoNames, gazetteer record geonames:7299668"}]},{"type":"Point","coordinates":[-2.314529655179329,52.18792206190211],"citations":[{"label":"Unlock (EDINA) gazetteer, gazetteer record unlock:11117020"}]},{"type":"Point","coordinates":[-2.3159,52.1883],"citations":[{"label":"Key to English Place-Names (KEPN), gazetteer record 5235"}]}]},"when":{"timespans":[{"start":{"in":"0963"},"end":{"in":"1770"}}]},"links":[{"type":"closeMatch","identifier":"https://sws.geonames.org/7299668/"}],"relations":[{"relationType":"gvp:broaderPartitive","relationTo":"https://w3id.org/whg-epns/04/001685","label":"within Cotheridge"}]}]}