{"@context":"https://raw.githubusercontent.com/LinkedPasts/linked-places-format/main/linkedplaces-context-v1.1.jsonld","type":"FeatureCollection","license":"Digitisation of English Placenames MADS data is licensed to Jisc by the English Place Names Society and released under a Creative Commons Attribution-NonCommercial 4.0 International License.","note":"LPF v1.3, lossy; derived from the PLATO record; plato_commit=ca0afadabec1e23a145c0b03df77e8f151f79832","features":[{"@id":"http://placenames.org.uk/id/placename/04/001775","type":"Feature","properties":{"title":"Daylesford","ccodes":["GB"],"fclasses":["A","P"]},"names":[{"toponym":"Daylesford","lang":"en","citations":[{"label":"English Place-Name Society survey, volume 4: Worcestershire"}]},{"toponym":"Dæglesford","citations":[{"label":"718 BCS","year":718},{"label":"841 BCS","year":841},{"label":"875 BCS","year":875},{"label":"979 KCD","year":979}],"when":{"timespans":[{"start":{"in":"0718"},"end":{"in":"0718"}},{"start":{"in":"0841"},"end":{"in":"0841"}},{"start":{"in":"0875"},"end":{"in":"0875"}},{"start":{"in":"0979"},"end":{"in":"0979"}}]}},{"toponym":"Deilesford","citations":[{"label":"777 BCS","year":777},{"label":"c. 1050 KCD","year":1040},{"label":"c. 1150 Surv","year":1140}],"when":{"timespans":[{"start":{"in":"0777"},"end":{"in":"0777"}},{"start":{"earliest":"1040","latest":"1060"},"end":{"earliest":"1040","latest":"1060"}},{"start":{"earliest":"1140","latest":"1160"},"end":{"earliest":"1140","latest":"1160"}}]}},{"toponym":"Dæiglæsford","citations":[{"label":"914 BCS","year":914}],"when":{"timespans":[{"start":{"in":"0914"},"end":{"in":"0914"}}]}},{"toponym":"Degilesford","citations":[{"label":"979 KCD","year":979}],"when":{"timespans":[{"start":{"in":"0979"},"end":{"in":"0979"}}]}},{"toponym":"Dagelesford","citations":[{"label":"c. 1050 KCD","year":1040}],"when":{"timespans":[{"start":{"earliest":"1040","latest":"1060"},"end":{"earliest":"1040","latest":"1060"}}]}},{"toponym":"Eilesford","citations":[{"label":"1086 DB","year":1086}],"when":{"timespans":[{"start":{"in":"1086"},"end":{"in":"1086"}}]}},{"toponym":"Aleford","citations":[{"label":"c. 1086 EveA","year":1076}],"when":{"timespans":[{"start":{"earliest":"1076","latest":"1096"},"end":{"earliest":"1076","latest":"1096"}}]}}],"types":[{"identifier":"http://vocab.getty.edu/aat/300232418","label":"administrative division","sourceLabels":[{"label":"township","lang":"en"}]}],"geometry":{"type":"GeometryCollection","geometries":[{"type":"Point","coordinates":[-1.643664133555545,51.92704399508567],"citations":[{"label":"Unlock (EDINA) gazetteer, gazetteer record unlock:11127672"}]},{"type":"Point","coordinates":[-1.64503,51.9365],"citations":[{"label":"Key to English Place-Names (KEPN), gazetteer record 5239"}]}]},"when":{"timespans":[{"start":{"in":"0718"},"end":{"in":"1160"}}]},"relations":[{"relationType":"gvp:broaderPartitive","relationTo":"http://placenames.org.uk/id/placename/04/001774","label":"within Daylesford"}]}]}