{"@context":"https://raw.githubusercontent.com/LinkedPasts/linked-places-format/main/linkedplaces-context-v1.1.jsonld","type":"FeatureCollection","license":"Digitisation of English Placenames MADS data is licensed to Jisc by the English Place Names Society and released under a Creative Commons Attribution-NonCommercial 4.0 International License.","note":"LPF v1.3, lossy; derived from the PLATO record; plato_commit=ca0afadabec1e23a145c0b03df77e8f151f79832","features":[{"@id":"http://placenames.org.uk/id/placename/04/002092","type":"Feature","properties":{"title":"Holt","ccodes":["GB"],"fclasses":["A","P"]},"names":[{"toponym":"Holt","lang":"en","citations":[{"label":"English Place-Name Society survey, volume 4: Worcestershire"}]},{"toponym":"Holte","citations":[{"label":"1086 DB","year":1086}],"when":{"timespans":[{"start":{"in":"1086"},"end":{"in":"1086"}}]}}],"types":[{"identifier":"http://vocab.getty.edu/aat/300232418","label":"administrative division","sourceLabels":[{"label":"township","lang":"en"}]}],"geometry":{"type":"GeometryCollection","geometries":[{"type":"Point","coordinates":[-2.25,52.25],"citations":[{"label":"GeoNames, gazetteer record geonames:2646702"}]},{"type":"Point","coordinates":[-2.256427222059748,52.25999401622041],"citations":[{"label":"Unlock (EDINA) gazetteer, gazetteer record unlock:11177836"}]},{"type":"Point","coordinates":[-2.24315,52.2604],"citations":[{"label":"Key to English Place-Names (KEPN), gazetteer record 5252"}]}]},"when":{"timespans":[{"start":{"in":"1086"},"end":{"in":"1086"}}]},"links":[{"type":"closeMatch","identifier":"https://sws.geonames.org/2646702/"}],"relations":[{"relationType":"gvp:broaderPartitive","relationTo":"http://placenames.org.uk/id/placename/04/002091","label":"within Holt"}]}]}