{"@context":"https://raw.githubusercontent.com/LinkedPasts/linked-places-format/main/linkedplaces-context-v1.1.jsonld","type":"FeatureCollection","license":"Digitisation of English Placenames MADS data is licensed to Jisc by the English Place Names Society and released under a Creative Commons Attribution-NonCommercial 4.0 International License.","note":"LPF v1.3, lossy; derived from the PLATO record; plato_commit=ca0afadabec1e23a145c0b03df77e8f151f79832","features":[{"@id":"https://w3id.org/whg-epns/04/002296","type":"Feature","properties":{"title":"Overbury","ccodes":["GB"],"fclasses":["A","P"]},"names":[{"toponym":"Overbury","lang":"en","citations":[{"label":"English Place-Name Society survey, volume 4: Worcestershire"}]},{"toponym":"Uferebreodun vel Uferebiri","citations":[{"label":"875 BCS","year":875}],"when":{"timespans":[{"start":{"in":"0875"},"end":{"in":"0875"}}]}},{"toponym":"Uuera Breodun","citations":[{"label":"964 BCS","year":964}],"when":{"timespans":[{"start":{"in":"0964"},"end":{"in":"0964"}}]}},{"toponym":"Oureberie","citations":[{"label":"1086 DB","year":1086}],"when":{"timespans":[{"start":{"in":"1086"},"end":{"in":"1086"}}]}},{"toponym":"Ouerberga, Ouerberia","citations":[{"label":"c. 1086 EveA & B","year":1076}],"when":{"timespans":[{"start":{"earliest":"1076","latest":"1096"},"end":{"earliest":"1076","latest":"1096"}}]}},{"toponym":"Uuerbyre","citations":[{"label":"1240 WoP","year":1240}],"when":{"timespans":[{"start":{"in":"1240"},"end":{"in":"1240"}}]}},{"toponym":"Overebure","citations":[{"label":"1291 Tax","year":1291},{"label":"1355 Pat","year":1355}],"when":{"timespans":[{"start":{"in":"1291"},"end":{"in":"1291"}},{"start":{"in":"1355"},"end":{"in":"1355"}}]}}],"types":[{"identifier":"http://vocab.getty.edu/aat/300232418","label":"administrative division","sourceLabels":[{"label":"township","lang":"en"}]}],"geometry":{"type":"GeometryCollection","geometries":[{"type":"Point","coordinates":[-2.06264,52.03499],"citations":[{"label":"GeoNames, gazetteer record geonames:2640775"}]},{"type":"Point","coordinates":[-2.065607552005483,52.0354662771934],"citations":[{"label":"Unlock (EDINA) gazetteer, gazetteer record unlock:11237852"}]},{"type":"Point","coordinates":[-2.067,52.0359],"citations":[{"label":"Key to English Place-Names (KEPN), gazetteer record 5262"}]}]},"when":{"timespans":[{"start":{"in":"0875"},"end":{"in":"1355"}}]},"links":[{"type":"closeMatch","identifier":"https://sws.geonames.org/2640775/"}],"relations":[{"relationType":"gvp:broaderPartitive","relationTo":"https://w3id.org/whg-epns/04/002295","label":"within Overbury"}]}]}