{"@context":"https://raw.githubusercontent.com/LinkedPasts/linked-places-format/main/linkedplaces-context-v1.1.jsonld","type":"FeatureCollection","license":"Digitisation of English Placenames MADS data is licensed to Jisc by the English Place Names Society and released under a Creative Commons Attribution-NonCommercial 4.0 International License.","note":"LPF v1.3, lossy; derived from the PLATO record; plato_commit=fa0d247ccc0263f8f19c8d7cdcd163df96935d1e","features":[{"@id":"https://w3id.org/whg-epns/04/002492","type":"Feature","properties":{"title":"Sedgeberrow","ccodes":["GB"],"fclasses":["A","P"]},"names":[{"toponym":"Sedgeberrow","lang":"en","citations":[{"label":"English Place-Name Society survey, volume 4: Worcestershire"}]}],"types":[{"identifier":"http://vocab.getty.edu/aat/300232418","label":"administrative division","sourceLabels":[{"label":"parish","lang":"en"}]}],"geometry":{"type":"GeometryCollection","geometries":[{"type":"Point","coordinates":[-1.96642,52.04561],"citations":[{"label":"GeoNames, gazetteer record geonames:2638261"}]},{"type":"Point","coordinates":[-1.963544037043909,52.04447058411019],"citations":[{"label":"Unlock (EDINA) gazetteer, gazetteer record unlock:11279981"}]},{"type":"Point","coordinates":[-1.96495,52.0449],"citations":[{"label":"Key to English Place-Names (KEPN), gazetteer record 5268"}]}]},"links":[{"type":"closeMatch","identifier":"https://sws.geonames.org/2638261/"}],"relations":[{"relationType":"gvp:broaderPartitive","relationTo":"https://w3id.org/whg-epns/04/001250","label":"within Oswaldslow Hundred"}]}]}