{"@context":"https://raw.githubusercontent.com/LinkedPasts/linked-places-format/main/linkedplaces-context-v1.1.jsonld","type":"FeatureCollection","license":"Digitisation of English Placenames MADS data is licensed to Jisc by the English Place Names Society and released under a Creative Commons Attribution-NonCommercial 4.0 International License.","note":"LPF v1.3, lossy; derived from the PLATO record; plato_commit=fa0d247ccc0263f8f19c8d7cdcd163df96935d1e","features":[{"@id":"https://w3id.org/whg-epns/04/002601","type":"Feature","properties":{"title":"Throckmorton","ccodes":["GB"],"fclasses":["A","P"]},"names":[{"toponym":"Throckmorton","lang":"en","citations":[{"label":"English Place-Name Society survey, volume 4: Worcestershire"}]},{"toponym":"Throcmortune","citations":[{"label":"11th Hickes","year":1000}],"when":{"timespans":[{"start":{"earliest":"1000","latest":"1100"},"end":{"earliest":"1000","latest":"1100"}}]}},{"toponym":"Trotemertona","citations":[{"label":"1175 P","year":1175}],"when":{"timespans":[{"start":{"in":"1175"},"end":{"in":"1175"}}]}},{"toponym":"Trochemerton","citations":[{"label":"1176 P","year":1176}],"when":{"timespans":[{"start":{"in":"1176"},"end":{"in":"1176"}}]}},{"toponym":"Trokemerton","citations":[{"label":"1176 P","year":1176},{"label":"1208 Fees","year":1208},{"label":"1254 FF","year":1254}],"when":{"timespans":[{"start":{"in":"1176"},"end":{"in":"1176"}},{"start":{"in":"1208"},"end":{"in":"1208"}},{"start":{"in":"1254"},"end":{"in":"1254"}}]}},{"toponym":"Trocmaretona","citations":[{"label":"1227 Bracton","year":1227}],"when":{"timespans":[{"start":{"in":"1227"},"end":{"in":"1227"}}]}},{"toponym":"Throkemerton","citations":[{"label":"1227 FF","year":1227},{"label":"1275 SR","year":1275}],"when":{"timespans":[{"start":{"in":"1227"},"end":{"in":"1227"}},{"start":{"in":"1275"},"end":{"in":"1275"}}]}},{"toponym":"Trokemareton","citations":[{"label":"1229 Ch","year":1229}],"when":{"timespans":[{"start":{"in":"1229"},"end":{"in":"1229"}}]}},{"toponym":"Trochmarton","citations":[{"label":"1233 FF","year":1233}],"when":{"timespans":[{"start":{"in":"1233"},"end":{"in":"1233"}}]}},{"toponym":"Trokemertun","citations":[{"label":"1240 WoP","year":1240}],"when":{"timespans":[{"start":{"in":"1240"},"end":{"in":"1240"}}]}},{"toponym":"Trokemarton","citations":[{"label":"1255 Ass","year":1255}],"when":{"timespans":[{"start":{"in":"1255"},"end":{"in":"1255"}}]}},{"toponym":"Throkemarton","citations":[{"label":"1325 Ipm","year":1325},{"label":"1396 Bodl","year":1396},{"label":"1415 Pat","year":1415}],"when":{"timespans":[{"start":{"in":"1325"},"end":{"in":"1325"}},{"start":{"in":"1396"},"end":{"in":"1396"}},{"start":{"in":"1415"},"end":{"in":"1415"}}]}},{"toponym":"Throgmerton, Throgmarton, Throkmorton","citations":[{"label":"1436-51 Pat","year":1436}],"when":{"timespans":[{"start":{"earliest":"1436","latest":"1451"},"end":{"earliest":"1436","latest":"1451"}}]}},{"toponym":"Throgmarton","citations":[{"label":"1577 Saxton","year":1577}],"when":{"timespans":[{"start":{"in":"1577"},"end":{"in":"1577"}}]}},{"toponym":"Frogmorton","citations":[{"label":"1696 Marr","year":1696}],"when":{"timespans":[{"start":{"in":"1696"},"end":{"in":"1696"}}]}}],"types":[{"identifier":"http://vocab.getty.edu/aat/300232418","label":"administrative division","sourceLabels":[{"label":"township","lang":"en"}]}],"geometry":{"type":"GeometryCollection","geometries":[{"type":"Point","coordinates":[-2.0302,52.14514],"citations":[{"label":"GeoNames, gazetteer record geonames:2635915"}]},{"type":"Point","coordinates":[-2.02192200393345,52.14338177749849],"citations":[{"label":"Unlock (EDINA) gazetteer, gazetteer record unlock:11300509"}]},{"type":"Point","coordinates":[-2.02332,52.1438],"citations":[{"label":"Key to English Place-Names (KEPN), gazetteer record 5274"}]}]},"when":{"timespans":[{"start":{"in":"1000"},"end":{"in":"1696"}}]},"links":[{"type":"closeMatch","identifier":"https://sws.geonames.org/2635915/"}],"relations":[{"relationType":"gvp:broaderPartitive","relationTo":"https://w3id.org/whg-epns/04/002600","label":"within Throckmorton"}]}]}