{"@context":"https://raw.githubusercontent.com/LinkedPasts/linked-places-format/main/linkedplaces-context-v1.1.jsonld","type":"FeatureCollection","license":"Digitisation of English Placenames MADS data is licensed to Jisc by the English Place Names Society and released under a Creative Commons Attribution-NonCommercial 4.0 International License.","note":"LPF v1.3, lossy; derived from the PLATO record; plato_commit=fa0d247ccc0263f8f19c8d7cdcd163df96935d1e","features":[{"@id":"https://w3id.org/whg-epns/04/002833","type":"Feature","properties":{"title":"Little Witley","ccodes":["GB"],"fclasses":["A","P"]},"names":[{"toponym":"Little Witley","lang":"en","citations":[{"label":"English Place-Name Society survey, volume 4: Worcestershire"}]},{"toponym":"Wittlæg","citations":[{"label":"964 BCS","year":964}],"when":{"timespans":[{"start":{"in":"0964"},"end":{"in":"0964"}}]}},{"toponym":"Witleah, Witleag","citations":[{"label":"969 BCS","year":969},{"label":"c. 972 KCD","year":962}],"when":{"timespans":[{"start":{"in":"0969"},"end":{"in":"0969"}},{"start":{"earliest":"0962","latest":"0982"},"end":{"earliest":"0962","latest":"0982"}}]}},{"toponym":"Wihtlega","citations":[{"label":"11th Heming","year":1000}],"when":{"timespans":[{"start":{"earliest":"1000","latest":"1100"},"end":{"earliest":"1000","latest":"1100"}}]}},{"toponym":"Witlege","citations":[{"label":"1086 DB","year":1086}],"when":{"timespans":[{"start":{"in":"1086"},"end":{"in":"1086"}}]}},{"toponym":"Wit(er)lega","citations":[{"label":"c. 1086 EveA","year":1076}],"when":{"timespans":[{"start":{"earliest":"1076","latest":"1096"},"end":{"earliest":"1076","latest":"1096"}}]}},{"toponym":"Widelega","citations":[{"label":"1187 P","year":1187}],"when":{"timespans":[{"start":{"in":"1187"},"end":{"in":"1187"}}]}},{"toponym":"Parva Wyttelege, Wyttelege","citations":[{"label":"1249 FF","year":1249}],"when":{"timespans":[{"start":{"in":"1249"},"end":{"in":"1249"}}]}},{"toponym":"Wytele Minor","citations":[{"label":"1275 Ass","year":1275}],"when":{"timespans":[{"start":{"in":"1275"},"end":{"in":"1275"}}]}},{"toponym":"Litelwytele","citations":[{"label":"1388 IpmR","year":1388}],"when":{"timespans":[{"start":{"in":"1388"},"end":{"in":"1388"}}]}},{"toponym":"Little Whytley","citations":[{"label":"1550 Pat","year":1550}],"when":{"timespans":[{"start":{"in":"1550"},"end":{"in":"1550"}}]}}],"types":[{"identifier":"http://vocab.getty.edu/aat/300232418","label":"administrative division","sourceLabels":[{"label":"township","lang":"en"}]}],"geometry":{"type":"GeometryCollection","geometries":[{"type":"Point","coordinates":[-2.31605,52.26986],"citations":[{"label":"GeoNames, gazetteer record geonames:2644218"}]},{"type":"Point","coordinates":[-2.315102016836555,52.26884338369312],"citations":[{"label":"Unlock (EDINA) gazetteer, gazetteer record unlock:11197177"}]},{"type":"Point","coordinates":[-2.31647,52.2692],"citations":[{"label":"Key to English Place-Names (KEPN), gazetteer record 5258"}]}]},"when":{"timespans":[{"start":{"in":"0962"},"end":{"in":"1550"}}]},"links":[{"type":"closeMatch","identifier":"https://sws.geonames.org/2644218/"}],"relations":[{"relationType":"gvp:broaderPartitive","relationTo":"https://w3id.org/whg-epns/04/002832","label":"within Little Witley"}]}]}