{"@context":"https://raw.githubusercontent.com/LinkedPasts/linked-places-format/main/linkedplaces-context-v1.1.jsonld","type":"FeatureCollection","license":"Digitisation of English Placenames MADS data is licensed to Jisc by the English Place Names Society and released under a Creative Commons Attribution-NonCommercial 4.0 International License.","note":"LPF v1.3, lossy; derived from the PLATO record; plato_commit=ca0afadabec1e23a145c0b03df77e8f151f79832","features":[{"@id":"https://w3id.org/whg-epns/04/002861","type":"Feature","properties":{"title":"Alderminster","ccodes":["GB"],"fclasses":["A","P"]},"names":[{"toponym":"Alderminster","lang":"en","citations":[{"label":"English Place-Name Society survey, volume 4: Worcestershire"}]},{"toponym":"Aldermanneston","citations":[{"label":"1169 P","year":1169},{"label":"1226 FF","year":1226},{"label":"1255 FF","year":1255},{"label":"1255 Ass","year":1255}],"when":{"timespans":[{"start":{"in":"1169"},"end":{"in":"1169"}},{"start":{"in":"1226"},"end":{"in":"1226"}},{"start":{"in":"1255"},"end":{"in":"1255"}},{"start":{"in":"1255"},"end":{"in":"1255"}}]}},{"toponym":"Audremaneston","citations":[{"label":"1251 Ch","year":1251}],"when":{"timespans":[{"start":{"in":"1251"},"end":{"in":"1251"}}]}},{"toponym":"Aldermonnston, Aldremonston","citations":[{"label":"1255 Ass","year":1255},{"label":"1275 SR","year":1275},{"label":"1291 Tax","year":1291}],"when":{"timespans":[{"start":{"in":"1255"},"end":{"in":"1255"}},{"start":{"in":"1275"},"end":{"in":"1275"}},{"start":{"in":"1291"},"end":{"in":"1291"}}]}},{"toponym":"Aldremeston, Aldremuston, Aldermeston","citations":[{"label":"1327 SR","year":1327},{"label":"1338 Wigorn","year":1338},{"label":"1340 NI","year":1340},{"label":"1344 AD","year":1344},{"label":"1432 Ct","year":1432}],"when":{"timespans":[{"start":{"in":"1327"},"end":{"in":"1327"}},{"start":{"in":"1338"},"end":{"in":"1338"}},{"start":{"in":"1340"},"end":{"in":"1340"}},{"start":{"in":"1344"},"end":{"in":"1344"}},{"start":{"in":"1432"},"end":{"in":"1432"}}]}},{"toponym":"Alderminster, Aldermynster","citations":[{"label":"1450-1650 Wills","year":1450},{"label":"1535 VE","year":1535}],"when":{"timespans":[{"start":{"earliest":"1450","latest":"1650"},"end":{"earliest":"1450","latest":"1650"}},{"start":{"in":"1535"},"end":{"in":"1535"}}]}},{"toponym":"Aldermaston","citations":[{"label":"16th Wills","year":1500},{"label":"1765 Ogilby","year":1765},{"label":"1787 Cary","year":1787}],"when":{"timespans":[{"start":{"earliest":"1500","latest":"1600"},"end":{"earliest":"1500","latest":"1600"}},{"start":{"earliest":"1600","latest":"1700"},"end":{"earliest":"1600","latest":"1700"}},{"start":{"in":"1765"},"end":{"in":"1765"}},{"start":{"in":"1787"},"end":{"in":"1787"}}]}}],"types":[{"identifier":"http://vocab.getty.edu/aat/300232418","label":"administrative division","sourceLabels":[{"label":"township","lang":"en"}]}],"geometry":{"type":"GeometryCollection","geometries":[{"type":"Point","coordinates":[-1.66676,52.13714],"citations":[{"label":"GeoNames, gazetteer record geonames:2657542"}]},{"type":"Point","coordinates":[-1.656627745908734,52.13389243398438],"citations":[{"label":"Unlock (EDINA) gazetteer, gazetteer record unlock:11058041"}]},{"type":"Point","coordinates":[-1.65807,52.1343],"citations":[{"label":"Key to English Place-Names (KEPN), gazetteer record 5287"}]}]},"when":{"timespans":[{"start":{"in":"1169"},"end":{"in":"1787"}}]},"links":[{"type":"closeMatch","identifier":"https://sws.geonames.org/2657542/"}],"relations":[{"relationType":"gvp:broaderPartitive","relationTo":"https://w3id.org/whg-epns/04/002860","label":"within Alderminster"}]}]}