{"@context":"https://raw.githubusercontent.com/LinkedPasts/linked-places-format/main/linkedplaces-context-v1.1.jsonld","type":"FeatureCollection","license":"Digitisation of English Placenames MADS data is licensed to Jisc by the English Place Names Society and released under a Creative Commons Attribution-NonCommercial 4.0 International License.","note":"LPF v1.3, lossy; derived from the PLATO record; plato_commit=ca0afadabec1e23a145c0b03df77e8f151f79832","features":[{"@id":"https://w3id.org/whg-epns/04/003140","type":"Feature","properties":{"title":"Flyford Flavell","ccodes":["GB"],"fclasses":["A","P"]},"names":[{"toponym":"Flyford Flavell","lang":"en","citations":[{"label":"English Place-Name Society survey, volume 4: Worcestershire"}]},{"toponym":"Fleferth","citations":[{"label":"930 BCS","year":930}],"when":{"timespans":[{"start":{"in":"0930"},"end":{"in":"0930"}}]}},{"toponym":"Flæferð","citations":[{"label":"972 BCS","year":972}],"when":{"timespans":[{"start":{"in":"0972"},"end":{"in":"0972"}}]}},{"toponym":"æt Fleferht","citations":[{"label":"1002 KCD","year":1002}],"when":{"timespans":[{"start":{"in":"1002"},"end":{"in":"1002"}}]}},{"toponym":"Flavel","citations":[{"label":"1190 EveB","year":1190},{"label":"1212 Fees","year":1212},{"label":"1212 RBE","year":1212},{"label":"1269 Wigorn","year":1269},{"label":"1315 Ipm","year":1315},{"label":"1428 FA","year":1428}],"when":{"timespans":[{"start":{"in":"1190"},"end":{"in":"1190"}},{"start":{"in":"1212"},"end":{"in":"1212"}},{"start":{"in":"1212"},"end":{"in":"1212"}},{"start":{"in":"1269"},"end":{"in":"1269"}},{"start":{"in":"1315"},"end":{"in":"1315"}},{"start":{"in":"1428"},"end":{"in":"1428"}}]}},{"toponym":"Flefrith","citations":[{"label":"1316 FF","year":1316},{"label":"1317 Pat","year":1317}],"when":{"timespans":[{"start":{"in":"1316"},"end":{"in":"1316"}},{"start":{"in":"1317"},"end":{"in":"1317"}}]}},{"toponym":"Fleford","citations":[{"label":"1420 IpmR","year":1420}],"when":{"timespans":[{"start":{"in":"1420"},"end":{"in":"1420"}}]}},{"toponym":"Fleford Flavell, Fleford Fluvell","citations":[{"label":"16th VCH","year":1500}],"when":{"timespans":[{"start":{"earliest":"1500","latest":"1600"},"end":{"earliest":"1500","latest":"1600"}},{"start":{"earliest":"1600","latest":"1700"},"end":{"earliest":"1600","latest":"1700"}}]}}],"types":[{"identifier":"http://vocab.getty.edu/aat/300232418","label":"administrative division","sourceLabels":[{"label":"township","lang":"en"}]}],"geometry":{"type":"GeometryCollection","geometries":[{"type":"Point","coordinates":[-2.0298,52.18357],"citations":[{"label":"GeoNames, gazetteer record geonames:7292799"}]},{"type":"Point","coordinates":[-2.021944107671065,52.18833922078993],"citations":[{"label":"Unlock (EDINA) gazetteer, gazetteer record unlock:11145789"}]},{"type":"Point","coordinates":[-2.02335,52.1977],"citations":[{"label":"Key to English Place-Names (KEPN), gazetteer record 5302"}]}]},"when":{"timespans":[{"start":{"in":"0930"},"end":{"in":"1700"}}]},"links":[{"type":"closeMatch","identifier":"https://sws.geonames.org/7292799/"}],"relations":[{"relationType":"gvp:broaderPartitive","relationTo":"https://w3id.org/whg-epns/04/003139","label":"within Flyford Flavell"}]}]}