{"@context":"https://raw.githubusercontent.com/LinkedPasts/linked-places-format/main/linkedplaces-context-v1.1.jsonld","type":"FeatureCollection","license":"Digitisation of English Placenames MADS data is licensed to Jisc by the English Place Names Society and released under a Creative Commons Attribution-NonCommercial 4.0 International License.","note":"LPF v1.3, lossy; derived from the PLATO record; plato_commit=fa0d247ccc0263f8f19c8d7cdcd163df96935d1e","features":[{"@id":"https://w3id.org/whg-epns/04/003288","type":"Feature","properties":{"title":"Madresfield","ccodes":["GB"],"fclasses":["A","P"]},"names":[{"toponym":"Madresfield","lang":"en","citations":[{"label":"English Place-Name Society survey, volume 4: Worcestershire"}]},{"toponym":"Madresfeld","citations":[{"label":"c. 1086 EveA","year":1076},{"label":"SR","year":1275},{"label":"1275 SR","year":1275}],"when":{"timespans":[{"start":{"earliest":"1076","latest":"1096"},"end":{"earliest":"1076","latest":"1096"}},{"start":{"in":"1275"},"end":{"in":"1327"}},{"start":{"in":"1275"},"end":{"in":"1275"}},{"start":{"in":"1327"},"end":{"in":"1327"}}]}},{"toponym":"Medeleffeld","citations":[{"label":"c. 1150 Surv","year":1140}],"when":{"timespans":[{"start":{"earliest":"1140","latest":"1160"},"end":{"earliest":"1140","latest":"1160"}}]}},{"toponym":"Metheresfeld","citations":[{"label":"1192 P","year":1192}],"when":{"timespans":[{"start":{"in":"1192"},"end":{"in":"1192"}}]}},{"toponym":"Mederefelde, Mederesfeude","citations":[{"label":"1196 FF","year":1196},{"label":"1210 RBE","year":1210}],"when":{"timespans":[{"start":{"in":"1196"},"end":{"in":"1196"}},{"start":{"in":"1210"},"end":{"in":"1210"}}]}},{"toponym":"Matheresfeud, Mathersfeld","citations":[{"label":"1255 Ass","year":1255},{"label":"1369 Pat","year":1369}],"when":{"timespans":[{"start":{"in":"1255"},"end":{"in":"1255"}},{"start":{"in":"1369"},"end":{"in":"1369"}}]}},{"toponym":"Mader(e)sfeld(e)","citations":[{"label":"1328 Ch","year":1328},{"label":"1332 AD","year":1332},{"label":"1392 Pat","year":1392}],"when":{"timespans":[{"start":{"in":"1328"},"end":{"in":"1328"}},{"start":{"in":"1332"},"end":{"in":"1332"}},{"start":{"in":"1392"},"end":{"in":"1392"}}]}},{"toponym":"Matysfyld","citations":[{"label":"1522 More","year":1522}],"when":{"timespans":[{"start":{"in":"1522"},"end":{"in":"1522"}}]}},{"toponym":"Madresfyld, Maddersfield","citations":[{"label":"1535 VE","year":1535},{"label":"1748 Marr","year":1748}],"when":{"timespans":[{"start":{"in":"1535"},"end":{"in":"1535"}},{"start":{"in":"1748"},"end":{"in":"1748"}}]}},{"toponym":"Matchfield","citations":[{"label":"1597 Wills","year":1597}],"when":{"timespans":[{"start":{"in":"1597"},"end":{"in":"1597"}}]}}],"types":[{"identifier":"http://vocab.getty.edu/aat/300232418","label":"administrative division","sourceLabels":[{"label":"township","lang":"en"}]}],"geometry":{"type":"GeometryCollection","geometries":[{"type":"Point","coordinates":[-2.28918,52.12734],"citations":[{"label":"GeoNames, gazetteer record geonames:2643229"}]},{"type":"Point","coordinates":[-2.284869427878338,52.12505667916317],"citations":[{"label":"Unlock (EDINA) gazetteer, gazetteer record unlock:11210554"}]},{"type":"Point","coordinates":[-2.28624,52.1255],"citations":[{"label":"Key to English Place-Names (KEPN), gazetteer record 5309"}]}]},"when":{"timespans":[{"start":{"in":"1076"},"end":{"in":"1748"}}]},"links":[{"type":"closeMatch","identifier":"https://sws.geonames.org/2643229/"}],"relations":[{"relationType":"gvp:broaderPartitive","relationTo":"https://w3id.org/whg-epns/04/003287","label":"within Madresfield"}]}]}