{"@context":"https://raw.githubusercontent.com/LinkedPasts/linked-places-format/main/linkedplaces-context-v1.1.jsonld","type":"FeatureCollection","license":"Digitisation of English Placenames MADS data is licensed to Jisc by the English Place Names Society and released under a Creative Commons Attribution-NonCommercial 4.0 International License.","note":"LPF v1.3, lossy; derived from the PLATO record; plato_commit=ca0afadabec1e23a145c0b03df77e8f151f79832","features":[{"@id":"http://placenames.org.uk/id/placename/04/003405","type":"Feature","properties":{"title":"Peopleton","ccodes":["GB"],"fclasses":["A","P"]},"names":[{"toponym":"Peopleton","lang":"en","citations":[{"label":"English Place-Name Society survey, volume 4: Worcestershire"}]}],"types":[{"identifier":"http://vocab.getty.edu/aat/300232418","label":"administrative division","sourceLabels":[{"label":"parish","lang":"en"}]}],"geometry":{"type":"GeometryCollection","geometries":[{"type":"Point","coordinates":[-2.09131,52.15338],"citations":[{"label":"GeoNames, gazetteer record geonames:2640376"}]},{"type":"Point","coordinates":[-2.095014419867253,52.15233706531633],"citations":[{"label":"Unlock (EDINA) gazetteer, gazetteer record unlock:11244265"}]},{"type":"Point","coordinates":[-2.09641,52.1527],"citations":[{"label":"Key to English Place-Names (KEPN), gazetteer record 5314"}]}]},"links":[{"type":"closeMatch","identifier":"https://sws.geonames.org/2640376/"}],"relations":[{"relationType":"gvp:broaderPartitive","relationTo":"http://placenames.org.uk/id/placename/04/002844","label":"within Hundred Of Pershore"}]}]}