{"@context":"https://raw.githubusercontent.com/LinkedPasts/linked-places-format/main/linkedplaces-context-v1.1.jsonld","type":"FeatureCollection","license":"Digitisation of English Placenames MADS data is licensed to Jisc by the English Place Names Society and released under a Creative Commons Attribution-NonCommercial 4.0 International License.","note":"LPF v1.3, lossy; derived from the PLATO record; plato_commit=ca0afadabec1e23a145c0b03df77e8f151f79832","features":[{"@id":"https://w3id.org/whg-epns/04/004281","type":"Feature","properties":{"title":"Church Honeybourne","ccodes":["GB"],"fclasses":["A","P"]},"names":[{"toponym":"Church Honeybourne","lang":"en","citations":[{"label":"English Place-Name Society survey, volume 4: Worcestershire"}]},{"toponym":"Huniburna","citations":[{"label":"709 BCS","year":709},{"label":"c. 1086 EveA","year":1076}],"when":{"timespans":[{"start":{"in":"0709"},"end":{"in":"0709"}},{"start":{"earliest":"1076","latest":"1096"},"end":{"earliest":"1076","latest":"1096"}}]}},{"toponym":"Huniburne","citations":[{"label":"1086 DB","year":1086},{"label":"1251 Ch","year":1251}],"when":{"timespans":[{"start":{"in":"1086"},"end":{"in":"1086"}},{"start":{"in":"1251"},"end":{"in":"1251"}}]}},{"toponym":"Hunigburne","citations":[{"label":"1221 Ass","year":1221}],"when":{"timespans":[{"start":{"in":"1221"},"end":{"in":"1221"}}]}},{"toponym":"Honiburne","citations":[{"label":"1275 SR","year":1275},{"label":"1291 Tax","year":1291}],"when":{"timespans":[{"start":{"in":"1275"},"end":{"in":"1275"}},{"start":{"in":"1291"},"end":{"in":"1291"}}]}},{"toponym":"Churchoniborne","citations":[{"label":"1535 VE","year":1535}],"when":{"timespans":[{"start":{"in":"1535"},"end":{"in":"1535"}}]}}],"types":[{"identifier":"http://vocab.getty.edu/aat/300232418","label":"administrative division","sourceLabels":[{"label":"township","lang":"en"}]}],"geometry":{"type":"GeometryCollection","geometries":[{"type":"Point","coordinates":[-1.81667,52.08333],"citations":[{"label":"GeoNames, gazetteer record geonames:2653035"}]},{"type":"Point","coordinates":[-1.83352,52.0987],"citations":[{"label":"Key to English Place-Names (KEPN), gazetteer record 5337"}]}]},"when":{"timespans":[{"start":{"in":"0709"},"end":{"in":"1535"}}]},"links":[{"type":"closeMatch","identifier":"https://sws.geonames.org/2653035/"}],"relations":[{"relationType":"gvp:broaderPartitive","relationTo":"https://w3id.org/whg-epns/04/004280","label":"within Church Honeybourne"}]}]}