{"@context":"https://raw.githubusercontent.com/LinkedPasts/linked-places-format/main/linkedplaces-context-v1.1.jsonld","type":"FeatureCollection","license":"Digitisation of English Placenames MADS data is licensed to Jisc by the English Place Names Society and released under a Creative Commons Attribution-NonCommercial 4.0 International License.","note":"LPF v1.3, lossy; derived from the PLATO record; plato_commit=fa0d247ccc0263f8f19c8d7cdcd163df96935d1e","features":[{"@id":"https://w3id.org/whg-epns/04/004295","type":"Feature","properties":{"title":"Norton-and-Lenchwick","ccodes":["GB"],"fclasses":["A","P"]},"names":[{"toponym":"Norton-and-Lenchwick","lang":"en","citations":[{"label":"English Place-Name Society survey, volume 4: Worcestershire"}]},{"toponym":"Nortun","citations":[{"label":"709 BCS","year":709},{"label":"1086 DB","year":1086}],"when":{"timespans":[{"start":{"in":"0709"},"end":{"in":"0709"}},{"start":{"in":"1086"},"end":{"in":"1086"}}]}},{"toponym":"Lenchwic","citations":[{"label":"709 BCS","year":709}],"when":{"timespans":[{"start":{"in":"0709"},"end":{"in":"0709"}}]}},{"toponym":"Lencuueke","citations":[{"label":"714 BCS","year":714}],"when":{"timespans":[{"start":{"in":"0714"},"end":{"in":"0714"}}]}},{"toponym":"Lenchewic","citations":[{"label":"1086 DB","year":1086}],"when":{"timespans":[{"start":{"in":"1086"},"end":{"in":"1086"}}]}},{"toponym":"Lenchwic, Lenchwyk(e)","citations":[{"label":"c. 1086 EveA","year":1076},{"label":"1238 FF","year":1238},{"label":"1262 For","year":1262}],"when":{"timespans":[{"start":{"earliest":"1076","latest":"1096"},"end":{"earliest":"1076","latest":"1096"}},{"start":{"in":"1238"},"end":{"in":"1238"}},{"start":{"in":"1262"},"end":{"in":"1262"}}]}}],"types":[{"identifier":"http://vocab.getty.edu/aat/300232418","label":"administrative division","sourceLabels":[{"label":"township","lang":"en"}]}],"geometry":{"type":"Point","coordinates":[-1.93567,52.1258],"citations":[{"label":"Key to English Place-Names (KEPN), gazetteer record 5340"}]},"when":{"timespans":[{"start":{"in":"0709"},"end":{"in":"1262"}}]},"relations":[{"relationType":"gvp:broaderPartitive","relationTo":"https://w3id.org/whg-epns/04/004294","label":"within Norton-and-Lenchwick"}]}]}