{"@context":"https://raw.githubusercontent.com/LinkedPasts/linked-places-format/main/linkedplaces-context-v1.1.jsonld","type":"FeatureCollection","license":"Digitisation of English Placenames MADS data is licensed to Jisc by the English Place Names Society and released under a Creative Commons Attribution-NonCommercial 4.0 International License.","note":"LPF v1.3, lossy; derived from the PLATO record; plato_commit=fa0d247ccc0263f8f19c8d7cdcd163df96935d1e","features":[{"@id":"https://w3id.org/whg-epns/04/004329","type":"Feature","properties":{"title":"Offenham","ccodes":["GB"],"fclasses":["A","P"]},"names":[{"toponym":"Offenham","lang":"en","citations":[{"label":"English Place-Name Society survey, volume 4: Worcestershire"}]},{"toponym":"Offeham","citations":[{"label":"709 BCS","year":709}],"when":{"timespans":[{"start":{"in":"0709"},"end":{"in":"0709"}}]}},{"toponym":"Vffaham","citations":[{"label":"714 BCS","year":714}],"when":{"timespans":[{"start":{"in":"0714"},"end":{"in":"0714"}}]}},{"toponym":"Uffenham","citations":[{"label":"c. 860 KCD","year":850},{"label":"1392 Pat","year":1392}],"when":{"timespans":[{"start":{"earliest":"0850","latest":"0870"},"end":{"earliest":"0850","latest":"0870"}},{"start":{"in":"1392"},"end":{"in":"1392"}}]}},{"toponym":"Afanhamme","citations":[{"label":"1058 BM","year":1058}],"when":{"timespans":[{"start":{"in":"1058"},"end":{"in":"1058"}}]}},{"toponym":"Offenham","citations":[{"label":"1086 DB","year":1086},{"label":"1535 VE","year":1535}],"when":{"timespans":[{"start":{"in":"1086"},"end":{"in":"1086"}},{"start":{"in":"1535"},"end":{"in":"1535"}}]}},{"toponym":"Offam","citations":[{"label":"1251 Ch","year":1251}],"when":{"timespans":[{"start":{"in":"1251"},"end":{"in":"1251"}}]}},{"toponym":"Hoffenham","citations":[{"label":"1275 SR","year":1275},{"label":"1340 NI","year":1340}],"when":{"timespans":[{"start":{"in":"1275"},"end":{"in":"1275"}},{"start":{"in":"1340"},"end":{"in":"1340"}}]}},{"toponym":"Uffenam, Uffnam, Uphnam","citations":[{"label":"1584 Marr","year":1584},{"label":"1590 Wills","year":1590},{"label":"1677 Marr","year":1677}],"when":{"timespans":[{"start":{"in":"1584"},"end":{"in":"1584"}},{"start":{"in":"1590"},"end":{"in":"1590"}},{"start":{"in":"1677"},"end":{"in":"1677"}}]}}],"types":[{"identifier":"http://vocab.getty.edu/aat/300232418","label":"administrative division","sourceLabels":[{"label":"township","lang":"en"}]}],"geometry":{"type":"GeometryCollection","geometries":[{"type":"Point","coordinates":[-1.92347,52.1122],"citations":[{"label":"GeoNames, gazetteer record geonames:2641071"}]},{"type":"Point","coordinates":[-1.919667884706723,52.11638181945608],"citations":[{"label":"Unlock (EDINA) gazetteer, gazetteer record unlock:11235139"}]},{"type":"Point","coordinates":[-1.92108,52.1168],"citations":[{"label":"Key to English Place-Names (KEPN), gazetteer record 5341"}]}]},"when":{"timespans":[{"start":{"in":"0709"},"end":{"in":"1677"}}]},"links":[{"type":"closeMatch","identifier":"https://sws.geonames.org/2641071/"}],"relations":[{"relationType":"gvp:broaderPartitive","relationTo":"https://w3id.org/whg-epns/04/004328","label":"within Offenham"}]}]}