{"@context":"https://raw.githubusercontent.com/LinkedPasts/linked-places-format/main/linkedplaces-context-v1.1.jsonld","type":"FeatureCollection","license":"Digitisation of English Placenames MADS data is licensed to Jisc by the English Place Names Society and released under a Creative Commons Attribution-NonCommercial 4.0 International License.","note":"LPF v1.3, lossy; derived from the PLATO record; plato_commit=ca0afadabec1e23a145c0b03df77e8f151f79832","features":[{"@id":"https://w3id.org/whg-epns/04/004787","type":"Feature","properties":{"title":"Hagley","ccodes":["GB"],"fclasses":["A","P"]},"names":[{"toponym":"Hagley","lang":"en","citations":[{"label":"English Place-Name Society survey, volume 4: Worcestershire"}]},{"toponym":"Hageleia","citations":[{"label":"1086 DB","year":1086}],"when":{"timespans":[{"start":{"in":"1086"},"end":{"in":"1086"}}]}},{"toponym":"Hagelega","citations":[{"label":"1168 P","year":1168}],"when":{"timespans":[{"start":{"in":"1168"},"end":{"in":"1168"}}]}},{"toponym":"Haggele(ge), Haggeleg, Haggeley","citations":[{"label":"1212 Fees","year":1212},{"label":"1255 Pat","year":1255},{"label":"1275 SR","year":1275},{"label":"1323 Ipm","year":1323},{"label":"1327 SR","year":1327},{"label":"1340 NI","year":1340},{"label":"1346 FA","year":1346}],"when":{"timespans":[{"start":{"in":"1212"},"end":{"in":"1212"}},{"start":{"in":"1235"},"end":{"in":"1235"}},{"start":{"in":"1255"},"end":{"in":"1255"}},{"start":{"in":"1275"},"end":{"in":"1275"}},{"start":{"in":"1323"},"end":{"in":"1323"}},{"start":{"in":"1327"},"end":{"in":"1327"}},{"start":{"in":"1340"},"end":{"in":"1340"}},{"start":{"in":"1346"},"end":{"in":"1346"}}]}},{"toponym":"Aggelegh","citations":[{"label":"1221 Ass","year":1221}],"when":{"timespans":[{"start":{"in":"1221"},"end":{"in":"1221"}}]}},{"toponym":"Haygheleghe","citations":[{"label":"1349 FF","year":1349}],"when":{"timespans":[{"start":{"in":"1349"},"end":{"in":"1349"}}]}},{"toponym":"Hageley, Hagley","citations":[{"label":"1462 Pat","year":1462}],"when":{"timespans":[{"start":{"in":"1462"},"end":{"in":"1462"}},{"start":{"in":"1485"},"end":{"in":"1485"}}]}}],"types":[{"identifier":"http://vocab.getty.edu/aat/300232418","label":"administrative division","sourceLabels":[{"label":"township","lang":"en"}]}],"geometry":{"type":"GeometryCollection","geometries":[{"type":"Point","coordinates":[-2.12819,52.4262],"citations":[{"label":"GeoNames, gazetteer record geonames:2647662"}]},{"type":"Point","coordinates":[-2.13971304153841,52.42203191789778],"citations":[{"label":"Unlock (EDINA) gazetteer, gazetteer record unlock:11316938"}]},{"type":"Point","coordinates":[-2.1264,52.4224],"citations":[{"label":"Key to English Place-Names (KEPN), gazetteer record 5357"}]}]},"when":{"timespans":[{"start":{"in":"1086"},"end":{"in":"1485"}}]},"links":[{"type":"closeMatch","identifier":"https://sws.geonames.org/2647662/"}],"relations":[{"relationType":"gvp:broaderPartitive","relationTo":"https://w3id.org/whg-epns/04/004786","label":"within Hagley"}]}]}