{"@context":"https://raw.githubusercontent.com/LinkedPasts/linked-places-format/main/linkedplaces-context-v1.1.jsonld","type":"FeatureCollection","license":"Digitisation of English Placenames MADS data is licensed to Jisc by the English Place Names Society and released under a Creative Commons Attribution-NonCommercial 4.0 International License.","note":"LPF v1.3, lossy; derived from the PLATO record; plato_commit=ca0afadabec1e23a145c0b03df77e8f151f79832","features":[{"@id":"https://w3id.org/whg-epns/04/004870","type":"Feature","properties":{"title":"Hunnington Farm","ccodes":["GB"],"fclasses":["A","P"]},"names":[{"toponym":"Hunnington Farm","lang":"en","citations":[{"label":"English Place-Name Society survey, volume 4: Worcestershire"}]},{"toponym":"Honinton","citations":[{"label":"1270 Ct","year":1270}],"when":{"timespans":[{"start":{"in":"1270"},"end":{"in":"1270"}},{"start":{"in":"1280"},"end":{"in":"1280"}}]}},{"toponym":"Honyton","citations":[{"label":"1500 Nash","year":1500}],"when":{"timespans":[{"start":{"in":"1500"},"end":{"in":"1500"}}]}}],"types":[{"identifier":"http://vocab.getty.edu/aat/300232418","label":"administrative division","sourceLabels":[{"label":"township","lang":"en"}]}],"geometry":{"type":"Point","coordinates":[-2.05289,52.4315],"citations":[{"label":"Key to English Place-Names (KEPN), gazetteer record 5363"}]},"when":{"timespans":[{"start":{"in":"1270"},"end":{"in":"1500"}}]},"relations":[{"relationType":"gvp:broaderPartitive","relationTo":"https://w3id.org/whg-epns/04/004807","label":"within Halesowen"}]}]}