{"@context":"https://raw.githubusercontent.com/LinkedPasts/linked-places-format/main/linkedplaces-context-v1.1.jsonld","type":"FeatureCollection","license":"Digitisation of English Placenames MADS data is licensed to Jisc by the English Place Names Society and released under a Creative Commons Attribution-NonCommercial 4.0 International License.","note":"LPF v1.3, lossy; derived from the PLATO record; plato_commit=ca0afadabec1e23a145c0b03df77e8f151f79832","features":[{"@id":"http://placenames.org.uk/id/placename/04/004881","type":"Feature","properties":{"title":"Illey","ccodes":["GB"],"fclasses":["A","P"]},"names":[{"toponym":"Illey","lang":"en","citations":[{"label":"English Place-Name Society survey, volume 4: Worcestershire"}]},{"toponym":"Hillely","citations":[{"label":"John LyttCh","year":1199}],"when":{"timespans":[{"start":{"earliest":"1199","latest":"1216"},"end":{"earliest":"1199","latest":"1216"}}]}},{"toponym":"Hilleleye","citations":[{"label":"Hy 3 LyttCh","year":1216}],"when":{"timespans":[{"start":{"earliest":"1216","latest":"1272"},"end":{"earliest":"1216","latest":"1272"}}]}},{"toponym":"Illeg","citations":[{"label":"1255 Ass","year":1255}],"when":{"timespans":[{"start":{"in":"1255"},"end":{"in":"1255"}}]}},{"toponym":"Illeleya","citations":[{"label":"1271 Ct","year":1271}],"when":{"timespans":[{"start":{"in":"1271"},"end":{"in":"1271"}}]}}],"types":[{"identifier":"http://vocab.getty.edu/aat/300232418","label":"administrative division","sourceLabels":[{"label":"township","lang":"en"}]}],"geometry":{"type":"GeometryCollection","geometries":[{"type":"Point","coordinates":[-2.02709,52.43378],"citations":[{"label":"GeoNames, gazetteer record geonames:2646270"}]},{"type":"Point","coordinates":[-2.022064477390306,52.43110348516169],"citations":[{"label":"Unlock (EDINA) gazetteer, gazetteer record unlock:11182253"}]},{"type":"Point","coordinates":[-2.02347,52.4315],"citations":[{"label":"Key to English Place-Names (KEPN), gazetteer record 5364"}]}]},"when":{"timespans":[{"start":{"in":"1199"},"end":{"in":"1272"}}]},"links":[{"type":"closeMatch","identifier":"https://sws.geonames.org/2646270/"}],"relations":[{"relationType":"gvp:broaderPartitive","relationTo":"http://placenames.org.uk/id/placename/04/004807","label":"within Halesowen"}]}]}