{"@context":"https://raw.githubusercontent.com/LinkedPasts/linked-places-format/main/linkedplaces-context-v1.1.jsonld","type":"FeatureCollection","license":"Digitisation of English Placenames MADS data is licensed to Jisc by the English Place Names Society and released under a Creative Commons Attribution-NonCommercial 4.0 International License.","note":"LPF v1.3, lossy; derived from the PLATO record; plato_commit=ca0afadabec1e23a145c0b03df77e8f151f79832","features":[{"@id":"http://placenames.org.uk/id/placename/04/004909","type":"Feature","properties":{"title":"Langley","ccodes":["GB"],"fclasses":["A","P"]},"names":[{"toponym":"Langley","lang":"en","citations":[{"label":"English Place-Name Society survey, volume 4: Worcestershire"}]},{"toponym":"Longeleye","citations":[{"label":"1270 Ct","year":1270}],"when":{"timespans":[{"start":{"in":"1270"},"end":{"in":"1270"}}]}},{"toponym":"Lang(e)ley","citations":[{"label":"1271 Ct","year":1271}],"when":{"timespans":[{"start":{"in":"1271"},"end":{"in":"1271"}}]}},{"toponym":"Longley","citations":[{"label":"1500 Nash","year":1500}],"when":{"timespans":[{"start":{"in":"1500"},"end":{"in":"1500"}}]}}],"types":[{"identifier":"http://vocab.getty.edu/aat/300232418","label":"administrative division","sourceLabels":[{"label":"township","lang":"en"}]}],"geometry":{"type":"GeometryCollection","geometries":[{"type":"Point","coordinates":[-2.007365321927753,52.49404257071122],"citations":[{"label":"Unlock (EDINA) gazetteer, gazetteer record unlock:11191544"}]},{"type":"Point","coordinates":[-2.02351,52.5034],"citations":[{"label":"Key to English Place-Names (KEPN), gazetteer record 5368"}]}]},"when":{"timespans":[{"start":{"in":"1270"},"end":{"in":"1500"}}]},"relations":[{"relationType":"gvp:broaderPartitive","relationTo":"http://placenames.org.uk/id/placename/04/004807","label":"within Halesowen"}]}]}