{"@context":"https://raw.githubusercontent.com/LinkedPasts/linked-places-format/main/linkedplaces-context-v1.1.jsonld","type":"FeatureCollection","license":"Digitisation of English Placenames MADS data is licensed to Jisc by the English Place Names Society and released under a Creative Commons Attribution-NonCommercial 4.0 International License.","note":"LPF v1.3, lossy; derived from the PLATO record; plato_commit=ca0afadabec1e23a145c0b03df77e8f151f79832","features":[{"@id":"https://w3id.org/whg-epns/04/005032","type":"Feature","properties":{"title":"Pedmore","ccodes":["GB"],"fclasses":["A","P"]},"names":[{"toponym":"Pedmore","lang":"en","citations":[{"label":"English Place-Name Society survey, volume 4: Worcestershire"}]},{"toponym":"Pevemore","citations":[{"label":"1086 DB","year":1086}],"when":{"timespans":[{"start":{"in":"1086"},"end":{"in":"1086"}}]}},{"toponym":"Pubemora","citations":[{"label":"1176 P","year":1176}],"when":{"timespans":[{"start":{"in":"1176"},"end":{"in":"1176"}}]}},{"toponym":"Pebb(e)more","citations":[{"label":"1291 Ipm","year":1291},{"label":"1346 FA","year":1346}],"when":{"timespans":[{"start":{"in":"1291"},"end":{"in":"1291"}},{"start":{"in":"1346"},"end":{"in":"1346"}}]}},{"toponym":"Pebemore","citations":[{"label":"1212 Fees","year":1212}],"when":{"timespans":[{"start":{"in":"1212"},"end":{"in":"1212"}}]}},{"toponym":"Pedmore","citations":[{"label":"c. 1270 LyttCh","year":1260},{"label":"1431 FA","year":1431}],"when":{"timespans":[{"start":{"earliest":"1260","latest":"1280"},"end":{"earliest":"1260","latest":"1280"}},{"start":{"in":"1431"},"end":{"in":"1431"}}]}},{"toponym":"Pedmer","citations":[{"label":"1275 SR","year":1275}],"when":{"timespans":[{"start":{"in":"1275"},"end":{"in":"1275"}}]}},{"toponym":"Pebmore","citations":[{"label":"1291 Ipm","year":1291},{"label":"1323 Cl","year":1323},{"label":"1323 IpmR","year":1323},{"label":"1327 SR","year":1327}],"when":{"timespans":[{"start":{"in":"1291"},"end":{"in":"1291"}},{"start":{"in":"1323"},"end":{"in":"1323"}},{"start":{"in":"1323"},"end":{"in":"1323"}},{"start":{"in":"1327"},"end":{"in":"1327"}}]}},{"toponym":"Pobmore","citations":[{"label":"1323 Ipm","year":1323}],"when":{"timespans":[{"start":{"in":"1323"},"end":{"in":"1323"}}]}},{"toponym":"Pedemore","citations":[{"label":"1406 Pat","year":1406}],"when":{"timespans":[{"start":{"in":"1406"},"end":{"in":"1406"}}]}},{"toponym":"Pobbemore","citations":[{"label":"1428 FA","year":1428}],"when":{"timespans":[{"start":{"in":"1428"},"end":{"in":"1428"}}]}}],"types":[{"identifier":"http://vocab.getty.edu/aat/300232418","label":"administrative division","sourceLabels":[{"label":"township","lang":"en"}]}],"geometry":{"type":"GeometryCollection","geometries":[{"type":"Point","coordinates":[-2.13286,52.43854],"citations":[{"label":"GeoNames, gazetteer record geonames:2640528"}]},{"type":"Point","coordinates":[-2.125057331405315,52.44003050549355],"citations":[{"label":"Unlock (EDINA) gazetteer, gazetteer record unlock:11241683"}]},{"type":"Point","coordinates":[-2.12646,52.4404],"citations":[{"label":"Key to English Place-Names (KEPN), gazetteer record 5369"}]}]},"when":{"timespans":[{"start":{"in":"1086"},"end":{"in":"1431"}}]},"links":[{"type":"closeMatch","identifier":"https://sws.geonames.org/2640528/"}],"relations":[{"relationType":"gvp:broaderPartitive","relationTo":"https://w3id.org/whg-epns/04/005031","label":"within Pedmore"}]}]}