{"@context":"https://raw.githubusercontent.com/LinkedPasts/linked-places-format/main/linkedplaces-context-v1.1.jsonld","type":"FeatureCollection","license":"Digitisation of English Placenames MADS data is licensed to Jisc by the English Place Names Society and released under a Creative Commons Attribution-NonCommercial 4.0 International License.","note":"LPF v1.3, lossy; derived from the PLATO record; plato_commit=ca0afadabec1e23a145c0b03df77e8f151f79832","features":[{"@id":"http://placenames.org.uk/id/placename/04/005146","type":"Feature","properties":{"title":"Upton Warren","ccodes":["GB"],"fclasses":["A","P"]},"names":[{"toponym":"Upton Warren","lang":"en","citations":[{"label":"English Place-Name Society survey, volume 4: Worcestershire"}]},{"toponym":"Upton(a)","citations":[{"label":"716 BCS","year":716},{"label":"1212 Fees","year":1212}],"when":{"timespans":[{"start":{"in":"0716"},"end":{"in":"0716"}},{"start":{"in":"1212"},"end":{"in":"1212"}}]}},{"toponym":"Uptune","citations":[{"label":"1086 DB","year":1086}],"when":{"timespans":[{"start":{"in":"1086"},"end":{"in":"1086"}}]}},{"toponym":"Opton","citations":[{"label":"1255 Ass","year":1255}],"when":{"timespans":[{"start":{"in":"1255"},"end":{"in":"1255"}}]}},{"toponym":"Opton Warini","citations":[{"label":"1290 Wigorn","year":1290}],"when":{"timespans":[{"start":{"in":"1290"},"end":{"in":"1290"}}]}},{"toponym":"Shirreue Upton","citations":[{"label":"1300 Pat","year":1300}],"when":{"timespans":[{"start":{"in":"1300"},"end":{"in":"1300"}}]}},{"toponym":"Shirreues Upton juxta Bremesgrave","citations":[{"label":"1319 FF","year":1319}],"when":{"timespans":[{"start":{"in":"1319"},"end":{"in":"1319"}}]}}],"types":[{"identifier":"http://vocab.getty.edu/aat/300232418","label":"administrative division","sourceLabels":[{"label":"township","lang":"en"}]}],"geometry":{"type":"GeometryCollection","geometries":[{"type":"Point","coordinates":[-2.10496,52.30521],"citations":[{"label":"GeoNames, gazetteer record geonames:2635079"}]},{"type":"Point","coordinates":[-2.095341281837499,52.30519053961657],"citations":[{"label":"Unlock (EDINA) gazetteer, gazetteer record unlock:11310826"}]},{"type":"Point","coordinates":[-2.09674,52.3056],"citations":[{"label":"Key to English Place-Names (KEPN), gazetteer record 5375"}]}]},"when":{"timespans":[{"start":{"in":"0716"},"end":{"in":"1319"}}]},"links":[{"type":"closeMatch","identifier":"https://sws.geonames.org/2635079/"}],"relations":[{"relationType":"gvp:broaderPartitive","relationTo":"http://placenames.org.uk/id/placename/04/005145","label":"within Upton Warren"}]}]}