{"@context":"https://raw.githubusercontent.com/LinkedPasts/linked-places-format/main/linkedplaces-context-v1.1.jsonld","type":"FeatureCollection","license":"Digitisation of English Placenames MADS data is licensed to Jisc by the English Place Names Society and released under a Creative Commons Attribution-NonCommercial 4.0 International License.","note":"LPF v1.3, lossy; derived from the PLATO record; plato_commit=ca0afadabec1e23a145c0b03df77e8f151f79832","features":[{"@id":"https://w3id.org/whg-epns/04/005523","type":"Feature","properties":{"title":"Abbots Morton","ccodes":["GB"],"fclasses":["A","P"]},"names":[{"toponym":"Abbots Morton","lang":"en","citations":[{"label":"English Place-Name Society survey, volume 4: Worcestershire"}]},{"toponym":"Mortun","citations":[{"label":"708 BCS","year":708},{"label":"714 BCS","year":714},{"label":"1086 DB","year":1086},{"label":"c. 1086 EveA","year":1076}],"when":{"timespans":[{"start":{"in":"0708"},"end":{"in":"0708"}},{"start":{"in":"0714"},"end":{"in":"0714"}},{"start":{"in":"1086"},"end":{"in":"1086"}},{"start":{"earliest":"1076","latest":"1096"},"end":{"earliest":"1076","latest":"1096"}}]}},{"toponym":"Abbotes Morton","citations":[{"label":"1418 Pat","year":1418}],"when":{"timespans":[{"start":{"in":"1418"},"end":{"in":"1418"}}]}},{"toponym":"Morton Abbat","citations":[{"label":"1428 FA","year":1428}],"when":{"timespans":[{"start":{"in":"1428"},"end":{"in":"1428"}}]}},{"toponym":"Stonie Morton","citations":[{"label":"1610 QSR","year":1610}],"when":{"timespans":[{"start":{"in":"1610"},"end":{"in":"1610"}}]}},{"toponym":"Stony Moreton","citations":[{"label":"1787 Cary","year":1787}],"when":{"timespans":[{"start":{"in":"1787"},"end":{"in":"1787"}}]}}],"types":[{"identifier":"http://vocab.getty.edu/aat/300232418","label":"administrative division","sourceLabels":[{"label":"township","lang":"en"}]}],"geometry":{"type":"GeometryCollection","geometries":[{"type":"Point","coordinates":[-1.95314,52.18755],"citations":[{"label":"GeoNames, gazetteer record geonames:7291720"}]},{"type":"Point","coordinates":[-1.963419110273673,52.1973270395718],"citations":[{"label":"Unlock (EDINA) gazetteer, gazetteer record unlock:11055267"}]},{"type":"Point","coordinates":[-1.96483,52.1977],"citations":[{"label":"Key to English Place-Names (KEPN), gazetteer record 5382"}]}]},"when":{"timespans":[{"start":{"in":"0708"},"end":{"in":"1787"}}]},"links":[{"type":"closeMatch","identifier":"https://sws.geonames.org/7291720/"}],"relations":[{"relationType":"gvp:broaderPartitive","relationTo":"https://w3id.org/whg-epns/04/005522","label":"within Abbots Morton"}]}]}