{"@context":"https://raw.githubusercontent.com/LinkedPasts/linked-places-format/main/linkedplaces-context-v1.1.jsonld","type":"FeatureCollection","license":"Digitisation of English Placenames MADS data is licensed to Jisc by the English Place Names Society and released under a Creative Commons Attribution-NonCommercial 4.0 International License.","note":"LPF v1.3, lossy; derived from the PLATO record; plato_commit=ca0afadabec1e23a145c0b03df77e8f151f79832","features":[{"@id":"http://placenames.org.uk/id/placename/20/002621","type":"Feature","properties":{"title":"Kirkandrews Moat","ccodes":["GB"],"fclasses":["A","P"]},"names":[{"toponym":"Kirkandrews Moat","lang":"en","citations":[{"label":"English Place-Name Society survey, volume 20: Cumberland"}]}],"types":[{"identifier":"http://vocab.getty.edu/aat/300232418","label":"administrative division","sourceLabels":[{"label":"parish","lang":"en"}]}],"geometry":{"type":"Point","coordinates":[-2.96374,55.0342],"citations":[{"label":"Key to English Place-Names (KEPN), gazetteer record 0060"}]},"relations":[{"relationType":"gvp:broaderPartitive","relationTo":"http://placenames.org.uk/id/placename/20/000002","label":"within Eskdale Ward"}]}]}