{"@context":"https://raw.githubusercontent.com/LinkedPasts/linked-places-format/main/linkedplaces-context-v1.1.jsonld","type":"FeatureCollection","license":"Digitisation of English Placenames MADS data is licensed to Jisc by the English Place Names Society and released under a Creative Commons Attribution-NonCommercial 4.0 International License.","note":"LPF v1.3, lossy; derived from the PLATO record; plato_commit=ca0afadabec1e23a145c0b03df77e8f151f79832","features":[{"@id":"http://placenames.org.uk/id/placename/20/003313","type":"Feature","properties":{"title":"Walton","ccodes":["GB"],"fclasses":["A","P"]},"names":[{"toponym":"Walton","lang":"en","citations":[{"label":"English Place-Name Society survey, volume 20: Cumberland"}]},{"toponym":"Walton","citations":[{"label":"1169–1169, recurring Laner","year":1169},{"label":"1169 Laner","year":1169}],"when":{"timespans":[{"start":{"in":"1169"},"end":{"in":"1169"}},{"start":{"in":"1169"},"end":{"in":"1169"}}]}},{"toponym":"the Waltowne","citations":[{"label":"1599 Border","year":1599}],"when":{"timespans":[{"start":{"in":"1599"},"end":{"in":"1599"}}]}},{"toponym":"Warton'","citations":[{"label":"1278 Ass","year":1278},{"label":"1337 NorthReg","year":1337}],"when":{"timespans":[{"start":{"in":"1278"},"end":{"in":"1278"}},{"start":{"in":"1337"},"end":{"in":"1337"}}]}},{"toponym":"Watton","citations":[{"label":"1580 Border","year":1580}],"when":{"timespans":[{"start":{"in":"1580"},"end":{"in":"1580"}}]}},{"toponym":"Wauton","citations":[{"label":"1590-1 FF","year":1590}],"when":{"timespans":[{"start":{"earliest":"1590","latest":"1591"},"end":{"earliest":"1590","latest":"1591"}}]}}],"types":[{"identifier":"http://vocab.getty.edu/aat/300232418","label":"administrative division","sourceLabels":[{"label":"township","lang":"en"}]}],"geometry":{"type":"GeometryCollection","geometries":[{"type":"Point","coordinates":[-2.73333,54.96667],"citations":[{"label":"GeoNames, gazetteer record geonames:2634833"}]},{"type":"Point","coordinates":[-2.742129258574614,54.9727745364579],"citations":[{"label":"Unlock (EDINA) gazetteer, gazetteer record unlock:11312822"}]},{"type":"Point","coordinates":[-2.74355,54.9728],"citations":[{"label":"Key to English Place-Names (KEPN), gazetteer record 4392"}]}]},"when":{"timespans":[{"start":{"in":"1169"},"end":{"in":"1599"}}]},"links":[{"type":"closeMatch","identifier":"https://sws.geonames.org/2634833/"}],"relations":[{"relationType":"gvp:broaderPartitive","relationTo":"http://placenames.org.uk/id/placename/20/003312","label":"within Walton"}]}]}