{"@context":"https://raw.githubusercontent.com/LinkedPasts/linked-places-format/main/linkedplaces-context-v1.1.jsonld","type":"FeatureCollection","license":"Digitisation of English Placenames MADS data is licensed to Jisc by the English Place Names Society and released under a Creative Commons Attribution-NonCommercial 4.0 International License.","note":"LPF v1.3, lossy; derived from the PLATO record; plato_commit=fa0d247ccc0263f8f19c8d7cdcd163df96935d1e","features":[{"@id":"https://w3id.org/whg-epns/20/003518","type":"Feature","properties":{"title":"Westlinton","ccodes":["GB"],"fclasses":["A","P"]},"names":[{"toponym":"Westlinton","lang":"en","citations":[{"label":"English Place-Name Society survey, volume 20: Cumberland"}]},{"toponym":"Westlevington","citations":[{"label":"Laner","year":1190},{"label":"Norfolk"},{"label":"c. 1200 Laner","year":1190},{"label":"1682 Norfolk","year":1682}],"when":{"timespans":[{"start":{"in":"1190"},"end":{"in":"1682"}},{"start":{"earliest":"1190","latest":"1210"},"end":{"earliest":"1190","latest":"1210"}},{"start":{"in":"1682"},"end":{"in":"1682"}}]}},{"toponym":"Levyngton","citations":[{"label":"c. 1200-1682 unspecified sources","year":1190}],"when":{"timespans":[{"start":{"in":"1190"},"end":{"in":"1682"}}]}},{"toponym":"Westleventon","citations":[{"label":"1249 Ipm","year":1249},{"label":"1675 Ogilby","year":1675}],"when":{"timespans":[{"start":{"in":"1249"},"end":{"in":"1249"}},{"start":{"in":"1675"},"end":{"in":"1675"}}]}},{"toponym":"West Linton","citations":[{"label":"1583 Border","year":1583}],"when":{"timespans":[{"start":{"in":"1583"},"end":{"in":"1583"}}]}},{"toponym":"West Lenton","citations":[{"label":"1589 LRMB","year":1589}],"when":{"timespans":[{"start":{"in":"1589"},"end":{"in":"1589"}}]}}],"types":[{"identifier":"http://vocab.getty.edu/aat/300232418","label":"administrative division","sourceLabels":[{"label":"township","lang":"en"}]}],"geometry":{"type":"GeometryCollection","geometries":[{"type":"Point","coordinates":[-2.95782,54.96311],"citations":[{"label":"GeoNames, gazetteer record geonames:7294232"}]},{"type":"Point","coordinates":[-2.945210833133225,54.97136582553944],"citations":[{"label":"Unlock (EDINA) gazetteer, gazetteer record unlock:11318856"}]},{"type":"Point","coordinates":[-2.94661,54.9714],"citations":[{"label":"Key to English Place-Names (KEPN), gazetteer record 4394"}]}]},"when":{"timespans":[{"start":{"in":"1190"},"end":{"in":"1682"}}]},"links":[{"type":"closeMatch","identifier":"https://sws.geonames.org/7294232/"}],"relations":[{"relationType":"gvp:broaderPartitive","relationTo":"https://w3id.org/whg-epns/20/003517","label":"within Westlinton"}]}]}