{"@context":"https://raw.githubusercontent.com/LinkedPasts/linked-places-format/main/linkedplaces-context-v1.1.jsonld","type":"FeatureCollection","license":"Digitisation of English Placenames MADS data is licensed to Jisc by the English Place Names Society and released under a Creative Commons Attribution-NonCommercial 4.0 International License.","note":"LPF v1.3, lossy; derived from the PLATO record; plato_commit=ca0afadabec1e23a145c0b03df77e8f151f79832","features":[{"@id":"http://placenames.org.uk/id/placename/20/005528","type":"Feature","properties":{"title":"Thursby","ccodes":["GB"],"fclasses":["A","P"]},"names":[{"toponym":"Thursby","lang":"en","citations":[{"label":"English Place-Name Society survey, volume 20: Cumberland"}]},{"toponym":"mylne of Thuresby","citations":[{"label":"1589 LRMB","year":1589}],"when":{"timespans":[{"start":{"in":"1589"},"end":{"in":"1589"}}]}},{"toponym":"Thursby Mill","citations":[{"label":"1700 CW","year":1700}],"when":{"timespans":[{"start":{"in":"1700"},"end":{"in":"1700"}}]}}],"types":[{"identifier":"http://vocab.getty.edu/aat/300232418","label":"administrative division","sourceLabels":[{"label":"township","lang":"en"}]}],"geometry":{"type":"GeometryCollection","geometries":[{"type":"Point","coordinates":[-3.0509,54.8426],"citations":[{"label":"GeoNames, gazetteer record geonames:2635884"}]},{"type":"Point","coordinates":[-3.051271086996107,54.84466510506051],"citations":[{"label":"Unlock (EDINA) gazetteer, gazetteer record unlock:11300705"}]},{"type":"Point","coordinates":[-3.05265,54.8447],"citations":[{"label":"Key to English Place-Names (KEPN), gazetteer record 4411"}]}]},"when":{"timespans":[{"start":{"in":"1589"},"end":{"in":"1700"}}]},"links":[{"type":"closeMatch","identifier":"https://sws.geonames.org/2635884/"}],"relations":[{"relationType":"gvp:broaderPartitive","relationTo":"http://placenames.org.uk/id/placename/20/005527","label":"within Thursby"}]}]}