{"@context":"https://raw.githubusercontent.com/LinkedPasts/linked-places-format/main/linkedplaces-context-v1.1.jsonld","type":"FeatureCollection","license":"Digitisation of English Placenames MADS data is licensed to Jisc by the English Place Names Society and released under a Creative Commons Attribution-NonCommercial 4.0 International License.","note":"LPF v1.3, lossy; derived from the PLATO record; plato_commit=fa0d247ccc0263f8f19c8d7cdcd163df96935d1e","features":[{"@id":"https://w3id.org/whg-epns/20/007510","type":"Feature","properties":{"title":"Edenhall","ccodes":["GB"],"fclasses":["A","P"]},"names":[{"toponym":"Edenhall","lang":"en","citations":[{"label":"English Place-Name Society survey, volume 20: Cumberland"}]},{"toponym":"Edenhal'","citations":[{"label":"1159 P","year":1159},{"label":"1212 Fees","year":1212}],"when":{"timespans":[{"start":{"in":"1159"},"end":{"in":"1159"}},{"start":{"in":"1212"},"end":{"in":"1212"}}]}},{"toponym":"Edinhale","citations":[{"label":"1332 SR","year":1332}],"when":{"timespans":[{"start":{"in":"1332"},"end":{"in":"1332"}}]}},{"toponym":"Edenehall'","citations":[{"label":"1232 Pipe","year":1232}],"when":{"timespans":[{"start":{"in":"1232"},"end":{"in":"1232"}}]}},{"toponym":"Eddenall","citations":[{"label":"t. Hy 3 Ipm","year":1216}],"when":{"timespans":[{"start":{"earliest":"1216","latest":"1272"},"end":{"earliest":"1216","latest":"1272"}}]}},{"toponym":"Eddenale","citations":[{"label":"1421 Pat","year":1421}],"when":{"timespans":[{"start":{"in":"1421"},"end":{"in":"1421"}}]}},{"toponym":"Edenell by Penreth","citations":[{"label":"1444 Pat","year":1444}],"when":{"timespans":[{"start":{"in":"1444"},"end":{"in":"1444"}}]}},{"toponym":"Hedenhale","citations":[{"label":"1278 Ass","year":1278}],"when":{"timespans":[{"start":{"in":"1278"},"end":{"in":"1278"}}]}},{"toponym":"Eddenhale","citations":[{"label":"1279 FF","year":1279}],"when":{"timespans":[{"start":{"in":"1279"},"end":{"in":"1279"}}]}},{"toponym":"Edenhall","citations":[{"label":"1313 Ipm","year":1313}],"when":{"timespans":[{"start":{"in":"1313"},"end":{"in":"1313"}}]}},{"toponym":"Eddynhall","citations":[{"label":"1491 Ipm","year":1491}],"when":{"timespans":[{"start":{"in":"1491"},"end":{"in":"1491"}}]}},{"toponym":"Edynghall","citations":[{"label":"1533 LP","year":1533}],"when":{"timespans":[{"start":{"in":"1533"},"end":{"in":"1533"}}]}},{"toponym":"Ednale","citations":[{"label":"1407 FA","year":1407}],"when":{"timespans":[{"start":{"in":"1407"},"end":{"in":"1407"}}]}},{"toponym":"Ednell","citations":[{"label":"1437 FF","year":1437},{"label":"1576 S","year":1576}],"when":{"timespans":[{"start":{"in":"1437"},"end":{"in":"1437"}},{"start":{"in":"1576"},"end":{"in":"1576"}}]}},{"toponym":"Ednyll","citations":[{"label":"1440 Pat","year":1440}],"when":{"timespans":[{"start":{"in":"1440"},"end":{"in":"1440"}}]}},{"toponym":"Edynel, Edynnall","citations":[{"label":"1537 LP","year":1537}],"when":{"timespans":[{"start":{"in":"1537"},"end":{"in":"1537"}}]}},{"toponym":"Eednell","citations":[{"label":"1606 HMC","year":1606}],"when":{"timespans":[{"start":{"in":"1606"},"end":{"in":"1606"}}]}}],"types":[{"identifier":"http://vocab.getty.edu/aat/300232418","label":"administrative division","sourceLabels":[{"label":"township","lang":"en"}]}],"geometry":{"type":"GeometryCollection","geometries":[{"type":"Point","coordinates":[-2.6792,54.68296],"citations":[{"label":"GeoNames, gazetteer record geonames:2650243"}]},{"type":"Point","coordinates":[-2.674825905386882,54.68556068396318],"citations":[{"label":"Unlock (EDINA) gazetteer, gazetteer record unlock:11137881"}]},{"type":"Point","coordinates":[-2.67625,54.6857],"citations":[{"label":"Key to English Place-Names (KEPN), gazetteer record 15922"}]}]},"when":{"timespans":[{"start":{"in":"1159"},"end":{"in":"1606"}}]},"links":[{"type":"closeMatch","identifier":"https://sws.geonames.org/2650243/"}],"relations":[{"relationType":"gvp:broaderPartitive","relationTo":"https://w3id.org/whg-epns/20/007509","label":"within Edenhall"}]}]}