{"@context":"https://raw.githubusercontent.com/LinkedPasts/linked-places-format/main/linkedplaces-context-v1.1.jsonld","type":"FeatureCollection","license":"Digitisation of English Placenames MADS data is licensed to Jisc by the English Place Names Society and released under a Creative Commons Attribution-NonCommercial 4.0 International License.","note":"LPF v1.3, lossy; derived from the PLATO record; plato_commit=fa0d247ccc0263f8f19c8d7cdcd163df96935d1e","features":[{"@id":"https://w3id.org/whg-epns/20/007701","type":"Feature","properties":{"title":"Greystoke","ccodes":["GB"],"fclasses":["A","P"]},"names":[{"toponym":"Greystoke","lang":"en","citations":[{"label":"English Place-Name Society survey, volume 20: Cumberland"}]},{"toponym":"Creistoch'","citations":[{"label":"1167 P","year":1167}],"when":{"timespans":[{"start":{"in":"1167"},"end":{"in":"1167"}}]}},{"toponym":"Creystok'","citations":[{"label":"Cl","year":1254},{"label":"Cl"},{"label":"1254 Cl","year":1254},{"label":"1294 Cl","year":1294},{"label":"1254 Cl","year":1254},{"label":"1279 Ass","year":1279}],"when":{"timespans":[{"start":{"in":"1254"},"end":{"in":"1294"}},{"start":{"in":"1254"},"end":{"in":"1254"}},{"start":{"in":"1294"},"end":{"in":"1294"}},{"start":{"in":"1254"},"end":{"in":"1254"}},{"start":{"in":"1279"},"end":{"in":"1279"}}]}},{"toponym":"Kreystock","citations":[{"label":"1279 Ass","year":1279}],"when":{"timespans":[{"start":{"in":"1279"},"end":{"in":"1279"}}]}},{"toponym":"Kreystoc","citations":[{"label":"1280 Misc","year":1280}],"when":{"timespans":[{"start":{"in":"1280"},"end":{"in":"1280"}}]}},{"toponym":"Creistok","citations":[{"label":"1359 Ipm","year":1359}],"when":{"timespans":[{"start":{"in":"1359"},"end":{"in":"1359"}}]}},{"toponym":"Crekestoc","citations":[{"label":"1171-5 CW","year":1171}],"when":{"timespans":[{"start":{"earliest":"1171","latest":"1175"},"end":{"earliest":"1171","latest":"1175"}}]}},{"toponym":"Crestoc","citations":[{"label":"1229 Pat","year":1229}],"when":{"timespans":[{"start":{"in":"1229"},"end":{"in":"1229"}}]}},{"toponym":"Craystock","citations":[{"label":"Ch","year":1245},{"label":"Ipm"},{"label":"1245 Ch","year":1245},{"label":"1359 Ipm","year":1359}],"when":{"timespans":[{"start":{"in":"1245"},"end":{"in":"1359"}},{"start":{"in":"1245"},"end":{"in":"1245"}},{"start":{"in":"1359"},"end":{"in":"1359"}}]}},{"toponym":"Craystok","citations":[{"label":"Ipm","year":1253},{"label":"Ipm"},{"label":"1253 Ipm","year":1253},{"label":"1359 Ipm","year":1359},{"label":"1247 Pipe","year":1247},{"label":"1279 Ass","year":1279}],"when":{"timespans":[{"start":{"in":"1253"},"end":{"in":"1359"}},{"start":{"in":"1253"},"end":{"in":"1253"}},{"start":{"in":"1359"},"end":{"in":"1359"}},{"start":{"in":"1247"},"end":{"in":"1247"}},{"start":{"in":"1279"},"end":{"in":"1279"}}]}},{"toponym":"Kraystok","citations":[{"label":"1279 Ass","year":1279}],"when":{"timespans":[{"start":{"in":"1279"},"end":{"in":"1279"}}]}},{"toponym":"Craystoc","citations":[{"label":"1300 Misc","year":1300}],"when":{"timespans":[{"start":{"in":"1300"},"end":{"in":"1300"}}]}},{"toponym":"Craistoke","citations":[{"label":"1305 Ipm","year":1305}],"when":{"timespans":[{"start":{"in":"1305"},"end":{"in":"1305"}}]}},{"toponym":"Graystoke","citations":[{"label":"1259 Pipe","year":1259}],"when":{"timespans":[{"start":{"in":"1259"},"end":{"in":"1259"}}]}},{"toponym":"Graystok","citations":[{"label":"Tax","year":1291},{"label":"1291 Tax","year":1291},{"label":"1253 Ipm","year":1253},{"label":"1299 FF","year":1299},{"label":"1327 Ipm","year":1327}],"when":{"timespans":[{"start":{"in":"1291"},"end":{"in":"1291"}},{"start":{"in":"1291"},"end":{"in":"1291"}},{"start":{"in":"1253"},"end":{"in":"1253"}},{"start":{"in":"1299"},"end":{"in":"1299"}},{"start":{"in":"1327"},"end":{"in":"1327"}}]}},{"toponym":"Graistok","citations":[{"label":"1332 SR","year":1332}],"when":{"timespans":[{"start":{"in":"1332"},"end":{"in":"1332"}}]}},{"toponym":"Graystock","citations":[{"label":"1349 Ipm","year":1349},{"label":"1407 FF","year":1407}],"when":{"timespans":[{"start":{"in":"1349"},"end":{"in":"1349"}},{"start":{"in":"1407"},"end":{"in":"1407"}}]}},{"toponym":"Greystok","citations":[{"label":"1289 Pap","year":1289},{"label":"early 14th Gough Map","year":1300},{"label":"1323 Ipm","year":1323}],"when":{"timespans":[{"start":{"in":"1289"},"end":{"in":"1289"}},{"start":{"earliest":"1300","latest":"1325"},"end":{"earliest":"1300","latest":"1325"}},{"start":{"in":"1323"},"end":{"in":"1323"}},{"start":{"in":"1327"},"end":{"in":"1327"}},{"start":{"in":"1359"},"end":{"in":"1359"}}]}},{"toponym":"Greistok","citations":[{"label":"1356 Orig","year":1356},{"label":"1307 Ipm","year":1307}],"when":{"timespans":[{"start":{"in":"1356"},"end":{"in":"1356"}},{"start":{"in":"1307"},"end":{"in":"1307"}}]}},{"toponym":"Grestock","citations":[{"label":"1562 FF","year":1562}],"when":{"timespans":[{"start":{"in":"1562"},"end":{"in":"1562"}}]}},{"toponym":"Greaistocke","citations":[{"label":"1655 CW (OS)","year":1655}],"when":{"timespans":[{"start":{"in":"1655"},"end":{"in":"1655"}}]}},{"toponym":"Gristock","citations":[{"label":"1657 CW (OS)","year":1657}],"when":{"timespans":[{"start":{"in":"1657"},"end":{"in":"1657"}}]}},{"toponym":"Graistoc","citations":[{"label":"c. 1180 Weth","year":1170}],"when":{"timespans":[{"start":{"earliest":"1170","latest":"1190"},"end":{"earliest":"1170","latest":"1190"}},{"start":{"earliest":"1220","latest":"1240"},"end":{"earliest":"1220","latest":"1240"}},{"start":{"earliest":"1227","latest":"1247"},"end":{"earliest":"1227","latest":"1247"}}]}},{"toponym":"Graystoe","citations":[{"label":"c. 1250 Lowther","year":1240},{"label":"1253 Ipm","year":1253}],"when":{"timespans":[{"start":{"earliest":"1240","latest":"1260"},"end":{"earliest":"1240","latest":"1260"}},{"start":{"in":"1253"},"end":{"in":"1253"}}]}},{"toponym":"Greystoke","citations":[{"label":"1253 Ipm","year":1253}],"when":{"timespans":[{"start":{"in":"1253"},"end":{"in":"1253"}},{"start":{"in":"1307"},"end":{"in":"1307"}}]}},{"toponym":"Greystock","citations":[{"label":"1253 Ipm","year":1253},{"label":"1278 Ass","year":1278}],"when":{"timespans":[{"start":{"in":"1253"},"end":{"in":"1253"}},{"start":{"in":"1278"},"end":{"in":"1278"}}]}},{"toponym":"Craystoc'","citations":[{"label":"1243 Pipe","year":1243}],"when":{"timespans":[{"start":{"in":"1243"},"end":{"in":"1243"}}]}},{"toponym":"Craistok'","citations":[{"label":"1254 Cl","year":1254}],"when":{"timespans":[{"start":{"in":"1254"},"end":{"in":"1254"}}]}},{"toponym":"Kreystok'","citations":[{"label":"1279 Ass","year":1279}],"when":{"timespans":[{"start":{"in":"1279"},"end":{"in":"1279"}}]}},{"toponym":"Creystock","citations":[{"label":"1304 Cl","year":1304}],"when":{"timespans":[{"start":{"in":"1304"},"end":{"in":"1304"}}]}},{"toponym":"Crastok","citations":[{"label":"1279 Ass","year":1279}],"when":{"timespans":[{"start":{"in":"1279"},"end":{"in":"1279"}}]}}],"types":[{"identifier":"http://vocab.getty.edu/aat/300232418","label":"administrative division","sourceLabels":[{"label":"township","lang":"en"}]}],"geometry":{"type":"GeometryCollection","geometries":[{"type":"Point","coordinates":[-2.87275,54.66907],"citations":[{"label":"GeoNames, gazetteer record geonames:2647900"}]},{"type":"Point","coordinates":[-2.860583757711604,54.66640785939521],"citations":[{"label":"Unlock (EDINA) gazetteer, gazetteer record unlock:11161122"}]},{"type":"Point","coordinates":[-2.86217,54.6755],"citations":[{"label":"Key to English Place-Names (KEPN), gazetteer record 4430"}]}]},"when":{"timespans":[{"start":{"in":"1167"},"end":{"in":"1657"}}]},"links":[{"type":"closeMatch","identifier":"https://sws.geonames.org/2647900/"}],"relations":[{"relationType":"gvp:broaderPartitive","relationTo":"https://w3id.org/whg-epns/20/007700","label":"within Greystoke"}]}]}