{"@context":"https://raw.githubusercontent.com/LinkedPasts/linked-places-format/main/linkedplaces-context-v1.1.jsonld","type":"FeatureCollection","license":"Digitisation of English Placenames MADS data is licensed to Jisc by the English Place Names Society and released under a Creative Commons Attribution-NonCommercial 4.0 International License.","note":"LPF v1.3, lossy; derived from the PLATO record; plato_commit=ca0afadabec1e23a145c0b03df77e8f151f79832","features":[{"@id":"https://w3id.org/whg-epns/08/000425","type":"Feature","properties":{"title":"Bratton Fleming","ccodes":["GB"],"fclasses":["A","P"]},"names":[{"toponym":"Bratton Fleming","lang":"en","citations":[{"label":"English Place-Name Society survey, volume 8: Devon"}]}],"types":[{"identifier":"http://vocab.getty.edu/aat/300232418","label":"administrative division","sourceLabels":[{"label":"parish","lang":"en"}]}],"geometry":{"type":"GeometryCollection","geometries":[{"type":"Point","coordinates":[-3.93854,51.1225],"citations":[{"label":"GeoNames, gazetteer record geonames:2654864"}]},{"type":"Point","coordinates":[-3.93630698498809,51.12021492901132],"citations":[{"label":"Unlock (EDINA) gazetteer, gazetteer record unlock:11085946"}]},{"type":"Point","coordinates":[-3.93745,51.1207],"citations":[{"label":"Key to English Place-Names (KEPN), gazetteer record 15462"}]}]},"links":[{"type":"closeMatch","identifier":"https://sws.geonames.org/2654864/"}],"relations":[{"relationType":"gvp:broaderPartitive","relationTo":"https://w3id.org/whg-epns/08/000222","label":"within Braunton Hundred"}]}]}