{"@context":"https://raw.githubusercontent.com/LinkedPasts/linked-places-format/main/linkedplaces-context-v1.1.jsonld","type":"FeatureCollection","license":"Digitisation of English Placenames MADS data is licensed to Jisc by the English Place Names Society and released under a Creative Commons Attribution-NonCommercial 4.0 International License.","note":"LPF v1.3, lossy; derived from the PLATO record; plato_commit=ca0afadabec1e23a145c0b03df77e8f151f79832","features":[{"@id":"https://w3id.org/whg-epns/08/000829","type":"Feature","properties":{"title":"Goodleigh","ccodes":["GB"],"fclasses":["A","P"]},"names":[{"toponym":"Goodleigh","lang":"en","citations":[{"label":"English Place-Name Society survey, volume 8: Devon"}]},{"toponym":"Godelega","citations":[{"label":"1086–1394, recurring DB","year":1086},{"label":"1086–1394, recurring Ass"},{"label":"1086 DB","year":1086},{"label":"1394 Ass","year":1394}],"when":{"timespans":[{"start":{"in":"1086"},"end":{"in":"1394"}},{"start":{"in":"1086"},"end":{"in":"1086"}},{"start":{"in":"1394"},"end":{"in":"1394"}}]}},{"toponym":"Godeleg(he)","citations":[{"label":"1086-1394 unspecified sources","year":1086}],"when":{"timespans":[{"start":{"in":"1086"},"end":{"in":"1394"}}]}},{"toponym":"Godeleg(he) juxta Barnastapol","citations":[{"label":"1314 Ass","year":1314}],"when":{"timespans":[{"start":{"in":"1314"},"end":{"in":"1314"}}]}},{"toponym":"Godeleg(he) juxta Shirewille","citations":[{"label":"1345 Ass","year":1345}],"when":{"timespans":[{"start":{"in":"1345"},"end":{"in":"1345"}}]}},{"toponym":"Godesleg'","citations":[{"label":"1234 Fees","year":1234}],"when":{"timespans":[{"start":{"in":"1234"},"end":{"in":"1234"}}]}}],"types":[{"identifier":"http://vocab.getty.edu/aat/300232418","label":"administrative division","sourceLabels":[{"label":"township","lang":"en"}]}],"geometry":{"type":"GeometryCollection","geometries":[{"type":"Point","coordinates":[-4.00212,51.08923],"citations":[{"label":"GeoNames, gazetteer record geonames:2648332"}]},{"type":"Point","coordinates":[-4.006543078499551,51.0920476256202],"citations":[{"label":"Unlock (EDINA) gazetteer, gazetteer record unlock:11156279"}]},{"type":"Point","coordinates":[-3.99341,51.0928],"citations":[{"label":"Key to English Place-Names (KEPN), gazetteer record 15471"}]}]},"when":{"timespans":[{"start":{"in":"1086"},"end":{"in":"1394"}}]},"links":[{"type":"closeMatch","identifier":"https://sws.geonames.org/2648332/"}],"relations":[{"relationType":"gvp:broaderPartitive","relationTo":"https://w3id.org/whg-epns/08/000828","label":"within Goodleigh"}]}]}