{"@context":"https://raw.githubusercontent.com/LinkedPasts/linked-places-format/main/linkedplaces-context-v1.1.jsonld","type":"FeatureCollection","license":"Digitisation of English Placenames MADS data is licensed to Jisc by the English Place Names Society and released under a Creative Commons Attribution-NonCommercial 4.0 International License.","note":"LPF v1.3, lossy; derived from the PLATO record; plato_commit=fa0d247ccc0263f8f19c8d7cdcd163df96935d1e","features":[{"@id":"https://w3id.org/whg-epns/08/002272","type":"Feature","properties":{"title":"Shebbear Hundred","ccodes":["GB"],"fclasses":["A"]},"names":[{"toponym":"Shebbear Hundred","lang":"en","citations":[{"label":"English Place-Name Society survey, volume 8: Devon"}]},{"toponym":"Sheftbera","citations":[{"label":"P","year":1167},{"label":"FA"},{"label":"1167 P","year":1167},{"label":"1303 FA","year":1303}],"when":{"timespans":[{"start":{"in":"1167"},"end":{"in":"1303"}},{"start":{"in":"1167"},"end":{"in":"1167"}},{"start":{"in":"1303"},"end":{"in":"1303"}}]}},{"toponym":"S(c)heft(e), S(c)hefberga","citations":[{"label":"1167-1303 unspecified sources","year":1167}],"when":{"timespans":[{"start":{"in":"1167"},"end":{"in":"1303"}}]}},{"toponym":"Scheftberga","citations":[{"label":"1170 P","year":1170}],"when":{"timespans":[{"start":{"in":"1170"},"end":{"in":"1170"}}]}},{"toponym":"Schafteberga","citations":[{"label":"1171 P","year":1171}],"when":{"timespans":[{"start":{"in":"1171"},"end":{"in":"1171"}}]}},{"toponym":"Schaftesberi","citations":[{"label":"1176 P","year":1176}],"when":{"timespans":[{"start":{"in":"1176"},"end":{"in":"1176"}}]}}],"types":[{"identifier":"http://vocab.getty.edu/aat/300232418","label":"administrative division","sourceLabels":[{"label":"hundred / wapentake","lang":"en"}]}],"geometry":null,"when":{"timespans":[{"start":{"in":"1167"},"end":{"in":"1303"}}]},"relations":[{"relationType":"gvp:broaderPartitive","relationTo":"https://w3id.org/whg-epns/08/000001","label":"within Devon"}]}]}