{"@context":"https://raw.githubusercontent.com/LinkedPasts/linked-places-format/main/linkedplaces-context-v1.1.jsonld","type":"FeatureCollection","license":"Digitisation of English Placenames MADS data is licensed to Jisc by the English Place Names Society and released under a Creative Commons Attribution-NonCommercial 4.0 International License.","note":"LPF v1.3, lossy; derived from the PLATO record; plato_commit=ca0afadabec1e23a145c0b03df77e8f151f79832","features":[{"@id":"https://w3id.org/whg-epns/08/002824","type":"Feature","properties":{"title":"Peters Marland","ccodes":["GB"],"fclasses":["A","P"]},"names":[{"toponym":"Peters Marland","lang":"en","citations":[{"label":"English Place-Name Society survey, volume 8: Devon"}]}],"types":[{"identifier":"http://vocab.getty.edu/aat/300232418","label":"administrative division","sourceLabels":[{"label":"parish","lang":"en"}]}],"geometry":{"type":"GeometryCollection","geometries":[{"type":"Point","coordinates":[-4.16538,50.90024],"citations":[{"label":"GeoNames, gazetteer record geonames:2640346"}]},{"type":"Point","coordinates":[-4.168973601981959,50.90025889859896],"citations":[{"label":"Unlock (EDINA) gazetteer, gazetteer record unlock:11244588"}]},{"type":"Point","coordinates":[-4.17008,50.9008],"citations":[{"label":"Key to English Place-Names (KEPN), gazetteer record 15509"}]}]},"links":[{"type":"closeMatch","identifier":"https://sws.geonames.org/2640346/"}],"relations":[{"relationType":"gvp:broaderPartitive","relationTo":"https://w3id.org/whg-epns/08/002272","label":"within Shebbear Hundred"}]}]}