{"@context":"https://raw.githubusercontent.com/LinkedPasts/linked-places-format/main/linkedplaces-context-v1.1.jsonld","type":"FeatureCollection","license":"Digitisation of English Placenames MADS data is licensed to Jisc by the English Place Names Society and released under a Creative Commons Attribution-NonCommercial 4.0 International License.","note":"LPF v1.3, lossy; derived from the PLATO record; plato_commit=fa0d247ccc0263f8f19c8d7cdcd163df96935d1e","features":[{"@id":"https://w3id.org/whg-epns/08/003189","type":"Feature","properties":{"title":"Shebbear","ccodes":["GB"],"fclasses":["A","P"]},"names":[{"toponym":"Shebbear","lang":"en","citations":[{"label":"English Place-Name Society survey, volume 8: Devon"}]},{"toponym":"Sceft beara, of Sceft beara","citations":[{"label":"1050-73 Earle","year":1050}],"when":{"timespans":[{"start":{"earliest":"1050","latest":"1073"},"end":{"earliest":"1050","latest":"1073"}}]}},{"toponym":"Sepesberia","citations":[{"label":"1086 DB","year":1086}],"when":{"timespans":[{"start":{"in":"1086"},"end":{"in":"1086"}}]}},{"toponym":"Seftƀia","citations":[{"label":"1167 P","year":1167}],"when":{"timespans":[{"start":{"in":"1167"},"end":{"in":"1167"}}]}},{"toponym":"Scheaftberia","citations":[{"label":"1177 P","year":1177}],"when":{"timespans":[{"start":{"in":"1177"},"end":{"in":"1177"}}]}},{"toponym":"Seftesberg","citations":[{"label":"1219 Ass","year":1219}],"when":{"timespans":[{"start":{"in":"1219"},"end":{"in":"1219"}}]}},{"toponym":"Schafbera","citations":[{"label":"1180 P","year":1180}],"when":{"timespans":[{"start":{"in":"1180"},"end":{"in":"1180"}}]}},{"toponym":"Schafberia","citations":[{"label":"1194 P","year":1194}],"when":{"timespans":[{"start":{"in":"1194"},"end":{"in":"1194"}}]}},{"toponym":"Shaftebeare","citations":[{"label":"1319 Ch","year":1319}],"when":{"timespans":[{"start":{"in":"1319"},"end":{"in":"1319"}}]}},{"toponym":"Syeftbere","citations":[{"label":"1262 Exon","year":1262}],"when":{"timespans":[{"start":{"in":"1262"},"end":{"in":"1262"}}]}},{"toponym":"Sheftbeare","citations":[{"label":"1291 Tax","year":1291},{"label":"1353 Ipm","year":1353}],"when":{"timespans":[{"start":{"in":"1291"},"end":{"in":"1291"}},{"start":{"in":"1353"},"end":{"in":"1353"}}]}},{"toponym":"Sheftbiare","citations":[{"label":"1322 Ass","year":1322}],"when":{"timespans":[{"start":{"in":"1322"},"end":{"in":"1322"}}]}},{"toponym":"Shieftbeare","citations":[{"label":"1358 Exon","year":1358}],"when":{"timespans":[{"start":{"in":"1358"},"end":{"in":"1358"}}]}},{"toponym":"Schebbeare","citations":[{"label":"1425 Exon","year":1425}],"when":{"timespans":[{"start":{"in":"1425"},"end":{"in":"1425"}}]}}],"types":[{"identifier":"http://vocab.getty.edu/aat/300232418","label":"administrative division","sourceLabels":[{"label":"township","lang":"en"}]}],"geometry":{"type":"GeometryCollection","geometries":[{"type":"Point","coordinates":[-4.21446,50.86255],"citations":[{"label":"GeoNames, gazetteer record geonames:2638099"}]},{"type":"Point","coordinates":[-4.224106606212917,50.86324178541759],"citations":[{"label":"Unlock (EDINA) gazetteer, gazetteer record unlock:11281933"}]},{"type":"Point","coordinates":[-4.21101,50.864],"citations":[{"label":"Key to English Place-Names (KEPN), gazetteer record 15518"}]}]},"when":{"timespans":[{"start":{"in":"1050"},"end":{"in":"1425"}}]},"links":[{"type":"closeMatch","identifier":"https://sws.geonames.org/2638099/"}],"relations":[{"relationType":"gvp:broaderPartitive","relationTo":"https://w3id.org/whg-epns/08/003188","label":"within Shebbear"}]}]}