{"@context":"https://raw.githubusercontent.com/LinkedPasts/linked-places-format/main/linkedplaces-context-v1.1.jsonld","type":"FeatureCollection","license":"Digitisation of English Placenames MADS data is licensed to Jisc by the English Place Names Society and released under a Creative Commons Attribution-NonCommercial 4.0 International License.","note":"LPF v1.3, lossy; derived from the PLATO record; plato_commit=fa0d247ccc0263f8f19c8d7cdcd163df96935d1e","features":[{"@id":"https://w3id.org/whg-epns/08/003268","type":"Feature","properties":{"title":"Sheepwash","ccodes":["GB"],"fclasses":["A","P"]},"names":[{"toponym":"Sheepwash","lang":"en","citations":[{"label":"English Place-Name Society survey, volume 8: Devon"}]},{"toponym":"Schepewast","citations":[{"label":"1166 LN","year":1166}],"when":{"timespans":[{"start":{"in":"1166"},"end":{"in":"1166"}}]}},{"toponym":"Sepewais","citations":[{"label":"1184 P","year":1184}],"when":{"timespans":[{"start":{"in":"1184"},"end":{"in":"1184"}}]}},{"toponym":"Schepwayse","citations":[{"label":"1253 Ipm","year":1253}],"when":{"timespans":[{"start":{"in":"1253"},"end":{"in":"1253"}}]}},{"toponym":"Shepwaysse","citations":[{"label":"1276 Ipm","year":1276}],"when":{"timespans":[{"start":{"in":"1276"},"end":{"in":"1276"}}]}},{"toponym":"Schipwaysche","citations":[{"label":"1346 FA","year":1346}],"when":{"timespans":[{"start":{"in":"1346"},"end":{"in":"1346"}}]}},{"toponym":"Shiepwaysshe","citations":[{"label":"1358 Exon","year":1358}],"when":{"timespans":[{"start":{"in":"1358"},"end":{"in":"1358"}}]}},{"toponym":"Shipwaishe","citations":[{"label":"1591 CtRequests","year":1591}],"when":{"timespans":[{"start":{"in":"1591"},"end":{"in":"1591"}}]}},{"toponym":"Shipwash","citations":[{"label":"1675 Ogilby","year":1675}],"when":{"timespans":[{"start":{"in":"1675"},"end":{"in":"1675"}}]}}],"types":[{"identifier":"http://vocab.getty.edu/aat/300232418","label":"administrative division","sourceLabels":[{"label":"township","lang":"en"}]}],"geometry":{"type":"GeometryCollection","geometries":[{"type":"Point","coordinates":[-4.15,50.83333],"citations":[{"label":"GeoNames, gazetteer record geonames:2638084"}]},{"type":"Point","coordinates":[-4.15186192461235,50.83761231197248],"citations":[{"label":"Unlock (EDINA) gazetteer, gazetteer record unlock:11282078"}]},{"type":"Point","coordinates":[-4.15297,50.8382],"citations":[{"label":"Key to English Place-Names (KEPN), gazetteer record 15519"}]}]},"when":{"timespans":[{"start":{"in":"1166"},"end":{"in":"1675"}}]},"links":[{"type":"closeMatch","identifier":"https://sws.geonames.org/2638084/"}],"relations":[{"relationType":"gvp:broaderPartitive","relationTo":"https://w3id.org/whg-epns/08/003267","label":"within Sheepwash"}]}]}