{"@context":"https://raw.githubusercontent.com/LinkedPasts/linked-places-format/main/linkedplaces-context-v1.1.jsonld","type":"FeatureCollection","license":"Digitisation of English Placenames MADS data is licensed to Jisc by the English Place Names Society and released under a Creative Commons Attribution-NonCommercial 4.0 International License.","note":"LPF v1.3, lossy; derived from the PLATO record; plato_commit=ca0afadabec1e23a145c0b03df77e8f151f79832","features":[{"@id":"http://placenames.org.uk/id/placename/08/004063","type":"Feature","properties":{"title":"Belstone","ccodes":["GB"],"fclasses":["A","P"]},"names":[{"toponym":"Belstone","lang":"en","citations":[{"label":"English Place-Name Society survey, volume 8: Devon"}]}],"types":[{"identifier":"http://vocab.getty.edu/aat/300232418","label":"administrative division","sourceLabels":[{"label":"parish","lang":"en"}]}],"geometry":{"type":"GeometryCollection","geometries":[{"type":"Point","coordinates":[-3.95794,50.7252],"citations":[{"label":"GeoNames, gazetteer record geonames:2655938"}]},{"type":"Point","coordinates":[-3.962436448264244,50.72402215223222],"citations":[{"label":"Unlock (EDINA) gazetteer, gazetteer record unlock:11074974"}]},{"type":"Point","coordinates":[-3.94941,50.7248],"citations":[{"label":"Key to English Place-Names (KEPN), gazetteer record 15537"}]}]},"links":[{"type":"closeMatch","identifier":"https://sws.geonames.org/2655938/"}],"relations":[{"relationType":"gvp:broaderPartitive","relationTo":"http://placenames.org.uk/id/placename/08/003886","label":"within Black Torrington Hundred"}]}]}