{"@context":"https://raw.githubusercontent.com/LinkedPasts/linked-places-format/main/linkedplaces-context-v1.1.jsonld","type":"FeatureCollection","license":"Digitisation of English Placenames MADS data is licensed to Jisc by the English Place Names Society and released under a Creative Commons Attribution-NonCommercial 4.0 International License.","note":"LPF v1.3, lossy; derived from the PLATO record; plato_commit=ca0afadabec1e23a145c0b03df77e8f151f79832","features":[{"@id":"https://w3id.org/whg-epns/08/005237","type":"Feature","properties":{"title":"West Putford","ccodes":["GB"],"fclasses":["A","P"]},"names":[{"toponym":"West Putford","lang":"en","citations":[{"label":"English Place-Name Society survey, volume 8: Devon"}]},{"toponym":"Poteforda, Podiforda","citations":[{"label":"1086 DB","year":1086}],"when":{"timespans":[{"start":{"in":"1086"},"end":{"in":"1086"}}]}},{"toponym":"Puteford","citations":[{"label":"1238 Ass","year":1238}],"when":{"timespans":[{"start":{"in":"1238"},"end":{"in":"1238"}}]}},{"toponym":"Putteford(e)","citations":[{"label":"1238–1311, recurring Ass","year":1238},{"label":"1238–1311, recurring Exon"},{"label":"1238 Ass","year":1238},{"label":"1311 Exon","year":1311}],"when":{"timespans":[{"start":{"in":"1238"},"end":{"in":"1311"}},{"start":{"in":"1238"},"end":{"in":"1238"}},{"start":{"in":"1311"},"end":{"in":"1311"}}]}},{"toponym":"Westerputford","citations":[{"label":"1270 Ass","year":1270}],"when":{"timespans":[{"start":{"in":"1270"},"end":{"in":"1270"}}]}},{"toponym":"Westputford","citations":[{"label":"1394 Ass","year":1394}],"when":{"timespans":[{"start":{"in":"1394"},"end":{"in":"1394"}}]}},{"toponym":"Westpotteford","citations":[{"label":"1314 Ass","year":1314}],"when":{"timespans":[{"start":{"in":"1314"},"end":{"in":"1314"}}]}}],"types":[{"identifier":"http://vocab.getty.edu/aat/300232418","label":"administrative division","sourceLabels":[{"label":"township","lang":"en"}]}],"geometry":{"type":"GeometryCollection","geometries":[{"type":"Point","coordinates":[-4.33286,50.91887],"citations":[{"label":"GeoNames, gazetteer record geonames:2634290"}]},{"type":"Point","coordinates":[-4.340401850912023,50.91493652078303],"citations":[{"label":"Unlock (EDINA) gazetteer, gazetteer record unlock:11317548"}]},{"type":"Point","coordinates":[-4.32728,50.9157],"citations":[{"label":"Key to English Place-Names (KEPN), gazetteer record 15559"}]}]},"when":{"timespans":[{"start":{"in":"1086"},"end":{"in":"1394"}}]},"links":[{"type":"closeMatch","identifier":"https://sws.geonames.org/2634290/"}],"relations":[{"relationType":"gvp:broaderPartitive","relationTo":"https://w3id.org/whg-epns/08/005236","label":"within West Putford"}]}]}