{"@context":"https://raw.githubusercontent.com/LinkedPasts/linked-places-format/main/linkedplaces-context-v1.1.jsonld","type":"FeatureCollection","license":"Digitisation of English Placenames MADS data is licensed to Jisc by the English Place Names Society and released under a Creative Commons Attribution-NonCommercial 4.0 International License.","note":"LPF v1.3, lossy; derived from the PLATO record; plato_commit=fa0d247ccc0263f8f19c8d7cdcd163df96935d1e","features":[{"@id":"https://w3id.org/whg-epns/08/006057","type":"Feature","properties":{"title":"Dunterton","ccodes":["GB"],"fclasses":["A","P"]},"names":[{"toponym":"Dunterton","lang":"en","citations":[{"label":"English Place-Name Society survey, volume 8: Devon"}]}],"types":[{"identifier":"http://vocab.getty.edu/aat/300232418","label":"administrative division","sourceLabels":[{"label":"parish","lang":"en"}]}],"geometry":{"type":"GeometryCollection","geometries":[{"type":"Point","coordinates":[-4.29457,50.59125],"citations":[{"label":"GeoNames, gazetteer record geonames:2650647"}]},{"type":"Point","coordinates":[-4.296081431914622,50.59199348456445],"citations":[{"label":"Unlock (EDINA) gazetteer, gazetteer record unlock:11134556"}]},{"type":"Point","coordinates":[-4.29717,50.5926],"citations":[{"label":"Key to English Place-Names (KEPN), gazetteer record 15573"}]}]},"links":[{"type":"closeMatch","identifier":"https://sws.geonames.org/2650647/"}],"relations":[{"relationType":"gvp:broaderPartitive","relationTo":"https://w3id.org/whg-epns/08/005714","label":"within Lifton Hundred"}]}]}