{"@context":"https://raw.githubusercontent.com/LinkedPasts/linked-places-format/main/linkedplaces-context-v1.1.jsonld","type":"FeatureCollection","license":"Digitisation of English Placenames MADS data is licensed to Jisc by the English Place Names Society and released under a Creative Commons Attribution-NonCommercial 4.0 International License.","note":"LPF v1.3, lossy; derived from the PLATO record; plato_commit=ca0afadabec1e23a145c0b03df77e8f151f79832","features":[{"@id":"http://placenames.org.uk/id/placename/08/006230","type":"Feature","properties":{"title":"Lewtrenchard","ccodes":["GB"],"fclasses":["A","P"]},"names":[{"toponym":"Lewtrenchard","lang":"en","citations":[{"label":"English Place-Name Society survey, volume 8: Devon"}]},{"toponym":"Leuya, Lewe","citations":[{"label":"1086 DB","year":1086}],"when":{"timespans":[{"start":{"in":"1086"},"end":{"in":"1086"}}]}},{"toponym":"Lewe juxta Raddon","citations":[{"label":"1298 Ass","year":1298}],"when":{"timespans":[{"start":{"in":"1298"},"end":{"in":"1298"}}]}},{"toponym":"Lyu","citations":[{"label":"1238 FF","year":1238},{"label":"1242 Fees","year":1242},{"label":"1284 FA","year":1284}],"when":{"timespans":[{"start":{"in":"1238"},"end":{"in":"1238"}},{"start":{"in":"1242"},"end":{"in":"1242"}},{"start":{"in":"1284"},"end":{"in":"1284"}}]}},{"toponym":"Lyu Trencharde","citations":[{"label":"1261 Exon","year":1261}],"when":{"timespans":[{"start":{"in":"1261"},"end":{"in":"1261"}}]}},{"toponym":"Lyw(e)","citations":[{"label":"1242 Fees","year":1242},{"label":"1303 FA","year":1303}],"when":{"timespans":[{"start":{"in":"1242"},"end":{"in":"1242"}},{"start":{"in":"1303"},"end":{"in":"1303"}}]}},{"toponym":"Liw","citations":[{"label":"1244 Ass","year":1244},{"label":"1274 Exon","year":1274}],"when":{"timespans":[{"start":{"in":"1244"},"end":{"in":"1244"}},{"start":{"in":"1274"},"end":{"in":"1274"}}]}},{"toponym":"Lewtrancharde","citations":[{"label":"1431 Exon","year":1431}],"when":{"timespans":[{"start":{"in":"1431"},"end":{"in":"1431"}}]}},{"toponym":"Trenchardeslieu","citations":[{"label":"1316 Ass","year":1316}],"when":{"timespans":[{"start":{"in":"1316"},"end":{"in":"1316"}}]}}],"types":[{"identifier":"http://vocab.getty.edu/aat/300232418","label":"administrative division","sourceLabels":[{"label":"township","lang":"en"}]}],"geometry":{"type":"GeometryCollection","geometries":[{"type":"Point","coordinates":[-4.1849,50.65396],"citations":[{"label":"GeoNames, gazetteer record geonames:2644550"}]},{"type":"Point","coordinates":[-4.186049678649366,50.65707720283469],"citations":[{"label":"Unlock (EDINA) gazetteer, gazetteer record unlock:11194463"}]},{"type":"Point","coordinates":[-4.18673,50.6487],"citations":[{"label":"Key to English Place-Names (KEPN), gazetteer record 15577"}]}]},"when":{"timespans":[{"start":{"in":"1086"},"end":{"in":"1431"}}]},"links":[{"type":"closeMatch","identifier":"https://sws.geonames.org/2644550/"}],"relations":[{"relationType":"gvp:broaderPartitive","relationTo":"http://placenames.org.uk/id/placename/08/006229","label":"within Lewtrenchard"}]}]}