{"@context":"https://raw.githubusercontent.com/LinkedPasts/linked-places-format/main/linkedplaces-context-v1.1.jsonld","type":"FeatureCollection","license":"Digitisation of English Placenames MADS data is licensed to Jisc by the English Place Names Society and released under a Creative Commons Attribution-NonCommercial 4.0 International License.","note":"LPF v1.3, lossy; derived from the PLATO record; plato_commit=ca0afadabec1e23a145c0b03df77e8f151f79832","features":[{"@id":"https://w3id.org/whg-epns/08/006897","type":"Feature","properties":{"title":"Stowford","ccodes":["GB"],"fclasses":["A","P"]},"names":[{"toponym":"Stowford","lang":"en","citations":[{"label":"English Place-Name Society survey, volume 8: Devon"}]},{"toponym":"Estatforda","citations":[{"label":"1086 DB (Exon)","year":1086}],"when":{"timespans":[{"start":{"in":"1086"},"end":{"in":"1086"}}]}},{"toponym":"Staford","citations":[{"label":"1086 DB (Exch)","year":1086}],"when":{"timespans":[{"start":{"in":"1086"},"end":{"in":"1086"}}]}},{"toponym":"Stafford(e)","citations":[{"label":"1242 Fees","year":1242},{"label":"1264 Exon","year":1264},{"label":"1265 Misc","year":1265},{"label":"1291 Tax","year":1291}],"when":{"timespans":[{"start":{"in":"1242"},"end":{"in":"1242"}},{"start":{"in":"1264"},"end":{"in":"1264"}},{"start":{"in":"1265"},"end":{"in":"1265"}},{"start":{"in":"1291"},"end":{"in":"1291"}}]}},{"toponym":"Stoford juxta Meleford","citations":[{"label":"1287 Ass","year":1287}],"when":{"timespans":[{"start":{"in":"1287"},"end":{"in":"1287"}}]}},{"toponym":"Stauford","citations":[{"label":"1330 SR","year":1330}],"when":{"timespans":[{"start":{"in":"1330"},"end":{"in":"1330"}}]}},{"toponym":"Stouford","citations":[{"label":"1349 Exon","year":1349}],"when":{"timespans":[{"start":{"in":"1349"},"end":{"in":"1349"}}]}},{"toponym":"Stouford juxta Lyfton","citations":[{"label":"1306 Ass","year":1306}],"when":{"timespans":[{"start":{"in":"1306"},"end":{"in":"1306"}}]}}],"types":[{"identifier":"http://vocab.getty.edu/aat/300232418","label":"administrative division","sourceLabels":[{"label":"township","lang":"en"}]}],"geometry":{"type":"GeometryCollection","geometries":[{"type":"Point","coordinates":[-4.21667,50.65],"citations":[{"label":"GeoNames, gazetteer record geonames:2636750"}]},{"type":"Point","coordinates":[-4.214325671519344,50.65654314595193],"citations":[{"label":"Unlock (EDINA) gazetteer, gazetteer record unlock:11293798"}]},{"type":"Point","coordinates":[-4.21542,50.6571],"citations":[{"label":"Key to English Place-Names (KEPN), gazetteer record 15584"}]}]},"when":{"timespans":[{"start":{"in":"1086"},"end":{"in":"1349"}}]},"links":[{"type":"closeMatch","identifier":"https://sws.geonames.org/2636750/"}],"relations":[{"relationType":"gvp:broaderPartitive","relationTo":"https://w3id.org/whg-epns/08/006896","label":"within Stowford"}]}]}