{"@context":"https://raw.githubusercontent.com/LinkedPasts/linked-places-format/main/linkedplaces-context-v1.1.jsonld","type":"FeatureCollection","license":"Digitisation of English Placenames MADS data is licensed to Jisc by the English Place Names Society and released under a Creative Commons Attribution-NonCommercial 4.0 International License.","note":"LPF v1.3, lossy; derived from the PLATO record; plato_commit=ca0afadabec1e23a145c0b03df77e8f151f79832","features":[{"@id":"http://placenames.org.uk/id/placename/08/007152","type":"Feature","properties":{"title":"Milton Abbot","ccodes":["GB"],"fclasses":["A","P"]},"names":[{"toponym":"Milton Abbot","lang":"en","citations":[{"label":"English Place-Name Society survey, volume 8: Devon"}]},{"toponym":"Mideltona","citations":[{"label":"1086 DB","year":1086}],"when":{"timespans":[{"start":{"in":"1086"},"end":{"in":"1086"}}]}},{"toponym":"Middelton Abbots","citations":[{"label":"1297 Pat","year":1297}],"when":{"timespans":[{"start":{"in":"1297"},"end":{"in":"1297"}}]}},{"toponym":"Myddeltone al. Myltone","citations":[{"label":"1391 Exon","year":1391}],"when":{"timespans":[{"start":{"in":"1391"},"end":{"in":"1391"}}]}}],"types":[{"identifier":"http://vocab.getty.edu/aat/300232418","label":"administrative division","sourceLabels":[{"label":"township","lang":"en"}]}],"geometry":{"type":"GeometryCollection","geometries":[{"type":"Point","coordinates":[-4.25179,50.59173],"citations":[{"label":"GeoNames, gazetteer record geonames:2642471"}]},{"type":"Point","coordinates":[-4.253727498565541,50.59282100562069],"citations":[{"label":"Unlock (EDINA) gazetteer, gazetteer record unlock:11220232"}]},{"type":"Point","coordinates":[-4.25482,50.5934],"citations":[{"label":"Key to English Place-Names (KEPN), gazetteer record 15589"}]}]},"when":{"timespans":[{"start":{"in":"1086"},"end":{"in":"1391"}}]},"links":[{"type":"closeMatch","identifier":"https://sws.geonames.org/2642471/"}],"relations":[{"relationType":"gvp:broaderPartitive","relationTo":"http://placenames.org.uk/id/placename/08/007151","label":"within Milton Abbot"}]}]}