{"@context":"https://raw.githubusercontent.com/LinkedPasts/linked-places-format/main/linkedplaces-context-v1.1.jsonld","type":"FeatureCollection","license":"Digitisation of English Placenames MADS data is licensed to Jisc by the English Place Names Society and released under a Creative Commons Attribution-NonCommercial 4.0 International License.","note":"LPF v1.3, lossy; derived from the PLATO record; plato_commit=fa0d247ccc0263f8f19c8d7cdcd163df96935d1e","features":[{"@id":"https://w3id.org/whg-epns/08/007538","type":"Feature","properties":{"title":"Buckland Monachorum","ccodes":["GB"],"fclasses":["A","P"]},"names":[{"toponym":"Buckland Monachorum","lang":"en","citations":[{"label":"English Place-Name Society survey, volume 8: Devon"}]}],"types":[{"identifier":"http://vocab.getty.edu/aat/300232418","label":"administrative division","sourceLabels":[{"label":"parish","lang":"en"}]}],"geometry":{"type":"GeometryCollection","geometries":[{"type":"Point","coordinates":[-4.13056,50.49481],"citations":[{"label":"GeoNames, gazetteer record geonames:2654399"}]},{"type":"Point","coordinates":[-4.136300509624004,50.49608767005728],"citations":[{"label":"Unlock (EDINA) gazetteer, gazetteer record unlock:11091746"}]},{"type":"Point","coordinates":[-4.1374,50.4967],"citations":[{"label":"Key to English Place-Names (KEPN), gazetteer record 15593"}]}]},"links":[{"type":"closeMatch","identifier":"https://sws.geonames.org/2654399/"}],"relations":[{"relationType":"gvp:broaderPartitive","relationTo":"https://w3id.org/whg-epns/08/007449","label":"within Roborough Hundred"}]}]}