{"@context":"https://raw.githubusercontent.com/LinkedPasts/linked-places-format/main/linkedplaces-context-v1.1.jsonld","type":"FeatureCollection","license":"Digitisation of English Placenames MADS data is licensed to Jisc by the English Place Names Society and released under a Creative Commons Attribution-NonCommercial 4.0 International License.","note":"LPF v1.3, lossy; derived from the PLATO record; plato_commit=ca0afadabec1e23a145c0b03df77e8f151f79832","features":[{"@id":"http://placenames.org.uk/id/placename/08/007769","type":"Feature","properties":{"title":"Petertavy","ccodes":["GB"],"fclasses":["A","P"]},"names":[{"toponym":"Petertavy","lang":"en","citations":[{"label":"English Place-Name Society survey, volume 8: Devon"}]},{"toponym":"Tawi","citations":[{"label":"1086 DB","year":1086}],"when":{"timespans":[{"start":{"in":"1086"},"end":{"in":"1086"}}]}},{"toponym":"Taui","citations":[{"label":"1165 P","year":1165}],"when":{"timespans":[{"start":{"in":"1165"},"end":{"in":"1165"}}]}},{"toponym":"Petri Tavy, ecclesia Petri Tavy","citations":[{"label":"1270 Exon","year":1270}],"when":{"timespans":[{"start":{"in":"1270"},"end":{"in":"1270"}}]}},{"toponym":"Tavy Beati Petri","citations":[{"label":"1291 Tax","year":1291}],"when":{"timespans":[{"start":{"in":"1291"},"end":{"in":"1291"}}]}},{"toponym":"Tavy Sancti Petri","citations":[{"label":"1318 Exon","year":1318}],"when":{"timespans":[{"start":{"in":"1318"},"end":{"in":"1318"}}]}},{"toponym":"Peterestavi","citations":[{"label":"1276 Exon","year":1276},{"label":"1295 Ipm","year":1295}],"when":{"timespans":[{"start":{"in":"1276"},"end":{"in":"1276"}},{"start":{"in":"1295"},"end":{"in":"1295"}}]}},{"toponym":"Petrestauy juxta Tauistok","citations":[{"label":"1313 Ass","year":1313}],"when":{"timespans":[{"start":{"in":"1313"},"end":{"in":"1313"}}]}},{"toponym":"Petterstavy","citations":[{"label":"1583 FF","year":1583}],"when":{"timespans":[{"start":{"in":"1583"},"end":{"in":"1583"}}]}},{"toponym":"Patrystavy","citations":[{"label":"1434 Pat","year":1434}],"when":{"timespans":[{"start":{"in":"1434"},"end":{"in":"1434"}}]}},{"toponym":"Patryxtavy","citations":[{"label":"1535 LP","year":1535}],"when":{"timespans":[{"start":{"in":"1535"},"end":{"in":"1535"}}]}}],"types":[{"identifier":"http://vocab.getty.edu/aat/300232418","label":"administrative division","sourceLabels":[{"label":"township","lang":"en"}]}],"geometry":{"type":"GeometryCollection","geometries":[{"type":"Point","coordinates":[-4.1,50.56667],"citations":[{"label":"GeoNames, gazetteer record geonames:2640341"}]},{"type":"Point","coordinates":[-4.09872,50.5783],"citations":[{"label":"Key to English Place-Names (KEPN), gazetteer record 15597"}]}]},"when":{"timespans":[{"start":{"in":"1086"},"end":{"in":"1583"}}]},"links":[{"type":"closeMatch","identifier":"https://sws.geonames.org/2640341/"}],"relations":[{"relationType":"gvp:broaderPartitive","relationTo":"http://placenames.org.uk/id/placename/08/007768","label":"within Petertavy"}]}]}