{"@context":"https://raw.githubusercontent.com/LinkedPasts/linked-places-format/main/linkedplaces-context-v1.1.jsonld","type":"FeatureCollection","license":"Digitisation of English Placenames MADS data is licensed to Jisc by the English Place Names Society and released under a Creative Commons Attribution-NonCommercial 4.0 International License.","note":"LPF v1.3, lossy; derived from the PLATO record; plato_commit=fa0d247ccc0263f8f19c8d7cdcd163df96935d1e","features":[{"@id":"https://w3id.org/whg-epns/08/008781","type":"Feature","properties":{"title":"Shaugh","ccodes":["GB"],"fclasses":["A","P"]},"names":[{"toponym":"Shaugh","lang":"en","citations":[{"label":"English Place-Name Society survey, volume 8: Devon"}]},{"toponym":"Escaga","citations":[{"label":"1086 Exon","year":1086}],"when":{"timespans":[{"start":{"in":"1086"},"end":{"in":"1086"}}]}},{"toponym":"Scage","citations":[{"label":"1086 Exch","year":1086}],"when":{"timespans":[{"start":{"in":"1086"},"end":{"in":"1086"}}]}},{"toponym":"Scaghes","citations":[{"label":"t. Hy 2 Oliver","year":1154}],"when":{"timespans":[{"start":{"earliest":"1154","latest":"1189"},"end":{"earliest":"1154","latest":"1189"}}]}},{"toponym":"Saghe","citations":[{"label":"1218 FF","year":1218},{"label":"1242 Fees","year":1242}],"when":{"timespans":[{"start":{"in":"1218"},"end":{"in":"1218"}},{"start":{"in":"1242"},"end":{"in":"1242"}}]}},{"toponym":"Shaue","citations":[{"label":"1281 Ass","year":1281}],"when":{"timespans":[{"start":{"in":"1281"},"end":{"in":"1281"}}]}},{"toponym":"S(c)hagh, La S(c)hagh","citations":[{"label":"FA","year":1303},{"label":"1303 FA","year":1303}],"when":{"timespans":[{"start":{"in":"1303"},"end":{"in":"1303"}},{"start":{"in":"1303"},"end":{"in":"1303"}}]}},{"toponym":"Schyaghe","citations":[{"label":"1310 Exon","year":1310}],"when":{"timespans":[{"start":{"in":"1310"},"end":{"in":"1310"}}]}},{"toponym":"Sheagh","citations":[{"label":"1535 VE","year":1535}],"when":{"timespans":[{"start":{"in":"1535"},"end":{"in":"1535"}}]}},{"toponym":"Shea","citations":[{"label":"1584 Wills","year":1584}],"when":{"timespans":[{"start":{"in":"1584"},"end":{"in":"1584"}}]}},{"toponym":"Shaff","citations":[{"label":"1584 Recov","year":1584}],"when":{"timespans":[{"start":{"in":"1584"},"end":{"in":"1584"}}]}},{"toponym":"Shaghe al. Shave","citations":[{"label":"1587 Recov","year":1587}],"when":{"timespans":[{"start":{"in":"1587"},"end":{"in":"1587"}}]}},{"toponym":"Shaye","citations":[{"label":"t. Hy 8 Dartmoor","year":1509}],"when":{"timespans":[{"start":{"earliest":"1509","latest":"1547"},"end":{"earliest":"1509","latest":"1547"}}]}}],"types":[{"identifier":"http://vocab.getty.edu/aat/300232418","label":"administrative division","sourceLabels":[{"label":"township","lang":"en"}]}],"geometry":{"type":"GeometryCollection","geometries":[{"type":"Point","coordinates":[-4.049808272494452,50.45266749964102],"citations":[{"label":"Unlock (EDINA) gazetteer, gazetteer record unlock:11281686"}]},{"type":"Point","coordinates":[-4.065,50.453],"citations":[{"label":"Key to English Place-Names (KEPN), gazetteer record 15613"}]}]},"when":{"timespans":[{"start":{"in":"1086"},"end":{"in":"1587"}}]},"relations":[{"relationType":"gvp:broaderPartitive","relationTo":"https://w3id.org/whg-epns/08/008780","label":"within Shaugh"}]}]}