{"@context":"https://raw.githubusercontent.com/LinkedPasts/linked-places-format/main/linkedplaces-context-v1.1.jsonld","type":"FeatureCollection","license":"Digitisation of English Placenames MADS data is licensed to Jisc by the English Place Names Society and released under a Creative Commons Attribution-NonCommercial 4.0 International License.","note":"LPF v1.3, lossy; derived from the PLATO record; plato_commit=ca0afadabec1e23a145c0b03df77e8f151f79832","features":[{"@id":"https://w3id.org/whg-epns/08/008753","type":"Feature","properties":{"title":"Revelstoke","ccodes":["GB"],"fclasses":["A","P"]},"names":[{"toponym":"Revelstoke","lang":"en","citations":[{"label":"English Place-Name Society survey, volume 8: Devon"}]},{"toponym":"Rawelestok","citations":[{"label":"1219 Ass","year":1219}],"when":{"timespans":[{"start":{"in":"1219"},"end":{"in":"1219"}}]}},{"toponym":"Ravelsto(c)ke","citations":[{"label":"1546 SR","year":1546}],"when":{"timespans":[{"start":{"in":"1546"},"end":{"in":"1546"}},{"start":{"in":"1571"},"end":{"in":"1571"}}]}},{"toponym":"Rewelstoke","citations":[{"label":"1418 AD","year":1418}],"when":{"timespans":[{"start":{"in":"1418"},"end":{"in":"1418"}}]}},{"toponym":"Reuelstok","citations":[{"label":"1500 FF","year":1500}],"when":{"timespans":[{"start":{"in":"1500"},"end":{"in":"1500"}}]}},{"toponym":"Revelstok(e)","citations":[{"label":"1525 SR","year":1525},{"label":"1535 VE","year":1535}],"when":{"timespans":[{"start":{"in":"1525"},"end":{"in":"1525"}},{"start":{"in":"1535"},"end":{"in":"1535"}}]}},{"toponym":"Roulestok","citations":[{"label":"1441 Exon","year":1441}],"when":{"timespans":[{"start":{"in":"1441"},"end":{"in":"1441"}}]}},{"toponym":"Rolstoke","citations":[{"label":"1538 LP","year":1538}],"when":{"timespans":[{"start":{"in":"1538"},"end":{"in":"1538"}}]}}],"types":[{"identifier":"http://vocab.getty.edu/aat/300232418","label":"administrative division","sourceLabels":[{"label":"township","lang":"en"}]}],"geometry":{"type":"Point","coordinates":[-4.03031,50.3007],"citations":[{"label":"Key to English Place-Names (KEPN), gazetteer record 15612"}]},"when":{"timespans":[{"start":{"in":"1219"},"end":{"in":"1571"}}]},"relations":[{"relationType":"gvp:broaderPartitive","relationTo":"https://w3id.org/whg-epns/08/008752","label":"within Revelstoke"}]}]}