{"@context":"https://raw.githubusercontent.com/LinkedPasts/linked-places-format/main/linkedplaces-context-v1.1.jsonld","type":"FeatureCollection","license":"Digitisation of English Placenames MADS data is licensed to Jisc by the English Place Names Society and released under a Creative Commons Attribution-NonCommercial 4.0 International License.","note":"LPF v1.3, lossy; derived from the PLATO record; plato_commit=ca0afadabec1e23a145c0b03df77e8f151f79832","features":[{"@id":"http://placenames.org.uk/id/placename/08/009513","type":"Feature","properties":{"title":"Kingston","ccodes":["GB"],"fclasses":["A","P"]},"names":[{"toponym":"Kingston","lang":"en","citations":[{"label":"English Place-Name Society survey, volume 8: Devon"}]}],"types":[{"identifier":"http://vocab.getty.edu/aat/300232418","label":"administrative division","sourceLabels":[{"label":"parish","lang":"en"}]}],"geometry":{"type":"GeometryCollection","geometries":[{"type":"Point","coordinates":[-3.91667,50.31667],"citations":[{"label":"GeoNames, gazetteer record geonames:2645440"}]},{"type":"Point","coordinates":[-3.917285117124938,50.31100431638077],"citations":[{"label":"Unlock (EDINA) gazetteer, gazetteer record unlock:11187170"}]},{"type":"Point","coordinates":[-3.91841,50.3116],"citations":[{"label":"Key to English Place-Names (KEPN), gazetteer record 15624"}]}]},"links":[{"type":"closeMatch","identifier":"https://sws.geonames.org/2645440/"}],"relations":[{"relationType":"gvp:broaderPartitive","relationTo":"http://placenames.org.uk/id/placename/08/008994","label":"within Ermington Hundred"}]}]}