{"@context":"https://raw.githubusercontent.com/LinkedPasts/linked-places-format/main/linkedplaces-context-v1.1.jsonld","type":"FeatureCollection","license":"Digitisation of English Placenames MADS data is licensed to Jisc by the English Place Names Society and released under a Creative Commons Attribution-NonCommercial 4.0 International License.","note":"LPF v1.3, lossy; derived from the PLATO record; plato_commit=fa0d247ccc0263f8f19c8d7cdcd163df96935d1e","features":[{"@id":"https://w3id.org/whg-epns/08/010228","type":"Feature","properties":{"title":"Churchstow","ccodes":["GB"],"fclasses":["A","P"]},"names":[{"toponym":"Churchstow","lang":"en","citations":[{"label":"English Place-Name Society survey, volume 8: Devon"}]},{"toponym":"Churechestowe","citations":[{"label":"1242 Fees","year":1242}],"when":{"timespans":[{"start":{"in":"1242"},"end":{"in":"1242"}}]}},{"toponym":"Churicstowe","citations":[{"label":"1291 Tax","year":1291}],"when":{"timespans":[{"start":{"in":"1291"},"end":{"in":"1291"}}]}},{"toponym":"Chyristowe","citations":[{"label":"1244 Ass","year":1244}],"when":{"timespans":[{"start":{"in":"1244"},"end":{"in":"1244"}}]}},{"toponym":"Chyrestowe","citations":[{"label":"1281 Ass","year":1281}],"when":{"timespans":[{"start":{"in":"1281"},"end":{"in":"1281"}}]}},{"toponym":"Chirstowe Sancte Marie juxta Kyngesbrigge","citations":[{"label":"1379 Exon","year":1379}],"when":{"timespans":[{"start":{"in":"1379"},"end":{"in":"1379"}}]}},{"toponym":"Churestowe","citations":[{"label":"1276 RH","year":1276},{"label":"1308 Exon","year":1308}],"when":{"timespans":[{"start":{"in":"1276"},"end":{"in":"1276"}},{"start":{"in":"1308"},"end":{"in":"1308"}}]}},{"toponym":"Churstowe juxta Aveton Giffard","citations":[{"label":"1318 Ass","year":1318}],"when":{"timespans":[{"start":{"in":"1318"},"end":{"in":"1318"}}]}},{"toponym":"Chirchstowe","citations":[{"label":"1297 Pat","year":1297}],"when":{"timespans":[{"start":{"in":"1297"},"end":{"in":"1297"}}]}},{"toponym":"Churche Stoke","citations":[{"label":"1459 BM","year":1459}],"when":{"timespans":[{"start":{"in":"1459"},"end":{"in":"1459"}}]}},{"toponym":"Chestow","citations":[{"label":"1577 Saxton","year":1577}],"when":{"timespans":[{"start":{"in":"1577"},"end":{"in":"1577"}}]}}],"types":[{"identifier":"http://vocab.getty.edu/aat/300232418","label":"administrative division","sourceLabels":[{"label":"township","lang":"en"}]}],"geometry":{"type":"GeometryCollection","geometries":[{"type":"Point","coordinates":[-3.80985,50.29877],"citations":[{"label":"GeoNames, gazetteer record geonames:2653023"}]},{"type":"Point","coordinates":[-3.804297250188906,50.29482284764573],"citations":[{"label":"Unlock (EDINA) gazetteer, gazetteer record unlock:11107265"}]},{"type":"Point","coordinates":[-3.80543,50.2954],"citations":[{"label":"Key to English Place-Names (KEPN), gazetteer record 15632"}]}]},"when":{"timespans":[{"start":{"in":"1242"},"end":{"in":"1577"}}]},"links":[{"type":"closeMatch","identifier":"https://sws.geonames.org/2653023/"}],"relations":[{"relationType":"gvp:broaderPartitive","relationTo":"https://w3id.org/whg-epns/08/010227","label":"within Churchstow"}]}]}