{"@context":"https://raw.githubusercontent.com/LinkedPasts/linked-places-format/main/linkedplaces-context-v1.1.jsonld","type":"FeatureCollection","license":"Digitisation of English Placenames MADS data is licensed to Jisc by the English Place Names Society and released under a Creative Commons Attribution-NonCommercial 4.0 International License.","note":"LPF v1.3, lossy; derived from the PLATO record; plato_commit=ca0afadabec1e23a145c0b03df77e8f151f79832","features":[{"@id":"https://w3id.org/whg-epns/08/010597","type":"Feature","properties":{"title":"South Huish","ccodes":["GB"],"fclasses":["A","P"]},"names":[{"toponym":"South Huish","lang":"en","citations":[{"label":"English Place-Name Society survey, volume 8: Devon"}]}],"types":[{"identifier":"http://vocab.getty.edu/aat/300232418","label":"administrative division","sourceLabels":[{"label":"parish","lang":"en"}]}],"geometry":{"type":"GeometryCollection","geometries":[{"type":"Point","coordinates":[-3.84096,50.24549],"citations":[{"label":"GeoNames, gazetteer record geonames:7291188"}]},{"type":"Point","coordinates":[-3.830984371886871,50.25842452499663],"citations":[{"label":"Unlock (EDINA) gazetteer, gazetteer record unlock:11287600"}]},{"type":"Point","coordinates":[-3.83211,50.259],"citations":[{"label":"Key to English Place-Names (KEPN), gazetteer record 15638"}]}]},"links":[{"type":"closeMatch","identifier":"https://sws.geonames.org/7291188/"}],"relations":[{"relationType":"gvp:broaderPartitive","relationTo":"https://w3id.org/whg-epns/08/009911","label":"within Stanborough Hundred"}]}]}