{"@context":"https://raw.githubusercontent.com/LinkedPasts/linked-places-format/main/linkedplaces-context-v1.1.jsonld","type":"FeatureCollection","license":"Digitisation of English Placenames MADS data is licensed to Jisc by the English Place Names Society and released under a Creative Commons Attribution-NonCommercial 4.0 International License.","note":"LPF v1.3, lossy; derived from the PLATO record; plato_commit=fa0d247ccc0263f8f19c8d7cdcd163df96935d1e","features":[{"@id":"https://w3id.org/whg-epns/08/010775","type":"Feature","properties":{"title":"South Milton","ccodes":["GB"],"fclasses":["A","P"]},"names":[{"toponym":"South Milton","lang":"en","citations":[{"label":"English Place-Name Society survey, volume 8: Devon"}]},{"toponym":"Mideltona","citations":[{"label":"1086 DB","year":1086}],"when":{"timespans":[{"start":{"in":"1086"},"end":{"in":"1086"}}]}},{"toponym":"Middelton juxta Kingesbrigg'","citations":[{"label":"1285 Ass","year":1285}],"when":{"timespans":[{"start":{"in":"1285"},"end":{"in":"1285"}}]}},{"toponym":"Milton","citations":[{"label":"1428 FA","year":1428}],"when":{"timespans":[{"start":{"in":"1428"},"end":{"in":"1428"}}]}}],"types":[{"identifier":"http://vocab.getty.edu/aat/300232418","label":"administrative division","sourceLabels":[{"label":"township","lang":"en"}]}],"geometry":{"type":"GeometryCollection","geometries":[{"type":"Point","coordinates":[-3.82556,50.2702],"citations":[{"label":"GeoNames, gazetteer record geonames:2637376"}]},{"type":"Point","coordinates":[-3.831329157561749,50.26741434582696],"citations":[{"label":"Unlock (EDINA) gazetteer, gazetteer record unlock:11287759"}]},{"type":"Point","coordinates":[-3.83246,50.268],"citations":[{"label":"Key to English Place-Names (KEPN), gazetteer record 15643"}]}]},"when":{"timespans":[{"start":{"in":"1086"},"end":{"in":"1428"}}]},"links":[{"type":"closeMatch","identifier":"https://sws.geonames.org/2637376/"}],"relations":[{"relationType":"gvp:broaderPartitive","relationTo":"https://w3id.org/whg-epns/08/010774","label":"within South Milton"}]}]}