{"@context":"https://raw.githubusercontent.com/LinkedPasts/linked-places-format/main/linkedplaces-context-v1.1.jsonld","type":"FeatureCollection","license":"Digitisation of English Placenames MADS data is licensed to Jisc by the English Place Names Society and released under a Creative Commons Attribution-NonCommercial 4.0 International License.","note":"LPF v1.3, lossy; derived from the PLATO record; plato_commit=ca0afadabec1e23a145c0b03df77e8f151f79832","features":[{"@id":"http://placenames.org.uk/id/placename/08/010802","type":"Feature","properties":{"title":"Moreleigh","ccodes":["GB"],"fclasses":["A","P"]},"names":[{"toponym":"Moreleigh","lang":"en","citations":[{"label":"English Place-Name Society survey, volume 8: Devon"}]}],"types":[{"identifier":"http://vocab.getty.edu/aat/300232418","label":"administrative division","sourceLabels":[{"label":"parish","lang":"en"}]}],"geometry":{"type":"GeometryCollection","geometries":[{"type":"Point","coordinates":[-3.73547,50.36185],"citations":[{"label":"GeoNames, gazetteer record geonames:2642209"}]},{"type":"Point","coordinates":[-3.736418363359513,50.35882237539435],"citations":[{"label":"Unlock (EDINA) gazetteer, gazetteer record unlock:11222795"}]},{"type":"Point","coordinates":[-3.73756,50.3594],"citations":[{"label":"Key to English Place-Names (KEPN), gazetteer record 15644"}]}]},"links":[{"type":"closeMatch","identifier":"https://sws.geonames.org/2642209/"}],"relations":[{"relationType":"gvp:broaderPartitive","relationTo":"http://placenames.org.uk/id/placename/08/009911","label":"within Stanborough Hundred"}]}]}