{"@context":"https://raw.githubusercontent.com/LinkedPasts/linked-places-format/main/linkedplaces-context-v1.1.jsonld","type":"FeatureCollection","license":"Digitisation of English Placenames MADS data is licensed to Jisc by the English Place Names Society and released under a Creative Commons Attribution-NonCommercial 4.0 International License.","note":"LPF v1.3, lossy; derived from the PLATO record; plato_commit=ca0afadabec1e23a145c0b03df77e8f151f79832","features":[{"@id":"https://w3id.org/whg-epns/08/011152","type":"Feature","properties":{"title":"Buckland-Tout-Saints","ccodes":["GB"],"fclasses":["A","P"]},"names":[{"toponym":"Buckland-Tout-Saints","lang":"en","citations":[{"label":"English Place-Name Society survey, volume 8: Devon"}]},{"toponym":"Bochelanda","citations":[{"label":"1086 DB","year":1086}],"when":{"timespans":[{"start":{"in":"1086"},"end":{"in":"1086"}}]}},{"toponym":"Bocland","citations":[{"label":"1238 FF","year":1238},{"label":"1242 Fees","year":1242}],"when":{"timespans":[{"start":{"in":"1238"},"end":{"in":"1238"}},{"start":{"in":"1242"},"end":{"in":"1242"}}]}},{"toponym":"Bokelonde Touseyne","citations":[{"label":"1479 FF","year":1479}],"when":{"timespans":[{"start":{"in":"1479"},"end":{"in":"1479"}}]}},{"toponym":"Bukland Towesende","citations":[{"label":"1501 Pat","year":1501}],"when":{"timespans":[{"start":{"in":"1501"},"end":{"in":"1501"}}]}},{"toponym":"Buckelande Towson","citations":[{"label":"1562 FF","year":1562}],"when":{"timespans":[{"start":{"in":"1562"},"end":{"in":"1562"}}]}},{"toponym":"West Bokelond juxta Kinges brigge","citations":[{"label":"1391 FF","year":1391}],"when":{"timespans":[{"start":{"in":"1391"},"end":{"in":"1391"}}]}}],"types":[{"identifier":"http://vocab.getty.edu/aat/300232418","label":"administrative division","sourceLabels":[{"label":"township","lang":"en"}]}],"geometry":{"type":"GeometryCollection","geometries":[{"type":"Point","coordinates":[-3.76067,50.30596],"citations":[{"label":"GeoNames, gazetteer record geonames:7291177"}]},{"type":"Point","coordinates":[-3.74816056335062,50.29568079324087],"citations":[{"label":"Unlock (EDINA) gazetteer, gazetteer record unlock:11091758"}]},{"type":"Point","coordinates":[-3.7493,50.2963],"citations":[{"label":"Key to English Place-Names (KEPN), gazetteer record 15652"}]}]},"when":{"timespans":[{"start":{"in":"1086"},"end":{"in":"1562"}}]},"links":[{"type":"closeMatch","identifier":"https://sws.geonames.org/7291177/"}],"relations":[{"relationType":"gvp:broaderPartitive","relationTo":"https://w3id.org/whg-epns/08/011151","label":"within Buckland-Tout-Saints"}]}]}