{"@context":"https://raw.githubusercontent.com/LinkedPasts/linked-places-format/main/linkedplaces-context-v1.1.jsonld","type":"FeatureCollection","license":"Digitisation of English Placenames MADS data is licensed to Jisc by the English Place Names Society and released under a Creative Commons Attribution-NonCommercial 4.0 International License.","note":"LPF v1.3, lossy; derived from the PLATO record; plato_commit=ca0afadabec1e23a145c0b03df77e8f151f79832","features":[{"@id":"https://w3id.org/whg-epns/08/011151","type":"Feature","properties":{"title":"Buckland-Tout-Saints","ccodes":["GB"],"fclasses":["A","P"]},"names":[{"toponym":"Buckland-Tout-Saints","lang":"en","citations":[{"label":"English Place-Name Society survey, volume 8: Devon"}]}],"types":[{"identifier":"http://vocab.getty.edu/aat/300232418","label":"administrative division","sourceLabels":[{"label":"parish","lang":"en"}]}],"geometry":{"type":"GeometryCollection","geometries":[{"type":"Point","coordinates":[-3.76067,50.30596],"citations":[{"label":"GeoNames, gazetteer record geonames:7291177"}]},{"type":"Point","coordinates":[-3.74816056335062,50.29568079324087],"citations":[{"label":"Unlock (EDINA) gazetteer, gazetteer record unlock:11091758"}]},{"type":"Point","coordinates":[-3.7493,50.2963],"citations":[{"label":"Key to English Place-Names (KEPN), gazetteer record 15652"}]}]},"links":[{"type":"closeMatch","identifier":"https://sws.geonames.org/7291177/"}],"relations":[{"relationType":"gvp:broaderPartitive","relationTo":"https://w3id.org/whg-epns/08/010957","label":"within Coleridge Hundred"}]}]}