{"@context":"https://raw.githubusercontent.com/LinkedPasts/linked-places-format/main/linkedplaces-context-v1.1.jsonld","type":"FeatureCollection","license":"Digitisation of English Placenames MADS data is licensed to Jisc by the English Place Names Society and released under a Creative Commons Attribution-NonCommercial 4.0 International License.","note":"LPF v1.3, lossy; derived from the PLATO record; plato_commit=fa0d247ccc0263f8f19c8d7cdcd163df96935d1e","features":[{"@id":"https://w3id.org/whg-epns/06/000084","type":"Feature","properties":{"title":"Cocking","ccodes":["GB"],"fclasses":["A","P"]},"names":[{"toponym":"Cocking","lang":"en","citations":[{"label":"English Place-Name Society survey, volume 6: Sussex"}]}],"types":[{"identifier":"http://vocab.getty.edu/aat/300232418","label":"administrative division","sourceLabels":[{"label":"parish","lang":"en"}]}],"geometry":{"type":"GeometryCollection","geometries":[{"type":"Point","coordinates":[-0.75179,50.95042],"citations":[{"label":"GeoNames, gazetteer record geonames:2652671"}]},{"type":"Point","coordinates":[-0.7542266093576276,50.94973841196025],"citations":[{"label":"Unlock (EDINA) gazetteer, gazetteer record unlock:11111590"}]},{"type":"Point","coordinates":[-0.755726,50.9503],"citations":[{"label":"Key to English Place-Names (KEPN), gazetteer record 6863"}]}]},"links":[{"type":"closeMatch","identifier":"https://sws.geonames.org/2652671/"}],"relations":[{"relationType":"gvp:broaderPartitive","relationTo":"https://w3id.org/whg-epns/06/000062","label":"within Easebourne Hundred"}]}]}