{"@context":"https://raw.githubusercontent.com/LinkedPasts/linked-places-format/main/linkedplaces-context-v1.1.jsonld","type":"FeatureCollection","license":"Digitisation of English Placenames MADS data is licensed to Jisc by the English Place Names Society and released under a Creative Commons Attribution-NonCommercial 4.0 International License.","note":"LPF v1.3, lossy; derived from the PLATO record; plato_commit=fa0d247ccc0263f8f19c8d7cdcd163df96935d1e","features":[{"@id":"https://w3id.org/whg-epns/06/000103","type":"Feature","properties":{"title":"Easebourne","ccodes":["GB"],"fclasses":["A","P"]},"names":[{"toponym":"Easebourne","lang":"en","citations":[{"label":"English Place-Name Society survey, volume 6: Sussex"}]},{"toponym":"Eseburne","citations":[{"label":"1086 DB","year":1086},{"label":"1188 P","year":1188},{"label":"t. Ric i Pat","year":1189},{"label":"1316 FA","year":1316},{"label":"1346 Ipm","year":1346}],"when":{"timespans":[{"start":{"in":"1086"},"end":{"in":"1086"}},{"start":{"in":"1188"},"end":{"in":"1188"}},{"start":{"earliest":"1189","latest":"1199"},"end":{"earliest":"1189","latest":"1199"}},{"start":{"in":"1316"},"end":{"in":"1316"}},{"start":{"in":"1346"},"end":{"in":"1346"}}]}},{"toponym":"Isenburna","citations":[{"label":"c. 1105 France","year":1095},{"label":"1165 P","year":1165}],"when":{"timespans":[{"start":{"earliest":"1095","latest":"1115"},"end":{"earliest":"1095","latest":"1115"}},{"start":{"in":"1165"},"end":{"in":"1165"}}]}},{"toponym":"Eselburna","citations":[{"label":"1186 P","year":1186}],"when":{"timespans":[{"start":{"in":"1186"},"end":{"in":"1186"}}]}},{"toponym":"Esemburna","citations":[{"label":"t. Hy 2 Pat","year":1154}],"when":{"timespans":[{"start":{"earliest":"1154","latest":"1189"},"end":{"earliest":"1154","latest":"1189"}}]}},{"toponym":"Hesseburn","citations":[{"label":"1185 P","year":1185}],"when":{"timespans":[{"start":{"in":"1185"},"end":{"in":"1185"}}]}},{"toponym":"Estburn","citations":[{"label":"1219 Fees","year":1219}],"when":{"timespans":[{"start":{"in":"1219"},"end":{"in":"1219"}}]}},{"toponym":"Estborne","citations":[{"label":"1404 Cicestr","year":1404},{"label":"1595 Hope","year":1595}],"when":{"timespans":[{"start":{"in":"1404"},"end":{"in":"1404"}},{"start":{"in":"1595"},"end":{"in":"1595"}}]}},{"toponym":"Eseburn al. Eastborn","citations":[{"label":"1447 Inq aqd","year":1447}],"when":{"timespans":[{"start":{"in":"1447"},"end":{"in":"1447"}}]}},{"toponym":"Esbourn","citations":[{"label":"1500 Ipm","year":1500}],"when":{"timespans":[{"start":{"in":"1500"},"end":{"in":"1500"}}]}}],"types":[{"identifier":"http://vocab.getty.edu/aat/300232418","label":"administrative division","sourceLabels":[{"label":"township","lang":"en"}]}],"geometry":{"type":"GeometryCollection","geometries":[{"type":"Point","coordinates":[-0.7299,50.99561],"citations":[{"label":"GeoNames, gazetteer record geonames:8224218"}]},{"type":"Point","coordinates":[-0.7245283047313859,50.99438672564963],"citations":[{"label":"Unlock (EDINA) gazetteer, gazetteer record unlock:11135515"}]},{"type":"Point","coordinates":[-0.726033,50.9949],"citations":[{"label":"Key to English Place-Names (KEPN), gazetteer record 6864"}]}]},"when":{"timespans":[{"start":{"in":"1086"},"end":{"in":"1595"}}]},"links":[{"type":"closeMatch","identifier":"https://sws.geonames.org/8224218/"}],"relations":[{"relationType":"gvp:broaderPartitive","relationTo":"https://w3id.org/whg-epns/06/000102","label":"within Easebourne"}]}]}