{"@context":"https://raw.githubusercontent.com/LinkedPasts/linked-places-format/main/linkedplaces-context-v1.1.jsonld","type":"FeatureCollection","license":"Digitisation of English Placenames MADS data is licensed to Jisc by the English Place Names Society and released under a Creative Commons Attribution-NonCommercial 4.0 International License.","note":"LPF v1.3, lossy; derived from the PLATO record; plato_commit=fa0d247ccc0263f8f19c8d7cdcd163df96935d1e","features":[{"@id":"https://w3id.org/whg-epns/06/001509","type":"Feature","properties":{"title":"West Itchenor","ccodes":["GB"],"fclasses":["A","P"]},"names":[{"toponym":"West Itchenor","lang":"en","citations":[{"label":"English Place-Name Society survey, volume 6: Sussex"}]},{"toponym":"Iccannore","citations":[{"label":"683 BCS","year":683}],"when":{"timespans":[{"start":{"in":"0683"},"end":{"in":"0683"}}]}},{"toponym":"Icenore","citations":[{"label":"1086 DB","year":1086}],"when":{"timespans":[{"start":{"in":"1086"},"end":{"in":"1086"}}]}},{"toponym":"Ikenora","citations":[{"label":"12th Box","year":1100}],"when":{"timespans":[{"start":{"earliest":"1100","latest":"1200"},"end":{"earliest":"1100","latest":"1200"}}]}},{"toponym":"Hickenore","citations":[{"label":"1274 Ipm","year":1274}],"when":{"timespans":[{"start":{"in":"1274"},"end":{"in":"1274"}}]}},{"toponym":"Ychenor'","citations":[{"label":"12th Box","year":1100}],"when":{"timespans":[{"start":{"earliest":"1100","latest":"1200"},"end":{"earliest":"1100","latest":"1200"}}]}},{"toponym":"Ichenore","citations":[{"label":"1187 France","year":1187},{"label":"1337 Ipm","year":1337}],"when":{"timespans":[{"start":{"in":"1187"},"end":{"in":"1187"}},{"start":{"in":"1337"},"end":{"in":"1337"}}]}},{"toponym":"Westigenore","citations":[{"label":"1243 FF","year":1243}],"when":{"timespans":[{"start":{"in":"1243"},"end":{"in":"1243"}}]}},{"toponym":"Westichenor(e)","citations":[{"label":"1243 FF","year":1243},{"label":"1279 Ass","year":1279},{"label":"1291 Tax","year":1291}],"when":{"timespans":[{"start":{"in":"1243"},"end":{"in":"1243"}},{"start":{"in":"1279"},"end":{"in":"1279"}},{"start":{"in":"1291"},"end":{"in":"1291"}}]}},{"toponym":"Ichinor","citations":[{"label":"1641 SRS","year":1641}],"when":{"timespans":[{"start":{"in":"1641"},"end":{"in":"1641"}}]}}],"types":[{"identifier":"http://vocab.getty.edu/aat/300232418","label":"administrative division","sourceLabels":[{"label":"township","lang":"en"}]}],"geometry":{"type":"GeometryCollection","geometries":[{"type":"Point","coordinates":[-0.86689,50.80561],"citations":[{"label":"GeoNames, gazetteer record geonames:2634383"}]},{"type":"Point","coordinates":[-0.8715813518724439,50.80703022885826],"citations":[{"label":"Unlock (EDINA) gazetteer, gazetteer record unlock:11317141"}]},{"type":"Point","coordinates":[-0.873062,50.8076],"citations":[{"label":"Key to English Place-Names (KEPN), gazetteer record 6914"}]}]},"when":{"timespans":[{"start":{"in":"0683"},"end":{"in":"1641"}}]},"links":[{"type":"closeMatch","identifier":"https://sws.geonames.org/2634383/"}],"relations":[{"relationType":"gvp:broaderPartitive","relationTo":"https://w3id.org/whg-epns/06/001508","label":"within West Itchenor"}]}]}