{"@context":"https://raw.githubusercontent.com/LinkedPasts/linked-places-format/main/linkedplaces-context-v1.1.jsonld","type":"FeatureCollection","license":"Digitisation of English Placenames MADS data is licensed to Jisc by the English Place Names Society and released under a Creative Commons Attribution-NonCommercial 4.0 International License.","note":"LPF v1.3, lossy; derived from the PLATO record; plato_commit=fa0d247ccc0263f8f19c8d7cdcd163df96935d1e","features":[{"@id":"https://w3id.org/whg-epns/06/002189","type":"Feature","properties":{"title":"North Chapel","ccodes":["GB"],"fclasses":["A","P"]},"names":[{"toponym":"North Chapel","lang":"en","citations":[{"label":"English Place-Name Society survey, volume 6: Sussex"}]},{"toponym":"North-Chapell","citations":[{"label":"1514 SRS","year":1514}],"when":{"timespans":[{"start":{"in":"1514"},"end":{"in":"1514"}}]}},{"toponym":"atte Capele","citations":[{"label":"1296 SR","year":1296}],"when":{"timespans":[{"start":{"in":"1296"},"end":{"in":"1296"}}]}}],"types":[{"identifier":"http://vocab.getty.edu/aat/300232418","label":"administrative division","sourceLabels":[{"label":"township","lang":"en"}]}],"geometry":{"type":"GeometryCollection","geometries":[{"type":"Point","coordinates":[-0.64356,51.05693],"citations":[{"label":"GeoNames, gazetteer record geonames:2641397"}]},{"type":"Point","coordinates":[-0.638719,51.0569],"citations":[{"label":"Key to English Place-Names (KEPN), gazetteer record 6932"}]}]},"when":{"timespans":[{"start":{"in":"1296"},"end":{"in":"1514"}}]},"links":[{"type":"closeMatch","identifier":"https://sws.geonames.org/2641397/"}],"relations":[{"relationType":"gvp:broaderPartitive","relationTo":"https://w3id.org/whg-epns/06/002188","label":"within North Chapel"}]}]}