{"@context":"https://raw.githubusercontent.com/LinkedPasts/linked-places-format/main/linkedplaces-context-v1.1.jsonld","type":"FeatureCollection","license":"Digitisation of English Placenames MADS data is licensed to Jisc by the English Place Names Society and released under a Creative Commons Attribution-NonCommercial 4.0 International License.","note":"LPF v1.3, lossy; derived from the PLATO record; plato_commit=fa0d247ccc0263f8f19c8d7cdcd163df96935d1e","features":[{"@id":"https://w3id.org/whg-epns/06/002530","type":"Feature","properties":{"title":"Houghton","ccodes":["GB"],"fclasses":["A","P"]},"names":[{"toponym":"Houghton","lang":"en","citations":[{"label":"English Place-Name Society survey, volume 6: Sussex"}]},{"toponym":"Hohtun","citations":[{"label":"683 BCS","year":683}],"when":{"timespans":[{"start":{"in":"0683"},"end":{"in":"0683"}}]}},{"toponym":"Hocton","citations":[{"label":"957 BCS","year":957},{"label":"c. 1230 Ch","year":1220},{"label":"1271 Ass","year":1271}],"when":{"timespans":[{"start":{"in":"0957"},"end":{"in":"0957"}},{"start":{"earliest":"1220","latest":"1240"},"end":{"earliest":"1220","latest":"1240"}},{"start":{"in":"1271"},"end":{"in":"1271"}}]}},{"toponym":"Hotton(e)","citations":[{"label":"t. Hy 1 LibB","year":1100},{"label":"1210-12 RBE","year":1210}],"when":{"timespans":[{"start":{"earliest":"1100","latest":"1135"},"end":{"earliest":"1100","latest":"1135"}},{"start":{"earliest":"1210","latest":"1212"},"end":{"earliest":"1210","latest":"1212"}}]}},{"toponym":"Hout(t)on","citations":[{"label":"1263 FF","year":1263},{"label":"1273 Ipm","year":1273}],"when":{"timespans":[{"start":{"in":"1263"},"end":{"in":"1263"}},{"start":{"in":"1273"},"end":{"in":"1273"}}]}},{"toponym":"Hogton","citations":[{"label":"1271 Ass","year":1271}],"when":{"timespans":[{"start":{"in":"1271"},"end":{"in":"1271"}},{"start":{"in":"1279"},"end":{"in":"1279"}}]}},{"toponym":"Hozton","citations":[{"label":"1296 SR","year":1296}],"when":{"timespans":[{"start":{"in":"1296"},"end":{"in":"1296"}}]}},{"toponym":"Hoghton","citations":[{"label":"1327 SR","year":1327},{"label":"1428 FA","year":1428}],"when":{"timespans":[{"start":{"in":"1327"},"end":{"in":"1327"}},{"start":{"in":"1332"},"end":{"in":"1332"}},{"start":{"in":"1428"},"end":{"in":"1428"}}]}}],"types":[{"identifier":"http://vocab.getty.edu/aat/300232418","label":"administrative division","sourceLabels":[{"label":"township","lang":"en"}]}],"geometry":{"type":"GeometryCollection","geometries":[{"type":"Point","coordinates":[-0.55305,50.89443],"citations":[{"label":"GeoNames, gazetteer record geonames:2646528"}]},{"type":"Point","coordinates":[-0.5566362093401346,50.89349939450619],"citations":[{"label":"Unlock (EDINA) gazetteer, gazetteer record unlock:11179991"}]},{"type":"Point","coordinates":[-0.558156,50.8941],"citations":[{"label":"Key to English Place-Names (KEPN), gazetteer record 6943"}]}]},"when":{"timespans":[{"start":{"in":"0683"},"end":{"in":"1428"}}]},"links":[{"type":"closeMatch","identifier":"https://sws.geonames.org/2646528/"}],"relations":[{"relationType":"gvp:broaderPartitive","relationTo":"https://w3id.org/whg-epns/06/002529","label":"within Houghton"}]}]}