{"@context":"https://raw.githubusercontent.com/LinkedPasts/linked-places-format/main/linkedplaces-context-v1.1.jsonld","type":"FeatureCollection","license":"Digitisation of English Placenames MADS data is licensed to Jisc by the English Place Names Society and released under a Creative Commons Attribution-NonCommercial 4.0 International License.","note":"LPF v1.3, lossy; derived from the PLATO record; plato_commit=fa0d247ccc0263f8f19c8d7cdcd163df96935d1e","features":[{"@id":"https://w3id.org/whg-epns/06/002529","type":"Feature","properties":{"title":"Houghton","ccodes":["GB"],"fclasses":["A","P"]},"names":[{"toponym":"Houghton","lang":"en","citations":[{"label":"English Place-Name Society survey, volume 6: Sussex"}]}],"types":[{"identifier":"http://vocab.getty.edu/aat/300232418","label":"administrative division","sourceLabels":[{"label":"parish","lang":"en"}]}],"geometry":{"type":"GeometryCollection","geometries":[{"type":"Point","coordinates":[-0.55305,50.89443],"citations":[{"label":"GeoNames, gazetteer record geonames:2646528"}]},{"type":"Point","coordinates":[-0.5566362093401346,50.89349939450619],"citations":[{"label":"Unlock (EDINA) gazetteer, gazetteer record unlock:11179991"}]},{"type":"Point","coordinates":[-0.558156,50.8941],"citations":[{"label":"Key to English Place-Names (KEPN), gazetteer record 6943"}]}]},"links":[{"type":"closeMatch","identifier":"https://sws.geonames.org/2646528/"}],"relations":[{"relationType":"gvp:broaderPartitive","relationTo":"https://w3id.org/whg-epns/06/002410","label":"within Bury Hundred"}]}]}