{"@context":"https://raw.githubusercontent.com/LinkedPasts/linked-places-format/main/linkedplaces-context-v1.1.jsonld","type":"FeatureCollection","license":"Digitisation of English Placenames MADS data is licensed to Jisc by the English Place Names Society and released under a Creative Commons Attribution-NonCommercial 4.0 International License.","note":"LPF v1.3, lossy; derived from the PLATO record; plato_commit=ca0afadabec1e23a145c0b03df77e8f151f79832","features":[{"@id":"https://w3id.org/whg-epns/06/002713","type":"Feature","properties":{"title":"Barnham","ccodes":["GB"],"fclasses":["A","P"]},"names":[{"toponym":"Barnham","lang":"en","citations":[{"label":"English Place-Name Society survey, volume 6: Sussex"}]},{"toponym":"Berneha(m)","citations":[{"label":"1086–1316, recurring DB","year":1086},{"label":"1086–1316, recurring FA"},{"label":"1086 DB","year":1086},{"label":"1316 FA","year":1316}],"when":{"timespans":[{"start":{"in":"1086"},"end":{"in":"1316"}},{"start":{"in":"1086"},"end":{"in":"1086"}},{"start":{"in":"1316"},"end":{"in":"1316"}}]}},{"toponym":"Bernham","citations":[{"label":"1105–1492, recurring France","year":1105},{"label":"1105–1492, recurring Ipm"},{"label":"1105 France","year":1105},{"label":"1492 Ipm","year":1492}],"when":{"timespans":[{"start":{"in":"1105"},"end":{"in":"1492"}},{"start":{"in":"1105"},"end":{"in":"1105"}},{"start":{"in":"1492"},"end":{"in":"1492"}}]}}],"types":[{"identifier":"http://vocab.getty.edu/aat/300232418","label":"administrative division","sourceLabels":[{"label":"township","lang":"en"}]}],"geometry":{"type":"GeometryCollection","geometries":[{"type":"Point","coordinates":[-0.63789,50.8312],"citations":[{"label":"GeoNames, gazetteer record geonames:2656293"}]},{"type":"Point","coordinates":[-0.6295620623984087,50.83142030100785],"citations":[{"label":"Unlock (EDINA) gazetteer, gazetteer record unlock:11070514"}]},{"type":"Point","coordinates":[-0.631071,50.832],"citations":[{"label":"Key to English Place-Names (KEPN), gazetteer record 6947"}]}]},"when":{"timespans":[{"start":{"in":"1086"},"end":{"in":"1492"}}]},"links":[{"type":"closeMatch","identifier":"https://sws.geonames.org/2656293/"}],"relations":[{"relationType":"gvp:broaderPartitive","relationTo":"https://w3id.org/whg-epns/06/002712","label":"within Barnham"}]}]}