{"@context":"https://raw.githubusercontent.com/LinkedPasts/linked-places-format/main/linkedplaces-context-v1.1.jsonld","type":"FeatureCollection","license":"Digitisation of English Placenames MADS data is licensed to Jisc by the English Place Names Society and released under a Creative Commons Attribution-NonCommercial 4.0 International License.","note":"LPF v1.3, lossy; derived from the PLATO record; plato_commit=ca0afadabec1e23a145c0b03df77e8f151f79832","features":[{"@id":"https://w3id.org/whg-epns/06/002773","type":"Feature","properties":{"title":"Felpham","ccodes":["GB"],"fclasses":["A","P"]},"names":[{"toponym":"Felpham","lang":"en","citations":[{"label":"English Place-Name Society survey, volume 6: Sussex"}]},{"toponym":"Felhhamme","citations":[{"label":"c. 880 BCS","year":870}],"when":{"timespans":[{"start":{"earliest":"0870","latest":"0890"},"end":{"earliest":"0870","latest":"0890"}}]}},{"toponym":"Felhham","citations":[{"label":"953 BCS","year":953}],"when":{"timespans":[{"start":{"in":"0953"},"end":{"in":"0953"}}]}},{"toponym":"Falcheham","citations":[{"label":"1086 DB","year":1086},{"label":"14th Harl","year":1300}],"when":{"timespans":[{"start":{"in":"1086"},"end":{"in":"1086"}},{"start":{"earliest":"1300","latest":"1400"},"end":{"earliest":"1300","latest":"1400"}}]}},{"toponym":"Falkham","citations":[{"label":"1230 FF","year":1230},{"label":"1288 Ass","year":1288}],"when":{"timespans":[{"start":{"in":"1230"},"end":{"in":"1230"}},{"start":{"in":"1288"},"end":{"in":"1288"}},{"start":{"in":"1293"},"end":{"in":"1293"}}]}},{"toponym":"Falgham","citations":[{"label":"1293–1428, recurring Ch","year":1293},{"label":"1293–1428, recurring Pat"},{"label":"1293 Ch","year":1293},{"label":"1428 Pat","year":1428}],"when":{"timespans":[{"start":{"in":"1293"},"end":{"in":"1428"}},{"start":{"in":"1293"},"end":{"in":"1293"}},{"start":{"in":"1428"},"end":{"in":"1428"}}]}},{"toponym":"Felk(h)am","citations":[{"label":"1177 P","year":1177},{"label":"1262 FF","year":1262}],"when":{"timespans":[{"start":{"in":"1177"},"end":{"in":"1177"}},{"start":{"in":"1262"},"end":{"in":"1262"}}]}},{"toponym":"Felcham","citations":[{"label":"1179 P","year":1179}],"when":{"timespans":[{"start":{"in":"1179"},"end":{"in":"1179"}}]}},{"toponym":"Phel(e)gham, Fel(e)gham","citations":[{"label":"1236 FF","year":1236},{"label":"1248 Ass","year":1248},{"label":"1332 SR","year":1332},{"label":"1428 FA","year":1428}],"when":{"timespans":[{"start":{"in":"1236"},"end":{"in":"1236"}},{"start":{"in":"1248"},"end":{"in":"1248"}},{"start":{"in":"1332"},"end":{"in":"1332"}},{"start":{"in":"1428"},"end":{"in":"1428"}}]}},{"toponym":"Phelpham","citations":[{"label":"1575 MarC","year":1575}],"when":{"timespans":[{"start":{"in":"1575"},"end":{"in":"1575"}}]}},{"toponym":"Felffam vel Folgham","citations":[{"label":"1592 SRS","year":1592}],"when":{"timespans":[{"start":{"in":"1592"},"end":{"in":"1592"}}]}},{"toponym":"Feltham al. Felgham","citations":[{"label":"1593 SRS","year":1593}],"when":{"timespans":[{"start":{"in":"1593"},"end":{"in":"1593"}}]}}],"types":[{"identifier":"http://vocab.getty.edu/aat/300232418","label":"administrative division","sourceLabels":[{"label":"township","lang":"en"}]}],"geometry":{"type":"GeometryCollection","geometries":[{"type":"Point","coordinates":[-0.64579,50.79422],"citations":[{"label":"GeoNames, gazetteer record geonames:2649576"}]},{"type":"Point","coordinates":[-0.6448005304451494,50.79562201034567],"citations":[{"label":"Unlock (EDINA) gazetteer, gazetteer record unlock:11142994"}]},{"type":"Point","coordinates":[-0.632384,50.7871],"citations":[{"label":"Key to English Place-Names (KEPN), gazetteer record 6951"}]}]},"when":{"timespans":[{"start":{"in":"0870"},"end":{"in":"1593"}}]},"links":[{"type":"closeMatch","identifier":"https://sws.geonames.org/2649576/"}],"relations":[{"relationType":"gvp:broaderPartitive","relationTo":"https://w3id.org/whg-epns/06/002772","label":"within Felpham"}]}]}