{"@context":"https://raw.githubusercontent.com/LinkedPasts/linked-places-format/main/linkedplaces-context-v1.1.jsonld","type":"FeatureCollection","license":"Digitisation of English Placenames MADS data is licensed to Jisc by the English Place Names Society and released under a Creative Commons Attribution-NonCommercial 4.0 International License.","note":"LPF v1.3, lossy; derived from the PLATO record; plato_commit=ca0afadabec1e23a145c0b03df77e8f151f79832","features":[{"@id":"http://placenames.org.uk/id/placename/06/002712","type":"Feature","properties":{"title":"Barnham","ccodes":["GB"],"fclasses":["A","P"]},"names":[{"toponym":"Barnham","lang":"en","citations":[{"label":"English Place-Name Society survey, volume 6: Sussex"}]}],"types":[{"identifier":"http://vocab.getty.edu/aat/300232418","label":"administrative division","sourceLabels":[{"label":"parish","lang":"en"}]}],"geometry":{"type":"GeometryCollection","geometries":[{"type":"Point","coordinates":[-0.63789,50.8312],"citations":[{"label":"GeoNames, gazetteer record geonames:2656293"}]},{"type":"Point","coordinates":[-0.6295620623984087,50.83142030100785],"citations":[{"label":"Unlock (EDINA) gazetteer, gazetteer record unlock:11070514"}]},{"type":"Point","coordinates":[-0.631071,50.832],"citations":[{"label":"Key to English Place-Names (KEPN), gazetteer record 6947"}]}]},"links":[{"type":"closeMatch","identifier":"https://sws.geonames.org/2656293/"}],"relations":[{"relationType":"gvp:broaderPartitive","relationTo":"http://placenames.org.uk/id/placename/06/002695","label":"within Avisford Hundred"}]}]}