{"@context":"https://raw.githubusercontent.com/LinkedPasts/linked-places-format/main/linkedplaces-context-v1.1.jsonld","type":"FeatureCollection","license":"Digitisation of English Placenames MADS data is licensed to Jisc by the English Place Names Society and released under a Creative Commons Attribution-NonCommercial 4.0 International License.","note":"LPF v1.3, lossy; derived from the PLATO record; plato_commit=fa0d247ccc0263f8f19c8d7cdcd163df96935d1e","features":[{"@id":"https://w3id.org/whg-epns/06/002836","type":"Feature","properties":{"title":"Tortington","ccodes":["GB"],"fclasses":["A","P"]},"names":[{"toponym":"Tortington","lang":"en","citations":[{"label":"English Place-Name Society survey, volume 6: Sussex"}]},{"toponym":"Tortinton","citations":[{"label":"1086 DB","year":1086},{"label":"1215 FF","year":1215},{"label":"1317 AD","year":1317}],"when":{"timespans":[{"start":{"in":"1086"},"end":{"in":"1086"}},{"start":{"in":"1215"},"end":{"in":"1215"}},{"start":{"in":"1317"},"end":{"in":"1317"}}]}},{"toponym":"Tortintune","citations":[{"label":"c. 1270 Gerv","year":1260}],"when":{"timespans":[{"start":{"earliest":"1260","latest":"1280"},"end":{"earliest":"1260","latest":"1280"}}]}},{"toponym":"Tortrington","citations":[{"label":"1274 Cl","year":1274}],"when":{"timespans":[{"start":{"in":"1274"},"end":{"in":"1274"}}]}},{"toponym":"Tortyton(e), Tortiton(e)","citations":[{"label":"1291 Tax","year":1291},{"label":"1303 Ipm","year":1303},{"label":"AD"},{"label":"1307 Ipm","year":1307},{"label":"1332 SR","year":1332}],"when":{"timespans":[{"start":{"in":"1291"},"end":{"in":"1291"}},{"start":{"in":"1303"},"end":{"in":"1303"}},{"start":{"in":"1307"},"end":{"in":"1307"}},{"start":{"in":"1332"},"end":{"in":"1332"}}]}},{"toponym":"Tortingeton","citations":[{"label":"1296 SR","year":1296}],"when":{"timespans":[{"start":{"in":"1296"},"end":{"in":"1296"}}]}},{"toponym":"Torton","citations":[{"label":"1304-7 Ipm","year":1304},{"label":"1641 SRS","year":1641},{"label":"1732 Morden","year":1732}],"when":{"timespans":[{"start":{"earliest":"1304","latest":"1307"},"end":{"earliest":"1304","latest":"1307"}},{"start":{"in":"1641"},"end":{"in":"1641"}},{"start":{"in":"1732"},"end":{"in":"1732"}}]}},{"toponym":"Tortyngton","citations":[{"label":"1327 SR","year":1327},{"label":"1346 Ipm","year":1346},{"label":"1397 IpmR","year":1397}],"when":{"timespans":[{"start":{"in":"1327"},"end":{"in":"1327"}},{"start":{"in":"1346"},"end":{"in":"1346"}},{"start":{"in":"1397"},"end":{"in":"1397"}}]}},{"toponym":"Tordynton","citations":[{"label":"1341 Ipm","year":1341}],"when":{"timespans":[{"start":{"in":"1341"},"end":{"in":"1341"}}]}},{"toponym":"Torintone, Totington","citations":[{"label":"1316 FA","year":1316}],"when":{"timespans":[{"start":{"in":"1316"},"end":{"in":"1316"}}]}},{"toponym":"Totyngton","citations":[{"label":"1428 FA","year":1428}],"when":{"timespans":[{"start":{"in":"1428"},"end":{"in":"1428"}}]}}],"types":[{"identifier":"http://vocab.getty.edu/aat/300232418","label":"administrative division","sourceLabels":[{"label":"township","lang":"en"}]}],"geometry":{"type":"GeometryCollection","geometries":[{"type":"Point","coordinates":[-0.5725005008882834,50.83973018832533],"citations":[{"label":"Unlock (EDINA) gazetteer, gazetteer record unlock:11303341"}]},{"type":"Point","coordinates":[-0.574016,50.8403],"citations":[{"label":"Key to English Place-Names (KEPN), gazetteer record 6955"}]}]},"when":{"timespans":[{"start":{"in":"1086"},"end":{"in":"1732"}}]},"relations":[{"relationType":"gvp:broaderPartitive","relationTo":"https://w3id.org/whg-epns/06/002835","label":"within Tortington"}]}]}