{"@context":"https://raw.githubusercontent.com/LinkedPasts/linked-places-format/main/linkedplaces-context-v1.1.jsonld","type":"FeatureCollection","license":"Digitisation of English Placenames MADS data is licensed to Jisc by the English Place Names Society and released under a Creative Commons Attribution-NonCommercial 4.0 International License.","note":"LPF v1.3, lossy; derived from the PLATO record; plato_commit=fa0d247ccc0263f8f19c8d7cdcd163df96935d1e","features":[{"@id":"https://w3id.org/whg-epns/06/002824","type":"Feature","properties":{"title":"South Stoke","ccodes":["GB"],"fclasses":["A","P"]},"names":[{"toponym":"South Stoke","lang":"en","citations":[{"label":"English Place-Name Society survey, volume 6: Sussex"}]},{"toponym":"Stoches","citations":[{"label":"1086 DB","year":1086}],"when":{"timespans":[{"start":{"in":"1086"},"end":{"in":"1086"}}]}},{"toponym":"Sudstok","citations":[{"label":"1242 Fees","year":1242}],"when":{"timespans":[{"start":{"in":"1242"},"end":{"in":"1242"}}]}},{"toponym":"Suth Stok","citations":[{"label":"1281 Ipm","year":1281}],"when":{"timespans":[{"start":{"in":"1281"},"end":{"in":"1281"}}]}}],"types":[{"identifier":"http://vocab.getty.edu/aat/300232418","label":"administrative division","sourceLabels":[{"label":"township","lang":"en"}]}],"geometry":{"type":"GeometryCollection","geometries":[{"type":"Point","coordinates":[-0.54867,50.87311],"citations":[{"label":"GeoNames, gazetteer record geonames:7292738"}]},{"type":"Point","coordinates":[-0.5429818384591907,50.87534165306612],"citations":[{"label":"Unlock (EDINA) gazetteer, gazetteer record unlock:11287947"}]},{"type":"Point","coordinates":[-0.544222,50.8849],"citations":[{"label":"Key to English Place-Names (KEPN), gazetteer record 6954"}]}]},"when":{"timespans":[{"start":{"in":"1086"},"end":{"in":"1281"}}]},"links":[{"type":"closeMatch","identifier":"https://sws.geonames.org/7292738/"}],"relations":[{"relationType":"gvp:broaderPartitive","relationTo":"https://w3id.org/whg-epns/06/002823","label":"within South Stoke"}]}]}