{"@context":"https://raw.githubusercontent.com/LinkedPasts/linked-places-format/main/linkedplaces-context-v1.1.jsonld","type":"FeatureCollection","license":"Digitisation of English Placenames MADS data is licensed to Jisc by the English Place Names Society and released under a Creative Commons Attribution-NonCommercial 4.0 International License.","note":"LPF v1.3, lossy; derived from the PLATO record; plato_commit=ca0afadabec1e23a145c0b03df77e8f151f79832","features":[{"@id":"https://w3id.org/whg-epns/06/003473","type":"Feature","properties":{"title":"Goring","ccodes":["GB"],"fclasses":["A","P"]},"names":[{"toponym":"Goring","lang":"en","citations":[{"label":"English Place-Name Society survey, volume 6: Sussex"}]},{"toponym":"Garinges","citations":[{"label":"1086–1301, recurring DB","year":1086},{"label":"1086–1301, recurring Cl"},{"label":"1086 DB","year":1086},{"label":"1301 Cl","year":1301}],"when":{"timespans":[{"start":{"in":"1086"},"end":{"in":"1301"}},{"start":{"in":"1086"},"end":{"in":"1086"}},{"start":{"in":"1301"},"end":{"in":"1301"}}]}},{"toponym":"Garynges","citations":[{"label":"1316 Pat","year":1316}],"when":{"timespans":[{"start":{"in":"1316"},"end":{"in":"1316"}}]}},{"toponym":"Garrynges","citations":[{"label":"1331 Ch","year":1331}],"when":{"timespans":[{"start":{"in":"1331"},"end":{"in":"1331"}}]}},{"toponym":"Garing(e)","citations":[{"label":"1202–1327, recurring Cur","year":1202},{"label":"1202–1327, recurring SR"},{"label":"1202 Cur","year":1202},{"label":"1327 SR","year":1327}],"when":{"timespans":[{"start":{"in":"1202"},"end":{"in":"1327"}},{"start":{"in":"1202"},"end":{"in":"1202"}},{"start":{"in":"1327"},"end":{"in":"1327"}}]}},{"toponym":"Goryng","citations":[{"label":"1280 FF","year":1280}],"when":{"timespans":[{"start":{"in":"1280"},"end":{"in":"1280"}}]}},{"toponym":"Goringge","citations":[{"label":"1302 Cl","year":1302}],"when":{"timespans":[{"start":{"in":"1302"},"end":{"in":"1302"}}]}},{"toponym":"Gorynges","citations":[{"label":"1298 FF","year":1298}],"when":{"timespans":[{"start":{"in":"1298"},"end":{"in":"1298"}}]}},{"toponym":"Westgoryngge","citations":[{"label":"1338 Ass","year":1338}],"when":{"timespans":[{"start":{"in":"1338"},"end":{"in":"1338"}}]}}],"types":[{"identifier":"http://vocab.getty.edu/aat/300232418","label":"administrative division","sourceLabels":[{"label":"township","lang":"en"}]}],"geometry":{"type":"GeometryCollection","geometries":[{"type":"Point","coordinates":[-0.42194,50.81239],"citations":[{"label":"GeoNames, gazetteer record geonames:2648300"}]},{"type":"Point","coordinates":[-0.4169257748858196,50.8197345476192],"citations":[{"label":"Unlock (EDINA) gazetteer, gazetteer record unlock:11156597"}]},{"type":"Point","coordinates":[-0.418458,50.8203],"citations":[{"label":"Key to English Place-Names (KEPN), gazetteer record 6971"}]}]},"when":{"timespans":[{"start":{"in":"1086"},"end":{"in":"1338"}}]},"links":[{"type":"closeMatch","identifier":"https://sws.geonames.org/2648300/"}],"relations":[{"relationType":"gvp:broaderPartitive","relationTo":"https://w3id.org/whg-epns/06/003472","label":"within Goring"}]}]}