{"@context":"https://raw.githubusercontent.com/LinkedPasts/linked-places-format/main/linkedplaces-context-v1.1.jsonld","type":"FeatureCollection","license":"Digitisation of English Placenames MADS data is licensed to Jisc by the English Place Names Society and released under a Creative Commons Attribution-NonCommercial 4.0 International License.","note":"LPF v1.3, lossy; derived from the PLATO record; plato_commit=ca0afadabec1e23a145c0b03df77e8f151f79832","features":[{"@id":"https://w3id.org/whg-epns/06/003576","type":"Feature","properties":{"title":"East Preston","ccodes":["GB"],"fclasses":["A","P"]},"names":[{"toponym":"East Preston","lang":"en","citations":[{"label":"English Place-Name Society survey, volume 6: Sussex"}]}],"types":[{"identifier":"http://vocab.getty.edu/aat/300232418","label":"administrative division","sourceLabels":[{"label":"parish","lang":"en"}]}],"geometry":{"type":"GeometryCollection","geometries":[{"type":"Point","coordinates":[-0.49061,50.81353],"citations":[{"label":"GeoNames, gazetteer record geonames:2650352"}]},{"type":"Point","coordinates":[-0.4739888285293229,50.81150075699512],"citations":[{"label":"Unlock (EDINA) gazetteer, gazetteer record unlock:11136521"}]},{"type":"Point","coordinates":[-0.489703,50.8123],"citations":[{"label":"Key to English Place-Names (KEPN), gazetteer record 6975"}]}]},"links":[{"type":"closeMatch","identifier":"https://sws.geonames.org/2650352/"}],"relations":[{"relationType":"gvp:broaderPartitive","relationTo":"https://w3id.org/whg-epns/06/003343","label":"within Poling Hundred"}]}]}