{"@context":"https://raw.githubusercontent.com/LinkedPasts/linked-places-format/main/linkedplaces-context-v1.1.jsonld","type":"FeatureCollection","license":"Digitisation of English Placenames MADS data is licensed to Jisc by the English Place Names Society and released under a Creative Commons Attribution-NonCommercial 4.0 International License.","note":"LPF v1.3, lossy; derived from the PLATO record; plato_commit=ca0afadabec1e23a145c0b03df77e8f151f79832","features":[{"@id":"http://placenames.org.uk/id/placename/06/003508","type":"Feature","properties":{"title":"Lyminster","ccodes":["GB"],"fclasses":["A","P"]},"names":[{"toponym":"Lyminster","lang":"en","citations":[{"label":"English Place-Name Society survey, volume 6: Sussex"}]},{"toponym":"Lullyngmynster","citations":[{"label":"c. 880 BCS","year":870}],"when":{"timespans":[{"start":{"earliest":"0870","latest":"0890"},"end":{"earliest":"0870","latest":"0890"}}]}},{"toponym":"Lolinminstre","citations":[{"label":"1086 DB","year":1086}],"when":{"timespans":[{"start":{"in":"1086"},"end":{"in":"1086"}}]}},{"toponym":"Lileministre","citations":[{"label":"1242 Fees","year":1242}],"when":{"timespans":[{"start":{"in":"1242"},"end":{"in":"1242"}}]}},{"toponym":"Lillemenstre","citations":[{"label":"c. 1270 Gerv","year":1260}],"when":{"timespans":[{"start":{"earliest":"1260","latest":"1280"},"end":{"earliest":"1260","latest":"1280"}}]}},{"toponym":"Limenistr'","citations":[{"label":"1201 Cur","year":1201}],"when":{"timespans":[{"start":{"in":"1201"},"end":{"in":"1201"}}]}},{"toponym":"Lyministre, Liminstere","citations":[{"label":"1243-4 FF","year":1243}],"when":{"timespans":[{"start":{"earliest":"1243","latest":"1244"},"end":{"earliest":"1243","latest":"1244"}}]}},{"toponym":"Limenistre","citations":[{"label":"1242 Fees","year":1242},{"label":"AD"}],"when":{"timespans":[{"start":{"in":"1242"},"end":{"in":"1242"}}]}},{"toponym":"Lymmenistr'","citations":[{"label":"1271 Ass","year":1271}],"when":{"timespans":[{"start":{"in":"1271"},"end":{"in":"1271"}}]}},{"toponym":"Lymmynstre","citations":[{"label":"1438 Cicestr","year":1438}],"when":{"timespans":[{"start":{"in":"1438"},"end":{"in":"1438"}}]}},{"toponym":"Lymyster","citations":[{"label":"1511 LP","year":1511},{"label":"1584 MarC","year":1584},{"label":"1641 SRS","year":1641}],"when":{"timespans":[{"start":{"in":"1511"},"end":{"in":"1511"}},{"start":{"in":"1584"},"end":{"in":"1584"}},{"start":{"in":"1641"},"end":{"in":"1641"}}]}},{"toponym":"Lymster","citations":[{"label":"1717 Recov","year":1717}],"when":{"timespans":[{"start":{"in":"1717"},"end":{"in":"1717"}}]}},{"toponym":"Lemenistre","citations":[{"label":"1226 Pat","year":1226}],"when":{"timespans":[{"start":{"in":"1226"},"end":{"in":"1226"}}]}},{"toponym":"Leminstre","citations":[{"label":"1240 FF","year":1240}],"when":{"timespans":[{"start":{"in":"1240"},"end":{"in":"1240"}}]}},{"toponym":"Leministr'","citations":[{"label":"1253 FF","year":1253},{"label":"1278 Cl","year":1278}],"when":{"timespans":[{"start":{"in":"1253"},"end":{"in":"1253"}},{"start":{"in":"1278"},"end":{"in":"1278"}}]}},{"toponym":"Leumenster","citations":[{"label":"1316 FF","year":1316}],"when":{"timespans":[{"start":{"in":"1316"},"end":{"in":"1316"}}]}},{"toponym":"Lemmenstre","citations":[{"label":"1330 Ipm","year":1330}],"when":{"timespans":[{"start":{"in":"1330"},"end":{"in":"1330"}}]}},{"toponym":"Leaumynstre","citations":[{"label":"1397 Pat","year":1397}],"when":{"timespans":[{"start":{"in":"1397"},"end":{"in":"1397"}}]}},{"toponym":"Lememstre","citations":[{"label":"1409 Cicestr","year":1409}],"when":{"timespans":[{"start":{"in":"1409"},"end":{"in":"1409"}}]}},{"toponym":"Leomynster al. Lymyster","citations":[{"label":"1586 Recov","year":1586}],"when":{"timespans":[{"start":{"in":"1586"},"end":{"in":"1586"}}]}},{"toponym":"Leominster","citations":[{"label":"1795 GY","year":1795},{"label":"1823 G","year":1823}],"when":{"timespans":[{"start":{"in":"1795"},"end":{"in":"1795"}},{"start":{"in":"1823"},"end":{"in":"1823"}}]}},{"toponym":"Lunemenistre","citations":[{"label":"1253 Pat","year":1253}],"when":{"timespans":[{"start":{"in":"1253"},"end":{"in":"1253"}}]}},{"toponym":"Lonememstre","citations":[{"label":"1305 FF","year":1305},{"label":"1296 Ass","year":1296},{"label":"1296 SR","year":1296},{"label":"1321 Ipm","year":1321}],"when":{"timespans":[{"start":{"in":"1305"},"end":{"in":"1305"}},{"start":{"in":"1296"},"end":{"in":"1296"}},{"start":{"in":"1296"},"end":{"in":"1296"}},{"start":{"in":"1321"},"end":{"in":"1321"}}]}},{"toponym":"Lumenistre","citations":[{"label":"AD"}]},{"toponym":"Lune Menstre","citations":[{"label":"1359 FF","year":1359},{"label":"1428 FA","year":1428}],"when":{"timespans":[{"start":{"in":"1359"},"end":{"in":"1359"}},{"start":{"in":"1428"},"end":{"in":"1428"}}]}},{"toponym":"Loneminstre","citations":[{"label":"1390 IpmR","year":1390}],"when":{"timespans":[{"start":{"in":"1390"},"end":{"in":"1390"}}]}},{"toponym":"Lenemenstr'","citations":[{"label":"1279 Ass","year":1279},{"label":"1327 SR","year":1327},{"label":"1404 Cicestr","year":1404},{"label":"1428 FA","year":1428}],"when":{"timespans":[{"start":{"in":"1279"},"end":{"in":"1279"}},{"start":{"in":"1327"},"end":{"in":"1327"}},{"start":{"in":"1332"},"end":{"in":"1332"}},{"start":{"in":"1404"},"end":{"in":"1404"}},{"start":{"in":"1428"},"end":{"in":"1428"}}]}},{"toponym":"Lenimistre","citations":[{"label":"1284 FA","year":1284}],"when":{"timespans":[{"start":{"in":"1284"},"end":{"in":"1284"}}]}},{"toponym":"Loeneministre","citations":[{"label":"1311 Cl","year":1311}],"when":{"timespans":[{"start":{"in":"1311"},"end":{"in":"1311"}}]}},{"toponym":"Leonemenstr'","citations":[{"label":"1397 IpmR","year":1397}],"when":{"timespans":[{"start":{"in":"1397"},"end":{"in":"1397"}}]}},{"toponym":"Leynmynstre","citations":[{"label":"1404 Cicestr","year":1404}],"when":{"timespans":[{"start":{"in":"1404"},"end":{"in":"1404"}}]}},{"toponym":"Leneminster","citations":[{"label":"1417 IpmR","year":1417}],"when":{"timespans":[{"start":{"in":"1417"},"end":{"in":"1417"}}]}},{"toponym":"Lynemenster","citations":[{"label":"1421 IpmR","year":1421}],"when":{"timespans":[{"start":{"in":"1421"},"end":{"in":"1421"}}]}},{"toponym":"Limster al. Lymister","citations":[{"label":"1617 SRS","year":1617}],"when":{"timespans":[{"start":{"in":"1617"},"end":{"in":"1617"}}]}}],"types":[{"identifier":"http://vocab.getty.edu/aat/300232418","label":"administrative division","sourceLabels":[{"label":"township","lang":"en"}]}],"geometry":{"type":"GeometryCollection","geometries":[{"type":"Point","coordinates":[-0.5464,50.83348],"citations":[{"label":"GeoNames, gazetteer record geonames:2643310"}]},{"type":"Point","coordinates":[-0.5443819960571309,50.83038866188565],"citations":[{"label":"Unlock (EDINA) gazetteer, gazetteer record unlock:11210034"}]},{"type":"Point","coordinates":[-0.545901,50.831],"citations":[{"label":"Key to English Place-Names (KEPN), gazetteer record 6973"}]}]},"when":{"timespans":[{"start":{"in":"0870"},"end":{"in":"1823"}}]},"links":[{"type":"closeMatch","identifier":"https://sws.geonames.org/2643310/"}],"relations":[{"relationType":"gvp:broaderPartitive","relationTo":"http://placenames.org.uk/id/placename/06/003507","label":"within Lyminster"}]}]}