{"@context":"https://raw.githubusercontent.com/LinkedPasts/linked-places-format/main/linkedplaces-context-v1.1.jsonld","type":"FeatureCollection","license":"Digitisation of English Placenames MADS data is licensed to Jisc by the English Place Names Society and released under a Creative Commons Attribution-NonCommercial 4.0 International License.","note":"LPF v1.3, lossy; derived from the PLATO record; plato_commit=ca0afadabec1e23a145c0b03df77e8f151f79832","features":[{"@id":"http://placenames.org.uk/id/placename/06/004332","type":"Feature","properties":{"title":"Upper Beeding","ccodes":["GB"],"fclasses":["A","P"]},"names":[{"toponym":"Upper Beeding","lang":"en","citations":[{"label":"English Place-Name Society survey, volume 6: Sussex"}]}],"types":[{"identifier":"http://vocab.getty.edu/aat/300232418","label":"administrative division","sourceLabels":[{"label":"parish","lang":"en"}]}],"geometry":{"type":"GeometryCollection","geometries":[{"type":"Point","coordinates":[-0.30075,50.88073],"citations":[{"label":"GeoNames, gazetteer record geonames:2635146"}]},{"type":"Point","coordinates":[-0.3011085369715509,50.88106547569706],"citations":[{"label":"Unlock (EDINA) gazetteer, gazetteer record unlock:11309698"}]},{"type":"Point","coordinates":[-0.288448,50.8814],"citations":[{"label":"Key to English Place-Names (KEPN), gazetteer record 6998"}]}]},"links":[{"type":"closeMatch","identifier":"https://sws.geonames.org/2635146/"}],"relations":[{"relationType":"gvp:broaderPartitive","relationTo":"http://placenames.org.uk/id/placename/06/004300","label":"within Burbeach Hundred"}]}]}