{"@context":"https://raw.githubusercontent.com/LinkedPasts/linked-places-format/main/linkedplaces-context-v1.1.jsonld","type":"FeatureCollection","license":"Digitisation of English Placenames MADS data is licensed to Jisc by the English Place Names Society and released under a Creative Commons Attribution-NonCommercial 4.0 International License.","note":"LPF v1.3, lossy; derived from the PLATO record; plato_commit=fa0d247ccc0263f8f19c8d7cdcd163df96935d1e","features":[{"@id":"https://w3id.org/whg-epns/06/005015","type":"Feature","properties":{"title":"Nuthurst","ccodes":["GB"],"fclasses":["A","P"]},"names":[{"toponym":"Nuthurst","lang":"en","citations":[{"label":"English Place-Name Society survey, volume 6: Sussex"}]}],"types":[{"identifier":"http://vocab.getty.edu/aat/300232418","label":"administrative division","sourceLabels":[{"label":"parish","lang":"en"}]}],"geometry":{"type":"GeometryCollection","geometries":[{"type":"Point","coordinates":[-0.30058,51.02261],"citations":[{"label":"GeoNames, gazetteer record geonames:2641143"}]},{"type":"Point","coordinates":[-0.2958551611681505,51.02489559095991],"citations":[{"label":"Unlock (EDINA) gazetteer, gazetteer record unlock:11234220"}]},{"type":"Point","coordinates":[-0.297409,51.0255],"citations":[{"label":"Key to English Place-Names (KEPN), gazetteer record 7010"}]}]},"links":[{"type":"closeMatch","identifier":"https://sws.geonames.org/2641143/"}],"relations":[{"relationType":"gvp:broaderPartitive","relationTo":"https://w3id.org/whg-epns/06/004768","label":"within Steyning Hundred"}]}]}