{"@context":"https://raw.githubusercontent.com/LinkedPasts/linked-places-format/main/linkedplaces-context-v1.1.jsonld","type":"FeatureCollection","license":"Digitisation of English Placenames MADS data is licensed to Jisc by the English Place Names Society and released under a Creative Commons Attribution-NonCommercial 4.0 International License.","note":"LPF v1.3, lossy; derived from the PLATO record; plato_commit=ca0afadabec1e23a145c0b03df77e8f151f79832","features":[{"@id":"http://placenames.org.uk/id/placename/06/005465","type":"Feature","properties":{"title":"Patching","ccodes":["GB"],"fclasses":["A","P"]},"names":[{"toponym":"Patching","lang":"en","citations":[{"label":"English Place-Name Society survey, volume 6: Sussex"}]},{"toponym":"Pettinges","citations":[{"label":"947 BCS","year":947}],"when":{"timespans":[{"start":{"in":"0947"},"end":{"in":"0947"}}]}},{"toponym":"Pæccingas","citations":[{"label":"960 BCS","year":960},{"label":"1006 KCD","year":1006}],"when":{"timespans":[{"start":{"in":"0960"},"end":{"in":"0960"}},{"start":{"in":"1006"},"end":{"in":"1006"}}]}},{"toponym":"Petchinges","citations":[{"label":"1086 DB","year":1086}],"when":{"timespans":[{"start":{"in":"1086"},"end":{"in":"1086"}}]}},{"toponym":"Pescynges","citations":[{"label":"1307 CantRegB","year":1307}],"when":{"timespans":[{"start":{"in":"1307"},"end":{"in":"1307"}}]}},{"toponym":"Pechyng","citations":[{"label":"1535 AD","year":1535}],"when":{"timespans":[{"start":{"in":"1535"},"end":{"in":"1535"}}]}},{"toponym":"Pascinges","citations":[{"label":"1210 FF","year":1210}],"when":{"timespans":[{"start":{"in":"1210"},"end":{"in":"1210"}}]}},{"toponym":"Passig, Passiges","citations":[{"label":"c. 1220 Pens","year":1210}],"when":{"timespans":[{"start":{"earliest":"1210","latest":"1230"},"end":{"earliest":"1210","latest":"1230"}}]}},{"toponym":"Passinges","citations":[{"label":"1296 SR","year":1296}],"when":{"timespans":[{"start":{"in":"1296"},"end":{"in":"1296"}}]}},{"toponym":"Pessyng","citations":[{"label":"1271 Ass","year":1271}],"when":{"timespans":[{"start":{"in":"1271"},"end":{"in":"1271"}}]}},{"toponym":"Pacchyng","citations":[{"label":"1298 FF","year":1298},{"label":"1327 SR","year":1327}],"when":{"timespans":[{"start":{"in":"1298"},"end":{"in":"1298"}},{"start":{"in":"1327"},"end":{"in":"1327"}}]}},{"toponym":"Poching","citations":[{"label":"1513 LP","year":1513}],"when":{"timespans":[{"start":{"in":"1513"},"end":{"in":"1513"}}]}}],"types":[{"identifier":"http://vocab.getty.edu/aat/300232418","label":"administrative division","sourceLabels":[{"label":"township","lang":"en"}]}],"geometry":{"type":"GeometryCollection","geometries":[{"type":"Point","coordinates":[-0.45679,50.84725],"citations":[{"label":"GeoNames, gazetteer record geonames:2640581"}]},{"type":"Point","coordinates":[-0.4586147361450586,50.84727541019558],"citations":[{"label":"Unlock (EDINA) gazetteer, gazetteer record unlock:11241116"}]},{"type":"Point","coordinates":[-0.460144,50.8479],"citations":[{"label":"Key to English Place-Names (KEPN), gazetteer record 7020"}]}]},"when":{"timespans":[{"start":{"in":"0947"},"end":{"in":"1535"}}]},"links":[{"type":"closeMatch","identifier":"https://sws.geonames.org/2640581/"}],"relations":[{"relationType":"gvp:broaderPartitive","relationTo":"http://placenames.org.uk/id/placename/06/005464","label":"within Patching"}]}]}