{"@context":"https://raw.githubusercontent.com/LinkedPasts/linked-places-format/main/linkedplaces-context-v1.1.jsonld","type":"FeatureCollection","license":"Digitisation of English Placenames MADS data is licensed to Jisc by the English Place Names Society and released under a Creative Commons Attribution-NonCommercial 4.0 International License.","note":"LPF v1.3, lossy; derived from the PLATO record; plato_commit=ca0afadabec1e23a145c0b03df77e8f151f79832","features":[{"@id":"http://placenames.org.uk/id/placename/06/005432","type":"Feature","properties":{"title":"Shoreham-by-Sea","ccodes":["GB"],"fclasses":["A","P"]},"names":[{"toponym":"Shoreham-by-Sea","lang":"en","citations":[{"label":"English Place-Name Society survey, volume 6: Sussex"}]},{"toponym":"Noua Sorham","citations":[{"label":"1235 Sele","year":1235}],"when":{"timespans":[{"start":{"in":"1235"},"end":{"in":"1235"}}]}},{"toponym":"Noua Schorham","citations":[{"label":"1261 Ass","year":1261}],"when":{"timespans":[{"start":{"in":"1261"},"end":{"in":"1261"}}]}},{"toponym":"Nywe Shorham","citations":[{"label":"1288 Ass","year":1288}],"when":{"timespans":[{"start":{"in":"1288"},"end":{"in":"1288"}}]}},{"toponym":"port of Hulkesmouth al. Shorham","citations":[{"label":"1457 SAC","year":1457}],"when":{"timespans":[{"start":{"in":"1457"},"end":{"in":"1457"}}]}}],"types":[{"identifier":"http://vocab.getty.edu/aat/300232418","label":"administrative division","sourceLabels":[{"label":"township","lang":"en"}]}],"geometry":{"type":"GeometryCollection","geometries":[{"type":"Point","coordinates":[-0.27431,50.83413],"citations":[{"label":"GeoNames, gazetteer record geonames:2637916"}]},{"type":"Point","coordinates":[-0.2604873641680197,50.82650100355634],"citations":[{"label":"Unlock (EDINA) gazetteer, gazetteer record unlock:11283219"}]},{"type":"Point","coordinates":[-0.262038,50.8271],"citations":[{"label":"Key to English Place-Names (KEPN), gazetteer record 7017"}]}]},"when":{"timespans":[{"start":{"in":"1235"},"end":{"in":"1457"}}]},"links":[{"type":"closeMatch","identifier":"https://sws.geonames.org/2637916/"}],"relations":[{"relationType":"gvp:broaderPartitive","relationTo":"http://placenames.org.uk/id/placename/06/005431","label":"within Shoreham-by-Sea"}]}]}