{"@context":"https://raw.githubusercontent.com/LinkedPasts/linked-places-format/main/linkedplaces-context-v1.1.jsonld","type":"FeatureCollection","license":"Digitisation of English Placenames MADS data is licensed to Jisc by the English Place Names Society and released under a Creative Commons Attribution-NonCommercial 4.0 International License.","note":"LPF v1.3, lossy; derived from the PLATO record; plato_commit=ca0afadabec1e23a145c0b03df77e8f151f79832","features":[{"@id":"https://w3id.org/whg-epns/85/001076","type":"Feature","properties":{"title":"Buslingthorpe","ccodes":["GB"],"fclasses":["A","P"]},"names":[{"toponym":"Buslingthorpe","lang":"en","citations":[{"label":"English Place-Name Society survey, volume 85: Lincolnshire"}]},{"toponym":"Esetorp","citations":[{"label":"1086 DB","year":1086}],"when":{"timespans":[{"start":{"in":"1086"},"end":{"in":"1086"}}]}},{"toponym":"Esatorp","citations":[{"label":"c1115 DB","year":1105}],"when":{"timespans":[{"start":{"earliest":"1105","latest":"1125"},"end":{"earliest":"1105","latest":"1125"}}]}},{"toponym":"Buselingthorp(e)","citations":[{"label":"Hy2 Ch","year":1154},{"label":"l12 ChorCart","year":1175},{"label":"c1200 RA","year":1190},{"label":"1254 ValNor","year":1254},{"label":"1291 Pap","year":1291},{"label":"1295 Ch","year":1295},{"label":"1305 Cl","year":1305},{"label":"1316 FA","year":1316}],"when":{"timespans":[{"start":{"earliest":"1154","latest":"1189"},"end":{"earliest":"1154","latest":"1189"}},{"start":{"earliest":"1175","latest":"1200"},"end":{"earliest":"1175","latest":"1200"}},{"start":{"earliest":"1190","latest":"1210"},"end":{"earliest":"1190","latest":"1210"}},{"start":{"in":"1254"},"end":{"in":"1254"}},{"start":{"in":"1291"},"end":{"in":"1291"}},{"start":{"in":"1295"},"end":{"in":"1295"}},{"start":{"in":"1305"},"end":{"in":"1305"}},{"start":{"in":"1316"},"end":{"in":"1316"}}]}},{"toponym":"Buselingthorp'","citations":[{"label":"1282-3 RA","year":1282}],"when":{"timespans":[{"start":{"earliest":"1282","latest":"1283"},"end":{"earliest":"1282","latest":"1283"}}]}},{"toponym":"Buselingtorp","citations":[{"label":"l12 Kirkst","year":1175}],"when":{"timespans":[{"start":{"earliest":"1175","latest":"1200"},"end":{"earliest":"1175","latest":"1200"}}]}},{"toponym":"Busselingthorp'","citations":[{"label":"1340 MiD","year":1340}],"when":{"timespans":[{"start":{"in":"1340"},"end":{"in":"1340"}}]}},{"toponym":"Buslingthorpa","citations":[{"label":"Hy2 Gilb","year":1154}],"when":{"timespans":[{"start":{"earliest":"1154","latest":"1189"},"end":{"earliest":"1154","latest":"1189"}}]}},{"toponym":"Buslingthorp","citations":[{"label":"1232 Welles","year":1232},{"label":"1297 MiD","year":1297},{"label":"1333 AD","year":1333},{"label":"1447 LCStatutes","year":1447},{"label":"1526 Sub","year":1526}],"when":{"timespans":[{"start":{"in":"1232"},"end":{"in":"1232"}},{"start":{"in":"1297"},"end":{"in":"1297"}},{"start":{"in":"1300"},"end":{"in":"1300"}},{"start":{"in":"1327"},"end":{"in":"1327"}},{"start":{"in":"1333"},"end":{"in":"1333"}},{"start":{"in":"1447"},"end":{"in":"1447"}},{"start":{"in":"1526"},"end":{"in":"1526"}}]}},{"toponym":"Buslyngthorp(e)","citations":[{"label":"1313 YearBk","year":1313},{"label":"1327 SR","year":1327},{"label":"1328 Banco","year":1328},{"label":"1395 Peace","year":1395},{"label":"1431 FA","year":1431},{"label":"1459 Cl","year":1459},{"label":"1535 VE","year":1535},{"label":"1552 Pat","year":1552}],"when":{"timespans":[{"start":{"in":"1313"},"end":{"in":"1313"}},{"start":{"in":"1327"},"end":{"in":"1327"}},{"start":{"in":"1328"},"end":{"in":"1328"}},{"start":{"in":"1395"},"end":{"in":"1395"}},{"start":{"in":"1431"},"end":{"in":"1431"}},{"start":{"in":"1459"},"end":{"in":"1459"}},{"start":{"in":"1535"},"end":{"in":"1535"}},{"start":{"in":"1552"},"end":{"in":"1552"}}]}},{"toponym":"Buslyng Thorp","citations":[{"label":"1400 Fine","year":1400}],"when":{"timespans":[{"start":{"in":"1400"},"end":{"in":"1400"}}]}},{"toponym":"Bosellingtorpe","citations":[{"label":"c1235-50 RA","year":1235}],"when":{"timespans":[{"start":{"earliest":"1235","latest":"1250"},"end":{"earliest":"1235","latest":"1250"}}]}},{"toponym":"Boselingthorp'","citations":[{"label":"c1295 RA","year":1285}],"when":{"timespans":[{"start":{"earliest":"1285","latest":"1305"},"end":{"earliest":"1285","latest":"1305"}}]}},{"toponym":"Boselyngthorp'","citations":[{"label":"1310 RA","year":1310}],"when":{"timespans":[{"start":{"in":"1310"},"end":{"in":"1310"}}]}}],"types":[{"identifier":"http://vocab.getty.edu/aat/300232418","label":"administrative division","sourceLabels":[{"label":"township","lang":"en"}]}],"geometry":{"type":"GeometryCollection","geometries":[{"type":"Point","coordinates":[-0.37016,53.35353],"citations":[{"label":"GeoNames, gazetteer record geonames:7296096"}]},{"type":"Point","coordinates":[-0.3696385255120602,53.3549687391094],"citations":[{"label":"Unlock (EDINA) gazetteer, gazetteer record unlock:11094533"}]},{"type":"Point","coordinates":[-0.371282,53.3553],"citations":[{"label":"Key to English Place-Names (KEPN), gazetteer record 10653"}]}]},"when":{"timespans":[{"start":{"in":"1086"},"end":{"in":"1552"}}]},"links":[{"type":"closeMatch","identifier":"https://sws.geonames.org/7296096/"}],"relations":[{"relationType":"gvp:broaderPartitive","relationTo":"https://w3id.org/whg-epns/85/001075","label":"within Buslingthorpe"}]}]}