{"@context":"https://raw.githubusercontent.com/LinkedPasts/linked-places-format/main/linkedplaces-context-v1.1.jsonld","type":"FeatureCollection","license":"Digitisation of English Placenames MADS data is licensed to Jisc by the English Place Names Society and released under a Creative Commons Attribution-NonCommercial 4.0 International License.","note":"LPF v1.3, lossy; derived from the PLATO record; plato_commit=ca0afadabec1e23a145c0b03df77e8f151f79832","features":[{"@id":"https://w3id.org/whg-epns/85/005008","type":"Feature","properties":{"title":"Scampton","ccodes":["GB"],"fclasses":["A","P"]},"names":[{"toponym":"Scampton","lang":"en","citations":[{"label":"English Place-Name Society survey, volume 85: Lincolnshire"}]},{"toponym":"Scant'","citations":[{"label":"1086 DB","year":1086}],"when":{"timespans":[{"start":{"in":"1086"},"end":{"in":"1086"}}]}},{"toponym":"Scantone, Scantune","citations":[{"label":"1086 DB","year":1086}],"when":{"timespans":[{"start":{"in":"1086"},"end":{"in":"1086"}}]}},{"toponym":"Scantuna","citations":[{"label":"c1115 DB","year":1105}],"when":{"timespans":[{"start":{"earliest":"1105","latest":"1125"},"end":{"earliest":"1105","latest":"1125"}}]}},{"toponym":"Scanton","citations":[{"label":"1231 FF","year":1231}],"when":{"timespans":[{"start":{"in":"1231"},"end":{"in":"1231"}}]}},{"toponym":"Scamton","citations":[{"label":"1115 Dugd","year":1115},{"label":"1174 Kirkst","year":1174},{"label":"1246-7 RRG","year":1246},{"label":"1263 FF","year":1263},{"label":"1562 Pat","year":1562}],"when":{"timespans":[{"start":{"in":"1115"},"end":{"in":"1115"}},{"start":{"in":"1174"},"end":{"in":"1174"}},{"start":{"earliest":"1181","latest":"1201"},"end":{"earliest":"1181","latest":"1201"}},{"start":{"in":"1245"},"end":{"in":"1245"}},{"start":{"earliest":"1246","latest":"1247"},"end":{"earliest":"1246","latest":"1247"}},{"start":{"in":"1263"},"end":{"in":"1263"}},{"start":{"in":"1562"},"end":{"in":"1562"}}]}},{"toponym":"Schamtona","citations":[{"label":"1123 Bard","year":1123}],"when":{"timespans":[{"start":{"in":"1123"},"end":{"in":"1123"}},{"start":{"in":"1164"},"end":{"in":"1164"}},{"start":{"earliest":"1175","latest":"1200"},"end":{"earliest":"1175","latest":"1200"}}]}},{"toponym":"Scamtona","citations":[{"label":"1145 Bard","year":1145},{"label":"1175 Dane","year":1175},{"label":"e13 HarlCh","year":1200}],"when":{"timespans":[{"start":{"in":"1145"},"end":{"in":"1145"}},{"start":{"in":"1175"},"end":{"in":"1175"}},{"start":{"earliest":"1175","latest":"1200"},"end":{"earliest":"1175","latest":"1200"}},{"start":{"earliest":"1200","latest":"1225"},"end":{"earliest":"1200","latest":"1225"}}]}},{"toponym":"(apud) Scantonam","citations":[{"label":"1146-56 Ais","year":1146}],"when":{"timespans":[{"start":{"earliest":"1146","latest":"1156"},"end":{"earliest":"1146","latest":"1156"}}]}},{"toponym":"(in terra de) Schamtunie","citations":[{"label":"1146-56 Ais","year":1146}],"when":{"timespans":[{"start":{"earliest":"1146","latest":"1156"},"end":{"earliest":"1146","latest":"1156"}}]}},{"toponym":"Scamtunia","citations":[{"label":"1147 Bard","year":1147}],"when":{"timespans":[{"start":{"in":"1147"},"end":{"in":"1147"}}]}},{"toponym":"Schamtuna","citations":[{"label":"eHy2 Dane","year":1154}],"when":{"timespans":[{"start":{"earliest":"1154","latest":"1189"},"end":{"earliest":"1154","latest":"1189"}}]}},{"toponym":"Schamton'","citations":[{"label":"1202 Ass","year":1202}],"when":{"timespans":[{"start":{"in":"1202"},"end":{"in":"1202"}}]}},{"toponym":"Schamton","citations":[{"label":"John Ch","year":1199},{"label":"1202 Ass","year":1202}],"when":{"timespans":[{"start":{"earliest":"1199","latest":"1216"},"end":{"earliest":"1199","latest":"1216"}},{"start":{"in":"1202"},"end":{"in":"1202"}}]}},{"toponym":"(in campis de) Scamtuna","citations":[{"label":"c1155 Kirkst","year":1145},{"label":"lHy2 Dane","year":1154}],"when":{"timespans":[{"start":{"earliest":"1145","latest":"1165"},"end":{"earliest":"1145","latest":"1165"}},{"start":{"earliest":"1150","latest":"1170"},"end":{"earliest":"1150","latest":"1170"}},{"start":{"earliest":"1154","latest":"1189"},"end":{"earliest":"1154","latest":"1189"}},{"start":{"earliest":"1154","latest":"1189"},"end":{"earliest":"1154","latest":"1189"}},{"start":{"earliest":"1175","latest":"1200"},"end":{"earliest":"1175","latest":"1200"}}]}},{"toponym":"Scamtun'","citations":[{"label":"m12 HarlCh","year":1125},{"label":"c1166 Ais","year":1156}],"when":{"timespans":[{"start":{"earliest":"1125","latest":"1175"},"end":{"earliest":"1125","latest":"1175"}},{"start":{"earliest":"1156","latest":"1176"},"end":{"earliest":"1156","latest":"1176"}}]}},{"toponym":"Scamtun","citations":[{"label":"Hy2 Dane","year":1154},{"label":"l12 HarlCh","year":1175},{"label":"1212 Fees","year":1212}],"when":{"timespans":[{"start":{"earliest":"1154","latest":"1189"},"end":{"earliest":"1154","latest":"1189"}},{"start":{"earliest":"1175","latest":"1200"},"end":{"earliest":"1175","latest":"1200"}},{"start":{"earliest":"1200","latest":"1225"},"end":{"earliest":"1200","latest":"1225"}},{"start":{"in":"1212"},"end":{"in":"1212"}}]}},{"toponym":"Scamton'","citations":[{"label":"1185 Templar","year":1185},{"label":"1202 Ass","year":1202},{"label":"1204 FF","year":1204},{"label":"c1250-60 RA","year":1250},{"label":"1383 Peace","year":1383}],"when":{"timespans":[{"start":{"in":"1185"},"end":{"in":"1185"}},{"start":{"in":"1202"},"end":{"in":"1202"}},{"start":{"in":"1204"},"end":{"in":"1204"}},{"start":{"earliest":"1250","latest":"1260"},"end":{"earliest":"1250","latest":"1260"}},{"start":{"in":"1383"},"end":{"in":"1383"}}]}},{"toponym":"Skamtona","citations":[{"label":"1178 Bard","year":1178}],"when":{"timespans":[{"start":{"in":"1178"},"end":{"in":"1178"}},{"start":{"in":"1226"},"end":{"in":"1226"}}]}},{"toponym":"Skamton","citations":[{"label":"1202 Ass","year":1202}],"when":{"timespans":[{"start":{"in":"1202"},"end":{"in":"1202"}}]}},{"toponym":"Skamton'","citations":[{"label":"1329 Ass","year":1329},{"label":"1373 Peace","year":1373},{"label":"1383 Peace","year":1383}],"when":{"timespans":[{"start":{"in":"1329"},"end":{"in":"1329"}},{"start":{"in":"1373"},"end":{"in":"1373"}},{"start":{"in":"1383"},"end":{"in":"1383"}},{"start":{"in":"1396"},"end":{"in":"1396"}}]}},{"toponym":"Scamt'","citations":[{"label":"1185 Kirkst","year":1185}],"when":{"timespans":[{"start":{"in":"1185"},"end":{"in":"1185"}}]}},{"toponym":"Scaunton'","citations":[{"label":"1191 FF","year":1191}],"when":{"timespans":[{"start":{"in":"1191"},"end":{"in":"1191"}}]}},{"toponym":"Scandton'","citations":[{"label":"1202 Ass","year":1202}],"when":{"timespans":[{"start":{"in":"1202"},"end":{"in":"1202"}}]}},{"toponym":"Scampton","citations":[{"label":"1238 RRG","year":1238},{"label":"1291–1581, recurring Tax","year":1291},{"label":"1291–1581, recurring Brasses"},{"label":"1291 Tax","year":1291},{"label":"1581 Brasses","year":1581}],"when":{"timespans":[{"start":{"in":"1238"},"end":{"in":"1238"}},{"start":{"in":"1269"},"end":{"in":"1269"}},{"start":{"in":"1291"},"end":{"in":"1581"}},{"start":{"in":"1291"},"end":{"in":"1291"}},{"start":{"in":"1581"},"end":{"in":"1581"}}]}},{"toponym":"Scampton'","citations":[{"label":"c1230-40 RA","year":1230},{"label":"1242-3 Fees","year":1242},{"label":"c1250 RA","year":1240},{"label":"1254 ValNor","year":1254},{"label":"c1275 DC","year":1265},{"label":"c1278 HarlCh","year":1268},{"label":"1332 SR","year":1332},{"label":"1336 HarlCh","year":1336},{"label":"1369 Works","year":1369},{"label":"1373 Peace","year":1373},{"label":"1392 HarlCh","year":1392}],"when":{"timespans":[{"start":{"earliest":"1230","latest":"1240"},"end":{"earliest":"1230","latest":"1240"}},{"start":{"earliest":"1242","latest":"1243"},"end":{"earliest":"1242","latest":"1243"}},{"start":{"earliest":"1240","latest":"1260"},"end":{"earliest":"1240","latest":"1260"}},{"start":{"in":"1254"},"end":{"in":"1254"}},{"start":{"earliest":"1265","latest":"1285"},"end":{"earliest":"1265","latest":"1285"}},{"start":{"earliest":"1268","latest":"1288"},"end":{"earliest":"1268","latest":"1288"}},{"start":{"in":"1332"},"end":{"in":"1332"}},{"start":{"in":"1336"},"end":{"in":"1336"}},{"start":{"in":"1369"},"end":{"in":"1369"}},{"start":{"in":"1373"},"end":{"in":"1373"}},{"start":{"in":"1392"},"end":{"in":"1392"}}]}},{"toponym":"Scamptona","citations":[{"label":"c1278 HarlCh","year":1268}],"when":{"timespans":[{"start":{"earliest":"1268","latest":"1288"},"end":{"earliest":"1268","latest":"1288"}}]}},{"toponym":"Scaimton'","citations":[{"label":"1242-3 Fees","year":1242}],"when":{"timespans":[{"start":{"earliest":"1242","latest":"1243"},"end":{"earliest":"1242","latest":"1243"}}]}},{"toponym":"Schampton","citations":[{"label":"1252 Ch","year":1252}],"when":{"timespans":[{"start":{"in":"1252"},"end":{"in":"1252"}}]}},{"toponym":"Skampton","citations":[{"label":"1340 Ipm","year":1340},{"label":"1360 Orig","year":1360},{"label":"1372 C","year":1372},{"label":"1492 HarlCh","year":1492},{"label":"1576 Saxton","year":1576},{"label":"1610 Speed","year":1610}],"when":{"timespans":[{"start":{"in":"1340"},"end":{"in":"1340"}},{"start":{"in":"1360"},"end":{"in":"1360"}},{"start":{"in":"1372"},"end":{"in":"1372"}},{"start":{"in":"1492"},"end":{"in":"1492"}},{"start":{"in":"1576"},"end":{"in":"1576"}},{"start":{"in":"1610"},"end":{"in":"1610"}}]}},{"toponym":"Skinpton","citations":[{"label":"1547 Pat","year":1547}],"when":{"timespans":[{"start":{"in":"1547"},"end":{"in":"1547"}}]}},{"toponym":"Skanton","citations":[{"label":"1547 Pat","year":1547}],"when":{"timespans":[{"start":{"in":"1547"},"end":{"in":"1547"}}]}}],"types":[{"identifier":"http://vocab.getty.edu/aat/300232418","label":"administrative division","sourceLabels":[{"label":"township","lang":"en"}]}],"geometry":{"type":"GeometryCollection","geometries":[{"type":"Point","coordinates":[-0.57478,53.30181],"citations":[{"label":"GeoNames, gazetteer record geonames:2638428"}]},{"type":"Point","coordinates":[-0.5817215948513336,53.30373480481291],"citations":[{"label":"Unlock (EDINA) gazetteer, gazetteer record unlock:11278711"}]},{"type":"Point","coordinates":[-0.583337,53.304],"citations":[{"label":"Key to English Place-Names (KEPN), gazetteer record 10668"}]}]},"when":{"timespans":[{"start":{"in":"1086"},"end":{"in":"1610"}}]},"links":[{"type":"closeMatch","identifier":"https://sws.geonames.org/2638428/"}],"relations":[{"relationType":"gvp:broaderPartitive","relationTo":"https://w3id.org/whg-epns/85/005007","label":"within Scampton"}]}]}