{"@context":"https://raw.githubusercontent.com/LinkedPasts/linked-places-format/main/linkedplaces-context-v1.1.jsonld","type":"FeatureCollection","license":"Digitisation of English Placenames MADS data is licensed to Jisc by the English Place Names Society and released under a Creative Commons Attribution-NonCommercial 4.0 International License.","note":"LPF v1.3, lossy; derived from the PLATO record; plato_commit=ca0afadabec1e23a145c0b03df77e8f151f79832","features":[{"@id":"http://placenames.org.uk/id/placename/85/007023","type":"Feature","properties":{"title":"Cherry Willingham","ccodes":["GB"],"fclasses":["A","P"]},"names":[{"toponym":"Cherry Willingham","lang":"en","citations":[{"label":"English Place-Name Society survey, volume 85: Lincolnshire"}]}],"types":[{"identifier":"http://vocab.getty.edu/aat/300232418","label":"administrative division","sourceLabels":[{"label":"parish","lang":"en"}]}],"geometry":{"type":"GeometryCollection","geometries":[{"type":"Point","coordinates":[-0.46181,53.23791],"citations":[{"label":"GeoNames, gazetteer record geonames:7290861"}]},{"type":"Point","coordinates":[-0.4489783974330257,53.23914716346811],"citations":[{"label":"Unlock (EDINA) gazetteer, gazetteer record unlock:11104491"}]},{"type":"Point","coordinates":[-0.450607,53.2394],"citations":[{"label":"Key to English Place-Names (KEPN), gazetteer record 10654"}]}]},"links":[{"type":"closeMatch","identifier":"https://sws.geonames.org/7290861/"}],"relations":[{"relationType":"gvp:broaderPartitive","relationTo":"http://placenames.org.uk/id/placename/85/000004","label":"within Lawress Wapentake"}]}]}