{"@context":"https://raw.githubusercontent.com/LinkedPasts/linked-places-format/main/linkedplaces-context-v1.1.jsonld","type":"FeatureCollection","license":"Digitisation of English Placenames MADS data is licensed to Jisc by the English Place Names Society and released under a Creative Commons Attribution-NonCommercial 4.0 International License.","note":"LPF v1.3, lossy; derived from the PLATO record; plato_commit=ca0afadabec1e23a145c0b03df77e8f151f79832","features":[{"@id":"http://placenames.org.uk/id/placename/33/000011","type":"Feature","properties":{"title":"Elmet","ccodes":["GB"],"fclasses":["A"]},"names":[{"toponym":"Elmet","lang":"en","citations":[{"label":"English Place-Name Society survey, volume 33: West Riding of Yorkshire"}]},{"toponym":"Elmed sætna","citations":[{"label":"7 BCS","year":600}],"when":{"timespans":[{"start":{"earliest":"0600","latest":"0700"},"end":{"earliest":"0600","latest":"0700"}}]}},{"toponym":"Elmet setena, Elmed setna","citations":[{"label":"7 BCS","year":600}],"when":{"timespans":[{"start":{"earliest":"0600","latest":"0700"},"end":{"earliest":"0600","latest":"0700"}}]}},{"toponym":"in silua Elmete","citations":[{"label":"c. 730 Bede","year":720}],"when":{"timespans":[{"start":{"earliest":"0720","latest":"0740"},"end":{"earliest":"0720","latest":"0740"}}]}},{"toponym":"Elmet","citations":[{"label":"c. 800 HB","year":790}],"when":{"timespans":[{"start":{"earliest":"0790","latest":"0810"},"end":{"earliest":"0790","latest":"0810"}}]}},{"toponym":"Elmeth","citations":[{"label":"1431 Pat","year":1431}],"when":{"timespans":[{"start":{"in":"1431"},"end":{"in":"1431"}}]}}],"types":[{"identifier":"http://vocab.getty.edu/aat/300232418","label":"administrative division","sourceLabels":[{"label":"local district","lang":"en"}]}],"geometry":null,"when":{"timespans":[{"start":{"in":"0600"},"end":{"in":"1431"}}]},"relations":[{"relationType":"gvp:broaderPartitive","relationTo":"http://placenames.org.uk/id/placename/33/000002","label":"within Barkston Ash Wapentake"}]}]}