{"@context":"https://raw.githubusercontent.com/LinkedPasts/linked-places-format/main/linkedplaces-context-v1.1.jsonld","type":"FeatureCollection","license":"Digitisation of English Placenames MADS data is licensed to Jisc by the English Place Names Society and released under a Creative Commons Attribution-NonCommercial 4.0 International License.","note":"LPF v1.3, lossy; derived from the PLATO record; plato_commit=fa0d247ccc0263f8f19c8d7cdcd163df96935d1e","features":[{"@id":"https://w3id.org/whg-epns/33/002112","type":"Feature","properties":{"title":"Monk Fryston","ccodes":["GB"],"fclasses":["A","P"]},"names":[{"toponym":"Monk Fryston","lang":"en","citations":[{"label":"English Place-Name Society survey, volume 33: West Riding of Yorkshire"}]},{"toponym":"on fryyetune","citations":[{"label":"963 RegAlb","year":963}],"when":{"timespans":[{"start":{"in":"0963"},"end":{"in":"0963"}}]}},{"toponym":"Fristun","citations":[{"label":"c. 1030 YCh","year":1020}],"when":{"timespans":[{"start":{"earliest":"1020","latest":"1040"},"end":{"earliest":"1020","latest":"1040"}}]}},{"toponym":"Friston(a), Fryston(a), Frystun(a)","citations":[{"label":"c. 1070 YCh","year":1060},{"label":"c. 1216 RegAlb","year":1206},{"label":"1230 Selby","year":1230},{"label":"1248 Ebor","year":1248},{"label":"1252 Ch","year":1252},{"label":"1276 RH","year":1276},{"label":"1278 Baild","year":1278},{"label":"QW","year":1293},{"label":"1293 QW","year":1293}],"when":{"timespans":[{"start":{"earliest":"1060","latest":"1080"},"end":{"earliest":"1060","latest":"1080"}},{"start":{"earliest":"1070","latest":"1080"},"end":{"earliest":"1070","latest":"1080"}},{"start":{"earliest":"1100","latest":"1200"},"end":{"earliest":"1100","latest":"1200"}},{"start":{"earliest":"1206","latest":"1226"},"end":{"earliest":"1206","latest":"1226"}},{"start":{"in":"1230"},"end":{"in":"1230"}},{"start":{"in":"1248"},"end":{"in":"1248"}},{"start":{"in":"1252"},"end":{"in":"1252"}},{"start":{"in":"1255"},"end":{"in":"1255"}},{"start":{"in":"1276"},"end":{"in":"1276"}},{"start":{"in":"1278"},"end":{"in":"1278"}},{"start":{"in":"1293"},"end":{"in":"1293"}},{"start":{"in":"1293"},"end":{"in":"1293"}}]}},{"toponym":"Muneches Frystun(a)","citations":[{"label":"1166 P","year":1166}],"when":{"timespans":[{"start":{"in":"1166"},"end":{"in":"1166"}}]}},{"toponym":"Monk(e) Frystun(a)","citations":[{"label":"1398 YD","year":1398},{"label":"Fabr","year":1444},{"label":"WillY"},{"label":"1444 Fabr","year":1444},{"label":"1545 WillY","year":1545}],"when":{"timespans":[{"start":{"in":"1398"},"end":{"in":"1398"}},{"start":{"in":"1444"},"end":{"in":"1545"}},{"start":{"in":"1444"},"end":{"in":"1444"}},{"start":{"in":"1545"},"end":{"in":"1545"}}]}},{"toponym":"Munck Frystun(a)","citations":[{"label":"1638 SessnR","year":1638}],"when":{"timespans":[{"start":{"in":"1638"},"end":{"in":"1638"}}]}},{"toponym":"Freiston","citations":[{"label":"1535 VE","year":1535}],"when":{"timespans":[{"start":{"in":"1535"},"end":{"in":"1535"}}]}},{"toponym":"Freyston","citations":[{"label":"1546 YChant","year":1546}],"when":{"timespans":[{"start":{"in":"1546"},"end":{"in":"1546"}}]}},{"toponym":"Munkeffreston","citations":[{"label":"1539 FF","year":1539}],"when":{"timespans":[{"start":{"in":"1539"},"end":{"in":"1539"}}]}},{"toponym":"Monckfreeston","citations":[{"label":"1605 FF","year":1605}],"when":{"timespans":[{"start":{"in":"1605"},"end":{"in":"1605"}}]}},{"toponym":"Frieston","citations":[{"label":"1559 PRFrs","year":1559}],"when":{"timespans":[{"start":{"in":"1559"},"end":{"in":"1559"}}]}},{"toponym":"Monck Frieston","citations":[{"label":"1560 PRFrs","year":1560}],"when":{"timespans":[{"start":{"in":"1560"},"end":{"in":"1560"}}]}},{"toponym":"Munck(e) Frieston","citations":[{"label":"1659 WillS","year":1659},{"label":"1663 SelbyW","year":1663}],"when":{"timespans":[{"start":{"in":"1659"},"end":{"in":"1659"}},{"start":{"in":"1663"},"end":{"in":"1663"}}]}}],"types":[{"identifier":"http://vocab.getty.edu/aat/300232418","label":"administrative division","sourceLabels":[{"label":"township","lang":"en"}]}],"geometry":{"type":"GeometryCollection","geometries":[{"type":"Point","coordinates":[-1.23751,53.7616],"citations":[{"label":"GeoNames, gazetteer record geonames:2642336"}]},{"type":"Point","coordinates":[-1.241588828,53.75474172],"citations":[{"label":"English Place-Name Society survey (DEEP coordinates)"}]},{"type":"Point","coordinates":[-1.233923446800455,53.75918892706251],"citations":[{"label":"Unlock (EDINA) gazetteer, gazetteer record unlock:11221606"}]},{"type":"Point","coordinates":[-1.23548,53.7594],"citations":[{"label":"Key to English Place-Names (KEPN), gazetteer record 14607"}]}]},"when":{"timespans":[{"start":{"in":"0963"},"end":{"in":"1663"}}]},"links":[{"type":"closeMatch","identifier":"https://sws.geonames.org/2642336/"}],"relations":[{"relationType":"gvp:broaderPartitive","relationTo":"https://w3id.org/whg-epns/33/002059","label":"within Monk Fryston"}]}]}