{"@context":"https://raw.githubusercontent.com/LinkedPasts/linked-places-format/main/linkedplaces-context-v1.1.jsonld","type":"FeatureCollection","license":"Digitisation of English Placenames MADS data is licensed to Jisc by the English Place Names Society and released under a Creative Commons Attribution-NonCommercial 4.0 International License.","note":"LPF v1.3, lossy; derived from the PLATO record; plato_commit=fa0d247ccc0263f8f19c8d7cdcd163df96935d1e","features":[{"@id":"https://w3id.org/whg-epns/33/002391","type":"Feature","properties":{"title":"Byram","ccodes":["GB"],"fclasses":["A","P"]},"names":[{"toponym":"Byram","lang":"en","citations":[{"label":"English Place-Name Society survey, volume 33: West Riding of Yorkshire"}]},{"toponym":"Byrnum","citations":[{"label":"c. 1030 YCh","year":1020}],"when":{"timespans":[{"start":{"earliest":"1020","latest":"1040"},"end":{"earliest":"1020","latest":"1040"}}]}},{"toponym":"Birum, Byrum","citations":[{"label":"1155 Pont","year":1155},{"label":"1175-90 YCh","year":1175},{"label":"c. 1212 Pont","year":1202},{"label":"1246 Ass","year":1246},{"label":"a. 1266 KF","year":1216},{"label":"1334 FF","year":1334}],"when":{"timespans":[{"start":{"in":"1155"},"end":{"in":"1155"}},{"start":{"earliest":"1175","latest":"1190"},"end":{"earliest":"1175","latest":"1190"}},{"start":{"earliest":"1202","latest":"1222"},"end":{"earliest":"1202","latest":"1222"}},{"start":{"in":"1246"},"end":{"in":"1246"}},{"start":{"earliest":"1216","latest":"1266"},"end":{"earliest":"1216","latest":"1266"}},{"start":{"in":"1334"},"end":{"in":"1334"}}]}},{"toponym":"Byrun","citations":[{"label":"1268 YI","year":1268}],"when":{"timespans":[{"start":{"in":"1268"},"end":{"in":"1268"}}]}},{"toponym":"Byrom","citations":[{"label":"1285 KI","year":1285},{"label":"1324 YD","year":1324},{"label":"1379 PT","year":1379}],"when":{"timespans":[{"start":{"in":"1285"},"end":{"in":"1285"}},{"start":{"in":"1324"},"end":{"in":"1324"}},{"start":{"in":"1379"},"end":{"in":"1379"}}]}},{"toponym":"Byrome","citations":[{"label":"1402 FA","year":1402}],"when":{"timespans":[{"start":{"in":"1402"},"end":{"in":"1402"}}]}},{"toponym":"Byrrom","citations":[{"label":"1316 Vill","year":1316}],"when":{"timespans":[{"start":{"in":"1316"},"end":{"in":"1316"}}]}},{"toponym":"Byron","citations":[{"label":"1430 Pat","year":1430}],"when":{"timespans":[{"start":{"in":"1430"},"end":{"in":"1430"}}]}},{"toponym":"Byram","citations":[{"label":"1585 FF","year":1585}],"when":{"timespans":[{"start":{"in":"1585"},"end":{"in":"1585"}}]}}],"types":[{"identifier":"http://vocab.getty.edu/aat/300232418","label":"administrative division","sourceLabels":[{"label":"township","lang":"en"}]}],"geometry":{"type":"GeometryCollection","geometries":[{"type":"Point","coordinates":[-1.26128,53.72394],"citations":[{"label":"GeoNames, gazetteer record geonames:6695618"}]},{"type":"Point","coordinates":[-1.257389677,53.71888332],"citations":[{"label":"English Place-Name Society survey (DEEP coordinates)"}]},{"type":"Point","coordinates":[-1.264888048662645,53.72342551943584],"citations":[{"label":"Unlock (EDINA) gazetteer, gazetteer record unlock:11095203"}]},{"type":"Point","coordinates":[-1.26644,53.7237],"citations":[{"label":"Key to English Place-Names (KEPN), gazetteer record 14611"}]}]},"when":{"timespans":[{"start":{"in":"1020"},"end":{"in":"1585"}}]},"links":[{"type":"closeMatch","identifier":"https://sws.geonames.org/6695618/"}],"relations":[{"relationType":"gvp:broaderPartitive","relationTo":"https://w3id.org/whg-epns/33/002328","label":"within Brotherton"}]}]}