{"@context":"https://raw.githubusercontent.com/LinkedPasts/linked-places-format/main/linkedplaces-context-v1.1.jsonld","type":"FeatureCollection","license":"Digitisation of English Placenames MADS data is licensed to Jisc by the English Place Names Society and released under a Creative Commons Attribution-NonCommercial 4.0 International License.","note":"LPF v1.3, lossy; derived from the PLATO record; plato_commit=ca0afadabec1e23a145c0b03df77e8f151f79832","features":[{"@id":"https://w3id.org/whg-epns/33/002328","type":"Feature","properties":{"title":"Brotherton","ccodes":["GB"],"fclasses":["A","P"]},"names":[{"toponym":"Brotherton","lang":"en","citations":[{"label":"English Place-Name Society survey, volume 33: West Riding of Yorkshire"}]}],"types":[{"identifier":"http://vocab.getty.edu/aat/300232418","label":"administrative division","sourceLabels":[{"label":"parish","lang":"en"}]}],"geometry":{"type":"GeometryCollection","geometries":[{"type":"Point","coordinates":[-1.27102,53.72655],"citations":[{"label":"GeoNames, gazetteer record geonames:2654534"}]},{"type":"Point","coordinates":[-1.28769767,53.71906733],"citations":[{"label":"English Place-Name Society survey (DEEP coordinates)"}]},{"type":"Point","coordinates":[-1.264888048662645,53.72342551943584],"citations":[{"label":"Unlock (EDINA) gazetteer, gazetteer record unlock:11089628"}]},{"type":"Point","coordinates":[-1.26628,53.7326],"citations":[{"label":"Key to English Place-Names (KEPN), gazetteer record 14610"}]}]},"links":[{"type":"closeMatch","identifier":"https://sws.geonames.org/2654534/"}],"relations":[{"relationType":"gvp:broaderPartitive","relationTo":"https://w3id.org/whg-epns/33/000002","label":"within Barkston Ash Wapentake"}]}]}