{"@context":"https://raw.githubusercontent.com/LinkedPasts/linked-places-format/main/linkedplaces-context-v1.1.jsonld","type":"FeatureCollection","license":"Digitisation of English Placenames MADS data is licensed to Jisc by the English Place Names Society and released under a Creative Commons Attribution-NonCommercial 4.0 International License.","note":"LPF v1.3, lossy; derived from the PLATO record; plato_commit=ca0afadabec1e23a145c0b03df77e8f151f79832","features":[{"@id":"https://w3id.org/whg-epns/33/003034","type":"Feature","properties":{"title":"South Milford","ccodes":["GB"],"fclasses":["A","P"]},"names":[{"toponym":"South Milford","lang":"en","citations":[{"label":"English Place-Name Society survey, volume 33: West Riding of Yorkshire"}]},{"toponym":"on niy senforda","citations":[{"label":"963 RegAlb","year":963}],"when":{"timespans":[{"start":{"in":"0963"},"end":{"in":"0963"}}]}},{"toponym":"Myleford","citations":[{"label":"c. 1030 YCh","year":1020}],"when":{"timespans":[{"start":{"earliest":"1020","latest":"1040"},"end":{"earliest":"1020","latest":"1040"}}]}},{"toponym":"Milford, Mylford","citations":[{"label":"1109-12 YCh","year":1109},{"label":"1154 RegAlb","year":1154},{"label":"13 AD","year":1200},{"label":"1229 RegAlb","year":1229},{"label":"1278–1379, recurring Baild","year":1278},{"label":"1278–1379, recurring Linds"},{"label":"1278 Baild","year":1278},{"label":"1379 Linds","year":1379}],"when":{"timespans":[{"start":{"earliest":"1109","latest":"1112"},"end":{"earliest":"1109","latest":"1112"}},{"start":{"in":"1154"},"end":{"in":"1154"}},{"start":{"earliest":"1200","latest":"1300"},"end":{"earliest":"1200","latest":"1300"}},{"start":{"in":"1229"},"end":{"in":"1229"}},{"start":{"in":"1278"},"end":{"in":"1379"}},{"start":{"in":"1278"},"end":{"in":"1278"}},{"start":{"in":"1379"},"end":{"in":"1379"}}]}},{"toponym":"South Mylford","citations":[{"label":"1308 Aid","year":1308},{"label":"1331–1641, recurring Hom","year":1331},{"label":"1331–1641, recurring Rates"},{"label":"1331 Hom","year":1331},{"label":"1641 Rates","year":1641}],"when":{"timespans":[{"start":{"in":"1308"},"end":{"in":"1308"}},{"start":{"in":"1331"},"end":{"in":"1641"}},{"start":{"in":"1331"},"end":{"in":"1331"}},{"start":{"in":"1641"},"end":{"in":"1641"}}]}},{"toponym":"Mileford","citations":[{"label":"1154-91 RegAlb","year":1154},{"label":"c. 1216 RegAlb","year":1206},{"label":"1228 Ebor","year":1228},{"label":"1234 FF","year":1234}],"when":{"timespans":[{"start":{"earliest":"1154","latest":"1191"},"end":{"earliest":"1154","latest":"1191"}},{"start":{"earliest":"1206","latest":"1226"},"end":{"earliest":"1206","latest":"1226"}},{"start":{"in":"1228"},"end":{"in":"1228"}},{"start":{"in":"1234"},"end":{"in":"1234"}}]}},{"toponym":"Suthmileforth","citations":[{"label":"1286 YI","year":1286}],"when":{"timespans":[{"start":{"in":"1286"},"end":{"in":"1286"}}]}},{"toponym":"Meleford","citations":[{"label":"1154-63 RegAlb","year":1154},{"label":"1166 P","year":1166}],"when":{"timespans":[{"start":{"earliest":"1154","latest":"1163"},"end":{"earliest":"1154","latest":"1163"}},{"start":{"in":"1166"},"end":{"in":"1166"}},{"start":{"in":"1167"},"end":{"in":"1167"}}]}},{"toponym":"Milleford","citations":[{"label":"1250-6 RegAlb","year":1250}],"when":{"timespans":[{"start":{"earliest":"1250","latest":"1256"},"end":{"earliest":"1250","latest":"1256"}}]}},{"toponym":"Mylleforth","citations":[{"label":"1394 Linds","year":1394}],"when":{"timespans":[{"start":{"in":"1394"},"end":{"in":"1394"}}]}},{"toponym":"Suth Muleforth","citations":[{"label":"1285 KI","year":1285}],"when":{"timespans":[{"start":{"in":"1285"},"end":{"in":"1285"}}]}},{"toponym":"Mylneforth","citations":[{"label":"1521 WillY","year":1521}],"when":{"timespans":[{"start":{"in":"1521"},"end":{"in":"1521"}}]}},{"toponym":"Milforth","citations":[{"label":"1550 WillY","year":1550}],"when":{"timespans":[{"start":{"in":"1550"},"end":{"in":"1550"}}]}},{"toponym":"Southmylforth","citations":[{"label":"1526 FF","year":1526}],"when":{"timespans":[{"start":{"in":"1526"},"end":{"in":"1526"}}]}}],"types":[{"identifier":"http://vocab.getty.edu/aat/300232418","label":"administrative division","sourceLabels":[{"label":"township","lang":"en"}]}],"geometry":{"type":"GeometryCollection","geometries":[{"type":"Point","coordinates":[-1.24609,53.77672],"citations":[{"label":"GeoNames, gazetteer record geonames:2637377"}]},{"type":"Point","coordinates":[-1.256438095,53.77281333],"citations":[{"label":"English Place-Name Society survey (DEEP coordinates)"}]},{"type":"Point","coordinates":[-1.248770966624378,53.77726147619958],"citations":[{"label":"Unlock (EDINA) gazetteer, gazetteer record unlock:11287755"}]},{"type":"Point","coordinates":[-1.25033,53.7775],"citations":[{"label":"Key to English Place-Names (KEPN), gazetteer record 14620"}]}]},"when":{"timespans":[{"start":{"in":"0963"},"end":{"in":"1641"}}]},"links":[{"type":"closeMatch","identifier":"https://sws.geonames.org/2637377/"}],"relations":[{"relationType":"gvp:broaderPartitive","relationTo":"https://w3id.org/whg-epns/33/002754","label":"within Sherburn in Elmet"}]}]}