{"@context":"https://raw.githubusercontent.com/LinkedPasts/linked-places-format/main/linkedplaces-context-v1.1.jsonld","type":"FeatureCollection","license":"Digitisation of English Placenames MADS data is licensed to Jisc by the English Place Names Society and released under a Creative Commons Attribution-NonCommercial 4.0 International License.","note":"LPF v1.3, lossy; derived from the PLATO record; plato_commit=ca0afadabec1e23a145c0b03df77e8f151f79832","features":[{"@id":"http://placenames.org.uk/id/placename/33/003579","type":"Feature","properties":{"title":"Grimston","ccodes":["GB"],"fclasses":["A","P"]},"names":[{"toponym":"Grimston","lang":"en","citations":[{"label":"English Place-Name Society survey, volume 33: West Riding of Yorkshire"}]},{"toponym":"Grimestun, Grymestun, Grymeston(a)","citations":[{"label":"1086 DB","year":1086},{"label":"1154 RegAlb","year":1154},{"label":"1174-9 Ch","year":1174},{"label":"1175 YCh","year":1175},{"label":"1259 Ass","year":1259},{"label":"a. 1266 KF","year":1216},{"label":"1271 Percy","year":1271},{"label":"1276–1379, recurring RH","year":1276},{"label":"1276–1379, recurring PT"},{"label":"1276 RH","year":1276},{"label":"1379 PT","year":1379}],"when":{"timespans":[{"start":{"in":"1086"},"end":{"in":"1086"}},{"start":{"in":"1154"},"end":{"in":"1154"}},{"start":{"earliest":"1174","latest":"1179"},"end":{"earliest":"1174","latest":"1179"}},{"start":{"in":"1175"},"end":{"in":"1175"}},{"start":{"in":"1259"},"end":{"in":"1259"}},{"start":{"earliest":"1216","latest":"1266"},"end":{"earliest":"1216","latest":"1266"}},{"start":{"in":"1271"},"end":{"in":"1271"}},{"start":{"in":"1276"},"end":{"in":"1379"}},{"start":{"in":"1276"},"end":{"in":"1276"}},{"start":{"in":"1379"},"end":{"in":"1379"}}]}},{"toponym":"Grymeston(a) juxta Tadcastre","citations":[{"label":"1415 Fabr","year":1415}],"when":{"timespans":[{"start":{"in":"1415"},"end":{"in":"1415"}}]}},{"toponym":"Grimiston","citations":[{"label":"1218 FF","year":1218}],"when":{"timespans":[{"start":{"in":"1218"},"end":{"in":"1218"}}]}},{"toponym":"Grimston, Grymston","citations":[{"label":"1225 Percy","year":1225},{"label":"1303 KF","year":1303},{"label":"1328 Banco","year":1328},{"label":"1392–1590, recurring Works","year":1392},{"label":"1392–1590, recurring FF"},{"label":"1392 Works","year":1392},{"label":"1590 FF","year":1590}],"when":{"timespans":[{"start":{"in":"1225"},"end":{"in":"1225"}},{"start":{"in":"1303"},"end":{"in":"1303"}},{"start":{"in":"1328"},"end":{"in":"1328"}},{"start":{"in":"1392"},"end":{"in":"1590"}},{"start":{"in":"1392"},"end":{"in":"1392"}},{"start":{"in":"1590"},"end":{"in":"1590"}}]}},{"toponym":"Grymston on Querf","citations":[{"label":"1339 FF","year":1339}],"when":{"timespans":[{"start":{"in":"1339"},"end":{"in":"1339"}}]}},{"toponym":"Grymmyston iuxta Tadecastre","citations":[{"label":"1326 Ass","year":1326}],"when":{"timespans":[{"start":{"in":"1326"},"end":{"in":"1326"}}]}},{"toponym":"Grymmeston","citations":[{"label":"1339 FF","year":1339}],"when":{"timespans":[{"start":{"in":"1339"},"end":{"in":"1339"}}]}}],"types":[{"identifier":"http://vocab.getty.edu/aat/300232418","label":"administrative division","sourceLabels":[{"label":"township","lang":"en"}]}],"geometry":{"type":"GeometryCollection","geometries":[{"type":"Point","coordinates":[-1.25313,53.86818],"citations":[{"label":"GeoNames, gazetteer record geonames:7300840"}]},{"type":"Point","coordinates":[-1.254845227,53.86269557],"citations":[{"label":"English Place-Name Society survey (DEEP coordinates)"}]},{"type":"Point","coordinates":[-1.247161413010949,53.86714351818544],"citations":[{"label":"Unlock (EDINA) gazetteer, gazetteer record unlock:11161368"}]},{"type":"Point","coordinates":[-1.26377,53.8764],"citations":[{"label":"Key to English Place-Names (KEPN), gazetteer record 14627"}]}]},"when":{"timespans":[{"start":{"in":"1086"},"end":{"in":"1590"}}]},"links":[{"type":"closeMatch","identifier":"https://sws.geonames.org/7300840/"}],"relations":[{"relationType":"gvp:broaderPartitive","relationTo":"http://placenames.org.uk/id/placename/33/003578","label":"within Kirkby Wharfe"}]}]}