{"@context":"https://raw.githubusercontent.com/LinkedPasts/linked-places-format/main/linkedplaces-context-v1.1.jsonld","type":"FeatureCollection","license":"Digitisation of English Placenames MADS data is licensed to Jisc by the English Place Names Society and released under a Creative Commons Attribution-NonCommercial 4.0 International License.","note":"LPF v1.3, lossy; derived from the PLATO record; plato_commit=ca0afadabec1e23a145c0b03df77e8f151f79832","features":[{"@id":"http://placenames.org.uk/id/placename/33/003666","type":"Feature","properties":{"title":"Saxton","ccodes":["GB"],"fclasses":["A","P"]},"names":[{"toponym":"Saxton","lang":"en","citations":[{"label":"English Place-Name Society survey, volume 33: West Riding of Yorkshire"}]},{"toponym":"Saxtun(a), Saxton(a)","citations":[{"label":"1086 DB","year":1086},{"label":"12 Kirkst","year":1100},{"label":"1121-7 YCh","year":1121},{"label":"1154- 86 YCh","year":1154},{"label":"1174-9 Ch","year":1174},{"label":"1175 YCh","year":1175},{"label":"1189 Nost","year":1189},{"label":"1199 LeonN","year":1199},{"label":"1200 ChR","year":1200},{"label":"1200 Cur","year":1200},{"label":"1207 FF","year":1207},{"label":"1215 ChR","year":1215},{"label":"1225–1593, recurring Pat","year":1225},{"label":"1225–1593, recurring FF"},{"label":"1225 Pat","year":1225},{"label":"1593 FF","year":1593}],"when":{"timespans":[{"start":{"in":"1086"},"end":{"in":"1086"}},{"start":{"earliest":"1100","latest":"1200"},"end":{"earliest":"1100","latest":"1200"}},{"start":{"earliest":"1121","latest":"1127"},"end":{"earliest":"1121","latest":"1127"}},{"start":{"earliest":"1154","latest":"1186"},"end":{"earliest":"1154","latest":"1186"}},{"start":{"earliest":"1174","latest":"1179"},"end":{"earliest":"1174","latest":"1179"}},{"start":{"in":"1175"},"end":{"in":"1175"}},{"start":{"in":"1189"},"end":{"in":"1189"}},{"start":{"in":"1199"},"end":{"in":"1199"}},{"start":{"in":"1200"},"end":{"in":"1200"}},{"start":{"in":"1200"},"end":{"in":"1200"}},{"start":{"in":"1207"},"end":{"in":"1207"}},{"start":{"in":"1215"},"end":{"in":"1215"}},{"start":{"in":"1225"},"end":{"in":"1593"}},{"start":{"in":"1225"},"end":{"in":"1225"}},{"start":{"in":"1593"},"end":{"in":"1593"}}]}},{"toponym":"Saxton(a) in Elmet","citations":[{"label":"1353 FF","year":1353}],"when":{"timespans":[{"start":{"in":"1353"},"end":{"in":"1353"}}]}},{"toponym":"Saxton(a) in Helmett","citations":[{"label":"1517 TestLds","year":1517}],"when":{"timespans":[{"start":{"in":"1517"},"end":{"in":"1517"}}]}},{"toponym":"Sextun, Sexton(a)","citations":[{"label":"Hy 2 Ch","year":1154},{"label":"1165-75 YCh","year":1165},{"label":"1173 YCh","year":1173},{"label":"1446 Pat","year":1446}],"when":{"timespans":[{"start":{"earliest":"1154","latest":"1189"},"end":{"earliest":"1154","latest":"1189"}},{"start":{"earliest":"1165","latest":"1175"},"end":{"earliest":"1165","latest":"1175"}},{"start":{"in":"1173"},"end":{"in":"1173"}},{"start":{"in":"1446"},"end":{"in":"1446"}}]}},{"toponym":"Sea[x]tun","citations":[{"label":"1156 YCh","year":1156}],"when":{"timespans":[{"start":{"in":"1156"},"end":{"in":"1156"}}]}},{"toponym":"Sestona","citations":[{"label":"1160-80 YCh","year":1160}],"when":{"timespans":[{"start":{"earliest":"1160","latest":"1180"},"end":{"earliest":"1160","latest":"1180"}}]}},{"toponym":"Seixtona","citations":[{"label":"1182-5 YCh","year":1182}],"when":{"timespans":[{"start":{"earliest":"1182","latest":"1185"},"end":{"earliest":"1182","latest":"1185"}}]}}],"types":[{"identifier":"http://vocab.getty.edu/aat/300232418","label":"administrative division","sourceLabels":[{"label":"township","lang":"en"}]}],"geometry":{"type":"GeometryCollection","geometries":[{"type":"Point","coordinates":[-1.27685,53.82441],"citations":[{"label":"GeoNames, gazetteer record geonames:6287493"}]},{"type":"Point","coordinates":[-1.286022017,53.81793929],"citations":[{"label":"English Place-Name Society survey (DEEP coordinates)"}]},{"type":"Point","coordinates":[-1.278349731326026,53.82238928904975],"citations":[{"label":"Unlock (EDINA) gazetteer, gazetteer record unlock:11278505"}]},{"type":"Point","coordinates":[-1.2799,53.8226],"citations":[{"label":"Key to English Place-Names (KEPN), gazetteer record 14628"}]}]},"when":{"timespans":[{"start":{"in":"1086"},"end":{"in":"1593"}}]},"links":[{"type":"closeMatch","identifier":"https://sws.geonames.org/6287493/"}],"relations":[{"relationType":"gvp:broaderPartitive","relationTo":"http://placenames.org.uk/id/placename/33/003665","label":"within Saxton"}]}]}