{"@context":"https://raw.githubusercontent.com/LinkedPasts/linked-places-format/main/linkedplaces-context-v1.1.jsonld","type":"FeatureCollection","license":"Digitisation of English Placenames MADS data is licensed to Jisc by the English Place Names Society and released under a Creative Commons Attribution-NonCommercial 4.0 International License.","note":"LPF v1.3, lossy; derived from the PLATO record; plato_commit=fa0d247ccc0263f8f19c8d7cdcd163df96935d1e","features":[{"@id":"https://w3id.org/whg-epns/33/003771","type":"Feature","properties":{"title":"Lead","ccodes":["GB"],"fclasses":["A","P"]},"names":[{"toponym":"Lead","lang":"en","citations":[{"label":"English Place-Name Society survey, volume 33: West Riding of Yorkshire"}]},{"toponym":"Lied, Led(e)","citations":[{"label":"1086 DB","year":1086}],"when":{"timespans":[{"start":{"in":"1086"},"end":{"in":"1086"}}]}},{"toponym":"Leda","citations":[{"label":"1155-80 YCh","year":1155}],"when":{"timespans":[{"start":{"earliest":"1155","latest":"1180"},"end":{"earliest":"1155","latest":"1180"}}]}},{"toponym":"Lede","citations":[{"label":"1193 P","year":1193},{"label":"13 AD","year":1200},{"label":"1208 FF","year":1208},{"label":"1227 Pat","year":1227},{"label":"1237 FF","year":1237},{"label":"Ass","year":1244},{"label":"Ipm"},{"label":"1244 Ass","year":1244},{"label":"1498 Ipm","year":1498}],"when":{"timespans":[{"start":{"in":"1193"},"end":{"in":"1193"}},{"start":{"earliest":"1200","latest":"1300"},"end":{"earliest":"1200","latest":"1300"}},{"start":{"in":"1208"},"end":{"in":"1208"}},{"start":{"in":"1227"},"end":{"in":"1227"}},{"start":{"in":"1237"},"end":{"in":"1237"}},{"start":{"in":"1244"},"end":{"in":"1498"}},{"start":{"in":"1244"},"end":{"in":"1244"}},{"start":{"in":"1498"},"end":{"in":"1498"}}]}},{"toponym":"Leade","citations":[{"label":"1196-1210 YCh","year":1196}],"when":{"timespans":[{"start":{"earliest":"1196","latest":"1210"},"end":{"earliest":"1196","latest":"1210"}}]}},{"toponym":"Ledde","citations":[{"label":"1208 FF","year":1208}],"when":{"timespans":[{"start":{"in":"1208"},"end":{"in":"1208"}}]}},{"toponym":"Leed(e)","citations":[{"label":"1303 Aid","year":1303},{"label":"1379 Linds","year":1379},{"label":"1432 Test","year":1432}],"when":{"timespans":[{"start":{"in":"1303"},"end":{"in":"1303"}},{"start":{"in":"1379"},"end":{"in":"1379"}},{"start":{"in":"1432"},"end":{"in":"1432"}}]}},{"toponym":"Led","citations":[{"label":"1448 Pat","year":1448}],"when":{"timespans":[{"start":{"in":"1448"},"end":{"in":"1448"}}]}},{"toponym":"Leyd","citations":[{"label":"1542 FF","year":1542}],"when":{"timespans":[{"start":{"in":"1542"},"end":{"in":"1542"}}]}}],"types":[{"identifier":"http://vocab.getty.edu/aat/300232418","label":"administrative division","sourceLabels":[{"label":"township","lang":"en"}]}],"geometry":{"type":"GeometryCollection","geometries":[{"type":"Point","coordinates":[-1.30174,53.84265],"citations":[{"label":"GeoNames, gazetteer record geonames:7301620"}]},{"type":"Point","coordinates":[-1.300912543,53.83600534],"citations":[{"label":"English Place-Name Society survey (DEEP coordinates)"}]},{"type":"Point","coordinates":[-1.278195235557101,53.83137754740776],"citations":[{"label":"Unlock (EDINA) gazetteer, gazetteer record unlock:11193037"}]},{"type":"Point","coordinates":[-1.29479,53.8407],"citations":[{"label":"Key to English Place-Names (KEPN), gazetteer record 14630"}]}]},"when":{"timespans":[{"start":{"in":"1086"},"end":{"in":"1542"}}]},"links":[{"type":"closeMatch","identifier":"https://sws.geonames.org/7301620/"}],"relations":[{"relationType":"gvp:broaderPartitive","relationTo":"https://w3id.org/whg-epns/33/003770","label":"within Lead"}]}]}