{"@context":"https://raw.githubusercontent.com/LinkedPasts/linked-places-format/main/linkedplaces-context-v1.1.jsonld","type":"FeatureCollection","license":"Digitisation of English Placenames MADS data is licensed to Jisc by the English Place Names Society and released under a Creative Commons Attribution-NonCommercial 4.0 International License.","note":"LPF v1.3, lossy; derived from the PLATO record; plato_commit=ca0afadabec1e23a145c0b03df77e8f151f79832","features":[{"@id":"http://placenames.org.uk/id/placename/33/003770","type":"Feature","properties":{"title":"Lead","ccodes":["GB"],"fclasses":["A","P"]},"names":[{"toponym":"Lead","lang":"en","citations":[{"label":"English Place-Name Society survey, volume 33: West Riding of Yorkshire"}]}],"types":[{"identifier":"http://vocab.getty.edu/aat/300232418","label":"administrative division","sourceLabels":[{"label":"parish","lang":"en"}]}],"geometry":{"type":"GeometryCollection","geometries":[{"type":"Point","coordinates":[-1.30174,53.84265],"citations":[{"label":"GeoNames, gazetteer record geonames:7301620"}]},{"type":"Point","coordinates":[-1.300912543,53.83600534],"citations":[{"label":"English Place-Name Society survey (DEEP coordinates)"}]},{"type":"Point","coordinates":[-1.293541082717755,53.8224797132154],"citations":[{"label":"Unlock (EDINA) gazetteer, gazetteer record unlock:11193036"}]},{"type":"Point","coordinates":[-1.29479,53.8407],"citations":[{"label":"Key to English Place-Names (KEPN), gazetteer record 14630"}]}]},"links":[{"type":"closeMatch","identifier":"https://sws.geonames.org/7301620/"}],"relations":[{"relationType":"gvp:broaderPartitive","relationTo":"http://placenames.org.uk/id/placename/33/000002","label":"within Barkston Ash Wapentake"}]}]}