{"@context":"https://raw.githubusercontent.com/LinkedPasts/linked-places-format/main/linkedplaces-context-v1.1.jsonld","type":"FeatureCollection","license":"Digitisation of English Placenames MADS data is licensed to Jisc by the English Place Names Society and released under a Creative Commons Attribution-NonCommercial 4.0 International License.","note":"LPF v1.3, lossy; derived from the PLATO record; plato_commit=fa0d247ccc0263f8f19c8d7cdcd163df96935d1e","features":[{"@id":"https://w3id.org/whg-epns/33/004963","type":"Feature","properties":{"title":"Aberford","ccodes":["GB"],"fclasses":["A","P"]},"names":[{"toponym":"Aberford","lang":"en","citations":[{"label":"English Place-Name Society survey, volume 33: West Riding of Yorkshire"}]},{"toponym":"Ædburford","citations":[{"label":"1176 P","year":1176}],"when":{"timespans":[{"start":{"in":"1176"},"end":{"in":"1176"}}]}},{"toponym":"Ædburgforð","citations":[{"label":"1177 P","year":1177}],"when":{"timespans":[{"start":{"in":"1177"},"end":{"in":"1177"}}]}},{"toponym":"Hedburford","citations":[{"label":"c. 1190 Pont","year":1180}],"when":{"timespans":[{"start":{"earliest":"1180","latest":"1200"},"end":{"earliest":"1180","latest":"1200"}}]}},{"toponym":"Edburford","citations":[{"label":"1218 Pont","year":1218},{"label":"1221-4 Dods","year":1221}],"when":{"timespans":[{"start":{"in":"1218"},"end":{"in":"1218"}},{"start":{"earliest":"1221","latest":"1224"},"end":{"earliest":"1221","latest":"1224"}}]}},{"toponym":"Ebberford","citations":[{"label":"13 Skyr","year":1200}],"when":{"timespans":[{"start":{"earliest":"1200","latest":"1300"},"end":{"earliest":"1200","latest":"1300"}}]}},{"toponym":"Ebrefort","citations":[{"label":"1210 Pont","year":1210}],"when":{"timespans":[{"start":{"in":"1210"},"end":{"in":"1210"}}]}},{"toponym":"Eberford","citations":[{"label":"1267 Kirkst","year":1267}],"when":{"timespans":[{"start":{"in":"1267"},"end":{"in":"1267"}}]}},{"toponym":"Aberford","citations":[{"label":"1208 Cur","year":1208},{"label":"1229 Ebor","year":1229},{"label":"1246 Ass","year":1246},{"label":"1274 Bodl","year":1274},{"label":"RH","year":1276},{"label":"SelbyW"},{"label":"1276 RH","year":1276},{"label":"1659 SelbyW","year":1659}],"when":{"timespans":[{"start":{"in":"1208"},"end":{"in":"1208"}},{"start":{"in":"1229"},"end":{"in":"1229"}},{"start":{"in":"1246"},"end":{"in":"1246"}},{"start":{"in":"1274"},"end":{"in":"1274"}},{"start":{"in":"1276"},"end":{"in":"1659"}},{"start":{"in":"1276"},"end":{"in":"1276"}},{"start":{"in":"1659"},"end":{"in":"1659"}}]}},{"toponym":"Aberforth","citations":[{"label":"1278 YI","year":1278}],"when":{"timespans":[{"start":{"in":"1278"},"end":{"in":"1278"}}]}},{"toponym":"Abirford, Abyrford","citations":[{"label":"Aid","year":1303},{"label":"FF"},{"label":"1303 Aid","year":1303},{"label":"1488 FF","year":1488}],"when":{"timespans":[{"start":{"in":"1303"},"end":{"in":"1488"}},{"start":{"in":"1303"},"end":{"in":"1303"}},{"start":{"in":"1488"},"end":{"in":"1488"}}]}},{"toponym":"Abyrforth","citations":[{"label":"1413 YI","year":1413},{"label":"1484 Fabr","year":1484}],"when":{"timespans":[{"start":{"in":"1413"},"end":{"in":"1413"}},{"start":{"in":"1484"},"end":{"in":"1484"}}]}},{"toponym":"Abyrfurgh","citations":[{"label":"1531 Test","year":1531}],"when":{"timespans":[{"start":{"in":"1531"},"end":{"in":"1531"}}]}},{"toponym":"Abreford","citations":[{"label":"1316 Pat","year":1316},{"label":"1428 FA","year":1428}],"when":{"timespans":[{"start":{"in":"1316"},"end":{"in":"1316"}},{"start":{"in":"1428"},"end":{"in":"1428"}}]}},{"toponym":"Abriford","citations":[{"label":"1419 YD","year":1419}],"when":{"timespans":[{"start":{"in":"1419"},"end":{"in":"1419"}}]}},{"toponym":"Abriforth","citations":[{"label":"1454 YD","year":1454}],"when":{"timespans":[{"start":{"in":"1454"},"end":{"in":"1454"}}]}},{"toponym":"Abberford","citations":[{"label":"c. 1216 RegAlb","year":1206},{"label":"1246 Ass","year":1246},{"label":"1251 Ch","year":1251},{"label":"1275 YI","year":1275},{"label":"1280 Ass","year":1280},{"label":"Ebor","year":1281},{"label":"Langd"},{"label":"1281 Ebor","year":1281},{"label":"1822 Langd","year":1822}],"when":{"timespans":[{"start":{"earliest":"1206","latest":"1226"},"end":{"earliest":"1206","latest":"1226"}},{"start":{"in":"1246"},"end":{"in":"1246"}},{"start":{"in":"1251"},"end":{"in":"1251"}},{"start":{"in":"1275"},"end":{"in":"1275"}},{"start":{"in":"1280"},"end":{"in":"1280"}},{"start":{"in":"1281"},"end":{"in":"1822"}},{"start":{"in":"1281"},"end":{"in":"1281"}},{"start":{"in":"1301"},"end":{"in":"1301"}},{"start":{"in":"1822"},"end":{"in":"1822"}}]}},{"toponym":"Abberfurthe","citations":[{"label":"1562 WillY","year":1562},{"label":"1587 FF","year":1587}],"when":{"timespans":[{"start":{"in":"1562"},"end":{"in":"1562"}},{"start":{"in":"1587"},"end":{"in":"1587"}}]}}],"types":[{"identifier":"http://vocab.getty.edu/aat/300232418","label":"administrative division","sourceLabels":[{"label":"township","lang":"en"}]}],"geometry":{"type":"GeometryCollection","geometries":[{"type":"Point","coordinates":[-1.34231,53.82604],"citations":[{"label":"GeoNames, gazetteer record geonames:2657817"}]},{"type":"Point","coordinates":[-1.346641723,53.82727393],"citations":[{"label":"English Place-Name Society survey (DEEP coordinates)"}]},{"type":"Point","coordinates":[-1.33897413322662,53.83172781720928],"citations":[{"label":"Unlock (EDINA) gazetteer, gazetteer record unlock:11055474"}]},{"type":"Point","coordinates":[-1.34052,53.8319],"citations":[{"label":"Key to English Place-Names (KEPN), gazetteer record 14641"}]}]},"when":{"timespans":[{"start":{"in":"1176"},"end":{"in":"1822"}}]},"links":[{"type":"closeMatch","identifier":"https://sws.geonames.org/2657817/"}],"relations":[{"relationType":"gvp:broaderPartitive","relationTo":"https://w3id.org/whg-epns/33/004962","label":"within Aberford"}]}]}