{"@context":"https://raw.githubusercontent.com/LinkedPasts/linked-places-format/main/linkedplaces-context-v1.1.jsonld","type":"FeatureCollection","license":"Digitisation of English Placenames MADS data is licensed to Jisc by the English Place Names Society and released under a Creative Commons Attribution-NonCommercial 4.0 International License.","note":"LPF v1.3, lossy; derived from the PLATO record; plato_commit=ca0afadabec1e23a145c0b03df77e8f151f79832","features":[{"@id":"https://w3id.org/whg-epns/33/006361","type":"Feature","properties":{"title":"Seacroft","ccodes":["GB"],"fclasses":["A","P"]},"names":[{"toponym":"Seacroft","lang":"en","citations":[{"label":"English Place-Name Society survey, volume 33: West Riding of Yorkshire"}]},{"toponym":"Sacrof(f)t","citations":[{"label":"1086 DB","year":1086},{"label":"c. 1200 Kirkst","year":1190}],"when":{"timespans":[{"start":{"in":"1086"},"end":{"in":"1086"}},{"start":{"earliest":"1190","latest":"1210"},"end":{"earliest":"1190","latest":"1210"}}]}},{"toponym":"Secroft(e)","citations":[{"label":"c. 1090 Dugd","year":1080},{"label":"12 Kirkst","year":1100},{"label":"1109-40 YCh","year":1109},{"label":"l. 12 Templar","year":1175},{"label":"13 YD","year":1200},{"label":"1226 FF","year":1226},{"label":"1242–1641, recurring Pat","year":1242},{"label":"1242–1641, recurring Rates"},{"label":"1242 Pat","year":1242},{"label":"1641 Rates","year":1641}],"when":{"timespans":[{"start":{"earliest":"1080","latest":"1100"},"end":{"earliest":"1080","latest":"1100"}},{"start":{"earliest":"1100","latest":"1200"},"end":{"earliest":"1100","latest":"1200"}},{"start":{"earliest":"1109","latest":"1140"},"end":{"earliest":"1109","latest":"1140"}},{"start":{"earliest":"1175","latest":"1200"},"end":{"earliest":"1175","latest":"1200"}},{"start":{"earliest":"1200","latest":"1300"},"end":{"earliest":"1200","latest":"1300"}},{"start":{"in":"1226"},"end":{"in":"1226"}},{"start":{"in":"1242"},"end":{"in":"1641"}},{"start":{"in":"1242"},"end":{"in":"1242"}},{"start":{"in":"1641"},"end":{"in":"1641"}}]}},{"toponym":"Seycroft","citations":[{"label":"1432 WillY","year":1432}],"when":{"timespans":[{"start":{"in":"1432"},"end":{"in":"1432"}}]}},{"toponym":"Seecroft","citations":[{"label":"1379 PT","year":1379}],"when":{"timespans":[{"start":{"in":"1379"},"end":{"in":"1379"}}]}},{"toponym":"Seacrofte","citations":[{"label":"1604 FF","year":1604}],"when":{"timespans":[{"start":{"in":"1604"},"end":{"in":"1604"}}]}}],"types":[{"identifier":"http://vocab.getty.edu/aat/300232418","label":"administrative division","sourceLabels":[{"label":"township","lang":"en"}]}],"geometry":{"type":"GeometryCollection","geometries":[{"type":"Point","coordinates":[-1.45655,53.81819],"citations":[{"label":"GeoNames, gazetteer record geonames:2638314"}]},{"type":"Point","coordinates":[-1.453230585,53.80982885],"citations":[{"label":"English Place-Name Society survey (DEEP coordinates)"}]},{"type":"Point","coordinates":[-1.460650976329654,53.82334741907621],"citations":[{"label":"Unlock (EDINA) gazetteer, gazetteer record unlock:11279673"}]},{"type":"Point","coordinates":[-1.46218,53.8236],"citations":[{"label":"Key to English Place-Names (KEPN), gazetteer record 14653"}]}]},"when":{"timespans":[{"start":{"in":"1080"},"end":{"in":"1641"}}]},"links":[{"type":"closeMatch","identifier":"https://sws.geonames.org/2638314/"}],"relations":[{"relationType":"gvp:broaderPartitive","relationTo":"https://w3id.org/whg-epns/33/005996","label":"within Whitkirk"}]}]}