{"@context":"https://raw.githubusercontent.com/LinkedPasts/linked-places-format/main/linkedplaces-context-v1.1.jsonld","type":"FeatureCollection","license":"Digitisation of English Placenames MADS data is licensed to Jisc by the English Place Names Society and released under a Creative Commons Attribution-NonCommercial 4.0 International License.","note":"LPF v1.3, lossy; derived from the PLATO record; plato_commit=ca0afadabec1e23a145c0b03df77e8f151f79832","features":[{"@id":"https://w3id.org/whg-epns/33/007925","type":"Feature","properties":{"title":"Guiseley","ccodes":["GB"],"fclasses":["A","P"]},"names":[{"toponym":"Guiseley","lang":"en","citations":[{"label":"English Place-Name Society survey, volume 33: West Riding of Yorkshire"}]},{"toponym":"Gislicleh","citations":[{"label":"c. 972 BCS","year":962}],"when":{"timespans":[{"start":{"earliest":"0962","latest":"0982"},"end":{"earliest":"0962","latest":"0982"}}]}},{"toponym":"Gisele(i), Gysele(i), Gyseley(e), Gyselai, Gyselay","citations":[{"label":"1086 DB","year":1086},{"label":"12 Ch","year":1100},{"label":"1175-85 YCh","year":1175},{"label":"13 YD","year":1200},{"label":"1246 Ass","year":1246},{"label":"1251 Ass","year":1251},{"label":"1253–1526, recurring Ebor","year":1253},{"label":"1253–1526, recurring FF"},{"label":"1253 Ebor","year":1253},{"label":"1526 FF","year":1526}],"when":{"timespans":[{"start":{"in":"1086"},"end":{"in":"1086"}},{"start":{"earliest":"1100","latest":"1200"},"end":{"earliest":"1100","latest":"1200"}},{"start":{"earliest":"1175","latest":"1185"},"end":{"earliest":"1175","latest":"1185"}},{"start":{"earliest":"1200","latest":"1300"},"end":{"earliest":"1200","latest":"1300"}},{"start":{"in":"1246"},"end":{"in":"1246"}},{"start":{"in":"1251"},"end":{"in":"1251"}},{"start":{"in":"1253"},"end":{"in":"1526"}},{"start":{"in":"1253"},"end":{"in":"1253"}},{"start":{"in":"1526"},"end":{"in":"1526"}}]}},{"toponym":"Chisel'","citations":[{"label":"1214 ClR","year":1214}],"when":{"timespans":[{"start":{"in":"1214"},"end":{"in":"1214"}}]}},{"toponym":"Gislay, Gyslay, Gysley","citations":[{"label":"1285 KI","year":1285},{"label":"1369 BM","year":1369},{"label":"1428 FA","year":1428},{"label":"1593 Comm","year":1593}],"when":{"timespans":[{"start":{"in":"1285"},"end":{"in":"1285"}},{"start":{"in":"1369"},"end":{"in":"1369"}},{"start":{"in":"1428"},"end":{"in":"1428"}},{"start":{"in":"1593"},"end":{"in":"1593"}}]}},{"toponym":"Gysley als. Gistley","citations":[{"label":"1614 FF","year":1614}],"when":{"timespans":[{"start":{"in":"1614"},"end":{"in":"1614"}}]}},{"toponym":"Gysselay","citations":[{"label":"1379 YD","year":1379}],"when":{"timespans":[{"start":{"in":"1379"},"end":{"in":"1379"}}]}},{"toponym":"Guyseley, Guiseley","citations":[{"label":"1428 FA","year":1428},{"label":"1588 FF","year":1588},{"label":"1691 PROt","year":1691}],"when":{"timespans":[{"start":{"in":"1428"},"end":{"in":"1428"}},{"start":{"in":"1588"},"end":{"in":"1588"}},{"start":{"in":"1606"},"end":{"in":"1606"}},{"start":{"in":"1691"},"end":{"in":"1691"}}]}},{"toponym":"Guiesl(e)y, Guyesl(e)y, Guyeslaye","citations":[{"label":"1527 TestLds","year":1527},{"label":"1540 MinAcct","year":1540},{"label":"1562 TC","year":1562},{"label":"1627 SR","year":1627}],"when":{"timespans":[{"start":{"in":"1527"},"end":{"in":"1527"}},{"start":{"in":"1540"},"end":{"in":"1540"}},{"start":{"in":"1562"},"end":{"in":"1562"}},{"start":{"in":"1627"},"end":{"in":"1627"}}]}},{"toponym":"Guisley, Guysley","citations":[{"label":"1537 TestLds","year":1537},{"label":"1547 WillY","year":1547},{"label":"1585 WillY","year":1585}],"when":{"timespans":[{"start":{"in":"1537"},"end":{"in":"1537"}},{"start":{"in":"1547"},"end":{"in":"1547"}},{"start":{"in":"1585"},"end":{"in":"1585"}}]}},{"toponym":"Geyseley","citations":[{"label":"1562 TC","year":1562}],"when":{"timespans":[{"start":{"in":"1562"},"end":{"in":"1562"}}]}},{"toponym":"Guiesley","citations":[{"label":"1618 PRAdel","year":1618}],"when":{"timespans":[{"start":{"in":"1618"},"end":{"in":"1618"}}]}}],"types":[{"identifier":"http://vocab.getty.edu/aat/300232418","label":"administrative division","sourceLabels":[{"label":"township","lang":"en"}]}],"geometry":{"type":"GeometryCollection","geometries":[{"type":"Point","coordinates":[-1.71232,53.87561],"citations":[{"label":"GeoNames, gazetteer record geonames:2647784"}]},{"type":"Point","coordinates":[-1.710989037,53.87364972],"citations":[{"label":"English Place-Name Society survey (DEEP coordinates)"}]},{"type":"Point","coordinates":[-1.703351699668114,53.87812688508573],"citations":[{"label":"Unlock (EDINA) gazetteer, gazetteer record unlock:11162307"}]},{"type":"Point","coordinates":[-1.70486,53.8783],"citations":[{"label":"Key to English Place-Names (KEPN), gazetteer record 14659"}]}]},"when":{"timespans":[{"start":{"in":"0962"},"end":{"in":"1691"}}]},"links":[{"type":"closeMatch","identifier":"https://sws.geonames.org/2647784/"}],"relations":[{"relationType":"gvp:broaderPartitive","relationTo":"https://w3id.org/whg-epns/33/007792","label":"within Guiseley"}]}]}