{"@context":"https://raw.githubusercontent.com/LinkedPasts/linked-places-format/main/linkedplaces-context-v1.1.jsonld","type":"FeatureCollection","license":"Digitisation of English Placenames MADS data is licensed to Jisc by the English Place Names Society and released under a Creative Commons Attribution-NonCommercial 4.0 International License.","note":"LPF v1.3, lossy; derived from the PLATO record; plato_commit=ca0afadabec1e23a145c0b03df77e8f151f79832","features":[{"@id":"http://placenames.org.uk/id/placename/33/012403","type":"Feature","properties":{"title":"Acaster Malbis","ccodes":["GB"],"fclasses":["A","P"]},"names":[{"toponym":"Acaster Malbis","lang":"en","citations":[{"label":"English Place-Name Society survey, volume 33: West Riding of Yorkshire"}]},{"toponym":"Acastre, Akastre, Akastra, Akaster","citations":[{"label":"1086 DB","year":1086},{"label":"12 Font","year":1100},{"label":"1157 YCh","year":1157},{"label":"1185- 1210 Furn","year":1185},{"label":"1200–1541, recurring OblR","year":1200},{"label":"1200–1541, recurring MinAcct"},{"label":"1200 OblR","year":1200},{"label":"1541 MinAcct","year":1541}],"when":{"timespans":[{"start":{"in":"1086"},"end":{"in":"1086"}},{"start":{"earliest":"1100","latest":"1200"},"end":{"earliest":"1100","latest":"1200"}},{"start":{"in":"1157"},"end":{"in":"1157"}},{"start":{"earliest":"1185","latest":"1210"},"end":{"earliest":"1185","latest":"1210"}},{"start":{"in":"1200"},"end":{"in":"1541"}},{"start":{"in":"1200"},"end":{"in":"1200"}},{"start":{"in":"1541"},"end":{"in":"1541"}}]}},{"toponym":"Akaster Will'i Malebisse","citations":[{"label":"1167 P","year":1167}],"when":{"timespans":[{"start":{"in":"1167"},"end":{"in":"1167"}}]}},{"toponym":"Akaster Malebys","citations":[{"label":"e. 13 YD","year":1200},{"label":"1265–1400, recurring Riev","year":1265},{"label":"1265–1400, recurring YD"},{"label":"1265 Riev","year":1265},{"label":"14 YD","year":1300}],"when":{"timespans":[{"start":{"earliest":"1200","latest":"1225"},"end":{"earliest":"1200","latest":"1225"}},{"start":{"in":"1265"},"end":{"in":"1400"}},{"start":{"in":"1265"},"end":{"in":"1265"}},{"start":{"earliest":"1300","latest":"1400"},"end":{"earliest":"1300","latest":"1400"}}]}},{"toponym":"Akaster Malebisse","citations":[{"label":"1252 Ch","year":1252},{"label":"1295 Ebor","year":1295}],"when":{"timespans":[{"start":{"in":"1252"},"end":{"in":"1252"}},{"start":{"in":"1295"},"end":{"in":"1295"}}]}},{"toponym":"Akaster Malbis, Akaster Malbys","citations":[{"label":"1328 Banco","year":1328},{"label":"1344–1555, recurring YD","year":1344},{"label":"1344–1555, recurring YkCR"},{"label":"1344 YD","year":1344},{"label":"1555 YkCR","year":1555}],"when":{"timespans":[{"start":{"in":"1328"},"end":{"in":"1328"}},{"start":{"in":"1344"},"end":{"in":"1555"}},{"start":{"in":"1344"},"end":{"in":"1344"}},{"start":{"in":"1555"},"end":{"in":"1555"}}]}},{"toponym":"Akaster Malbyssh(e), Akaster Malbishe","citations":[{"label":"1402–1503, recurring YI","year":1402},{"label":"1402–1503, recurring YD"},{"label":"1402 YI","year":1402},{"label":"1503 YD","year":1503}],"when":{"timespans":[{"start":{"in":"1402"},"end":{"in":"1503"}},{"start":{"in":"1402"},"end":{"in":"1402"}},{"start":{"in":"1415"},"end":{"in":"1415"}},{"start":{"in":"1503"},"end":{"in":"1503"}}]}},{"toponym":"Akaster Malbich","citations":[{"label":"1459 WillY","year":1459}],"when":{"timespans":[{"start":{"in":"1459"},"end":{"in":"1459"}}]}},{"toponym":"Akaster Malbes","citations":[{"label":"1546 YChant","year":1546}],"when":{"timespans":[{"start":{"in":"1546"},"end":{"in":"1546"}}]}},{"toponym":"Ouer Akaster Malbes","citations":[{"label":"1339 YD","year":1339}],"when":{"timespans":[{"start":{"in":"1339"},"end":{"in":"1339"}}]}},{"toponym":"Aycaster Malbys","citations":[{"label":"15 Sawl","year":1400}],"when":{"timespans":[{"start":{"earliest":"1400","latest":"1500"},"end":{"earliest":"1400","latest":"1500"}}]}},{"toponym":"Aycastre Malbysh","citations":[{"label":"1502 Ipm","year":1502}],"when":{"timespans":[{"start":{"in":"1502"},"end":{"in":"1502"}}]}}],"types":[{"identifier":"http://vocab.getty.edu/aat/300232418","label":"administrative division","sourceLabels":[{"label":"township","lang":"en"}]}],"geometry":{"type":"GeometryCollection","geometries":[{"type":"Point","coordinates":[-1.1063,53.90056],"citations":[{"label":"GeoNames, gazetteer record geonames:2657771"}]},{"type":"Point","coordinates":[-1.117239552,53.89771916],"citations":[{"label":"English Place-Name Society survey (DEEP coordinates)"}]},{"type":"Point","coordinates":[-1.109534730154489,53.90215819381333],"citations":[{"label":"Unlock (EDINA) gazetteer, gazetteer record unlock:11056021"}]},{"type":"Point","coordinates":[-1.0959,53.9023],"citations":[{"label":"Key to English Place-Names (KEPN), gazetteer record 14687"}]}]},"when":{"timespans":[{"start":{"in":"1086"},"end":{"in":"1555"}}]},"links":[{"type":"closeMatch","identifier":"https://sws.geonames.org/2657771/"}],"relations":[{"relationType":"gvp:broaderPartitive","relationTo":"http://placenames.org.uk/id/placename/33/012402","label":"within Acaster Malbis"}]}]}