{"@context":"https://raw.githubusercontent.com/LinkedPasts/linked-places-format/main/linkedplaces-context-v1.1.jsonld","type":"FeatureCollection","license":"Digitisation of English Placenames MADS data is licensed to Jisc by the English Place Names Society and released under a Creative Commons Attribution-NonCommercial 4.0 International License.","note":"LPF v1.3, lossy; derived from the PLATO record; plato_commit=fa0d247ccc0263f8f19c8d7cdcd163df96935d1e","features":[{"@id":"https://w3id.org/whg-epns/33/012591","type":"Feature","properties":{"title":"Bolton Percy","ccodes":["GB"],"fclasses":["A","P"]},"names":[{"toponym":"Bolton Percy","lang":"en","citations":[{"label":"English Place-Name Society survey, volume 33: West Riding of Yorkshire"}]},{"toponym":"Bodeltone, Badetone, Bodetone","citations":[{"label":"1086 DB","year":1086}],"when":{"timespans":[{"start":{"in":"1086"},"end":{"in":"1086"}}]}},{"toponym":"Booltona","citations":[{"label":"1169 P","year":1169}],"when":{"timespans":[{"start":{"in":"1169"},"end":{"in":"1169"}}]}},{"toponym":"Boelton'","citations":[{"label":"1205 ChR","year":1205}],"when":{"timespans":[{"start":{"in":"1205"},"end":{"in":"1205"}}]}},{"toponym":"Bowelton","citations":[{"label":"1276 RH","year":1276}],"when":{"timespans":[{"start":{"in":"1276"},"end":{"in":"1276"}}]}},{"toponym":"Bolton","citations":[{"label":"1226 FF","year":1226},{"label":"1302 Abbr","year":1302},{"label":"1424 Pat","year":1424}],"when":{"timespans":[{"start":{"in":"1226"},"end":{"in":"1226"}},{"start":{"in":"1302"},"end":{"in":"1302"}},{"start":{"in":"1424"},"end":{"in":"1424"}}]}},{"toponym":"Bolton Percy","citations":[{"label":"1305 Ebor","year":1305},{"label":"FF","year":1337},{"label":"FF"},{"label":"1337 FF","year":1337},{"label":"1562 FF","year":1562}],"when":{"timespans":[{"start":{"in":"1305"},"end":{"in":"1305"}},{"start":{"in":"1337"},"end":{"in":"1562"}},{"start":{"in":"1337"},"end":{"in":"1337"}},{"start":{"in":"1562"},"end":{"in":"1562"}}]}},{"toponym":"Bolton Peyrssy","citations":[{"label":"1509 WillYk","year":1509}],"when":{"timespans":[{"start":{"in":"1509"},"end":{"in":"1509"}}]}},{"toponym":"Bolton Pearcye","citations":[{"label":"1584 WillY","year":1584},{"label":"1621 FF","year":1621}],"when":{"timespans":[{"start":{"in":"1584"},"end":{"in":"1584"}},{"start":{"in":"1621"},"end":{"in":"1621"}}]}},{"toponym":"Boulton","citations":[{"label":"1285 KI","year":1285},{"label":"1299 BM","year":1299},{"label":"1303 KF","year":1303}],"when":{"timespans":[{"start":{"in":"1285"},"end":{"in":"1285"}},{"start":{"in":"1299"},"end":{"in":"1299"}},{"start":{"in":"1303"},"end":{"in":"1303"}}]}},{"toponym":"Boulton Perci","citations":[{"label":"1318 Ipm","year":1318}],"when":{"timespans":[{"start":{"in":"1318"},"end":{"in":"1318"}}]}},{"toponym":"Boltonne Parcie","citations":[{"label":"1565 FF","year":1565}],"when":{"timespans":[{"start":{"in":"1565"},"end":{"in":"1565"}}]}}],"types":[{"identifier":"http://vocab.getty.edu/aat/300232418","label":"administrative division","sourceLabels":[{"label":"township","lang":"en"}]}],"geometry":{"type":"GeometryCollection","geometries":[{"type":"Point","coordinates":[-1.20097,53.86821],"citations":[{"label":"GeoNames, gazetteer record geonames:7297716"}]},{"type":"Point","coordinates":[-1.209228157,53.86240368],"citations":[{"label":"English Place-Name Society survey (DEEP coordinates)"}]},{"type":"Point","coordinates":[-1.186332479449264,53.86674654950827],"citations":[{"label":"Unlock (EDINA) gazetteer, gazetteer record unlock:11082637"}]},{"type":"Point","coordinates":[-1.1879,53.867],"citations":[{"label":"Key to English Place-Names (KEPN), gazetteer record 14688"}]}]},"when":{"timespans":[{"start":{"in":"1086"},"end":{"in":"1621"}}]},"links":[{"type":"closeMatch","identifier":"https://sws.geonames.org/7297716/"}],"relations":[{"relationType":"gvp:broaderPartitive","relationTo":"https://w3id.org/whg-epns/33/012469","label":"within Bolton Percy"}]}]}