{"@context":"https://raw.githubusercontent.com/LinkedPasts/linked-places-format/main/linkedplaces-context-v1.1.jsonld","type":"FeatureCollection","license":"Digitisation of English Placenames MADS data is licensed to Jisc by the English Place Names Society and released under a Creative Commons Attribution-NonCommercial 4.0 International License.","note":"LPF v1.3, lossy; derived from the PLATO record; plato_commit=ca0afadabec1e23a145c0b03df77e8f151f79832","features":[{"@id":"http://placenames.org.uk/id/placename/33/012903","type":"Feature","properties":{"title":"St Mary Bishophill Junior","ccodes":["GB"],"fclasses":["A","P"]},"names":[{"toponym":"St Mary Bishophill Junior","lang":"en","citations":[{"label":"English Place-Name Society survey, volume 33: West Riding of Yorkshire"}]},{"toponym":"parochia Sce' Marie de Bysshopehill","citations":[{"label":"1540 MinAcct","year":1540}],"when":{"timespans":[{"start":{"in":"1540"},"end":{"in":"1540"}}]}},{"toponym":"the paryshe of our Lady of Bysshophill newe","citations":[{"label":"1555 YkCR","year":1555}],"when":{"timespans":[{"start":{"in":"1555"},"end":{"in":"1555"}}]}},{"toponym":"Bisshophil newer","citations":[{"label":"1569 YkCR","year":1569}],"when":{"timespans":[{"start":{"in":"1569"},"end":{"in":"1569"}}]}}],"types":[{"identifier":"http://vocab.getty.edu/aat/300232418","label":"administrative division","sourceLabels":[{"label":"parish","lang":"en"}]}],"geometry":{"type":"Point","coordinates":[53.955732,-1.087219],"citations":[{"label":"Key to English Place-Names (KEPN), gazetteer record 3405"}]},"when":{"timespans":[{"start":{"in":"1540"},"end":{"in":"1569"}}]},"relations":[{"relationType":"gvp:broaderPartitive","relationTo":"http://placenames.org.uk/id/placename/33/012285","label":"within Ainsty Wapentake"}]}]}