{"@context":"https://raw.githubusercontent.com/LinkedPasts/linked-places-format/main/linkedplaces-context-v1.1.jsonld","type":"FeatureCollection","license":"Digitisation of English Placenames MADS data is licensed to Jisc by the English Place Names Society and released under a Creative Commons Attribution-NonCommercial 4.0 International License.","note":"LPF v1.3, lossy; derived from the PLATO record; plato_commit=ca0afadabec1e23a145c0b03df77e8f151f79832","features":[{"@id":"https://w3id.org/whg-epns/33/013606","type":"Feature","properties":{"title":"Healaugh","ccodes":["GB"],"fclasses":["A","P"]},"names":[{"toponym":"Healaugh","lang":"en","citations":[{"label":"English Place-Name Society survey, volume 33: West Riding of Yorkshire"}]}],"types":[{"identifier":"http://vocab.getty.edu/aat/300232418","label":"administrative division","sourceLabels":[{"label":"parish","lang":"en"}]}],"geometry":{"type":"GeometryCollection","geometries":[{"type":"Point","coordinates":[-1.24841,53.91256],"citations":[{"label":"GeoNames, gazetteer record geonames:7300842"}]},{"type":"Point","coordinates":[-1.246191476350325,53.92107207952141],"citations":[{"label":"Unlock (EDINA) gazetteer, gazetteer record unlock:11168756"}]},{"type":"Point","coordinates":[-1.23253,53.9212],"citations":[{"label":"Key to English Place-Names (KEPN), gazetteer record 14706"}]}]},"links":[{"type":"closeMatch","identifier":"https://sws.geonames.org/7300842/"}],"relations":[{"relationType":"gvp:broaderPartitive","relationTo":"https://w3id.org/whg-epns/33/012285","label":"within Ainsty Wapentake"}]}]}