{"@context":"https://raw.githubusercontent.com/LinkedPasts/linked-places-format/main/linkedplaces-context-v1.1.jsonld","type":"FeatureCollection","license":"Digitisation of English Placenames MADS data is licensed to Jisc by the English Place Names Society and released under a Creative Commons Attribution-NonCommercial 4.0 International License.","note":"LPF v1.3, lossy; derived from the PLATO record; plato_commit=ca0afadabec1e23a145c0b03df77e8f151f79832","features":[{"@id":"https://w3id.org/whg-epns/33/014625","type":"Feature","properties":{"title":"Kirk Hammerton","ccodes":["GB"],"fclasses":["A","P"]},"names":[{"toponym":"Kirk Hammerton","lang":"en","citations":[{"label":"English Place-Name Society survey, volume 33: West Riding of Yorkshire"}]}],"types":[{"identifier":"http://vocab.getty.edu/aat/300232418","label":"administrative division","sourceLabels":[{"label":"parish","lang":"en"}]}],"geometry":{"type":"GeometryCollection","geometries":[{"type":"Point","coordinates":[-1.29176,53.99435],"citations":[{"label":"GeoNames, gazetteer record geonames:2645277"}]},{"type":"Point","coordinates":[-1.290653341287403,53.99325482659388],"citations":[{"label":"Unlock (EDINA) gazetteer, gazetteer record unlock:11187725"}]},{"type":"Point","coordinates":[-1.29221,53.9935],"citations":[{"label":"Key to English Place-Names (KEPN), gazetteer record 3406"}]}]},"links":[{"type":"closeMatch","identifier":"https://sws.geonames.org/2645277/"}],"relations":[{"relationType":"gvp:broaderPartitive","relationTo":"https://w3id.org/whg-epns/33/012285","label":"within Ainsty Wapentake"}]}]}