{"@context":"https://raw.githubusercontent.com/LinkedPasts/linked-places-format/main/linkedplaces-context-v1.1.jsonld","type":"FeatureCollection","license":"Digitisation of English Placenames MADS data is licensed to Jisc by the English Place Names Society and released under a Creative Commons Attribution-NonCommercial 4.0 International License.","note":"LPF v1.3, lossy; derived from the PLATO record; plato_commit=fa0d247ccc0263f8f19c8d7cdcd163df96935d1e","features":[{"@id":"https://w3id.org/whg-epns/17/000917","type":"Feature","properties":{"title":"Littleborough","ccodes":["GB"],"fclasses":["A","P"]},"names":[{"toponym":"Littleborough","lang":"en","citations":[{"label":"English Place-Name Society survey, volume 17: Nottinghamshire"}]}],"types":[{"identifier":"http://vocab.getty.edu/aat/300232418","label":"administrative division","sourceLabels":[{"label":"parish","lang":"en"}]}],"geometry":{"type":"GeometryCollection","geometries":[{"type":"Point","coordinates":[-0.76667,53.33333],"citations":[{"label":"GeoNames, gazetteer record geonames:2644368"}]},{"type":"Point","coordinates":[-0.7609902053074599,53.33270277566947],"citations":[{"label":"Unlock (EDINA) gazetteer, gazetteer record unlock:11197224"}]},{"type":"Point","coordinates":[-0.762586,53.333],"citations":[{"label":"Key to English Place-Names (KEPN), gazetteer record 2319"}]}]},"links":[{"type":"closeMatch","identifier":"https://sws.geonames.org/2644368/"}],"relations":[{"relationType":"gvp:broaderPartitive","relationTo":"https://w3id.org/whg-epns/17/000585","label":"within North Clay Division"}]}]}