{"@context":"https://raw.githubusercontent.com/LinkedPasts/linked-places-format/main/linkedplaces-context-v1.1.jsonld","type":"FeatureCollection","license":"Digitisation of English Placenames MADS data is licensed to Jisc by the English Place Names Society and released under a Creative Commons Attribution-NonCommercial 4.0 International License.","note":"LPF v1.3, lossy; derived from the PLATO record; plato_commit=fa0d247ccc0263f8f19c8d7cdcd163df96935d1e","features":[{"@id":"https://w3id.org/whg-epns/17/001213","type":"Feature","properties":{"title":"Bevercotes","ccodes":["GB"],"fclasses":["A","P"]},"names":[{"toponym":"Bevercotes","lang":"en","citations":[{"label":"English Place-Name Society survey, volume 17: Nottinghamshire"}]},{"toponym":"Beu'cate","citations":[{"label":"1192 France","year":1192}],"when":{"timespans":[{"start":{"in":"1192"},"end":{"in":"1192"}}]}},{"toponym":"Beuerc(h)ote","citations":[{"label":"t. Ric 1 Dane","year":1189}],"when":{"timespans":[{"start":{"earliest":"1189","latest":"1199"},"end":{"earliest":"1189","latest":"1199"}}]}},{"toponym":"Beuercot","citations":[{"label":"1201 Dugd","year":1201},{"label":"1201-12 RBE","year":1201},{"label":"1235 Fees","year":1235},{"label":"1292-1300 Ipm","year":1292}],"when":{"timespans":[{"start":{"in":"1201"},"end":{"in":"1201"}},{"start":{"earliest":"1201","latest":"1212"},"end":{"earliest":"1201","latest":"1212"}},{"start":{"in":"1235"},"end":{"in":"1235"}},{"start":{"earliest":"1292","latest":"1300"},"end":{"earliest":"1292","latest":"1300"}}]}},{"toponym":"Beverecot'","citations":[{"label":"1224 FF","year":1224}],"when":{"timespans":[{"start":{"in":"1224"},"end":{"in":"1224"}}]}},{"toponym":"Beverescot","citations":[{"label":"1247 Ch","year":1247}],"when":{"timespans":[{"start":{"in":"1247"},"end":{"in":"1247"}}]}},{"toponym":"Beuercotes","citations":[{"label":"1203 FF","year":1203},{"label":"1242 Fees","year":1242},{"label":"1281 FF","year":1281}],"when":{"timespans":[{"start":{"in":"1203"},"end":{"in":"1203"}},{"start":{"in":"1242"},"end":{"in":"1242"}},{"start":{"in":"1281"},"end":{"in":"1281"}}]}},{"toponym":"Beuerkotes","citations":[{"label":"c. 1280 Blyth","year":1270}],"when":{"timespans":[{"start":{"earliest":"1270","latest":"1290"},"end":{"earliest":"1270","latest":"1290"}}]}},{"toponym":"Beverecotes","citations":[{"label":"13th Blyth","year":1200}],"when":{"timespans":[{"start":{"earliest":"1200","latest":"1300"},"end":{"earliest":"1200","latest":"1300"}}]}},{"toponym":"Bevercottes","citations":[{"label":"1568 Wills","year":1568}],"when":{"timespans":[{"start":{"in":"1568"},"end":{"in":"1568"}}]}},{"toponym":"Beaver Coates","citations":[{"label":"1665 SR","year":1665}],"when":{"timespans":[{"start":{"in":"1665"},"end":{"in":"1665"}}]}},{"toponym":"Berecotes","citations":[{"label":"1327 AD","year":1327}],"when":{"timespans":[{"start":{"in":"1327"},"end":{"in":"1327"}}]}}],"types":[{"identifier":"http://vocab.getty.edu/aat/300232418","label":"administrative division","sourceLabels":[{"label":"township","lang":"en"}]}],"geometry":{"type":"GeometryCollection","geometries":[{"type":"Point","coordinates":[-0.959,53.23866],"citations":[{"label":"GeoNames, gazetteer record geonames:7300854"}]},{"type":"Point","coordinates":[-0.9583779862446488,53.24468719715873],"citations":[{"label":"Unlock (EDINA) gazetteer, gazetteer record unlock:11076341"}]},{"type":"Point","coordinates":[-0.959946,53.245],"citations":[{"label":"Key to English Place-Names (KEPN), gazetteer record 2328"}]}]},"when":{"timespans":[{"start":{"in":"1189"},"end":{"in":"1665"}}]},"links":[{"type":"closeMatch","identifier":"https://sws.geonames.org/7300854/"}],"relations":[{"relationType":"gvp:broaderPartitive","relationTo":"https://w3id.org/whg-epns/17/001212","label":"within Bevercotes"}]}]}