{"@context":"https://raw.githubusercontent.com/LinkedPasts/linked-places-format/main/linkedplaces-context-v1.1.jsonld","type":"FeatureCollection","license":"Digitisation of English Placenames MADS data is licensed to Jisc by the English Place Names Society and released under a Creative Commons Attribution-NonCommercial 4.0 International License.","note":"LPF v1.3, lossy; derived from the PLATO record; plato_commit=ca0afadabec1e23a145c0b03df77e8f151f79832","features":[{"@id":"http://placenames.org.uk/id/placename/17/001339","type":"Feature","properties":{"title":"Dunham","ccodes":["GB"],"fclasses":["A","P"]},"names":[{"toponym":"Dunham","lang":"en","citations":[{"label":"English Place-Name Society survey, volume 17: Nottinghamshire"}]}],"types":[{"identifier":"http://vocab.getty.edu/aat/300232418","label":"administrative division","sourceLabels":[{"label":"parish","lang":"en"}]}],"geometry":{"type":"GeometryCollection","geometries":[{"type":"Point","coordinates":[-0.76667,53.26667],"citations":[{"label":"GeoNames, gazetteer record geonames:2650723"}]},{"type":"Point","coordinates":[-0.778058879686093,53.26095598266549],"citations":[{"label":"Unlock (EDINA) gazetteer, gazetteer record unlock:11134181"}]},{"type":"Point","coordinates":[-0.779649,53.2613],"citations":[{"label":"Key to English Place-Names (KEPN), gazetteer record 2332"}]}]},"links":[{"type":"closeMatch","identifier":"https://sws.geonames.org/2650723/"}],"relations":[{"relationType":"gvp:broaderPartitive","relationTo":"http://placenames.org.uk/id/placename/17/001192","label":"within South Clay Division"}]}]}