{"@context":"https://raw.githubusercontent.com/LinkedPasts/linked-places-format/main/linkedplaces-context-v1.1.jsonld","type":"FeatureCollection","license":"Digitisation of English Placenames MADS data is licensed to Jisc by the English Place Names Society and released under a Creative Commons Attribution-NonCommercial 4.0 International License.","note":"LPF v1.3, lossy; derived from the PLATO record; plato_commit=ca0afadabec1e23a145c0b03df77e8f151f79832","features":[{"@id":"https://w3id.org/whg-epns/17/001499","type":"Feature","properties":{"title":"Kneesall","ccodes":["GB"],"fclasses":["A","P"]},"names":[{"toponym":"Kneesall","lang":"en","citations":[{"label":"English Place-Name Society survey, volume 17: Nottinghamshire"}]}],"types":[{"identifier":"http://vocab.getty.edu/aat/300232418","label":"administrative division","sourceLabels":[{"label":"parish","lang":"en"}]}],"geometry":{"type":"GeometryCollection","geometries":[{"type":"Point","coordinates":[-0.949,53.17037],"citations":[{"label":"GeoNames, gazetteer record geonames:2645159"}]},{"type":"Point","coordinates":[-0.9451609817701113,53.17264830642768],"citations":[{"label":"Unlock (EDINA) gazetteer, gazetteer record unlock:11188640"}]},{"type":"Point","coordinates":[-0.946728,53.173],"citations":[{"label":"Key to English Place-Names (KEPN), gazetteer record 2338"}]}]},"links":[{"type":"closeMatch","identifier":"https://sws.geonames.org/2645159/"}],"relations":[{"relationType":"gvp:broaderPartitive","relationTo":"https://w3id.org/whg-epns/17/001192","label":"within South Clay Division"}]}]}