{"@context":"https://raw.githubusercontent.com/LinkedPasts/linked-places-format/main/linkedplaces-context-v1.1.jsonld","type":"FeatureCollection","license":"Digitisation of English Placenames MADS data is licensed to Jisc by the English Place Names Society and released under a Creative Commons Attribution-NonCommercial 4.0 International License.","note":"LPF v1.3, lossy; derived from the PLATO record; plato_commit=ca0afadabec1e23a145c0b03df77e8f151f79832","features":[{"@id":"http://placenames.org.uk/id/placename/17/001500","type":"Feature","properties":{"title":"Kneesall","ccodes":["GB"],"fclasses":["A","P"]},"names":[{"toponym":"Kneesall","lang":"en","citations":[{"label":"English Place-Name Society survey, volume 17: Nottinghamshire"}]},{"toponym":"Cheneshale","citations":[{"label":"1086 DB","year":1086}],"when":{"timespans":[{"start":{"in":"1086"},"end":{"in":"1086"}}]}},{"toponym":"Keneshale","citations":[{"label":"1230 BM","year":1230},{"label":"13th Blyth","year":1200}],"when":{"timespans":[{"start":{"in":"1230"},"end":{"in":"1230"}},{"start":{"earliest":"1200","latest":"1300"},"end":{"earliest":"1200","latest":"1300"}}]}},{"toponym":"Cneshala","citations":[{"label":"1175 P","year":1175}],"when":{"timespans":[{"start":{"in":"1175"},"end":{"in":"1175"}}]}},{"toponym":"Cneshale","citations":[{"label":"1231 Bracton","year":1231},{"label":"1237 Cl","year":1237}],"when":{"timespans":[{"start":{"in":"1231"},"end":{"in":"1231"}},{"start":{"in":"1237"},"end":{"in":"1237"}}]}},{"toponym":"Kneshala","citations":[{"label":"1189-99 BM","year":1189}],"when":{"timespans":[{"start":{"earliest":"1189","latest":"1199"},"end":{"earliest":"1189","latest":"1199"}}]}},{"toponym":"Kneshal(e)","citations":[{"label":"1226 Ebor","year":1226},{"label":"1226 FF","year":1226},{"label":"1276 RH","year":1276},{"label":"1302 FA","year":1302}],"when":{"timespans":[{"start":{"in":"1226"},"end":{"in":"1226"}},{"start":{"in":"1226"},"end":{"in":"1226"}},{"start":{"in":"1260"},"end":{"in":"1260"}},{"start":{"in":"1276"},"end":{"in":"1276"}},{"start":{"in":"1302"},"end":{"in":"1302"}}]}},{"toponym":"Cneeshala","citations":[{"label":"1187 P","year":1187}],"when":{"timespans":[{"start":{"in":"1187"},"end":{"in":"1187"}}]}},{"toponym":"Cnesal'","citations":[{"label":"1207 ClR","year":1207}],"when":{"timespans":[{"start":{"in":"1207"},"end":{"in":"1207"}}]}},{"toponym":"Knesale","citations":[{"label":"1242 Fees","year":1242},{"label":"1256-63 Ipm","year":1256}],"when":{"timespans":[{"start":{"in":"1242"},"end":{"in":"1242"}},{"start":{"earliest":"1256","latest":"1263"},"end":{"earliest":"1256","latest":"1263"}}]}},{"toponym":"Kneshalle","citations":[{"label":"1280 Ebor","year":1280},{"label":"1302 FA","year":1302},{"label":"1305 Ipm","year":1305}],"when":{"timespans":[{"start":{"in":"1280"},"end":{"in":"1280"}},{"start":{"in":"1302"},"end":{"in":"1302"}},{"start":{"in":"1305"},"end":{"in":"1305"}}]}},{"toponym":"Knesale al. Knesall","citations":[{"label":"1459 Pat","year":1459}],"when":{"timespans":[{"start":{"in":"1459"},"end":{"in":"1459"}}]}},{"toponym":"Kneshawle","citations":[{"label":"1551 Wills","year":1551}],"when":{"timespans":[{"start":{"in":"1551"},"end":{"in":"1551"}}]}},{"toponym":"Kneesall al. Kneeshall","citations":[{"label":"1684 Recov","year":1684}],"when":{"timespans":[{"start":{"in":"1684"},"end":{"in":"1684"}}]}},{"toponym":"Knessale","citations":[{"label":"1310 Ipm","year":1310}],"when":{"timespans":[{"start":{"in":"1310"},"end":{"in":"1310"}}]}},{"toponym":"Knessall","citations":[{"label":"1332 SR","year":1332}],"when":{"timespans":[{"start":{"in":"1332"},"end":{"in":"1332"}}]}}],"types":[{"identifier":"http://vocab.getty.edu/aat/300232418","label":"administrative division","sourceLabels":[{"label":"township","lang":"en"}]}],"geometry":{"type":"GeometryCollection","geometries":[{"type":"Point","coordinates":[-0.949,53.17037],"citations":[{"label":"GeoNames, gazetteer record geonames:2645159"}]},{"type":"Point","coordinates":[-0.9451609817701113,53.17264830642768],"citations":[{"label":"Unlock (EDINA) gazetteer, gazetteer record unlock:11188640"}]},{"type":"Point","coordinates":[-0.946728,53.173],"citations":[{"label":"Key to English Place-Names (KEPN), gazetteer record 2338"}]}]},"when":{"timespans":[{"start":{"in":"1086"},"end":{"in":"1684"}}]},"links":[{"type":"closeMatch","identifier":"https://sws.geonames.org/2645159/"}],"relations":[{"relationType":"gvp:broaderPartitive","relationTo":"http://placenames.org.uk/id/placename/17/001499","label":"within Kneesall"}]}]}