{"@context":"https://raw.githubusercontent.com/LinkedPasts/linked-places-format/main/linkedplaces-context-v1.1.jsonld","type":"FeatureCollection","license":"Digitisation of English Placenames MADS data is licensed to Jisc by the English Place Names Society and released under a Creative Commons Attribution-NonCommercial 4.0 International License.","note":"LPF v1.3, lossy; derived from the PLATO record; plato_commit=ca0afadabec1e23a145c0b03df77e8f151f79832","features":[{"@id":"https://w3id.org/whg-epns/17/002605","type":"Feature","properties":{"title":"Holbeck","ccodes":["GB"],"fclasses":["A","P"]},"names":[{"toponym":"Holbeck","lang":"en","citations":[{"label":"English Place-Name Society survey, volume 17: Nottinghamshire"}]}],"types":[{"identifier":"http://vocab.getty.edu/aat/300232418","label":"administrative division","sourceLabels":[{"label":"parish","lang":"en"}]}],"geometry":{"type":"GeometryCollection","geometries":[{"type":"Point","coordinates":[-1.18333,53.25],"citations":[{"label":"GeoNames, gazetteer record geonames:2646784"}]},{"type":"Point","coordinates":[-1.182988790534927,53.25542827283895],"citations":[{"label":"Unlock (EDINA) gazetteer, gazetteer record unlock:11176531"}]},{"type":"Point","coordinates":[-1.18453,53.2557],"citations":[{"label":"Key to English Place-Names (KEPN), gazetteer record 2361"}]}]},"links":[{"type":"closeMatch","identifier":"https://sws.geonames.org/2646784/"}],"relations":[{"relationType":"gvp:broaderPartitive","relationTo":"https://w3id.org/whg-epns/17/001960","label":"within Hatfield Division"}]}]}