{"@context":"https://raw.githubusercontent.com/LinkedPasts/linked-places-format/main/linkedplaces-context-v1.1.jsonld","type":"FeatureCollection","license":"Digitisation of English Placenames MADS data is licensed to Jisc by the English Place Names Society and released under a Creative Commons Attribution-NonCommercial 4.0 International License.","note":"LPF v1.3, lossy; derived from the PLATO record; plato_commit=ca0afadabec1e23a145c0b03df77e8f151f79832","features":[{"@id":"http://placenames.org.uk/id/placename/17/002818","type":"Feature","properties":{"title":"Ollerton","ccodes":["GB"],"fclasses":["A","P"]},"names":[{"toponym":"Ollerton","lang":"en","citations":[{"label":"English Place-Name Society survey, volume 17: Nottinghamshire"}]}],"types":[{"identifier":"http://vocab.getty.edu/aat/300232418","label":"administrative division","sourceLabels":[{"label":"parish","lang":"en"}]}],"geometry":{"type":"GeometryCollection","geometries":[{"type":"Point","coordinates":[-1.01667,53.21667],"citations":[{"label":"GeoNames, gazetteer record geonames:2640976"}]},{"type":"Point","coordinates":[-1.019344787350189,53.20025305424124],"citations":[{"label":"Unlock (EDINA) gazetteer, gazetteer record unlock:11236725"}]},{"type":"Point","coordinates":[-1.0209,53.2006],"citations":[{"label":"Key to English Place-Names (KEPN), gazetteer record 2368"}]}]},"links":[{"type":"closeMatch","identifier":"https://sws.geonames.org/2640976/"}],"relations":[{"relationType":"gvp:broaderPartitive","relationTo":"http://placenames.org.uk/id/placename/17/001960","label":"within Hatfield Division"}]}]}