{"@context":"https://raw.githubusercontent.com/LinkedPasts/linked-places-format/main/linkedplaces-context-v1.1.jsonld","type":"FeatureCollection","license":"Digitisation of English Placenames MADS data is licensed to Jisc by the English Place Names Society and released under a Creative Commons Attribution-NonCommercial 4.0 International License.","note":"LPF v1.3, lossy; derived from the PLATO record; plato_commit=fa0d247ccc0263f8f19c8d7cdcd163df96935d1e","features":[{"@id":"https://w3id.org/whg-epns/17/003763","type":"Feature","properties":{"title":"Bestwood Park","ccodes":["GB"],"fclasses":["A","P"]},"names":[{"toponym":"Bestwood Park","lang":"en","citations":[{"label":"English Place-Name Society survey, volume 17: Nottinghamshire"}]},{"toponym":"Bescwde","citations":[{"label":"t. Hy 2 Ch","year":1154},{"label":"1205 Dugd","year":1205}],"when":{"timespans":[{"start":{"earliest":"1154","latest":"1189"},"end":{"earliest":"1154","latest":"1189"}},{"start":{"in":"1205"},"end":{"in":"1205"}}]}},{"toponym":"Bescwoda","citations":[{"label":"t. Hy 2 Dugd","year":1154}],"when":{"timespans":[{"start":{"earliest":"1154","latest":"1189"},"end":{"earliest":"1154","latest":"1189"}}]}},{"toponym":"Bescwud(e)","citations":[{"label":"1221 ClR","year":1221}],"when":{"timespans":[{"start":{"in":"1221"},"end":{"in":"1221"}},{"start":{"in":"1223"},"end":{"in":"1223"}}]}},{"toponym":"Bescwod(e)","citations":[{"label":"1247 Ch","year":1247},{"label":"1251 Pat","year":1251}],"when":{"timespans":[{"start":{"in":"1247"},"end":{"in":"1247"}},{"start":{"in":"1251"},"end":{"in":"1251"}}]}},{"toponym":"Beskewuda","citations":[{"label":"1177 P","year":1177}],"when":{"timespans":[{"start":{"in":"1177"},"end":{"in":"1177"}}]}},{"toponym":"Beskewud(e), Beskewod(e)","citations":[{"label":"1222 Cl","year":1222},{"label":"1252 For","year":1252},{"label":"1275 Fine","year":1275},{"label":"1306 Ipm","year":1306},{"label":"1339 Pat","year":1339},{"label":"c. 1500 Map","year":1490}],"when":{"timespans":[{"start":{"in":"1222"},"end":{"in":"1222"}},{"start":{"in":"1246"},"end":{"in":"1246"}},{"start":{"in":"1251"},"end":{"in":"1251"}},{"start":{"in":"1252"},"end":{"in":"1252"}},{"start":{"in":"1287"},"end":{"in":"1287"}},{"start":{"in":"1275"},"end":{"in":"1275"}},{"start":{"in":"1306"},"end":{"in":"1306"}},{"start":{"in":"1339"},"end":{"in":"1339"}},{"start":{"earliest":"1490","latest":"1510"},"end":{"earliest":"1490","latest":"1510"}}]}},{"toponym":"Beskewood","citations":[{"label":"1524 DukRec","year":1524},{"label":"c. 1540 L","year":1530}],"when":{"timespans":[{"start":{"in":"1524"},"end":{"in":"1524"}},{"start":{"earliest":"1530","latest":"1550"},"end":{"earliest":"1530","latest":"1550"}}]}},{"toponym":"Beescwde","citations":[{"label":"c. 1200 Wollaton","year":1190}],"when":{"timespans":[{"start":{"earliest":"1190","latest":"1210"},"end":{"earliest":"1190","latest":"1210"}}]}},{"toponym":"Buskwud'","citations":[{"label":"1207 ClR","year":1207}],"when":{"timespans":[{"start":{"in":"1207"},"end":{"in":"1207"}}]}},{"toponym":"Boscwod'","citations":[{"label":"1220 ClR","year":1220}],"when":{"timespans":[{"start":{"in":"1220"},"end":{"in":"1220"}},{"start":{"in":"1221"},"end":{"in":"1221"}}]}},{"toponym":"Beschewud'","citations":[{"label":"1224 ClR","year":1224}],"when":{"timespans":[{"start":{"in":"1224"},"end":{"in":"1224"}}]}},{"toponym":"Bestewud","citations":[{"label":"1236 Cl","year":1236}],"when":{"timespans":[{"start":{"in":"1236"},"end":{"in":"1236"}}]}},{"toponym":"Bestewod","citations":[{"label":"1377 Pat","year":1377}],"when":{"timespans":[{"start":{"in":"1377"},"end":{"in":"1377"}}]}},{"toponym":"Beskwud'","citations":[{"label":"1237 Cl","year":1237}],"when":{"timespans":[{"start":{"in":"1237"},"end":{"in":"1237"}}]}},{"toponym":"Beskwode","citations":[{"label":"1276 For","year":1276},{"label":"1280 Pat","year":1280}],"when":{"timespans":[{"start":{"in":"1276"},"end":{"in":"1276"}},{"start":{"in":"1280"},"end":{"in":"1280"}},{"start":{"in":"1315"},"end":{"in":"1315"}}]}},{"toponym":"Bekeswood Park","citations":[{"label":"1523 LP","year":1523}],"when":{"timespans":[{"start":{"in":"1523"},"end":{"in":"1523"}}]}},{"toponym":"Beskewode park","citations":[{"label":"1547 LP","year":1547}],"when":{"timespans":[{"start":{"in":"1547"},"end":{"in":"1547"}}]}},{"toponym":"parke of Beskewod","citations":[{"label":"1597 For","year":1597}],"when":{"timespans":[{"start":{"in":"1597"},"end":{"in":"1597"}}]}},{"toponym":"Bestwood Parke","citations":[{"label":"1619 Wills","year":1619}],"when":{"timespans":[{"start":{"in":"1619"},"end":{"in":"1619"}}]}},{"toponym":"Beskewood Parke al. Bestwood Parke","citations":[{"label":"1650 ParlSurv","year":1650}],"when":{"timespans":[{"start":{"in":"1650"},"end":{"in":"1650"}}]}},{"toponym":"Bestwood","citations":[{"label":"1682 FF","year":1682}],"when":{"timespans":[{"start":{"in":"1682"},"end":{"in":"1682"}}]}}],"types":[{"identifier":"http://vocab.getty.edu/aat/300232418","label":"administrative division","sourceLabels":[{"label":"township","lang":"en"}]}],"geometry":{"type":"Point","coordinates":[-1.15948,53.0038],"citations":[{"label":"Key to English Place-Names (KEPN), gazetteer record 2385"}]},"when":{"timespans":[{"start":{"in":"1154"},"end":{"in":"1682"}}]},"relations":[{"relationType":"gvp:broaderPartitive","relationTo":"https://w3id.org/whg-epns/17/003762","label":"within Bestwood Park"}]}]}