{"@context":"https://raw.githubusercontent.com/LinkedPasts/linked-places-format/main/linkedplaces-context-v1.1.jsonld","type":"FeatureCollection","license":"Digitisation of English Placenames MADS data is licensed to Jisc by the English Place Names Society and released under a Creative Commons Attribution-NonCommercial 4.0 International License.","note":"LPF v1.3, lossy; derived from the PLATO record; plato_commit=ca0afadabec1e23a145c0b03df77e8f151f79832","features":[{"@id":"http://placenames.org.uk/id/placename/17/004074","type":"Feature","properties":{"title":"Linby","ccodes":["GB"],"fclasses":["A","P"]},"names":[{"toponym":"Linby","lang":"en","citations":[{"label":"English Place-Name Society survey, volume 17: Nottinghamshire"}]},{"toponym":"Lidebi","citations":[{"label":"1086 DB","year":1086}],"when":{"timespans":[{"start":{"in":"1086"},"end":{"in":"1086"}}]}},{"toponym":"Lindebeia","citations":[{"label":"t. Hy 2 Ch","year":1154}],"when":{"timespans":[{"start":{"earliest":"1154","latest":"1189"},"end":{"earliest":"1154","latest":"1189"}}]}},{"toponym":"Lindeby","citations":[{"label":"t. Hy 2 Ch","year":1154},{"label":"1205-1282 unspecified sources","year":1205}],"when":{"timespans":[{"start":{"earliest":"1154","latest":"1189"},"end":{"earliest":"1154","latest":"1189"}},{"start":{"in":"1205"},"end":{"in":"1282"}}]}},{"toponym":"Lindebi","citations":[{"label":"1163 P","year":1163},{"label":"1205–1282, recurring Pap","year":1205},{"label":"1205–1282, recurring Ipm"},{"label":"1205 Pap","year":1205},{"label":"1282 Ipm","year":1282}],"when":{"timespans":[{"start":{"in":"1163"},"end":{"in":"1163"}},{"start":{"in":"1164"},"end":{"in":"1164"}},{"start":{"in":"1205"},"end":{"in":"1282"}},{"start":{"in":"1205"},"end":{"in":"1205"}},{"start":{"in":"1282"},"end":{"in":"1282"}}]}},{"toponym":"Lindby","citations":[{"label":"1232-51 Ch","year":1232}],"when":{"timespans":[{"start":{"earliest":"1232","latest":"1251"},"end":{"earliest":"1232","latest":"1251"}}]}},{"toponym":"Linneby","citations":[{"label":"1233 Cl","year":1233}],"when":{"timespans":[{"start":{"in":"1233"},"end":{"in":"1233"}}]}},{"toponym":"Lundeby","citations":[{"label":"1304 Pat","year":1304}],"when":{"timespans":[{"start":{"in":"1304"},"end":{"in":"1304"}}]}},{"toponym":"Lynby","citations":[{"label":"1392 Pat","year":1392}],"when":{"timespans":[{"start":{"in":"1392"},"end":{"in":"1392"}}]}},{"toponym":"Lymby","citations":[{"label":"1474 Pat","year":1474}],"when":{"timespans":[{"start":{"in":"1474"},"end":{"in":"1474"}}]}},{"toponym":"Lyndby al. Lymby","citations":[{"label":"1578 Recov","year":1578}],"when":{"timespans":[{"start":{"in":"1578"},"end":{"in":"1578"}}]}}],"types":[{"identifier":"http://vocab.getty.edu/aat/300232418","label":"administrative division","sourceLabels":[{"label":"township","lang":"en"}]}],"geometry":{"type":"GeometryCollection","geometries":[{"type":"Point","coordinates":[-1.20271,53.05416],"citations":[{"label":"GeoNames, gazetteer record geonames:2644490"}]},{"type":"Point","coordinates":[-1.201655635657543,53.05776973203107],"citations":[{"label":"Unlock (EDINA) gazetteer, gazetteer record unlock:11195127"}]},{"type":"Point","coordinates":[-1.20319,53.0581],"citations":[{"label":"Key to English Place-Names (KEPN), gazetteer record 2396"}]}]},"when":{"timespans":[{"start":{"in":"1086"},"end":{"in":"1578"}}]},"links":[{"type":"closeMatch","identifier":"https://sws.geonames.org/2644490/"}],"relations":[{"relationType":"gvp:broaderPartitive","relationTo":"http://placenames.org.uk/id/placename/17/004073","label":"within Linby"}]}]}