{"@context":"https://raw.githubusercontent.com/LinkedPasts/linked-places-format/main/linkedplaces-context-v1.1.jsonld","type":"FeatureCollection","license":"Digitisation of English Placenames MADS data is licensed to Jisc by the English Place Names Society and released under a Creative Commons Attribution-NonCommercial 4.0 International License.","note":"LPF v1.3, lossy; derived from the PLATO record; plato_commit=ca0afadabec1e23a145c0b03df77e8f151f79832","features":[{"@id":"http://placenames.org.uk/id/placename/17/004769","type":"Feature","properties":{"title":"Chilwell","ccodes":["GB"],"fclasses":["A","P"]},"names":[{"toponym":"Chilwell","lang":"en","citations":[{"label":"English Place-Name Society survey, volume 17: Nottinghamshire"}]},{"toponym":"Chideuuelle, Ciduuelle","citations":[{"label":"1086 DB","year":1086}],"when":{"timespans":[{"start":{"in":"1086"},"end":{"in":"1086"}}]}},{"toponym":"Childewell(a)","citations":[{"label":"1194 P","year":1194},{"label":"1229 Ch","year":1229}],"when":{"timespans":[{"start":{"in":"1194"},"end":{"in":"1194"}},{"start":{"in":"1229"},"end":{"in":"1229"}}]}},{"toponym":"Cilleuuelle, Estrecilleuuelle","citations":[{"label":"1086 DB","year":1086}],"when":{"timespans":[{"start":{"in":"1086"},"end":{"in":"1086"}}]}},{"toponym":"Chilwell(a)","citations":[{"label":"1108 Dugd","year":1108},{"label":"c. 1175 GenNS","year":1165},{"label":"1235 Fees","year":1235},{"label":"1343 Ass","year":1343}],"when":{"timespans":[{"start":{"in":"1108"},"end":{"in":"1108"}},{"start":{"earliest":"1165","latest":"1185"},"end":{"earliest":"1165","latest":"1185"}},{"start":{"in":"1235"},"end":{"in":"1235"}},{"start":{"in":"1343"},"end":{"in":"1343"}}]}},{"toponym":"Chilvellia","citations":[{"label":"c. 1240 Wollaton","year":1230}],"when":{"timespans":[{"start":{"earliest":"1230","latest":"1250"},"end":{"earliest":"1230","latest":"1250"}}]}},{"toponym":"Chillwell","citations":[{"label":"1478 Pat","year":1478}],"when":{"timespans":[{"start":{"in":"1478"},"end":{"in":"1478"}}]}},{"toponym":"Chillewell(e)","citations":[{"label":"1200 FineR","year":1200},{"label":"1205–1353, recurring Pap","year":1205},{"label":"1205–1353, recurring Ipm"},{"label":"1205 Pap","year":1205},{"label":"1353 Ipm","year":1353}],"when":{"timespans":[{"start":{"in":"1200"},"end":{"in":"1200"}},{"start":{"in":"1205"},"end":{"in":"1353"}},{"start":{"in":"1205"},"end":{"in":"1205"}},{"start":{"in":"1353"},"end":{"in":"1353"}}]}},{"toponym":"Chelewell(a)","citations":[{"label":"1231 Bracton","year":1231},{"label":"1265 Misc","year":1265},{"label":"1280 Ass","year":1280},{"label":"1284 FA","year":1284}],"when":{"timespans":[{"start":{"in":"1231"},"end":{"in":"1231"}},{"start":{"in":"1265"},"end":{"in":"1265"}},{"start":{"in":"1280"},"end":{"in":"1280"}},{"start":{"in":"1284"},"end":{"in":"1284"}}]}},{"toponym":"Chilewell(e)","citations":[{"label":"1231 Ebor","year":1231},{"label":"1242 Fees","year":1242},{"label":"1265 Misc","year":1265},{"label":"1269 FF","year":1269},{"label":"1284 Ipm","year":1284}],"when":{"timespans":[{"start":{"in":"1231"},"end":{"in":"1231"}},{"start":{"in":"1242"},"end":{"in":"1242"}},{"start":{"in":"1265"},"end":{"in":"1265"}},{"start":{"in":"1269"},"end":{"in":"1269"}},{"start":{"in":"1284"},"end":{"in":"1284"}}]}},{"toponym":"Chylewell(e)","citations":[{"label":"1280 Ass","year":1280}],"when":{"timespans":[{"start":{"in":"1280"},"end":{"in":"1280"}},{"start":{"in":"1287"},"end":{"in":"1287"}}]}},{"toponym":"Westrechillewelle","citations":[{"label":"1280 Ass","year":1280}],"when":{"timespans":[{"start":{"in":"1280"},"end":{"in":"1280"}}]}}],"types":[{"identifier":"http://vocab.getty.edu/aat/300232418","label":"administrative division","sourceLabels":[{"label":"township","lang":"en"}]}],"geometry":{"type":"GeometryCollection","geometries":[{"type":"Point","coordinates":[-1.23631,52.9118],"citations":[{"label":"GeoNames, gazetteer record geonames:2653151"}]},{"type":"Point","coordinates":[-1.234045828330486,52.91413526962142],"citations":[{"label":"Unlock (EDINA) gazetteer, gazetteer record unlock:11105031"}]},{"type":"Point","coordinates":[-1.23557,52.9145],"citations":[{"label":"Key to English Place-Names (KEPN), gazetteer record 22"}]}]},"when":{"timespans":[{"start":{"in":"1086"},"end":{"in":"1478"}}]},"links":[{"type":"closeMatch","identifier":"https://sws.geonames.org/2653151/"}],"relations":[{"relationType":"gvp:broaderPartitive","relationTo":"http://placenames.org.uk/id/placename/17/004768","label":"within Chilwell"}]}]}