{"@context":"https://raw.githubusercontent.com/LinkedPasts/linked-places-format/main/linkedplaces-context-v1.1.jsonld","type":"FeatureCollection","license":"Digitisation of English Placenames MADS data is licensed to Jisc by the English Place Names Society and released under a Creative Commons Attribution-NonCommercial 4.0 International License.","note":"LPF v1.3, lossy; derived from the PLATO record; plato_commit=ca0afadabec1e23a145c0b03df77e8f151f79832","features":[{"@id":"http://placenames.org.uk/id/placename/17/005075","type":"Feature","properties":{"title":"Radford","ccodes":["GB"],"fclasses":["A","P"]},"names":[{"toponym":"Radford","lang":"en","citations":[{"label":"English Place-Name Society survey, volume 17: Nottinghamshire"}]},{"toponym":"Redeford","citations":[{"label":"1086 DB","year":1086}],"when":{"timespans":[{"start":{"in":"1086"},"end":{"in":"1086"}}]}},{"toponym":"Radeford","citations":[{"label":"1108–1316, recurring Ch","year":1108},{"label":"1108–1316, recurring FF"},{"label":"1108 Ch","year":1108},{"label":"1316 FF","year":1316}],"when":{"timespans":[{"start":{"in":"1108"},"end":{"in":"1316"}},{"start":{"in":"1108"},"end":{"in":"1108"}},{"start":{"in":"1316"},"end":{"in":"1316"}}]}},{"toponym":"Radefort","citations":[{"label":"c. 1200 Wollaton","year":1190}],"when":{"timespans":[{"start":{"earliest":"1190","latest":"1210"},"end":{"earliest":"1190","latest":"1210"}}]}},{"toponym":"Radefort juxta Notyngham","citations":[{"label":"1316 FF","year":1316}],"when":{"timespans":[{"start":{"in":"1316"},"end":{"in":"1316"}}]}},{"toponym":"Radford","citations":[{"label":"1209 FF","year":1209},{"label":"1226 Ebor","year":1226}],"when":{"timespans":[{"start":{"in":"1209"},"end":{"in":"1209"}},{"start":{"in":"1226"},"end":{"in":"1226"}}]}},{"toponym":"Rafford","citations":[{"label":"1225 Pat","year":1225}],"when":{"timespans":[{"start":{"in":"1225"},"end":{"in":"1225"}}]}}],"types":[{"identifier":"http://vocab.getty.edu/aat/300232418","label":"administrative division","sourceLabels":[{"label":"township","lang":"en"}]}],"geometry":{"type":"GeometryCollection","geometries":[{"type":"Point","coordinates":[-1.173705002870243,52.95868379325357],"citations":[{"label":"Unlock (EDINA) gazetteer, gazetteer record unlock:11251943"}]},{"type":"Point","coordinates":[-1.17524,52.959],"citations":[{"label":"Key to English Place-Names (KEPN), gazetteer record 27"}]}]},"when":{"timespans":[{"start":{"in":"1086"},"end":{"in":"1316"}}]},"relations":[{"relationType":"gvp:broaderPartitive","relationTo":"http://placenames.org.uk/id/placename/17/005074","label":"within Radford"}]}]}