{"@context":"https://raw.githubusercontent.com/LinkedPasts/linked-places-format/main/linkedplaces-context-v1.1.jsonld","type":"FeatureCollection","license":"Digitisation of English Placenames MADS data is licensed to Jisc by the English Place Names Society and released under a Creative Commons Attribution-NonCommercial 4.0 International License.","note":"LPF v1.3, lossy; derived from the PLATO record; plato_commit=fa0d247ccc0263f8f19c8d7cdcd163df96935d1e","features":[{"@id":"https://w3id.org/whg-epns/17/005038","type":"Feature","properties":{"title":"Nuthall","ccodes":["GB"],"fclasses":["A","P"]},"names":[{"toponym":"Nuthall","lang":"en","citations":[{"label":"English Place-Name Society survey, volume 17: Nottinghamshire"}]},{"toponym":"Nutehale","citations":[{"label":"1086 DB","year":1086},{"label":"1199 Cur","year":1199},{"label":"c. 1200 Wollaton","year":1190},{"label":"1200 Abbr","year":1200},{"label":"1201 FineR","year":1201},{"label":"1235 Fees","year":1235}],"when":{"timespans":[{"start":{"in":"1086"},"end":{"in":"1086"}},{"start":{"in":"1199"},"end":{"in":"1199"}},{"start":{"earliest":"1190","latest":"1210"},"end":{"earliest":"1190","latest":"1210"}},{"start":{"in":"1200"},"end":{"in":"1200"}},{"start":{"in":"1201"},"end":{"in":"1201"}},{"start":{"in":"1235"},"end":{"in":"1235"}}]}},{"toponym":"Nuteal","citations":[{"label":"1235 Fees","year":1235}],"when":{"timespans":[{"start":{"in":"1235"},"end":{"in":"1235"}}]}},{"toponym":"Notehala","citations":[{"label":"1194 P","year":1194}],"when":{"timespans":[{"start":{"in":"1194"},"end":{"in":"1194"}}]}},{"toponym":"Notehale","citations":[{"label":"1211 RBE","year":1211},{"label":"1261 FF","year":1261},{"label":"1291 Tax","year":1291},{"label":"1302 FA","year":1302}],"when":{"timespans":[{"start":{"in":"1211"},"end":{"in":"1211"}},{"start":{"in":"1261"},"end":{"in":"1261"}},{"start":{"in":"1291"},"end":{"in":"1291"}},{"start":{"in":"1302"},"end":{"in":"1302"}}]}},{"toponym":"Nuthale","citations":[{"label":"1195 P","year":1195}],"when":{"timespans":[{"start":{"in":"1195"},"end":{"in":"1195"}}]}},{"toponym":"Nuttehale","citations":[{"label":"1202 P","year":1202},{"label":"1233 FF","year":1233}],"when":{"timespans":[{"start":{"in":"1202"},"end":{"in":"1202"}},{"start":{"in":"1233"},"end":{"in":"1233"}}]}},{"toponym":"Nuthehall'","citations":[{"label":"1219 Fees","year":1219}],"when":{"timespans":[{"start":{"in":"1219"},"end":{"in":"1219"}}]}},{"toponym":"Nutehall'","citations":[{"label":"1242 Fees","year":1242}],"when":{"timespans":[{"start":{"in":"1242"},"end":{"in":"1242"}}]}},{"toponym":"Notehall","citations":[{"label":"1284 FA","year":1284}],"when":{"timespans":[{"start":{"in":"1284"},"end":{"in":"1284"}},{"start":{"in":"1316"},"end":{"in":"1316"}}]}},{"toponym":"Nothall","citations":[{"label":"1487 Pat","year":1487}],"when":{"timespans":[{"start":{"in":"1487"},"end":{"in":"1487"}}]}},{"toponym":"Notenhal","citations":[{"label":"1235 Fees","year":1235}],"when":{"timespans":[{"start":{"in":"1235"},"end":{"in":"1235"}}]}},{"toponym":"Nottale","citations":[{"label":"1391 Works","year":1391}],"when":{"timespans":[{"start":{"in":"1391"},"end":{"in":"1391"}}]}},{"toponym":"Nottoll Parke","citations":[{"label":"1520 Wollaton","year":1520}],"when":{"timespans":[{"start":{"in":"1520"},"end":{"in":"1520"}}]}},{"toponym":"Nuthall","citations":[{"label":"1442 FF","year":1442}],"when":{"timespans":[{"start":{"in":"1442"},"end":{"in":"1442"}}]}}],"types":[{"identifier":"http://vocab.getty.edu/aat/300232418","label":"administrative division","sourceLabels":[{"label":"township","lang":"en"}]}],"geometry":{"type":"GeometryCollection","geometries":[{"type":"Point","coordinates":[-1.22733,52.99623],"citations":[{"label":"GeoNames, gazetteer record geonames:7300866"}]},{"type":"Point","coordinates":[-1.23261495470415,52.99504061877978],"citations":[{"label":"Unlock (EDINA) gazetteer, gazetteer record unlock:11234210"}]},{"type":"Point","coordinates":[-1.23414,52.9954],"citations":[{"label":"Key to English Place-Names (KEPN), gazetteer record 2410"}]}]},"when":{"timespans":[{"start":{"in":"1086"},"end":{"in":"1520"}}]},"links":[{"type":"closeMatch","identifier":"https://sws.geonames.org/7300866/"}],"relations":[{"relationType":"gvp:broaderPartitive","relationTo":"https://w3id.org/whg-epns/17/005037","label":"within Nuthall"}]}]}