{"@context":"https://raw.githubusercontent.com/LinkedPasts/linked-places-format/main/linkedplaces-context-v1.1.jsonld","type":"FeatureCollection","license":"Digitisation of English Placenames MADS data is licensed to Jisc by the English Place Names Society and released under a Creative Commons Attribution-NonCommercial 4.0 International License.","note":"LPF v1.3, lossy; derived from the PLATO record; plato_commit=ca0afadabec1e23a145c0b03df77e8f151f79832","features":[{"@id":"https://w3id.org/whg-epns/17/005184","type":"Feature","properties":{"title":"Trowell","ccodes":["GB"],"fclasses":["A","P"]},"names":[{"toponym":"Trowell","lang":"en","citations":[{"label":"English Place-Name Society survey, volume 17: Nottinghamshire"}]},{"toponym":"Torwalle","citations":[{"label":"1086 DB","year":1086}],"when":{"timespans":[{"start":{"in":"1086"},"end":{"in":"1086"}}]}},{"toponym":"Trowalle","citations":[{"label":"1086 DB","year":1086},{"label":"c. 1200 Wollaton","year":1190}],"when":{"timespans":[{"start":{"in":"1086"},"end":{"in":"1086"}},{"start":{"earliest":"1190","latest":"1210"},"end":{"earliest":"1190","latest":"1210"}}]}},{"toponym":"Trawalle","citations":[{"label":"1260 Pap","year":1260}],"when":{"timespans":[{"start":{"in":"1260"},"end":{"in":"1260"}}]}},{"toponym":"Trowella","citations":[{"label":"1165 P","year":1165},{"label":"1174 Holtzmann","year":1174},{"label":"c. 1175 Wollaton","year":1165}],"when":{"timespans":[{"start":{"in":"1165"},"end":{"in":"1165"}},{"start":{"in":"1174"},"end":{"in":"1174"}},{"start":{"earliest":"1165","latest":"1185"},"end":{"earliest":"1165","latest":"1185"}}]}},{"toponym":"Trowell(e)","citations":[{"label":"1198 Fees","year":1198},{"label":"1200 FineR","year":1200},{"label":"1201–1212, recurring RBE","year":1201},{"label":"1201-12 RBE","year":1201}],"when":{"timespans":[{"start":{"in":"1198"},"end":{"in":"1198"}},{"start":{"in":"1200"},"end":{"in":"1200"}},{"start":{"in":"1201"},"end":{"in":"1212"}},{"start":{"earliest":"1201","latest":"1212"},"end":{"earliest":"1201","latest":"1212"}}]}},{"toponym":"Trewelle, Triwelle","citations":[{"label":"c. 1190 DbCh","year":1180}],"when":{"timespans":[{"start":{"earliest":"1180","latest":"1200"},"end":{"earliest":"1180","latest":"1200"}}]}},{"toponym":"Trouuell'","citations":[{"label":"1214 FineR","year":1214}],"when":{"timespans":[{"start":{"in":"1214"},"end":{"in":"1214"}}]}},{"toponym":"Trouwell","citations":[{"label":"c. 1260 Dale","year":1250},{"label":"1275 RH","year":1275},{"label":"1327 SR","year":1327},{"label":"1342 NI","year":1342}],"when":{"timespans":[{"start":{"earliest":"1250","latest":"1270"},"end":{"earliest":"1250","latest":"1270"}},{"start":{"in":"1275"},"end":{"in":"1275"}},{"start":{"in":"1327"},"end":{"in":"1327"}},{"start":{"in":"1342"},"end":{"in":"1342"}}]}},{"toponym":"Trouell","citations":[{"label":"1302 FA","year":1302}],"when":{"timespans":[{"start":{"in":"1302"},"end":{"in":"1302"}}]}},{"toponym":"Truwell(e)","citations":[{"label":"1305 Ass","year":1305},{"label":"1338 Ch","year":1338}],"when":{"timespans":[{"start":{"in":"1305"},"end":{"in":"1305"}},{"start":{"in":"1338"},"end":{"in":"1338"}}]}}],"types":[{"identifier":"http://vocab.getty.edu/aat/300232418","label":"administrative division","sourceLabels":[{"label":"township","lang":"en"}]}],"geometry":{"type":"GeometryCollection","geometries":[{"type":"Point","coordinates":[-1.28201,52.95309],"citations":[{"label":"GeoNames, gazetteer record geonames:2635426"}]},{"type":"Point","coordinates":[-1.278062427188658,52.95037295124995],"citations":[{"label":"Unlock (EDINA) gazetteer, gazetteer record unlock:11306463"}]},{"type":"Point","coordinates":[-1.27958,52.9507],"citations":[{"label":"Key to English Place-Names (KEPN), gazetteer record 30"}]}]},"when":{"timespans":[{"start":{"in":"1086"},"end":{"in":"1342"}}]},"links":[{"type":"closeMatch","identifier":"https://sws.geonames.org/2635426/"}],"relations":[{"relationType":"gvp:broaderPartitive","relationTo":"https://w3id.org/whg-epns/17/005183","label":"within Trowell"}]}]}