{"@context":"https://raw.githubusercontent.com/LinkedPasts/linked-places-format/main/linkedplaces-context-v1.1.jsonld","type":"FeatureCollection","license":"Digitisation of English Placenames MADS data is licensed to Jisc by the English Place Names Society and released under a Creative Commons Attribution-NonCommercial 4.0 International License.","note":"LPF v1.3, lossy; derived from the PLATO record; plato_commit=ca0afadabec1e23a145c0b03df77e8f151f79832","features":[{"@id":"https://w3id.org/whg-epns/17/005296","type":"Feature","properties":{"title":"Bulcote","ccodes":["GB"],"fclasses":["A","P"]},"names":[{"toponym":"Bulcote","lang":"en","citations":[{"label":"English Place-Name Society survey, volume 17: Nottinghamshire"}]},{"toponym":"Bulecote","citations":[{"label":"1086 DB","year":1086},{"label":"1235 Fees","year":1235},{"label":"1236 FF","year":1236},{"label":"1270 Ass","year":1270}],"when":{"timespans":[{"start":{"in":"1086"},"end":{"in":"1086"}},{"start":{"in":"1235"},"end":{"in":"1235"}},{"start":{"in":"1236"},"end":{"in":"1236"}},{"start":{"in":"1270"},"end":{"in":"1270"}}]}},{"toponym":"Bulcote","citations":[{"label":"1242 Fees","year":1242},{"label":"1302 FA","year":1302},{"label":"1318 FF","year":1318}],"when":{"timespans":[{"start":{"in":"1242"},"end":{"in":"1242"}},{"start":{"in":"1302"},"end":{"in":"1302"}},{"start":{"in":"1318"},"end":{"in":"1318"}}]}},{"toponym":"Bulcote Hawe","citations":[{"label":"1335 Ass","year":1335}],"when":{"timespans":[{"start":{"in":"1335"},"end":{"in":"1335"}}]}},{"toponym":"Bolcote","citations":[{"label":"1269 FF","year":1269}],"when":{"timespans":[{"start":{"in":"1269"},"end":{"in":"1269"}}]}},{"toponym":"Bullecote","citations":[{"label":"1280 Ass","year":1280}],"when":{"timespans":[{"start":{"in":"1280"},"end":{"in":"1280"}}]}},{"toponym":"Bolcat","citations":[{"label":"1673 ParReg (Bridgford)","year":1673}],"when":{"timespans":[{"start":{"in":"1673"},"end":{"in":"1673"}}]}},{"toponym":"Bucot","citations":[{"label":"1756 ParReg (Bridgford)","year":1756}],"when":{"timespans":[{"start":{"in":"1756"},"end":{"in":"1756"}}]}},{"toponym":"Boocat","citations":[{"label":"1717 ParReg (Bridgford)","year":1717}],"when":{"timespans":[{"start":{"in":"1717"},"end":{"in":"1717"}},{"start":{"in":"1673"},"end":{"in":"1673"}}]}}],"types":[{"identifier":"http://vocab.getty.edu/aat/300232418","label":"administrative division","sourceLabels":[{"label":"township","lang":"en"}]}],"geometry":{"type":"GeometryCollection","geometries":[{"type":"Point","coordinates":[-1.01634,52.9947],"citations":[{"label":"GeoNames, gazetteer record geonames:7300889"}]},{"type":"Point","coordinates":[-1.024034955149462,52.99351153772052],"citations":[{"label":"Unlock (EDINA) gazetteer, gazetteer record unlock:11092065"}]},{"type":"Point","coordinates":[-1.02558,52.9938],"citations":[{"label":"Key to English Place-Names (KEPN), gazetteer record 2417"}]}]},"when":{"timespans":[{"start":{"in":"1086"},"end":{"in":"1756"}}]},"links":[{"type":"closeMatch","identifier":"https://sws.geonames.org/7300889/"}],"relations":[{"relationType":"gvp:broaderPartitive","relationTo":"https://w3id.org/whg-epns/17/005295","label":"within Bulcote"}]}]}