{"@context":"https://raw.githubusercontent.com/LinkedPasts/linked-places-format/main/linkedplaces-context-v1.1.jsonld","type":"FeatureCollection","license":"Digitisation of English Placenames MADS data is licensed to Jisc by the English Place Names Society and released under a Creative Commons Attribution-NonCommercial 4.0 International License.","note":"LPF v1.3, lossy; derived from the PLATO record; plato_commit=ca0afadabec1e23a145c0b03df77e8f151f79832","features":[{"@id":"http://placenames.org.uk/id/placename/17/005204","type":"Feature","properties":{"title":"Wollaton","ccodes":["GB"],"fclasses":["A","P"]},"names":[{"toponym":"Wollaton","lang":"en","citations":[{"label":"English Place-Name Society survey, volume 17: Nottinghamshire"}]},{"toponym":"Olavestone, Ollauestone","citations":[{"label":"1086 DB","year":1086}],"when":{"timespans":[{"start":{"in":"1086"},"end":{"in":"1086"}}]}},{"toponym":"Wllonestune","citations":[{"label":"c. 1156 GenNS","year":1146}],"when":{"timespans":[{"start":{"earliest":"1146","latest":"1166"},"end":{"earliest":"1146","latest":"1166"}}]}},{"toponym":"Wllavetun'","citations":[{"label":"1235 Fees","year":1235}],"when":{"timespans":[{"start":{"in":"1235"},"end":{"in":"1235"}}]}},{"toponym":"Wllaveton","citations":[{"label":"1235 Fees","year":1235}],"when":{"timespans":[{"start":{"in":"1235"},"end":{"in":"1235"}},{"start":{"in":"1242"},"end":{"in":"1242"}}]}},{"toponym":"Wullaueton","citations":[{"label":"1236 Ebor","year":1236}],"when":{"timespans":[{"start":{"in":"1236"},"end":{"in":"1236"}}]}},{"toponym":"Wollauton'","citations":[{"label":"1267 Ebor","year":1267}],"when":{"timespans":[{"start":{"in":"1267"},"end":{"in":"1267"}}]}},{"toponym":"Wollavton, Wolhafton, Wlafton","citations":[{"label":"1280 Ass","year":1280}],"when":{"timespans":[{"start":{"in":"1280"},"end":{"in":"1280"}}]}},{"toponym":"Wllafton","citations":[{"label":"1335 Ass","year":1335}],"when":{"timespans":[{"start":{"in":"1335"},"end":{"in":"1335"}}]}},{"toponym":"Wollaghton","citations":[{"label":"1488 Wills","year":1488}],"when":{"timespans":[{"start":{"in":"1488"},"end":{"in":"1488"}}]}},{"toponym":"Wllofton'","citations":[{"label":"1275 RH","year":1275}],"when":{"timespans":[{"start":{"in":"1275"},"end":{"in":"1275"}}]}},{"toponym":"Wolofton","citations":[{"label":"1297 BorRec","year":1297}],"when":{"timespans":[{"start":{"in":"1297"},"end":{"in":"1297"}}]}},{"toponym":"Wollofton","citations":[{"label":"1335 Ass","year":1335}],"when":{"timespans":[{"start":{"in":"1335"},"end":{"in":"1335"}}]}},{"toponym":"Wolatone","citations":[{"label":"1276 Ass","year":1276},{"label":"1284 Ch","year":1284}],"when":{"timespans":[{"start":{"in":"1276"},"end":{"in":"1276"}},{"start":{"in":"1284"},"end":{"in":"1284"}}]}},{"toponym":"Wllaton","citations":[{"label":"1283 Ipm","year":1283}],"when":{"timespans":[{"start":{"in":"1283"},"end":{"in":"1283"}}]}},{"toponym":"Woleton","citations":[{"label":"1302 FA","year":1302}],"when":{"timespans":[{"start":{"in":"1302"},"end":{"in":"1302"}}]}},{"toponym":"Wollaton","citations":[{"label":"1313 Ipm","year":1313}],"when":{"timespans":[{"start":{"in":"1313"},"end":{"in":"1313"}}]}},{"toponym":"Wullaton","citations":[{"label":"1330 For","year":1330}],"when":{"timespans":[{"start":{"in":"1330"},"end":{"in":"1330"}}]}},{"toponym":"Wallaton","citations":[{"label":"1614 FF","year":1614}],"when":{"timespans":[{"start":{"in":"1614"},"end":{"in":"1614"}}]}}],"types":[{"identifier":"http://vocab.getty.edu/aat/300232418","label":"administrative division","sourceLabels":[{"label":"township","lang":"en"}]}],"geometry":{"type":"GeometryCollection","geometries":[{"type":"Point","coordinates":[-1.218527000902438,52.94999641190005],"citations":[{"label":"Unlock (EDINA) gazetteer, gazetteer record unlock:11324942"}]},{"type":"Point","coordinates":[-1.22005,52.9503],"citations":[{"label":"Key to English Place-Names (KEPN), gazetteer record 6"}]}]},"when":{"timespans":[{"start":{"in":"1086"},"end":{"in":"1614"}}]},"relations":[{"relationType":"gvp:broaderPartitive","relationTo":"http://placenames.org.uk/id/placename/17/005203","label":"within Wollaton"}]}]}