{"@context":"https://raw.githubusercontent.com/LinkedPasts/linked-places-format/main/linkedplaces-context-v1.1.jsonld","type":"FeatureCollection","license":"Digitisation of English Placenames MADS data is licensed to Jisc by the English Place Names Society and released under a Creative Commons Attribution-NonCommercial 4.0 International License.","note":"LPF v1.3, lossy; derived from the PLATO record; plato_commit=fa0d247ccc0263f8f19c8d7cdcd163df96935d1e","features":[{"@id":"https://w3id.org/whg-epns/17/005334","type":"Feature","properties":{"title":"Calverton","ccodes":["GB"],"fclasses":["A","P"]},"names":[{"toponym":"Calverton","lang":"en","citations":[{"label":"English Place-Name Society survey, volume 17: Nottinghamshire"}]},{"toponym":"Calvretone","citations":[{"label":"1086 DB","year":1086}],"when":{"timespans":[{"start":{"in":"1086"},"end":{"in":"1086"}}]}},{"toponym":"Calverton(a)","citations":[{"label":"c. 1190 Dane","year":1180},{"label":"1232 Ch","year":1232},{"label":"1284 FA","year":1284},{"label":"1312 FF","year":1312},{"label":"1332 SR","year":1332}],"when":{"timespans":[{"start":{"earliest":"1180","latest":"1200"},"end":{"earliest":"1180","latest":"1200"}},{"start":{"in":"1232"},"end":{"in":"1232"}},{"start":{"in":"1284"},"end":{"in":"1284"}},{"start":{"in":"1312"},"end":{"in":"1312"}},{"start":{"in":"1332"},"end":{"in":"1332"}}]}},{"toponym":"Kalverton(a)","citations":[{"label":"1242 Fees","year":1242}],"when":{"timespans":[{"start":{"in":"1242"},"end":{"in":"1242"}}]}},{"toponym":"Kalvirton","citations":[{"label":"1275 RH","year":1275}],"when":{"timespans":[{"start":{"in":"1275"},"end":{"in":"1275"}}]}},{"toponym":"Calverton al. Caverton","citations":[{"label":"1583 FF","year":1583}],"when":{"timespans":[{"start":{"in":"1583"},"end":{"in":"1583"}}]}},{"toponym":"Coverton","citations":[{"label":"1663 ParReg (Barton)","year":1663}],"when":{"timespans":[{"start":{"in":"1663"},"end":{"in":"1663"}}]}},{"toponym":"Carleton al. Calverton","citations":[{"label":"1650 ParlSurv","year":1650}],"when":{"timespans":[{"start":{"in":"1650"},"end":{"in":"1650"}}]}}],"types":[{"identifier":"http://vocab.getty.edu/aat/300232418","label":"administrative division","sourceLabels":[{"label":"township","lang":"en"}]}],"geometry":{"type":"GeometryCollection","geometries":[{"type":"Point","coordinates":[-1.08263,53.03728],"citations":[{"label":"GeoNames, gazetteer record geonames:2653960"}]},{"type":"Point","coordinates":[-1.082674508700874,53.03893096188388],"citations":[{"label":"Unlock (EDINA) gazetteer, gazetteer record unlock:11096884"}]},{"type":"Point","coordinates":[-1.08422,53.0392],"citations":[{"label":"Key to English Place-Names (KEPN), gazetteer record 2419"}]}]},"when":{"timespans":[{"start":{"in":"1086"},"end":{"in":"1663"}}]},"links":[{"type":"closeMatch","identifier":"https://sws.geonames.org/2653960/"}],"relations":[{"relationType":"gvp:broaderPartitive","relationTo":"https://w3id.org/whg-epns/17/005333","label":"within Calverton"}]}]}