{"@context":"https://raw.githubusercontent.com/LinkedPasts/linked-places-format/main/linkedplaces-context-v1.1.jsonld","type":"FeatureCollection","license":"Digitisation of English Placenames MADS data is licensed to Jisc by the English Place Names Society and released under a Creative Commons Attribution-NonCommercial 4.0 International License.","note":"LPF v1.3, lossy; derived from the PLATO record; plato_commit=fa0d247ccc0263f8f19c8d7cdcd163df96935d1e","features":[{"@id":"https://w3id.org/whg-epns/17/006246","type":"Feature","properties":{"title":"Caunton","ccodes":["GB"],"fclasses":["A","P"]},"names":[{"toponym":"Caunton","lang":"en","citations":[{"label":"English Place-Name Society survey, volume 17: Nottinghamshire"}]}],"types":[{"identifier":"http://vocab.getty.edu/aat/300232418","label":"administrative division","sourceLabels":[{"label":"parish","lang":"en"}]}],"geometry":{"type":"GeometryCollection","geometries":[{"type":"Point","coordinates":[-0.88676,53.13309],"citations":[{"label":"GeoNames, gazetteer record geonames:2653484"}]},{"type":"Point","coordinates":[-0.886254930142439,53.13615024645294],"citations":[{"label":"Unlock (EDINA) gazetteer, gazetteer record unlock:11101897"}]},{"type":"Point","coordinates":[-0.887827,53.1365],"citations":[{"label":"Key to English Place-Names (KEPN), gazetteer record 2450"}]}]},"links":[{"type":"closeMatch","identifier":"https://sws.geonames.org/2653484/"}],"relations":[{"relationType":"gvp:broaderPartitive","relationTo":"https://w3id.org/whg-epns/17/006173","label":"within North Division"}]}]}