{"@context":"https://raw.githubusercontent.com/LinkedPasts/linked-places-format/main/linkedplaces-context-v1.1.jsonld","type":"FeatureCollection","license":"Digitisation of English Placenames MADS data is licensed to Jisc by the English Place Names Society and released under a Creative Commons Attribution-NonCommercial 4.0 International License.","note":"LPF v1.3, lossy; derived from the PLATO record; plato_commit=fa0d247ccc0263f8f19c8d7cdcd163df96935d1e","features":[{"@id":"https://w3id.org/whg-epns/17/006314","type":"Feature","properties":{"title":"Cromwell","ccodes":["GB"],"fclasses":["A","P"]},"names":[{"toponym":"Cromwell","lang":"en","citations":[{"label":"English Place-Name Society survey, volume 17: Nottinghamshire"}]},{"toponym":"Crunwelle","citations":[{"label":"1086 DB","year":1086}],"when":{"timespans":[{"start":{"in":"1086"},"end":{"in":"1086"}}]}},{"toponym":"Crunwella","citations":[{"label":"1178 P","year":1178}],"when":{"timespans":[{"start":{"in":"1178"},"end":{"in":"1178"}}]}},{"toponym":"Cronwell(a)","citations":[{"label":"1176 P","year":1176}],"when":{"timespans":[{"start":{"in":"1176"},"end":{"in":"1176"}},{"start":{"in":"1177"},"end":{"in":"1177"}}]}},{"toponym":"Crombwell","citations":[{"label":"t. Hy 2 RegAntiq","year":1154}],"when":{"timespans":[{"start":{"earliest":"1154","latest":"1189"},"end":{"earliest":"1154","latest":"1189"}}]}},{"toponym":"Crumwelle","citations":[{"label":"1166 RBE","year":1166}],"when":{"timespans":[{"start":{"in":"1166"},"end":{"in":"1166"}}]}},{"toponym":"Crumwell(a)","citations":[{"label":"P","year":1180},{"label":"Ogilby"},{"label":"1180 P","year":1180},{"label":"1675 Ogilby","year":1675}],"when":{"timespans":[{"start":{"in":"1180"},"end":{"in":"1675"}},{"start":{"in":"1180"},"end":{"in":"1180"}},{"start":{"in":"1182"},"end":{"in":"1182"}},{"start":{"in":"1675"},"end":{"in":"1675"}}]}},{"toponym":"Cromewell(e)","citations":[{"label":"1211 RBE","year":1211},{"label":"1428 FA","year":1428}],"when":{"timespans":[{"start":{"in":"1211"},"end":{"in":"1211"}},{"start":{"in":"1428"},"end":{"in":"1428"}}]}},{"toponym":"Crumbwell(e)","citations":[{"label":"1216 FineR","year":1216},{"label":"1223 Pat","year":1223},{"label":"c. 1225 Fees","year":1215},{"label":"1230 P","year":1230},{"label":"1242 Fees","year":1242},{"label":"1252 FF","year":1252},{"label":"1276 RH","year":1276},{"label":"1346 FA","year":1346}],"when":{"timespans":[{"start":{"in":"1216"},"end":{"in":"1216"}},{"start":{"in":"1223"},"end":{"in":"1223"}},{"start":{"earliest":"1215","latest":"1235"},"end":{"earliest":"1215","latest":"1235"}},{"start":{"in":"1230"},"end":{"in":"1230"}},{"start":{"in":"1242"},"end":{"in":"1242"}},{"start":{"in":"1252"},"end":{"in":"1252"}},{"start":{"in":"1276"},"end":{"in":"1276"}},{"start":{"in":"1346"},"end":{"in":"1346"}}]}},{"toponym":"Crumbewell(e)","citations":[{"label":"1233-57 Ch","year":1233},{"label":"1333 SR","year":1333},{"label":"1347 Cl","year":1347}],"when":{"timespans":[{"start":{"earliest":"1233","latest":"1257"},"end":{"earliest":"1233","latest":"1257"}},{"start":{"in":"1333"},"end":{"in":"1333"}},{"start":{"in":"1347"},"end":{"in":"1347"}}]}},{"toponym":"Crombewell","citations":[{"label":"1316 FA","year":1316}],"when":{"timespans":[{"start":{"in":"1316"},"end":{"in":"1316"}}]}},{"toponym":"Croumbewell","citations":[{"label":"1323 Ass","year":1323}],"when":{"timespans":[{"start":{"in":"1323"},"end":{"in":"1323"}}]}},{"toponym":"Cromwell","citations":[{"label":"1280 Ass","year":1280}],"when":{"timespans":[{"start":{"in":"1280"},"end":{"in":"1280"}}]}}],"types":[{"identifier":"http://vocab.getty.edu/aat/300232418","label":"administrative division","sourceLabels":[{"label":"township","lang":"en"}]}],"geometry":{"type":"GeometryCollection","geometries":[{"type":"Point","coordinates":[-0.80764,53.14631],"citations":[{"label":"GeoNames, gazetteer record geonames:2651922"}]},{"type":"Point","coordinates":[-0.8112758423631792,53.14441585139467],"citations":[{"label":"Unlock (EDINA) gazetteer, gazetteer record unlock:11122483"}]},{"type":"Point","coordinates":[-0.812857,53.1447],"citations":[{"label":"Key to English Place-Names (KEPN), gazetteer record 2451"}]}]},"when":{"timespans":[{"start":{"in":"1086"},"end":{"in":"1675"}}]},"links":[{"type":"closeMatch","identifier":"https://sws.geonames.org/2651922/"}],"relations":[{"relationType":"gvp:broaderPartitive","relationTo":"https://w3id.org/whg-epns/17/006313","label":"within Cromwell"}]}]}