{"@context":"https://raw.githubusercontent.com/LinkedPasts/linked-places-format/main/linkedplaces-context-v1.1.jsonld","type":"FeatureCollection","license":"Digitisation of English Placenames MADS data is licensed to Jisc by the English Place Names Society and released under a Creative Commons Attribution-NonCommercial 4.0 International License.","note":"LPF v1.3, lossy; derived from the PLATO record; plato_commit=ca0afadabec1e23a145c0b03df77e8f151f79832","features":[{"@id":"http://placenames.org.uk/id/placename/17/006396","type":"Feature","properties":{"title":"Holme","ccodes":["GB"],"fclasses":["A","P"]},"names":[{"toponym":"Holme","lang":"en","citations":[{"label":"English Place-Name Society survey, volume 17: Nottinghamshire"}]}],"types":[{"identifier":"http://vocab.getty.edu/aat/300232418","label":"administrative division","sourceLabels":[{"label":"parish","lang":"en"}]}],"geometry":{"type":"GeometryCollection","geometries":[{"type":"Point","coordinates":[-0.7922,53.11965],"citations":[{"label":"GeoNames, gazetteer record geonames:7290922"}]},{"type":"Point","coordinates":[-0.7968292972218164,53.12628962172715],"citations":[{"label":"Unlock (EDINA) gazetteer, gazetteer record unlock:11177546"}]},{"type":"Point","coordinates":[-0.798412,53.1266],"citations":[{"label":"Key to English Place-Names (KEPN), gazetteer record 2455"}]}]},"links":[{"type":"closeMatch","identifier":"https://sws.geonames.org/7290922/"}],"relations":[{"relationType":"gvp:broaderPartitive","relationTo":"http://placenames.org.uk/id/placename/17/006173","label":"within North Division"}]}]}