{"@context":"https://raw.githubusercontent.com/LinkedPasts/linked-places-format/main/linkedplaces-context-v1.1.jsonld","type":"FeatureCollection","license":"Digitisation of English Placenames MADS data is licensed to Jisc by the English Place Names Society and released under a Creative Commons Attribution-NonCommercial 4.0 International License.","note":"LPF v1.3, lossy; derived from the PLATO record; plato_commit=ca0afadabec1e23a145c0b03df77e8f151f79832","features":[{"@id":"https://w3id.org/whg-epns/17/006594","type":"Feature","properties":{"title":"Norwell","ccodes":["GB"],"fclasses":["A","P"]},"names":[{"toponym":"Norwell","lang":"en","citations":[{"label":"English Place-Name Society survey, volume 17: Nottinghamshire"}]},{"toponym":"Nortwelle","citations":[{"label":"1086 DB","year":1086},{"label":"1256 Ch","year":1256},{"label":"1275 RH","year":1275}],"when":{"timespans":[{"start":{"in":"1086"},"end":{"in":"1086"}},{"start":{"in":"1256"},"end":{"in":"1256"}},{"start":{"in":"1275"},"end":{"in":"1275"}}]}},{"toponym":"Norwell","citations":[{"label":"1166 P","year":1166}],"when":{"timespans":[{"start":{"in":"1166"},"end":{"in":"1166"}}]}},{"toponym":"North(e)well(e)","citations":[{"label":"1259 Pap","year":1259},{"label":"1280 Ebor","year":1280},{"label":"1309 FF","year":1309},{"label":"1316 FA","year":1316}],"when":{"timespans":[{"start":{"in":"1259"},"end":{"in":"1259"}},{"start":{"in":"1280"},"end":{"in":"1280"}},{"start":{"in":"1309"},"end":{"in":"1309"}},{"start":{"in":"1316"},"end":{"in":"1316"}}]}},{"toponym":"Nowell al. Norwell","citations":[{"label":"1675 Ogilby","year":1675}],"when":{"timespans":[{"start":{"in":"1675"},"end":{"in":"1675"}}]}}],"types":[{"identifier":"http://vocab.getty.edu/aat/300232418","label":"administrative division","sourceLabels":[{"label":"township","lang":"en"}]}],"geometry":{"type":"GeometryCollection","geometries":[{"type":"Point","coordinates":[-0.84589,53.14795],"citations":[{"label":"GeoNames, gazetteer record geonames:2641182"}]},{"type":"Point","coordinates":[-0.8411740745564621,53.14471056070779],"citations":[{"label":"Unlock (EDINA) gazetteer, gazetteer record unlock:11233836"}]},{"type":"Point","coordinates":[-0.842752,53.145],"citations":[{"label":"Key to English Place-Names (KEPN), gazetteer record 2463"}]}]},"when":{"timespans":[{"start":{"in":"1086"},"end":{"in":"1675"}}]},"links":[{"type":"closeMatch","identifier":"https://sws.geonames.org/2641182/"}],"relations":[{"relationType":"gvp:broaderPartitive","relationTo":"https://w3id.org/whg-epns/17/006593","label":"within Norwell"}]}]}