{"@context":"https://raw.githubusercontent.com/LinkedPasts/linked-places-format/main/linkedplaces-context-v1.1.jsonld","type":"FeatureCollection","license":"Digitisation of English Placenames MADS data is licensed to Jisc by the English Place Names Society and released under a Creative Commons Attribution-NonCommercial 4.0 International License.","note":"LPF v1.3, lossy; derived from the PLATO record; plato_commit=ca0afadabec1e23a145c0b03df77e8f151f79832","features":[{"@id":"https://w3id.org/whg-epns/17/006741","type":"Feature","properties":{"title":"Newark Wapentake","ccodes":["GB"],"fclasses":["A"]},"names":[{"toponym":"Newark Wapentake","lang":"en","citations":[{"label":"English Place-Name Society survey, volume 17: Nottinghamshire"}]},{"toponym":"Newerca, Neuuercā, Newerce Wapentac","citations":[{"label":"1086 DB","year":1086}],"when":{"timespans":[{"start":{"in":"1086"},"end":{"in":"1086"}}]}},{"toponym":"Niwewerch' wap'","citations":[{"label":"1177 P","year":1177}],"when":{"timespans":[{"start":{"in":"1177"},"end":{"in":"1177"}}]}},{"toponym":"Niwewercwapentagio","citations":[{"label":"1183 P","year":1183}],"when":{"timespans":[{"start":{"in":"1183"},"end":{"in":"1183"}}]}},{"toponym":"Wap. de Newerk","citations":[{"label":"1242 Fees","year":1242}],"when":{"timespans":[{"start":{"in":"1242"},"end":{"in":"1242"}}]}}],"types":[{"identifier":"http://vocab.getty.edu/aat/300232418","label":"administrative division","sourceLabels":[{"label":"hundred / wapentake","lang":"en"}]}],"geometry":null,"when":{"timespans":[{"start":{"in":"1086"},"end":{"in":"1242"}}]},"relations":[{"relationType":"gvp:broaderPartitive","relationTo":"https://w3id.org/whg-epns/17/000001","label":"within Nottinghamshire"}]}]}