{"@context":"https://raw.githubusercontent.com/LinkedPasts/linked-places-format/main/linkedplaces-context-v1.1.jsonld","type":"FeatureCollection","license":"Digitisation of English Placenames MADS data is licensed to Jisc by the English Place Names Society and released under a Creative Commons Attribution-NonCommercial 4.0 International License.","note":"LPF v1.3, lossy; derived from the PLATO record; plato_commit=ca0afadabec1e23a145c0b03df77e8f151f79832","features":[{"@id":"https://w3id.org/whg-epns/17/007069","type":"Feature","properties":{"title":"Winthorpe","ccodes":["GB"],"fclasses":["A","P"]},"names":[{"toponym":"Winthorpe","lang":"en","citations":[{"label":"English Place-Name Society survey, volume 17: Nottinghamshire"}]},{"toponym":"Wimuntorp","citations":[{"label":"1086 DB","year":1086}],"when":{"timespans":[{"start":{"in":"1086"},"end":{"in":"1086"}}]}},{"toponym":"Wimethorp","citations":[{"label":"12th BM","year":1100}],"when":{"timespans":[{"start":{"earliest":"1100","latest":"1200"},"end":{"earliest":"1100","latest":"1200"}}]}},{"toponym":"Winetorp","citations":[{"label":"c. 1155 BM","year":1145},{"label":"1228 Ebor","year":1228}],"when":{"timespans":[{"start":{"earliest":"1145","latest":"1165"},"end":{"earliest":"1145","latest":"1165"}},{"start":{"in":"1228"},"end":{"in":"1228"}}]}},{"toponym":"Wynethorp","citations":[{"label":"1287 Ass","year":1287}],"when":{"timespans":[{"start":{"in":"1287"},"end":{"in":"1287"}}]}},{"toponym":"Wintorp","citations":[{"label":"1175-81 BM","year":1175}],"when":{"timespans":[{"start":{"earliest":"1175","latest":"1181"},"end":{"earliest":"1175","latest":"1181"}}]}},{"toponym":"Wynthorp'","citations":[{"label":"1280 Ass","year":1280},{"label":"1298 Pat","year":1298},{"label":"1330 Ass","year":1330},{"label":"1333 SR","year":1333},{"label":"1342 NI","year":1342}],"when":{"timespans":[{"start":{"in":"1280"},"end":{"in":"1280"}},{"start":{"in":"1298"},"end":{"in":"1298"}},{"start":{"in":"1330"},"end":{"in":"1330"}},{"start":{"in":"1333"},"end":{"in":"1333"}},{"start":{"in":"1342"},"end":{"in":"1342"}}]}},{"toponym":"Wintthorp","citations":[{"label":"1316 FA","year":1316}],"when":{"timespans":[{"start":{"in":"1316"},"end":{"in":"1316"}}]}},{"toponym":"Winthropp","citations":[{"label":"1615 Wills","year":1615}],"when":{"timespans":[{"start":{"in":"1615"},"end":{"in":"1615"}}]}},{"toponym":"Wimeltorp' iuxta Neowerch'","citations":[{"label":"1215 RegAntiq","year":1215}],"when":{"timespans":[{"start":{"in":"1215"},"end":{"in":"1215"}}]}},{"toponym":"Wymbilthorp","citations":[{"label":"1286 Ebor","year":1286}],"when":{"timespans":[{"start":{"in":"1286"},"end":{"in":"1286"}}]}},{"toponym":"Wipthorp","citations":[{"label":"c. 1230 RegAntiq","year":1220}],"when":{"timespans":[{"start":{"earliest":"1220","latest":"1240"},"end":{"earliest":"1220","latest":"1240"}}]}},{"toponym":"Wymbelthorp by Newark","citations":[{"label":"1325 Brown","year":1325}],"when":{"timespans":[{"start":{"in":"1325"},"end":{"in":"1325"}}]}},{"toponym":"Wymetorp","citations":[{"label":"1227 Fees","year":1227}],"when":{"timespans":[{"start":{"in":"1227"},"end":{"in":"1227"}}]}},{"toponym":"Wymethorp(e)","citations":[{"label":"1280 Ass","year":1280},{"label":"1283 Ebor","year":1283}],"when":{"timespans":[{"start":{"in":"1280"},"end":{"in":"1280"}},{"start":{"in":"1283"},"end":{"in":"1283"}}]}},{"toponym":"Wymnethorp","citations":[{"label":"1227 Fees","year":1227}],"when":{"timespans":[{"start":{"in":"1227"},"end":{"in":"1227"}}]}},{"toponym":"Wympthorp(e)","citations":[{"label":"1280 Ass","year":1280}],"when":{"timespans":[{"start":{"in":"1280"},"end":{"in":"1280"}},{"start":{"in":"1340"},"end":{"in":"1340"}}]}},{"toponym":"Wymthorp","citations":[{"label":"1280 Ass","year":1280},{"label":"1291 Tax","year":1291},{"label":"1293 Ebor","year":1293}],"when":{"timespans":[{"start":{"in":"1280"},"end":{"in":"1280"}},{"start":{"in":"1298"},"end":{"in":"1298"}},{"start":{"in":"1335"},"end":{"in":"1335"}},{"start":{"in":"1291"},"end":{"in":"1291"}},{"start":{"in":"1293"},"end":{"in":"1293"}},{"start":{"in":"1302"},"end":{"in":"1302"}}]}},{"toponym":"Wemthorp","citations":[{"label":"1343 Ass","year":1343}],"when":{"timespans":[{"start":{"in":"1343"},"end":{"in":"1343"}}]}}],"types":[{"identifier":"http://vocab.getty.edu/aat/300232418","label":"administrative division","sourceLabels":[{"label":"township","lang":"en"}]}],"geometry":{"type":"GeometryCollection","geometries":[{"type":"Point","coordinates":[-0.78333,53.1],"citations":[{"label":"GeoNames, gazetteer record geonames:2633781"}]},{"type":"Point","coordinates":[-0.7826486418435721,53.09917362405265],"citations":[{"label":"Unlock (EDINA) gazetteer, gazetteer record unlock:11324373"}]},{"type":"Point","coordinates":[-0.784231,53.0995],"citations":[{"label":"Key to English Place-Names (KEPN), gazetteer record 2481"}]}]},"when":{"timespans":[{"start":{"in":"1086"},"end":{"in":"1615"}}]},"links":[{"type":"closeMatch","identifier":"https://sws.geonames.org/2633781/"}],"relations":[{"relationType":"gvp:broaderPartitive","relationTo":"https://w3id.org/whg-epns/17/007068","label":"within Winthorpe"}]}]}