{"@context":"https://raw.githubusercontent.com/LinkedPasts/linked-places-format/main/linkedplaces-context-v1.1.jsonld","type":"FeatureCollection","license":"Digitisation of English Placenames MADS data is licensed to Jisc by the English Place Names Society and released under a Creative Commons Attribution-NonCommercial 4.0 International License.","note":"LPF v1.3, lossy; derived from the PLATO record; plato_commit=ca0afadabec1e23a145c0b03df77e8f151f79832","features":[{"@id":"https://w3id.org/whg-epns/17/007093","type":"Feature","properties":{"title":"Alverton","ccodes":["GB"],"fclasses":["A","P"]},"names":[{"toponym":"Alverton","lang":"en","citations":[{"label":"English Place-Name Society survey, volume 17: Nottinghamshire"}]},{"toponym":"Aluriton(e)","citations":[{"label":"1086 DB","year":1086}],"when":{"timespans":[{"start":{"in":"1086"},"end":{"in":"1086"}}]}},{"toponym":"Alurinton","citations":[{"label":"t. Hy 2 HMC Var","year":1154},{"label":"c. 1180 Staunton","year":1170},{"label":"c. 1225 Fees","year":1215}],"when":{"timespans":[{"start":{"earliest":"1154","latest":"1189"},"end":{"earliest":"1154","latest":"1189"}},{"start":{"earliest":"1170","latest":"1190"},"end":{"earliest":"1170","latest":"1190"}},{"start":{"earliest":"1215","latest":"1235"},"end":{"earliest":"1215","latest":"1235"}}]}},{"toponym":"Alvrington(a), Auvrington","citations":[{"label":"c. 1190 EHR","year":1180}],"when":{"timespans":[{"start":{"earliest":"1180","latest":"1200"},"end":{"earliest":"1180","latest":"1200"}}]}},{"toponym":"Alwrigton","citations":[{"label":"c. 1220 HMC Var","year":1210}],"when":{"timespans":[{"start":{"earliest":"1210","latest":"1230"},"end":{"earliest":"1210","latest":"1230"}}]}},{"toponym":"Alvrington","citations":[{"label":"1226 FF","year":1226}],"when":{"timespans":[{"start":{"in":"1226"},"end":{"in":"1226"}}]}},{"toponym":"Aluretun","citations":[{"label":"1086 DB","year":1086}],"when":{"timespans":[{"start":{"in":"1086"},"end":{"in":"1086"}}]}},{"toponym":"Alfreton","citations":[{"label":"1535 VE","year":1535}],"when":{"timespans":[{"start":{"in":"1535"},"end":{"in":"1535"}}]}},{"toponym":"Alverton","citations":[{"label":"1185 P","year":1185},{"label":"1216–1343, recurring HMC Var","year":1216},{"label":"1216–1343, recurring Ipm"},{"label":"1216 HMC Var","year":1216},{"label":"1343 Ipm","year":1343}],"when":{"timespans":[{"start":{"in":"1185"},"end":{"in":"1185"}},{"start":{"in":"1216"},"end":{"in":"1343"}},{"start":{"in":"1216"},"end":{"in":"1216"}},{"start":{"in":"1343"},"end":{"in":"1343"}}]}},{"toponym":"Alfirton","citations":[{"label":"1242 Fees","year":1242}],"when":{"timespans":[{"start":{"in":"1242"},"end":{"in":"1242"}}]}},{"toponym":"Alferton","citations":[{"label":"1287 For","year":1287},{"label":"1375 BorRec","year":1375}],"when":{"timespans":[{"start":{"in":"1287"},"end":{"in":"1287"}},{"start":{"in":"1375"},"end":{"in":"1375"}}]}},{"toponym":"Auferton","citations":[{"label":"1541 Wills","year":1541}],"when":{"timespans":[{"start":{"in":"1541"},"end":{"in":"1541"}}]}},{"toponym":"Overton","citations":[{"label":"1716 ParReg (Hawton)","year":1716}],"when":{"timespans":[{"start":{"in":"1716"},"end":{"in":"1716"}}]}}],"types":[{"identifier":"http://vocab.getty.edu/aat/300232418","label":"administrative division","sourceLabels":[{"label":"township","lang":"en"}]}],"geometry":{"type":"GeometryCollection","geometries":[{"type":"Point","coordinates":[-0.82156,52.96634],"citations":[{"label":"GeoNames, gazetteer record geonames:7290913"}]},{"type":"Point","coordinates":[-0.8159678007743487,52.97364001972351],"citations":[{"label":"Unlock (EDINA) gazetteer, gazetteer record unlock:11061534"}]},{"type":"Point","coordinates":[-0.817541,52.974],"citations":[{"label":"Key to English Place-Names (KEPN), gazetteer record 2482"}]}]},"when":{"timespans":[{"start":{"in":"1086"},"end":{"in":"1716"}}]},"links":[{"type":"closeMatch","identifier":"https://sws.geonames.org/7290913/"}],"relations":[{"relationType":"gvp:broaderPartitive","relationTo":"https://w3id.org/whg-epns/17/007092","label":"within Alverton"}]}]}