{"@context":"https://raw.githubusercontent.com/LinkedPasts/linked-places-format/main/linkedplaces-context-v1.1.jsonld","type":"FeatureCollection","license":"Digitisation of English Placenames MADS data is licensed to Jisc by the English Place Names Society and released under a Creative Commons Attribution-NonCommercial 4.0 International License.","note":"LPF v1.3, lossy; derived from the PLATO record; plato_commit=ca0afadabec1e23a145c0b03df77e8f151f79832","features":[{"@id":"https://w3id.org/whg-epns/17/007107","type":"Feature","properties":{"title":"Balderton","ccodes":["GB"],"fclasses":["A","P"]},"names":[{"toponym":"Balderton","lang":"en","citations":[{"label":"English Place-Name Society survey, volume 17: Nottinghamshire"}]},{"toponym":"Baldretune, Baldretone","citations":[{"label":"1086 DB","year":1086}],"when":{"timespans":[{"start":{"in":"1086"},"end":{"in":"1086"}}]}},{"toponym":"Baldreton","citations":[{"label":"1287 Ass","year":1287},{"label":"1291 Tax","year":1291}],"when":{"timespans":[{"start":{"in":"1287"},"end":{"in":"1287"}},{"start":{"in":"1291"},"end":{"in":"1291"}}]}},{"toponym":"Baldriton","citations":[{"label":"t. Hy 2 RegAntiq","year":1154}],"when":{"timespans":[{"start":{"earliest":"1154","latest":"1189"},"end":{"earliest":"1154","latest":"1189"}}]}},{"toponym":"Baldertun","citations":[{"label":"1154-69 Ch","year":1154}],"when":{"timespans":[{"start":{"earliest":"1154","latest":"1169"},"end":{"earliest":"1154","latest":"1169"}}]}},{"toponym":"Balderton(a)","citations":[{"label":"1175 P","year":1175},{"label":"1176 RegAntiq","year":1176},{"label":"1180–1200, recurring Dane","year":1180},{"label":"c. 1190 Dane","year":1180}],"when":{"timespans":[{"start":{"in":"1175"},"end":{"in":"1175"}},{"start":{"in":"1176"},"end":{"in":"1176"}},{"start":{"in":"1180"},"end":{"in":"1200"}},{"start":{"earliest":"1180","latest":"1200"},"end":{"earliest":"1180","latest":"1200"}}]}},{"toponym":"Baldirton(a)","citations":[{"label":"1277 Ch","year":1277},{"label":"1291 Tax","year":1291},{"label":"1293 Ipm","year":1293},{"label":"1316 FA","year":1316},{"label":"1322 FF","year":1322}],"when":{"timespans":[{"start":{"in":"1277"},"end":{"in":"1277"}},{"start":{"in":"1291"},"end":{"in":"1291"}},{"start":{"in":"1293"},"end":{"in":"1293"}},{"start":{"in":"1316"},"end":{"in":"1316"}},{"start":{"in":"1322"},"end":{"in":"1322"}}]}},{"toponym":"Baudert'","citations":[{"label":"c. 1200 LincolnDandC","year":1190}],"when":{"timespans":[{"start":{"earliest":"1190","latest":"1210"},"end":{"earliest":"1190","latest":"1210"}}]}},{"toponym":"Bauderton'","citations":[{"label":"1201 Cur","year":1201}],"when":{"timespans":[{"start":{"in":"1201"},"end":{"in":"1201"}}]}},{"toponym":"Bauderton vulgo Bodderton","citations":[{"label":"1675 Ogilby","year":1675}],"when":{"timespans":[{"start":{"in":"1675"},"end":{"in":"1675"}}]}}],"types":[{"identifier":"http://vocab.getty.edu/aat/300232418","label":"administrative division","sourceLabels":[{"label":"township","lang":"en"}]}],"geometry":{"type":"GeometryCollection","geometries":[{"type":"Point","coordinates":[-0.77576,53.0575],"citations":[{"label":"GeoNames, gazetteer record geonames:7300886"}]},{"type":"Point","coordinates":[-0.7839157505474594,53.05423324922442],"citations":[{"label":"Unlock (EDINA) gazetteer, gazetteer record unlock:11067639"}]},{"type":"Point","coordinates":[-0.785496,53.0546],"citations":[{"label":"Key to English Place-Names (KEPN), gazetteer record 2483"}]}]},"when":{"timespans":[{"start":{"in":"1086"},"end":{"in":"1675"}}]},"links":[{"type":"closeMatch","identifier":"https://sws.geonames.org/7300886/"}],"relations":[{"relationType":"gvp:broaderPartitive","relationTo":"https://w3id.org/whg-epns/17/007106","label":"within Balderton"}]}]}