{"@context":"https://raw.githubusercontent.com/LinkedPasts/linked-places-format/main/linkedplaces-context-v1.1.jsonld","type":"FeatureCollection","license":"Digitisation of English Placenames MADS data is licensed to Jisc by the English Place Names Society and released under a Creative Commons Attribution-NonCommercial 4.0 International License.","note":"LPF v1.3, lossy; derived from the PLATO record; plato_commit=fa0d247ccc0263f8f19c8d7cdcd163df96935d1e","features":[{"@id":"https://w3id.org/whg-epns/17/007406","type":"Feature","properties":{"title":"Thorpe","ccodes":["GB"],"fclasses":["A","P"]},"names":[{"toponym":"Thorpe","lang":"en","citations":[{"label":"English Place-Name Society survey, volume 17: Nottinghamshire"}]}],"types":[{"identifier":"http://vocab.getty.edu/aat/300232418","label":"administrative division","sourceLabels":[{"label":"parish","lang":"en"}]}],"geometry":{"type":"GeometryCollection","geometries":[{"type":"Point","coordinates":[-0.85365,53.03849],"citations":[{"label":"GeoNames, gazetteer record geonames:7290928"}]},{"type":"Point","coordinates":[-0.860551,53.0373],"citations":[{"label":"Key to English Place-Names (KEPN), gazetteer record 2496"}]}]},"links":[{"type":"closeMatch","identifier":"https://sws.geonames.org/7290928/"}],"relations":[{"relationType":"gvp:broaderPartitive","relationTo":"https://w3id.org/whg-epns/17/007091","label":"within South Division"}]}]}