{"@context":"https://raw.githubusercontent.com/LinkedPasts/linked-places-format/main/linkedplaces-context-v1.1.jsonld","type":"FeatureCollection","license":"Digitisation of English Placenames MADS data is licensed to Jisc by the English Place Names Society and released under a Creative Commons Attribution-NonCommercial 4.0 International License.","note":"LPF v1.3, lossy; derived from the PLATO record; plato_commit=ca0afadabec1e23a145c0b03df77e8f151f79832","features":[{"@id":"https://w3id.org/whg-epns/17/007473","type":"Feature","properties":{"title":"East Bridgford","ccodes":["GB"],"fclasses":["A","P"]},"names":[{"toponym":"East Bridgford","lang":"en","citations":[{"label":"English Place-Name Society survey, volume 17: Nottinghamshire"}]},{"toponym":"Brugeford(e)","citations":[{"label":"1086 DB","year":1086},{"label":"1088 Blyth","year":1088},{"label":"t. Hy 1 Ch","year":1100}],"when":{"timespans":[{"start":{"in":"1086"},"end":{"in":"1086"}},{"start":{"in":"1088"},"end":{"in":"1088"}},{"start":{"earliest":"1100","latest":"1135"},"end":{"earliest":"1100","latest":"1135"}}]}},{"toponym":"Estbrugeford","citations":[{"label":"1240 FF","year":1240}],"when":{"timespans":[{"start":{"in":"1240"},"end":{"in":"1240"}}]}},{"toponym":"Estbruggeford","citations":[{"label":"1302 FF","year":1302},{"label":"1327 Ass","year":1327}],"when":{"timespans":[{"start":{"in":"1302"},"end":{"in":"1302"}},{"start":{"in":"1327"},"end":{"in":"1327"}}]}},{"toponym":"Brigeford","citations":[{"label":"1149-53 DuLa","year":1149},{"label":"1192 France","year":1192},{"label":"1235 Fees","year":1235}],"when":{"timespans":[{"start":{"earliest":"1149","latest":"1153"},"end":{"earliest":"1149","latest":"1153"}},{"start":{"in":"1192"},"end":{"in":"1192"}},{"start":{"in":"1235"},"end":{"in":"1235"}}]}},{"toponym":"Brigiford","citations":[{"label":"1203 BM","year":1203}],"when":{"timespans":[{"start":{"in":"1203"},"end":{"in":"1203"}}]}},{"toponym":"Estbrigeford","citations":[{"label":"1291 Tax","year":1291},{"label":"1335 Ass","year":1335}],"when":{"timespans":[{"start":{"in":"1291"},"end":{"in":"1291"}},{"start":{"in":"1335"},"end":{"in":"1335"}}]}},{"toponym":"Briggeford","citations":[{"label":"1284 FA","year":1284}],"when":{"timespans":[{"start":{"in":"1284"},"end":{"in":"1284"}}]}},{"toponym":"Briggeford juxta Neuton","citations":[{"label":"1291 Ass","year":1291},{"label":"1295 Ipm","year":1295}],"when":{"timespans":[{"start":{"in":"1291"},"end":{"in":"1291"}},{"start":{"in":"1295"},"end":{"in":"1295"}}]}},{"toponym":"Est Briggeford","citations":[{"label":"1316 FA","year":1316}],"when":{"timespans":[{"start":{"in":"1316"},"end":{"in":"1316"}}]}},{"toponym":"Eastbridgford al. Estbrughford","citations":[{"label":"1786 Bacon","year":1786}],"when":{"timespans":[{"start":{"in":"1786"},"end":{"in":"1786"}}]}},{"toponym":"Brygeforthe on Hyll","citations":[{"label":"1558 Wills","year":1558}],"when":{"timespans":[{"start":{"in":"1558"},"end":{"in":"1558"}}]}},{"toponym":"Brigeford super montem","citations":[{"label":"1559 FF","year":1559}],"when":{"timespans":[{"start":{"in":"1559"},"end":{"in":"1559"}}]}},{"toponym":"Bridgford of Ye Hill","citations":[{"label":"1692 ParReg (Nottingham)","year":1692}],"when":{"timespans":[{"start":{"in":"1692"},"end":{"in":"1692"}}]}}],"types":[{"identifier":"http://vocab.getty.edu/aat/300232418","label":"administrative division","sourceLabels":[{"label":"township","lang":"en"}]}],"geometry":{"type":"GeometryCollection","geometries":[{"type":"Point","coordinates":[-0.96563,52.97954],"citations":[{"label":"GeoNames, gazetteer record geonames:2650495"}]},{"type":"Point","coordinates":[-0.9646593463843616,52.98401870001972],"citations":[{"label":"Unlock (EDINA) gazetteer, gazetteer record unlock:11135682"}]},{"type":"Point","coordinates":[-0.966216,52.9843],"citations":[{"label":"Key to English Place-Names (KEPN), gazetteer record 2499"}]}]},"when":{"timespans":[{"start":{"in":"1086"},"end":{"in":"1786"}}]},"links":[{"type":"closeMatch","identifier":"https://sws.geonames.org/2650495/"}],"relations":[{"relationType":"gvp:broaderPartitive","relationTo":"https://w3id.org/whg-epns/17/007472","label":"within East Bridgford"}]}]}