{"@context":"https://raw.githubusercontent.com/LinkedPasts/linked-places-format/main/linkedplaces-context-v1.1.jsonld","type":"FeatureCollection","license":"Digitisation of English Placenames MADS data is licensed to Jisc by the English Place Names Society and released under a Creative Commons Attribution-NonCommercial 4.0 International License.","note":"LPF v1.3, lossy; derived from the PLATO record; plato_commit=ca0afadabec1e23a145c0b03df77e8f151f79832","features":[{"@id":"http://placenames.org.uk/id/placename/17/007547","type":"Feature","properties":{"title":"Flintham","ccodes":["GB"],"fclasses":["A","P"]},"names":[{"toponym":"Flintham","lang":"en","citations":[{"label":"English Place-Name Society survey, volume 17: Nottinghamshire"}]},{"toponym":"Flintehā","citations":[{"label":"1086 DB","year":1086}],"when":{"timespans":[{"start":{"in":"1086"},"end":{"in":"1086"}}]}},{"toponym":"Flinteham","citations":[{"label":"1205 PatR","year":1205}],"when":{"timespans":[{"start":{"in":"1205"},"end":{"in":"1205"}}]}},{"toponym":"Flinthā","citations":[{"label":"1086 DB","year":1086}],"when":{"timespans":[{"start":{"in":"1086"},"end":{"in":"1086"}}]}},{"toponym":"Flintham","citations":[{"label":"1184–1184, recurring P","year":1184},{"label":"1184 P","year":1184}],"when":{"timespans":[{"start":{"in":"1184"},"end":{"in":"1184"}},{"start":{"in":"1184"},"end":{"in":"1184"}}]}},{"toponym":"Flyntham","citations":[{"label":"1184-1600 unspecified sources","year":1184}],"when":{"timespans":[{"start":{"in":"1184"},"end":{"in":"1600"}}]}},{"toponym":"Flyngton","citations":[{"label":"1542 LP","year":1542}],"when":{"timespans":[{"start":{"in":"1542"},"end":{"in":"1542"}}]}}],"types":[{"identifier":"http://vocab.getty.edu/aat/300232418","label":"administrative division","sourceLabels":[{"label":"township","lang":"en"}]}],"geometry":{"type":"GeometryCollection","geometries":[{"type":"Point","coordinates":[-0.89815,53.00631],"citations":[{"label":"GeoNames, gazetteer record geonames:2649300"}]},{"type":"Point","coordinates":[-0.8894974748695255,53.01031244996371],"citations":[{"label":"Unlock (EDINA) gazetteer, gazetteer record unlock:11145562"}]},{"type":"Point","coordinates":[-0.891064,53.0106],"citations":[{"label":"Key to English Place-Names (KEPN), gazetteer record 1609"}]}]},"when":{"timespans":[{"start":{"in":"1086"},"end":{"in":"1600"}}]},"links":[{"type":"closeMatch","identifier":"https://sws.geonames.org/2649300/"}],"relations":[{"relationType":"gvp:broaderPartitive","relationTo":"http://placenames.org.uk/id/placename/17/007546","label":"within Flintham"}]}]}