{"@context":"https://raw.githubusercontent.com/LinkedPasts/linked-places-format/main/linkedplaces-context-v1.1.jsonld","type":"FeatureCollection","license":"Digitisation of English Placenames MADS data is licensed to Jisc by the English Place Names Society and released under a Creative Commons Attribution-NonCommercial 4.0 International License.","note":"LPF v1.3, lossy; derived from the PLATO record; plato_commit=fa0d247ccc0263f8f19c8d7cdcd163df96935d1e","features":[{"@id":"https://w3id.org/whg-epns/17/007678","type":"Feature","properties":{"title":"Screveton","ccodes":["GB"],"fclasses":["A","P"]},"names":[{"toponym":"Screveton","lang":"en","citations":[{"label":"English Place-Name Society survey, volume 17: Nottinghamshire"}]}],"types":[{"identifier":"http://vocab.getty.edu/aat/300232418","label":"administrative division","sourceLabels":[{"label":"parish","lang":"en"}]}],"geometry":{"type":"GeometryCollection","geometries":[{"type":"Point","coordinates":[-0.90512,52.98926],"citations":[{"label":"GeoNames, gazetteer record geonames:7290940"}]},{"type":"Point","coordinates":[-0.9050829560105291,52.98348494509969],"citations":[{"label":"Unlock (EDINA) gazetteer, gazetteer record unlock:11279515"}]},{"type":"Point","coordinates":[-0.906646,52.9838],"citations":[{"label":"Key to English Place-Names (KEPN), gazetteer record 7"}]}]},"links":[{"type":"closeMatch","identifier":"https://sws.geonames.org/7290940/"}],"relations":[{"relationType":"gvp:broaderPartitive","relationTo":"https://w3id.org/whg-epns/17/007417","label":"within North Division"}]}]}