{"@context":"https://raw.githubusercontent.com/LinkedPasts/linked-places-format/main/linkedplaces-context-v1.1.jsonld","type":"FeatureCollection","license":"Digitisation of English Placenames MADS data is licensed to Jisc by the English Place Names Society and released under a Creative Commons Attribution-NonCommercial 4.0 International License.","note":"LPF v1.3, lossy; derived from the PLATO record; plato_commit=ca0afadabec1e23a145c0b03df77e8f151f79832","features":[{"@id":"http://placenames.org.uk/id/placename/17/007740","type":"Feature","properties":{"title":"Wiverton Hall","ccodes":["GB"],"fclasses":["A","P"]},"names":[{"toponym":"Wiverton Hall","lang":"en","citations":[{"label":"English Place-Name Society survey, volume 17: Nottinghamshire"}]},{"toponym":"Wivretun(e), Wiuretone","citations":[{"label":"1086 DB","year":1086}],"when":{"timespans":[{"start":{"in":"1086"},"end":{"in":"1086"}}]}},{"toponym":"Wiuerton(a)","citations":[{"label":"c. 1160 Dane","year":1150}],"when":{"timespans":[{"start":{"earliest":"1150","latest":"1170"},"end":{"earliest":"1150","latest":"1170"}}]}},{"toponym":"Wiverton","citations":[{"label":"c. 1180 Wollaton","year":1170},{"label":"1190–1190, recurring P","year":1190},{"label":"1190 P","year":1190}],"when":{"timespans":[{"start":{"earliest":"1170","latest":"1190"},"end":{"earliest":"1170","latest":"1190"}},{"start":{"in":"1190"},"end":{"in":"1190"}},{"start":{"in":"1190"},"end":{"in":"1190"}}]}},{"toponym":"Wyverton, Wyuerton","citations":[{"label":"1190-1600 unspecified sources","year":1190}],"when":{"timespans":[{"start":{"in":"1190"},"end":{"in":"1600"}}]}},{"toponym":"Wivertun","citations":[{"label":"1235 Fees","year":1235}],"when":{"timespans":[{"start":{"in":"1235"},"end":{"in":"1235"}}]}},{"toponym":"Wyvirtona","citations":[{"label":"1293 Fees","year":1293}],"when":{"timespans":[{"start":{"in":"1293"},"end":{"in":"1293"}}]}},{"toponym":"Werton","citations":[{"label":"1387 Dugd","year":1387},{"label":"1537 Wills","year":1537},{"label":"1548 Pat","year":1548}],"when":{"timespans":[{"start":{"in":"1387"},"end":{"in":"1387"}},{"start":{"in":"1537"},"end":{"in":"1537"}},{"start":{"in":"1548"},"end":{"in":"1548"}}]}},{"toponym":"Weverton al. Werton","citations":[{"label":"1541 NtIpm","year":1541}],"when":{"timespans":[{"start":{"in":"1541"},"end":{"in":"1541"}}]}},{"toponym":"Weverton","citations":[{"label":"1543 FF","year":1543}],"when":{"timespans":[{"start":{"in":"1543"},"end":{"in":"1543"}}]}},{"toponym":"Warton Haulle","citations":[{"label":"c. 1540 L","year":1530}],"when":{"timespans":[{"start":{"earliest":"1530","latest":"1550"},"end":{"earliest":"1530","latest":"1550"}}]}},{"toponym":"Wyverton al. Werton","citations":[{"label":"1583 FF","year":1583}],"when":{"timespans":[{"start":{"in":"1583"},"end":{"in":"1583"}}]}},{"toponym":"Wiverton al. Wherton","citations":[{"label":"1722 Recov","year":1722}],"when":{"timespans":[{"start":{"in":"1722"},"end":{"in":"1722"}}]}}],"types":[{"identifier":"http://vocab.getty.edu/aat/300232418","label":"administrative division","sourceLabels":[{"label":"township","lang":"en"}]}],"geometry":{"type":"GeometryCollection","geometries":[{"type":"Point","coordinates":[-0.93732,52.92356],"citations":[{"label":"GeoNames, gazetteer record geonames:7290939"}]},{"type":"Point","coordinates":[-0.9364157700146565,52.92083437548189],"citations":[{"label":"Unlock (EDINA) gazetteer, gazetteer record unlock:11324765"}]},{"type":"Point","coordinates":[-0.937973,52.9212],"citations":[{"label":"Key to English Place-Names (KEPN), gazetteer record 2506"}]}]},"when":{"timespans":[{"start":{"in":"1086"},"end":{"in":"1722"}}]},"links":[{"type":"closeMatch","identifier":"https://sws.geonames.org/7290939/"}],"relations":[{"relationType":"gvp:broaderPartitive","relationTo":"http://placenames.org.uk/id/placename/17/007739","label":"within Wiverton Hall"}]}]}