{"@context":"https://raw.githubusercontent.com/LinkedPasts/linked-places-format/main/linkedplaces-context-v1.1.jsonld","type":"FeatureCollection","license":"Digitisation of English Placenames MADS data is licensed to Jisc by the English Place Names Society and released under a Creative Commons Attribution-NonCommercial 4.0 International License.","note":"LPF v1.3, lossy; derived from the PLATO record; plato_commit=fa0d247ccc0263f8f19c8d7cdcd163df96935d1e","features":[{"@id":"https://w3id.org/whg-epns/17/008245","type":"Feature","properties":{"title":"Bunny","ccodes":["GB"],"fclasses":["A","P"]},"names":[{"toponym":"Bunny","lang":"en","citations":[{"label":"English Place-Name Society survey, volume 17: Nottinghamshire"}]},{"toponym":"Bonei","citations":[{"label":"1086 DB","year":1086}],"when":{"timespans":[{"start":{"in":"1086"},"end":{"in":"1086"}}]}},{"toponym":"Bonei(a)","citations":[{"label":"1108 Dugd","year":1108},{"label":"1175 P","year":1175},{"label":"1205 Pap","year":1205}],"when":{"timespans":[{"start":{"in":"1108"},"end":{"in":"1108"}},{"start":{"in":"1175"},"end":{"in":"1175"}},{"start":{"in":"1205"},"end":{"in":"1205"}}]}},{"toponym":"Bonai","citations":[{"label":"t. Hy 2 Ch","year":1154}],"when":{"timespans":[{"start":{"earliest":"1154","latest":"1189"},"end":{"earliest":"1154","latest":"1189"}}]}},{"toponym":"Boney(e)","citations":[{"label":"c. 1225 Wollaton","year":1215},{"label":"1242 Fees","year":1242},{"label":"1251 Ch","year":1251},{"label":"1270 Ebor","year":1270},{"label":"1284 FA","year":1284}],"when":{"timespans":[{"start":{"earliest":"1215","latest":"1235"},"end":{"earliest":"1215","latest":"1235"}},{"start":{"in":"1242"},"end":{"in":"1242"}},{"start":{"in":"1251"},"end":{"in":"1251"}},{"start":{"in":"1270"},"end":{"in":"1270"}},{"start":{"in":"1284"},"end":{"in":"1284"}},{"start":{"in":"1302"},"end":{"in":"1302"}}]}},{"toponym":"Buneya","citations":[{"label":"1227 Ebor","year":1227}],"when":{"timespans":[{"start":{"in":"1227"},"end":{"in":"1227"}}]}},{"toponym":"Bunneya","citations":[{"label":"1231 Ebor","year":1231}],"when":{"timespans":[{"start":{"in":"1231"},"end":{"in":"1231"}}]}},{"toponym":"Bunney","citations":[{"label":"1576 FF","year":1576}],"when":{"timespans":[{"start":{"in":"1576"},"end":{"in":"1576"}}]}},{"toponym":"Bunney al. Boney","citations":[{"label":"1684 Recov","year":1684}],"when":{"timespans":[{"start":{"in":"1684"},"end":{"in":"1684"}}]}},{"toponym":"Bony al. Bunny","citations":[{"label":"1718 Recov","year":1718}],"when":{"timespans":[{"start":{"in":"1718"},"end":{"in":"1718"}}]}},{"toponym":"Boneyris","citations":[{"label":"1330 Ass","year":1330}],"when":{"timespans":[{"start":{"in":"1330"},"end":{"in":"1330"}}]}},{"toponym":"Bonney al. Bonnyrise","citations":[{"label":"1572 FF","year":1572}],"when":{"timespans":[{"start":{"in":"1572"},"end":{"in":"1572"}}]}},{"toponym":"Bonney Reyce","citations":[{"label":"1582 Moulton","year":1582}],"when":{"timespans":[{"start":{"in":"1582"},"end":{"in":"1582"}}]}}],"types":[{"identifier":"http://vocab.getty.edu/aat/300232418","label":"administrative division","sourceLabels":[{"label":"township","lang":"en"}]}],"geometry":{"type":"GeometryCollection","geometries":[{"type":"Point","coordinates":[-1.13554,52.86094],"citations":[{"label":"GeoNames, gazetteer record geonames:2654324"}]},{"type":"Point","coordinates":[-1.131027070229712,52.85948241669005],"citations":[{"label":"Unlock (EDINA) gazetteer, gazetteer record unlock:11092481"}]},{"type":"Point","coordinates":[-1.13256,52.8598],"citations":[{"label":"Key to English Place-Names (KEPN), gazetteer record 2520"}]}]},"when":{"timespans":[{"start":{"in":"1086"},"end":{"in":"1718"}}]},"links":[{"type":"closeMatch","identifier":"https://sws.geonames.org/2654324/"}],"relations":[{"relationType":"gvp:broaderPartitive","relationTo":"https://w3id.org/whg-epns/17/008244","label":"within Bunny"}]}]}