{"@context":"https://raw.githubusercontent.com/LinkedPasts/linked-places-format/main/linkedplaces-context-v1.1.jsonld","type":"FeatureCollection","license":"Digitisation of English Placenames MADS data is licensed to Jisc by the English Place Names Society and released under a Creative Commons Attribution-NonCommercial 4.0 International License.","note":"LPF v1.3, lossy; derived from the PLATO record; plato_commit=ca0afadabec1e23a145c0b03df77e8f151f79832","features":[{"@id":"https://w3id.org/whg-epns/17/008268","type":"Feature","properties":{"title":"Glapton","ccodes":["GB"],"fclasses":["A","P"]},"names":[{"toponym":"Glapton","lang":"en","citations":[{"label":"English Place-Name Society survey, volume 17: Nottinghamshire"}]},{"toponym":"Glapton","citations":[{"label":"1280 Ass","year":1280},{"label":"1286 Ipm","year":1286},{"label":"1313 FF","year":1313}],"when":{"timespans":[{"start":{"in":"1280"},"end":{"in":"1280"}},{"start":{"in":"1287"},"end":{"in":"1287"}},{"start":{"in":"1294"},"end":{"in":"1294"}},{"start":{"in":"1286"},"end":{"in":"1286"}},{"start":{"in":"1313"},"end":{"in":"1313"}}]}},{"toponym":"Clapton","citations":[{"label":"1330 Ass","year":1330}],"when":{"timespans":[{"start":{"in":"1330"},"end":{"in":"1330"}}]}},{"toponym":"Gnapton","citations":[{"label":"1478 Pat","year":1478}],"when":{"timespans":[{"start":{"in":"1478"},"end":{"in":"1478"}}]}},{"toponym":"Gloppton","citations":[{"label":"1595 Wills","year":1595}],"when":{"timespans":[{"start":{"in":"1595"},"end":{"in":"1595"}}]}},{"toponym":"Glappen","citations":[{"label":"1676 ParReg (Lenton)","year":1676}],"when":{"timespans":[{"start":{"in":"1676"},"end":{"in":"1676"}}]}}],"types":[{"identifier":"http://vocab.getty.edu/aat/300232418","label":"administrative division","sourceLabels":[{"label":"township","lang":"en"}]}],"geometry":{"type":"Point","coordinates":[-1.183119,52.908695],"citations":[{"label":"Key to English Place-Names (KEPN), gazetteer record 205"}]},"when":{"timespans":[{"start":{"in":"1280"},"end":{"in":"1676"}}]},"relations":[{"relationType":"gvp:broaderPartitive","relationTo":"https://w3id.org/whg-epns/17/008262","label":"within Clifton with Glapton"}]}]}