{"@context":"https://raw.githubusercontent.com/LinkedPasts/linked-places-format/main/linkedplaces-context-v1.1.jsonld","type":"FeatureCollection","license":"Digitisation of English Placenames MADS data is licensed to Jisc by the English Place Names Society and released under a Creative Commons Attribution-NonCommercial 4.0 International License.","note":"LPF v1.3, lossy; derived from the PLATO record; plato_commit=fa0d247ccc0263f8f19c8d7cdcd163df96935d1e","features":[{"@id":"https://w3id.org/whg-epns/17/008233","type":"Feature","properties":{"title":"Bradmore","ccodes":["GB"],"fclasses":["A","P"]},"names":[{"toponym":"Bradmore","lang":"en","citations":[{"label":"English Place-Name Society survey, volume 17: Nottinghamshire"}]},{"toponym":"Brademere","citations":[{"label":"1086 DB","year":1086},{"label":"1216 ClR","year":1216},{"label":"1302 FA","year":1302},{"label":"1308 Ipm","year":1308},{"label":"1331 Ch","year":1331}],"when":{"timespans":[{"start":{"in":"1086"},"end":{"in":"1086"}},{"start":{"in":"1216"},"end":{"in":"1216"}},{"start":{"in":"1302"},"end":{"in":"1302"}},{"start":{"in":"1346"},"end":{"in":"1346"}},{"start":{"in":"1308"},"end":{"in":"1308"}},{"start":{"in":"1331"},"end":{"in":"1331"}}]}},{"toponym":"Brademare","citations":[{"label":"1108 Dugd","year":1108},{"label":"1227 Fees","year":1227},{"label":"1237 Cl","year":1237},{"label":"1280 Ass","year":1280},{"label":"1294 Wollaton","year":1294},{"label":"1302 FA","year":1302},{"label":"1316 Ch","year":1316}],"when":{"timespans":[{"start":{"in":"1108"},"end":{"in":"1108"}},{"start":{"in":"1227"},"end":{"in":"1227"}},{"start":{"in":"1237"},"end":{"in":"1237"}},{"start":{"in":"1280"},"end":{"in":"1280"}},{"start":{"in":"1294"},"end":{"in":"1294"}},{"start":{"in":"1302"},"end":{"in":"1302"}},{"start":{"in":"1316"},"end":{"in":"1316"}}]}},{"toponym":"Brademar","citations":[{"label":"1242 Fees","year":1242},{"label":"1308 Ipm","year":1308}],"when":{"timespans":[{"start":{"in":"1242"},"end":{"in":"1242"}},{"start":{"in":"1308"},"end":{"in":"1308"}}]}},{"toponym":"Bredemar","citations":[{"label":"1236 Cl","year":1236}],"when":{"timespans":[{"start":{"in":"1236"},"end":{"in":"1236"}}]}},{"toponym":"Bradmeere","citations":[{"label":"1596 FF","year":1596}],"when":{"timespans":[{"start":{"in":"1596"},"end":{"in":"1596"}}]}},{"toponym":"Bradmore","citations":[{"label":"1612 FF","year":1612}],"when":{"timespans":[{"start":{"in":"1612"},"end":{"in":"1612"}}]}}],"types":[{"identifier":"http://vocab.getty.edu/aat/300232418","label":"administrative division","sourceLabels":[{"label":"township","lang":"en"}]}],"geometry":{"type":"GeometryCollection","geometries":[{"type":"Point","coordinates":[-1.13279,52.87586],"citations":[{"label":"GeoNames, gazetteer record geonames:2654980"}]},{"type":"Point","coordinates":[-1.130667719950881,52.87746118488722],"citations":[{"label":"Unlock (EDINA) gazetteer, gazetteer record unlock:11084951"}]},{"type":"Point","coordinates":[-1.1322,52.8778],"citations":[{"label":"Key to English Place-Names (KEPN), gazetteer record 2519"}]}]},"when":{"timespans":[{"start":{"in":"1086"},"end":{"in":"1612"}}]},"links":[{"type":"closeMatch","identifier":"https://sws.geonames.org/2654980/"}],"relations":[{"relationType":"gvp:broaderPartitive","relationTo":"https://w3id.org/whg-epns/17/008232","label":"within Bradmore"}]}]}