{"@context":"https://raw.githubusercontent.com/LinkedPasts/linked-places-format/main/linkedplaces-context-v1.1.jsonld","type":"FeatureCollection","license":"Digitisation of English Placenames MADS data is licensed to Jisc by the English Place Names Society and released under a Creative Commons Attribution-NonCommercial 4.0 International License.","note":"LPF v1.3, lossy; derived from the PLATO record; plato_commit=ca0afadabec1e23a145c0b03df77e8f151f79832","features":[{"@id":"http://placenames.org.uk/id/placename/17/008335","type":"Feature","properties":{"title":"Ratcliffe on Soar","ccodes":["GB"],"fclasses":["A","P"]},"names":[{"toponym":"Ratcliffe on Soar","lang":"en","citations":[{"label":"English Place-Name Society survey, volume 17: Nottinghamshire"}]},{"toponym":"Radeclive","citations":[{"label":"1086 DB","year":1086},{"label":"1182 P","year":1182}],"when":{"timespans":[{"start":{"in":"1086"},"end":{"in":"1086"}},{"start":{"in":"1182"},"end":{"in":"1182"}}]}},{"toponym":"Radeclive super Soram","citations":[{"label":"t. Ric 1 BM","year":1189}],"when":{"timespans":[{"start":{"earliest":"1189","latest":"1199"},"end":{"earliest":"1189","latest":"1199"}}]}},{"toponym":"Radeclive Sore","citations":[{"label":"1232 FF","year":1232},{"label":"1270 Ass","year":1270},{"label":"1284 FA","year":1284}],"when":{"timespans":[{"start":{"in":"1232"},"end":{"in":"1232"}},{"start":{"in":"1270"},"end":{"in":"1270"}},{"start":{"in":"1284"},"end":{"in":"1284"}}]}},{"toponym":"Radeclive upon Sore","citations":[{"label":"1375 Pat","year":1375}],"when":{"timespans":[{"start":{"in":"1375"},"end":{"in":"1375"}}]}},{"toponym":"Radeclif'","citations":[{"label":"1242 Fees","year":1242},{"label":"1291 Tax","year":1291}],"when":{"timespans":[{"start":{"in":"1242"},"end":{"in":"1242"}},{"start":{"in":"1291"},"end":{"in":"1291"}}]}},{"toponym":"Radcleve","citations":[{"label":"1332 SR","year":1332}],"when":{"timespans":[{"start":{"in":"1332"},"end":{"in":"1332"}}]}},{"toponym":"Radecleve","citations":[{"label":"1375 Pat","year":1375}],"when":{"timespans":[{"start":{"in":"1375"},"end":{"in":"1375"}}]}},{"toponym":"Rotcleif","citations":[{"label":"1675 Ogilby","year":1675}],"when":{"timespans":[{"start":{"in":"1675"},"end":{"in":"1675"}}]}},{"toponym":"Readcliue","citations":[{"label":"c. 1125 William of Malmesbury, Vita Wulfstani","year":1115}],"when":{"timespans":[{"start":{"earliest":"1115","latest":"1135"},"end":{"earliest":"1115","latest":"1135"}}]}},{"toponym":"Redcliva","citations":[{"label":"c. 1240 Miracles of Wulfstan","year":1230}],"when":{"timespans":[{"start":{"earliest":"1230","latest":"1250"},"end":{"earliest":"1230","latest":"1250"}}]}}],"types":[{"identifier":"http://vocab.getty.edu/aat/300232418","label":"administrative division","sourceLabels":[{"label":"township","lang":"en"}]}],"geometry":{"type":"GeometryCollection","geometries":[{"type":"Point","coordinates":[-1.26617,52.85317],"citations":[{"label":"GeoNames, gazetteer record geonames:2639626"}]},{"type":"Point","coordinates":[-1.264702112091783,52.86038540216264],"citations":[{"label":"Unlock (EDINA) gazetteer, gazetteer record unlock:11252791"}]},{"type":"Point","coordinates":[-1.26622,52.8607],"citations":[{"label":"Key to English Place-Names (KEPN), gazetteer record 46"}]}]},"when":{"timespans":[{"start":{"in":"1086"},"end":{"in":"1675"}}]},"links":[{"type":"closeMatch","identifier":"https://sws.geonames.org/2639626/"}],"relations":[{"relationType":"gvp:broaderPartitive","relationTo":"http://placenames.org.uk/id/placename/17/008334","label":"within Ratcliffe on Soar"}]}]}