{"@context":"https://raw.githubusercontent.com/LinkedPasts/linked-places-format/main/linkedplaces-context-v1.1.jsonld","type":"FeatureCollection","license":"Digitisation of English Placenames MADS data is licensed to Jisc by the English Place Names Society and released under a Creative Commons Attribution-NonCommercial 4.0 International License.","note":"LPF v1.3, lossy; derived from the PLATO record; plato_commit=fa0d247ccc0263f8f19c8d7cdcd163df96935d1e","features":[{"@id":"https://w3id.org/whg-epns/17/008479","type":"Feature","properties":{"title":"Kingston on Soar","ccodes":["GB"],"fclasses":["A","P"]},"names":[{"toponym":"Kingston on Soar","lang":"en","citations":[{"label":"English Place-Name Society survey, volume 17: Nottinghamshire"}]},{"toponym":"Cynestan","citations":[{"label":"1082 DST App","year":1082}],"when":{"timespans":[{"start":{"in":"1082"},"end":{"in":"1082"}}]}},{"toponym":"Chinestan","citations":[{"label":"1086 DB","year":1086}],"when":{"timespans":[{"start":{"in":"1086"},"end":{"in":"1086"}}]}},{"toponym":"Kynestan","citations":[{"label":"t. Ric 1 Ch","year":1189}],"when":{"timespans":[{"start":{"earliest":"1189","latest":"1199"},"end":{"earliest":"1189","latest":"1199"}}]}},{"toponym":"Kinestan, Kinistan","citations":[{"label":"1158 DurhamDandC","year":1158}],"when":{"timespans":[{"start":{"in":"1158"},"end":{"in":"1158"}}]}},{"toponym":"Kinestan","citations":[{"label":"t. Ric 1 Hastings","year":1189}],"when":{"timespans":[{"start":{"earliest":"1189","latest":"1199"},"end":{"earliest":"1189","latest":"1199"}}]}},{"toponym":"Kynstan","citations":[{"label":"1242 Fees","year":1242},{"label":"1285 Ipm","year":1285},{"label":"1291 Tax","year":1291}],"when":{"timespans":[{"start":{"in":"1242"},"end":{"in":"1242"}},{"start":{"in":"1285"},"end":{"in":"1285"}},{"start":{"in":"1291"},"end":{"in":"1291"}}]}},{"toponym":"Kynnestan","citations":[{"label":"t. Hy 3 BM","year":1216}],"when":{"timespans":[{"start":{"earliest":"1216","latest":"1272"},"end":{"earliest":"1216","latest":"1272"}}]}},{"toponym":"Kyneston","citations":[{"label":"Fees","year":1198},{"label":"Ass"},{"label":"1198 Fees","year":1198},{"label":"1343 Ass","year":1343}],"when":{"timespans":[{"start":{"in":"1198"},"end":{"in":"1343"}},{"start":{"in":"1198"},"end":{"in":"1198"}},{"start":{"in":"1343"},"end":{"in":"1343"}}]}},{"toponym":"Kineston","citations":[{"label":"1198-1343 unspecified sources","year":1198}],"when":{"timespans":[{"start":{"in":"1198"},"end":{"in":"1343"}}]}},{"toponym":"Keneston'","citations":[{"label":"1232 FF","year":1232}],"when":{"timespans":[{"start":{"in":"1232"},"end":{"in":"1232"}}]}},{"toponym":"Kinestone, Kynustan","citations":[{"label":"t. Hy 3 Hastings","year":1216}],"when":{"timespans":[{"start":{"earliest":"1216","latest":"1272"},"end":{"earliest":"1216","latest":"1272"}}]}},{"toponym":"Kinistone","citations":[{"label":"1256 Misc","year":1256}],"when":{"timespans":[{"start":{"in":"1256"},"end":{"in":"1256"}}]}},{"toponym":"Kynston","citations":[{"label":"1319 Ass","year":1319},{"label":"1359 Ipm","year":1359},{"label":"1428 FA","year":1428}],"when":{"timespans":[{"start":{"in":"1319"},"end":{"in":"1319"}},{"start":{"in":"1359"},"end":{"in":"1359"}},{"start":{"in":"1428"},"end":{"in":"1428"}}]}},{"toponym":"Kenestan","citations":[{"label":"1238 Cl","year":1238}],"when":{"timespans":[{"start":{"in":"1238"},"end":{"in":"1238"}}]}},{"toponym":"Kymston","citations":[{"label":"1309 Ipm","year":1309}],"when":{"timespans":[{"start":{"in":"1309"},"end":{"in":"1309"}}]}},{"toponym":"Kyngeston","citations":[{"label":"1433 MinAcct","year":1433}],"when":{"timespans":[{"start":{"in":"1433"},"end":{"in":"1433"}}]}},{"toponym":"Kingston","citations":[{"label":"1514 FF","year":1514}],"when":{"timespans":[{"start":{"in":"1514"},"end":{"in":"1514"}}]}},{"toponym":"Kingeston al. Kyneston","citations":[{"label":"1601 Recov","year":1601}],"when":{"timespans":[{"start":{"in":"1601"},"end":{"in":"1601"}}]}}],"types":[{"identifier":"http://vocab.getty.edu/aat/300232418","label":"administrative division","sourceLabels":[{"label":"township","lang":"en"}]}],"geometry":{"type":"GeometryCollection","geometries":[{"type":"Point","coordinates":[-1.2557,52.84467],"citations":[{"label":"GeoNames, gazetteer record geonames:2645428"}]},{"type":"Point","coordinates":[-1.250158879890891,52.84231315160497],"citations":[{"label":"Unlock (EDINA) gazetteer, gazetteer record unlock:11187211"}]},{"type":"Point","coordinates":[-1.25168,52.8427],"citations":[{"label":"Key to English Place-Names (KEPN), gazetteer record 2527"}]}]},"when":{"timespans":[{"start":{"in":"1082"},"end":{"in":"1601"}}]},"links":[{"type":"closeMatch","identifier":"https://sws.geonames.org/2645428/"}],"relations":[{"relationType":"gvp:broaderPartitive","relationTo":"https://w3id.org/whg-epns/17/008478","label":"within Kingston on Soar"}]}]}