{"@context":"https://raw.githubusercontent.com/LinkedPasts/linked-places-format/main/linkedplaces-context-v1.1.jsonld","type":"FeatureCollection","license":"Digitisation of English Placenames MADS data is licensed to Jisc by the English Place Names Society and released under a Creative Commons Attribution-NonCommercial 4.0 International License.","note":"LPF v1.3, lossy; derived from the PLATO record; plato_commit=fa0d247ccc0263f8f19c8d7cdcd163df96935d1e","features":[{"@id":"https://w3id.org/whg-epns/13/000405","type":"Feature","properties":{"title":"Seckington","ccodes":["GB"],"fclasses":["A","P"]},"names":[{"toponym":"Seckington","lang":"en","citations":[{"label":"English Place-Name Society survey, volume 13: Warwickshire"}]},{"toponym":"Seccandun","citations":[{"label":"755 ASC","year":755}],"when":{"timespans":[{"start":{"in":"0755"},"end":{"in":"0755"}}]}},{"toponym":"Secandune","citations":[{"label":"755 ASC","year":755}],"when":{"timespans":[{"start":{"in":"0755"},"end":{"in":"0755"}}]}},{"toponym":"Secintone, Sechintone","citations":[{"label":"1086 DB","year":1086}],"when":{"timespans":[{"start":{"in":"1086"},"end":{"in":"1086"}}]}},{"toponym":"Sekyngton","citations":[{"label":"1327 Ch","year":1327}],"when":{"timespans":[{"start":{"in":"1327"},"end":{"in":"1327"}}]}},{"toponym":"Segynton","citations":[{"label":"1535 VE","year":1535}],"when":{"timespans":[{"start":{"in":"1535"},"end":{"in":"1535"}}]}},{"toponym":"Sechendon(e)","citations":[{"label":"1175 P","year":1175},{"label":"1205 Cur","year":1205}],"when":{"timespans":[{"start":{"in":"1175"},"end":{"in":"1175"}},{"start":{"in":"1205"},"end":{"in":"1205"}}]}},{"toponym":"Sechindon","citations":[{"label":"1175 P","year":1175}],"when":{"timespans":[{"start":{"in":"1175"},"end":{"in":"1175"}}]}},{"toponym":"Sekendune","citations":[{"label":"1194 Cur","year":1194}],"when":{"timespans":[{"start":{"in":"1194"},"end":{"in":"1194"}}]}},{"toponym":"Sekendona","citations":[{"label":"1247 SR","year":1247}],"when":{"timespans":[{"start":{"in":"1247"},"end":{"in":"1247"}}]}},{"toponym":"Se(c)kendon","citations":[{"label":"1227 FF","year":1227},{"label":"1232 Cl","year":1232},{"label":"t. Hy 3 CartMisc","year":1216}],"when":{"timespans":[{"start":{"in":"1227"},"end":{"in":"1227"}},{"start":{"in":"1232"},"end":{"in":"1232"}},{"start":{"earliest":"1216","latest":"1272"},"end":{"earliest":"1216","latest":"1272"}}]}},{"toponym":"Se(c)kindon","citations":[{"label":"1235 Fees","year":1235},{"label":"t. Hy 3 Ipm","year":1216},{"label":"1316 FA","year":1316},{"label":"1401 IpmR","year":1401}],"when":{"timespans":[{"start":{"in":"1235"},"end":{"in":"1235"}},{"start":{"in":"1242"},"end":{"in":"1242"}},{"start":{"earliest":"1216","latest":"1272"},"end":{"earliest":"1216","latest":"1272"}},{"start":{"in":"1316"},"end":{"in":"1316"}},{"start":{"in":"1401"},"end":{"in":"1401"}}]}},{"toponym":"Seckingdun","citations":[{"label":"1232 Ass","year":1232},{"label":"c. 1840 TA","year":1830}],"when":{"timespans":[{"start":{"in":"1232"},"end":{"in":"1232"}},{"start":{"earliest":"1830","latest":"1850"},"end":{"earliest":"1830","latest":"1850"}}]}},{"toponym":"Secquenden","citations":[{"label":"1315 Cl","year":1315}],"when":{"timespans":[{"start":{"in":"1315"},"end":{"in":"1315"}}]}},{"toponym":"Sekkyngdon","citations":[{"label":"1323 Pat","year":1323},{"label":"1350 Ipm","year":1350}],"when":{"timespans":[{"start":{"in":"1323"},"end":{"in":"1323"}},{"start":{"in":"1350"},"end":{"in":"1350"}}]}},{"toponym":"Sekindon","citations":[{"label":"1656 Dugdale","year":1656}],"when":{"timespans":[{"start":{"in":"1656"},"end":{"in":"1656"}}]}},{"toponym":"Sechesden","citations":[{"label":"1205 Cur","year":1205}],"when":{"timespans":[{"start":{"in":"1205"},"end":{"in":"1205"}}]}},{"toponym":"Seggendune","citations":[{"label":"1247 Ass","year":1247}],"when":{"timespans":[{"start":{"in":"1247"},"end":{"in":"1247"}}]}},{"toponym":"Secgenden","citations":[{"label":"1314 Ipm","year":1314}],"when":{"timespans":[{"start":{"in":"1314"},"end":{"in":"1314"}}]}}],"types":[{"identifier":"http://vocab.getty.edu/aat/300232418","label":"administrative division","sourceLabels":[{"label":"township","lang":"en"}]}],"geometry":{"type":"GeometryCollection","geometries":[{"type":"Point","coordinates":[-1.61362,52.66164],"citations":[{"label":"GeoNames, gazetteer record geonames:7299613"}]},{"type":"Point","coordinates":[-1.608122600824244,52.66422128584448],"citations":[{"label":"Unlock (EDINA) gazetteer, gazetteer record unlock:11279951"}]},{"type":"Point","coordinates":[-1.60959,52.6646],"citations":[{"label":"Key to English Place-Names (KEPN), gazetteer record 4950"}]}]},"when":{"timespans":[{"start":{"in":"0755"},"end":{"in":"1850"}}]},"links":[{"type":"closeMatch","identifier":"https://sws.geonames.org/7299613/"}],"relations":[{"relationType":"gvp:broaderPartitive","relationTo":"https://w3id.org/whg-epns/13/000404","label":"within Seckington"}]}]}