{"@context":"https://raw.githubusercontent.com/LinkedPasts/linked-places-format/main/linkedplaces-context-v1.1.jsonld","type":"FeatureCollection","license":"Digitisation of English Placenames MADS data is licensed to Jisc by the English Place Names Society and released under a Creative Commons Attribution-NonCommercial 4.0 International License.","note":"LPF v1.3, lossy; derived from the PLATO record; plato_commit=fa0d247ccc0263f8f19c8d7cdcd163df96935d1e","features":[{"@id":"https://w3id.org/whg-epns/13/000752","type":"Feature","properties":{"title":"Birmingham","ccodes":["GB"],"fclasses":["A","P"]},"names":[{"toponym":"Birmingham","lang":"en","citations":[{"label":"English Place-Name Society survey, volume 13: Warwickshire"}]}],"types":[{"identifier":"http://vocab.getty.edu/aat/300232418","label":"administrative division","sourceLabels":[{"label":"parish","lang":"en"}]}],"geometry":{"type":"GeometryCollection","geometries":[{"type":"Point","coordinates":[-1.89983,52.48142],"citations":[{"label":"GeoNames, gazetteer record geonames:2655603"}]},{"type":"Point","coordinates":[-1.86008764334648,52.48496908357935],"citations":[{"label":"Unlock (EDINA) gazetteer, gazetteer record unlock:11077853"}]},{"type":"Point","coordinates":[-1.89097,52.4854],"citations":[{"label":"Key to English Place-Names (KEPN), gazetteer record 4918"}]}]},"links":[{"type":"closeMatch","identifier":"https://sws.geonames.org/2655603/"}],"relations":[{"relationType":"gvp:broaderPartitive","relationTo":"https://w3id.org/whg-epns/13/000557","label":"within Birmingham Division"}]}]}