{"@context":"https://raw.githubusercontent.com/LinkedPasts/linked-places-format/main/linkedplaces-context-v1.1.jsonld","type":"FeatureCollection","license":"Digitisation of English Placenames MADS data is licensed to Jisc by the English Place Names Society and released under a Creative Commons Attribution-NonCommercial 4.0 International License.","note":"LPF v1.3, lossy; derived from the PLATO record; plato_commit=fa0d247ccc0263f8f19c8d7cdcd163df96935d1e","features":[{"@id":"https://w3id.org/whg-epns/13/001075","type":"Feature","properties":{"title":"Coleshill","ccodes":["GB"],"fclasses":["A","P"]},"names":[{"toponym":"Coleshill","lang":"en","citations":[{"label":"English Place-Name Society survey, volume 13: Warwickshire"}]}],"types":[{"identifier":"http://vocab.getty.edu/aat/300232418","label":"administrative division","sourceLabels":[{"label":"parish","lang":"en"}]}],"geometry":{"type":"GeometryCollection","geometries":[{"type":"Point","coordinates":[-1.70722,52.49997],"citations":[{"label":"GeoNames, gazetteer record geonames:2652582"}]},{"type":"Point","coordinates":[-1.712695805920195,52.5026850314613],"citations":[{"label":"Unlock (EDINA) gazetteer, gazetteer record unlock:11113933"}]},{"type":"Point","coordinates":[-1.69941,52.503],"citations":[{"label":"Key to English Place-Names (KEPN), gazetteer record 4922"}]}]},"links":[{"type":"closeMatch","identifier":"https://sws.geonames.org/2652582/"}],"relations":[{"relationType":"gvp:broaderPartitive","relationTo":"https://w3id.org/whg-epns/13/000557","label":"within Birmingham Division"}]}]}