{"@context":"https://raw.githubusercontent.com/LinkedPasts/linked-places-format/main/linkedplaces-context-v1.1.jsonld","type":"FeatureCollection","license":"Digitisation of English Placenames MADS data is licensed to Jisc by the English Place Names Society and released under a Creative Commons Attribution-NonCommercial 4.0 International License.","note":"LPF v1.3, lossy; derived from the PLATO record; plato_commit=ca0afadabec1e23a145c0b03df77e8f151f79832","features":[{"@id":"http://placenames.org.uk/id/placename/13/001273","type":"Feature","properties":{"title":"Sutton Coldfield","ccodes":["GB"],"fclasses":["A","P"]},"names":[{"toponym":"Sutton Coldfield","lang":"en","citations":[{"label":"English Place-Name Society survey, volume 13: Warwickshire"}]},{"toponym":"Sutone","citations":[{"label":"1086 DB","year":1086}],"when":{"timespans":[{"start":{"in":"1086"},"end":{"in":"1086"}}]}},{"toponym":"Sutton(e)","citations":[{"label":"1176–1487, recurring P","year":1176},{"label":"1176–1487, recurring AD"},{"label":"1176 P","year":1176},{"label":"1487 AD","year":1487}],"when":{"timespans":[{"start":{"in":"1176"},"end":{"in":"1487"}},{"start":{"in":"1176"},"end":{"in":"1176"}},{"start":{"in":"1487"},"end":{"in":"1487"}}]}},{"toponym":"Magna","citations":[{"label":"1285 Ass","year":1285}],"when":{"timespans":[{"start":{"in":"1285"},"end":{"in":"1285"}}]}},{"toponym":"Sutton Col(l)efeld, Sutton super Col(l)efeld, Sutton in Col(l)efeld","citations":[{"label":"1269–1549, recurring Ch","year":1269},{"label":"1269–1549, recurring Pat"},{"label":"1269 Ch","year":1269},{"label":"1549 Pat","year":1549}],"when":{"timespans":[{"start":{"in":"1269"},"end":{"in":"1549"}},{"start":{"in":"1269"},"end":{"in":"1269"}},{"start":{"in":"1549"},"end":{"in":"1549"}}]}},{"toponym":"Sutton Colfeld","citations":[{"label":"1289 Pat","year":1289}],"when":{"timespans":[{"start":{"in":"1289"},"end":{"in":"1289"}}]}},{"toponym":"Sutton in le Colfeld","citations":[{"label":"1289 Misc","year":1289}],"when":{"timespans":[{"start":{"in":"1289"},"end":{"in":"1289"}}]}},{"toponym":"Sotton in Colefeld","citations":[{"label":"1298 Ipm","year":1298}],"when":{"timespans":[{"start":{"in":"1298"},"end":{"in":"1298"}}]}},{"toponym":"Sutton in Colvyle","citations":[{"label":"1503 Ipm","year":1503},{"label":"1547 Monast","year":1547}],"when":{"timespans":[{"start":{"in":"1503"},"end":{"in":"1503"}},{"start":{"in":"1547"},"end":{"in":"1547"}}]}},{"toponym":"Sutton Coluell","citations":[{"label":"1504 BM","year":1504}],"when":{"timespans":[{"start":{"in":"1504"},"end":{"in":"1504"}}]}},{"toponym":"Sutton Cofeld","citations":[{"label":"1576 S","year":1576}],"when":{"timespans":[{"start":{"in":"1576"},"end":{"in":"1576"}}]}},{"toponym":"Sutton Colfeilde","citations":[{"label":"1603 FF","year":1603}],"when":{"timespans":[{"start":{"in":"1603"},"end":{"in":"1603"}}]}},{"toponym":"Sutton Coldefilde","citations":[{"label":"1605 FF","year":1605}],"when":{"timespans":[{"start":{"in":"1605"},"end":{"in":"1605"}}]}},{"toponym":"Sutton Colefyld al. Sutton Coldfeild","citations":[{"label":"1649 FF","year":1649}],"when":{"timespans":[{"start":{"in":"1649"},"end":{"in":"1649"}}]}},{"toponym":"Southeton apon Colefeeld","citations":[{"label":"c. 1540 L","year":1530}],"when":{"timespans":[{"start":{"earliest":"1530","latest":"1550"},"end":{"earliest":"1530","latest":"1550"}}]}},{"toponym":"Great Sutton","citations":[{"label":"1655 FF","year":1655}],"when":{"timespans":[{"start":{"in":"1655"},"end":{"in":"1655"}}]}}],"types":[{"identifier":"http://vocab.getty.edu/aat/300232418","label":"administrative division","sourceLabels":[{"label":"township","lang":"en"}]}],"geometry":{"type":"GeometryCollection","geometries":[{"type":"Point","coordinates":[-1.81667,52.56667],"citations":[{"label":"GeoNames, gazetteer record geonames:2636486"}]},{"type":"Point","coordinates":[-1.800852522721824,52.55681190794101],"citations":[{"label":"Unlock (EDINA) gazetteer, gazetteer record unlock:11295836"}]},{"type":"Point","coordinates":[-1.81701,52.5662],"citations":[{"label":"Key to English Place-Names (KEPN), gazetteer record 4955"}]}]},"when":{"timespans":[{"start":{"in":"1086"},"end":{"in":"1655"}}]},"links":[{"type":"closeMatch","identifier":"https://sws.geonames.org/2636486/"}],"relations":[{"relationType":"gvp:broaderPartitive","relationTo":"http://placenames.org.uk/id/placename/13/001272","label":"within Sutton Coldfield"}]}]}