{"@context":"https://raw.githubusercontent.com/LinkedPasts/linked-places-format/main/linkedplaces-context-v1.1.jsonld","type":"FeatureCollection","license":"Digitisation of English Placenames MADS data is licensed to Jisc by the English Place Names Society and released under a Creative Commons Attribution-NonCommercial 4.0 International License.","note":"LPF v1.3, lossy; derived from the PLATO record; plato_commit=fa0d247ccc0263f8f19c8d7cdcd163df96935d1e","features":[{"@id":"https://w3id.org/whg-epns/13/001226","type":"Feature","properties":{"title":"Water Orton","ccodes":["GB"],"fclasses":["A","P"]},"names":[{"toponym":"Water Orton","lang":"en","citations":[{"label":"English Place-Name Society survey, volume 13: Warwickshire"}]},{"toponym":"Overton(e)","citations":[{"label":"1262 Ass","year":1262},{"label":"1291 Ipm","year":1291},{"label":"1306 Ass","year":1306},{"label":"1346 Lichf","year":1346}],"when":{"timespans":[{"start":{"in":"1262"},"end":{"in":"1262"}},{"start":{"in":"1291"},"end":{"in":"1291"}},{"start":{"in":"1306"},"end":{"in":"1306"}},{"start":{"in":"1346"},"end":{"in":"1346"}}]}},{"toponym":"Overton(e) juxta Coleshull","citations":[{"label":"1330 FF","year":1330}],"when":{"timespans":[{"start":{"in":"1330"},"end":{"in":"1330"}}]}},{"toponym":"Oreton","citations":[{"label":"1431 FF","year":1431}],"when":{"timespans":[{"start":{"in":"1431"},"end":{"in":"1431"}}]}},{"toponym":"Water Ouerton","citations":[{"label":"1546 Aston ParReg","year":1546}],"when":{"timespans":[{"start":{"in":"1546"},"end":{"in":"1546"}}]}},{"toponym":"Water Ouerton al. Water Orton","citations":[{"label":"1605 FF","year":1605}],"when":{"timespans":[{"start":{"in":"1605"},"end":{"in":"1605"}},{"start":{"in":"1652"},"end":{"in":"1652"}}]}}],"types":[{"identifier":"http://vocab.getty.edu/aat/300232418","label":"administrative division","sourceLabels":[{"label":"township","lang":"en"}]}],"geometry":{"type":"GeometryCollection","geometries":[{"type":"Point","coordinates":[-1.74005,52.51575],"citations":[{"label":"GeoNames, gazetteer record geonames:2634682"}]},{"type":"Point","coordinates":[-1.742057297909113,52.52073464208032],"citations":[{"label":"Unlock (EDINA) gazetteer, gazetteer record unlock:11314250"}]},{"type":"Point","coordinates":[-1.736,52.517],"citations":[{"label":"Key to English Place-Names (KEPN), gazetteer record 0193"}]}]},"when":{"timespans":[{"start":{"in":"1262"},"end":{"in":"1652"}}]},"links":[{"type":"closeMatch","identifier":"https://sws.geonames.org/2634682/"}],"relations":[{"relationType":"gvp:broaderPartitive","relationTo":"https://w3id.org/whg-epns/13/001225","label":"within Water Orton"}]}]}