{"@context":"https://raw.githubusercontent.com/LinkedPasts/linked-places-format/main/linkedplaces-context-v1.1.jsonld","type":"FeatureCollection","license":"Digitisation of English Placenames MADS data is licensed to Jisc by the English Place Names Society and released under a Creative Commons Attribution-NonCommercial 4.0 International License.","note":"LPF v1.3, lossy; derived from the PLATO record; plato_commit=ca0afadabec1e23a145c0b03df77e8f151f79832","features":[{"@id":"https://w3id.org/whg-epns/13/001721","type":"Feature","properties":{"title":"Elmdon","ccodes":["GB"],"fclasses":["A","P"]},"names":[{"toponym":"Elmdon","lang":"en","citations":[{"label":"English Place-Name Society survey, volume 13: Warwickshire"}]},{"toponym":"Elmedone","citations":[{"label":"1086 DB","year":1086}],"when":{"timespans":[{"start":{"in":"1086"},"end":{"in":"1086"}}]}},{"toponym":"Elmedon(a)","citations":[{"label":"1217 Bracton","year":1217},{"label":"1221–1656, recurring FF","year":1221},{"label":"1221–1656, recurring Dugdale"},{"label":"1221 FF","year":1221},{"label":"1656 Dugdale","year":1656}],"when":{"timespans":[{"start":{"in":"1217"},"end":{"in":"1217"}},{"start":{"in":"1221"},"end":{"in":"1656"}},{"start":{"in":"1221"},"end":{"in":"1221"}},{"start":{"in":"1656"},"end":{"in":"1656"}}]}},{"toponym":"Elmeduna","citations":[{"label":"1233 Bracton","year":1233}],"when":{"timespans":[{"start":{"in":"1233"},"end":{"in":"1233"}}]}},{"toponym":"Elmeden","citations":[{"label":"1309 Ass","year":1309}],"when":{"timespans":[{"start":{"in":"1309"},"end":{"in":"1309"}}]}},{"toponym":"Aumedona","citations":[{"label":"1199 FF","year":1199}],"when":{"timespans":[{"start":{"in":"1199"},"end":{"in":"1199"}}]}},{"toponym":"Heumedone","citations":[{"label":"1235 Fees","year":1235}],"when":{"timespans":[{"start":{"in":"1235"},"end":{"in":"1235"}}]}},{"toponym":"Helmedon(e)","citations":[{"label":"1262 Ass","year":1262},{"label":"1576 S","year":1576}],"when":{"timespans":[{"start":{"in":"1262"},"end":{"in":"1262"}},{"start":{"in":"1576"},"end":{"in":"1576"}}]}},{"toponym":"Ilmedon","citations":[{"label":"1297 Pat","year":1297}],"when":{"timespans":[{"start":{"in":"1297"},"end":{"in":"1297"}}]}},{"toponym":"Elmendon","citations":[{"label":"1316 Ipm","year":1316}],"when":{"timespans":[{"start":{"in":"1316"},"end":{"in":"1316"}}]}},{"toponym":"Elmyndon","citations":[{"label":"1458 KnowleG","year":1458}],"when":{"timespans":[{"start":{"in":"1458"},"end":{"in":"1458"}}]}}],"types":[{"identifier":"http://vocab.getty.edu/aat/300232418","label":"administrative division","sourceLabels":[{"label":"township","lang":"en"}]}],"geometry":{"type":"GeometryCollection","geometries":[{"type":"Point","coordinates":[-1.742477679430096,52.44880734787802],"citations":[{"label":"Unlock (EDINA) gazetteer, gazetteer record unlock:11139520"}]},{"type":"Point","coordinates":[-1.74392,52.4492],"citations":[{"label":"Key to English Place-Names (KEPN), gazetteer record 4926"}]}]},"when":{"timespans":[{"start":{"in":"1086"},"end":{"in":"1656"}}]},"relations":[{"relationType":"gvp:broaderPartitive","relationTo":"https://w3id.org/whg-epns/13/001720","label":"within Elmdon"}]}]}