{"@context":"https://raw.githubusercontent.com/LinkedPasts/linked-places-format/main/linkedplaces-context-v1.1.jsonld","type":"FeatureCollection","license":"Digitisation of English Placenames MADS data is licensed to Jisc by the English Place Names Society and released under a Creative Commons Attribution-NonCommercial 4.0 International License.","note":"LPF v1.3, lossy; derived from the PLATO record; plato_commit=ca0afadabec1e23a145c0b03df77e8f151f79832","features":[{"@id":"https://w3id.org/whg-epns/13/002336","type":"Feature","properties":{"title":"Atherstone","ccodes":["GB"],"fclasses":["A","P"]},"names":[{"toponym":"Atherstone","lang":"en","citations":[{"label":"English Place-Name Society survey, volume 13: Warwickshire"}]}],"types":[{"identifier":"http://vocab.getty.edu/aat/300232418","label":"administrative division","sourceLabels":[{"label":"parish","lang":"en"}]}],"geometry":{"type":"GeometryCollection","geometries":[{"type":"Point","coordinates":[-1.54348,52.57818],"citations":[{"label":"GeoNames, gazetteer record geonames:7292657"}]},{"type":"Point","coordinates":[-1.53513927068776,52.57404874801221],"citations":[{"label":"Unlock (EDINA) gazetteer, gazetteer record unlock:11065131"}]},{"type":"Point","coordinates":[-1.53652,52.5834],"citations":[{"label":"Key to English Place-Names (KEPN), gazetteer record 4908"}]}]},"links":[{"type":"closeMatch","identifier":"https://sws.geonames.org/7292657/"}],"relations":[{"relationType":"gvp:broaderPartitive","relationTo":"https://w3id.org/whg-epns/13/002286","label":"within Atherstone Division"}]}]}