{"@context":"https://raw.githubusercontent.com/LinkedPasts/linked-places-format/main/linkedplaces-context-v1.1.jsonld","type":"FeatureCollection","license":"Digitisation of English Placenames MADS data is licensed to Jisc by the English Place Names Society and released under a Creative Commons Attribution-NonCommercial 4.0 International License.","note":"LPF v1.3, lossy; derived from the PLATO record; plato_commit=ca0afadabec1e23a145c0b03df77e8f151f79832","features":[{"@id":"http://placenames.org.uk/id/placename/13/002760","type":"Feature","properties":{"title":"Nuneaton","ccodes":["GB"],"fclasses":["A","P"]},"names":[{"toponym":"Nuneaton","lang":"en","citations":[{"label":"English Place-Name Society survey, volume 13: Warwickshire"}]},{"toponym":"Etone","citations":[{"label":"1086–1376, recurring DB","year":1086},{"label":"1086–1376, recurring AD"},{"label":"1086 DB","year":1086},{"label":"1376 AD","year":1376}],"when":{"timespans":[{"start":{"in":"1086"},"end":{"in":"1376"}},{"start":{"in":"1086"},"end":{"in":"1086"}},{"start":{"in":"1376"},"end":{"in":"1376"}}]}},{"toponym":"Ethon","citations":[{"label":"1233 Cl","year":1233},{"label":"1233-9 Ch","year":1233}],"when":{"timespans":[{"start":{"in":"1233"},"end":{"in":"1233"}},{"start":{"earliest":"1233","latest":"1239"},"end":{"earliest":"1233","latest":"1239"}}]}},{"toponym":"Eatona","citations":[{"label":"1155-9 France","year":1155},{"label":"c. 1160 Dane","year":1150},{"label":"1238 Bracton","year":1238}],"when":{"timespans":[{"start":{"earliest":"1155","latest":"1159"},"end":{"earliest":"1155","latest":"1159"}},{"start":{"earliest":"1150","latest":"1170"},"end":{"earliest":"1150","latest":"1170"}},{"start":{"in":"1238"},"end":{"in":"1238"}}]}},{"toponym":"Etton","citations":[{"label":"1187 P","year":1187},{"label":"1195 Cur","year":1195},{"label":"1221 Ass","year":1221}],"when":{"timespans":[{"start":{"in":"1187"},"end":{"in":"1187"}},{"start":{"in":"1195"},"end":{"in":"1195"}},{"start":{"in":"1221"},"end":{"in":"1221"}}]}},{"toponym":"Eyton","citations":[{"label":"1237 Cl","year":1237}],"when":{"timespans":[{"start":{"in":"1237"},"end":{"in":"1237"}}]}},{"toponym":"Nonne Eton","citations":[{"label":"1247 CartMisc","year":1247},{"label":"1556 Recov","year":1556}],"when":{"timespans":[{"start":{"in":"1247"},"end":{"in":"1247"}},{"start":{"in":"1556"},"end":{"in":"1556"}}]}},{"toponym":"Nonnetone","citations":[{"label":"1318 AD","year":1318}],"when":{"timespans":[{"start":{"in":"1318"},"end":{"in":"1318"}}]}},{"toponym":"Noneton","citations":[{"label":"1323 Ipm","year":1323}],"when":{"timespans":[{"start":{"in":"1323"},"end":{"in":"1323"}}]}},{"toponym":"Noneaton","citations":[{"label":"1492 Ipm","year":1492}],"when":{"timespans":[{"start":{"in":"1492"},"end":{"in":"1492"}}]}},{"toponym":"Noneyton","citations":[{"label":"1548 FF","year":1548}],"when":{"timespans":[{"start":{"in":"1548"},"end":{"in":"1548"}}]}},{"toponym":"Nunne Eton(e)","citations":[{"label":"1272 FF","year":1272},{"label":"1296 Pat","year":1296},{"label":"1309 AD","year":1309}],"when":{"timespans":[{"start":{"in":"1272"},"end":{"in":"1272"}},{"start":{"in":"1296"},"end":{"in":"1296"}},{"start":{"in":"1309"},"end":{"in":"1309"}}]}},{"toponym":"Nune Eton","citations":[{"label":"1284 Pat","year":1284}],"when":{"timespans":[{"start":{"in":"1284"},"end":{"in":"1284"}}]}},{"toponym":"Eton Monialium","citations":[{"label":"1393 Pat","year":1393}],"when":{"timespans":[{"start":{"in":"1393"},"end":{"in":"1393"}}]}},{"toponym":"Constables Eyton","citations":[{"label":"1548 FF","year":1548}],"when":{"timespans":[{"start":{"in":"1548"},"end":{"in":"1548"}}]}},{"toponym":"Eton al. Nune Eton","citations":[{"label":"1566 FF","year":1566}],"when":{"timespans":[{"start":{"in":"1566"},"end":{"in":"1566"}}]}},{"toponym":"Nunyeton","citations":[{"label":"1578 Cai","year":1578}],"when":{"timespans":[{"start":{"in":"1578"},"end":{"in":"1578"}}]}},{"toponym":"Eaton al. Noneaton","citations":[{"label":"1605 FF","year":1605}],"when":{"timespans":[{"start":{"in":"1605"},"end":{"in":"1605"}}]}},{"toponym":"Nonneat on al. Nuns Eaton","citations":[{"label":"1654 FF","year":1654}],"when":{"timespans":[{"start":{"in":"1654"},"end":{"in":"1654"}}]}}],"types":[{"identifier":"http://vocab.getty.edu/aat/300232418","label":"administrative division","sourceLabels":[{"label":"township","lang":"en"}]}],"geometry":{"type":"GeometryCollection","geometries":[{"type":"Point","coordinates":[-1.46523,52.52323],"citations":[{"label":"GeoNames, gazetteer record geonames:2641157"}]},{"type":"Point","coordinates":[-1.462015149134373,52.51979305172354],"citations":[{"label":"Unlock (EDINA) gazetteer, gazetteer record unlock:11234060"}]},{"type":"Point","coordinates":[-1.46349,52.5202],"citations":[{"label":"Key to English Place-Names (KEPN), gazetteer record 4945"}]}]},"when":{"timespans":[{"start":{"in":"1086"},"end":{"in":"1654"}}]},"links":[{"type":"closeMatch","identifier":"https://sws.geonames.org/2641157/"}],"relations":[{"relationType":"gvp:broaderPartitive","relationTo":"http://placenames.org.uk/id/placename/13/002759","label":"within Nuneaton"}]}]}