{"@context":"https://raw.githubusercontent.com/LinkedPasts/linked-places-format/main/linkedplaces-context-v1.1.jsonld","type":"FeatureCollection","license":"Digitisation of English Placenames MADS data is licensed to Jisc by the English Place Names Society and released under a Creative Commons Attribution-NonCommercial 4.0 International License.","note":"LPF v1.3, lossy; derived from the PLATO record; plato_commit=fa0d247ccc0263f8f19c8d7cdcd163df96935d1e","features":[{"@id":"https://w3id.org/whg-epns/13/002936","type":"Feature","properties":{"title":"Weddington","ccodes":["GB"],"fclasses":["A","P"]},"names":[{"toponym":"Weddington","lang":"en","citations":[{"label":"English Place-Name Society survey, volume 13: Warwickshire"}]}],"types":[{"identifier":"http://vocab.getty.edu/aat/300232418","label":"administrative division","sourceLabels":[{"label":"parish","lang":"en"}]}],"geometry":{"type":"GeometryCollection","geometries":[{"type":"Point","coordinates":[-1.461905295833873,52.52878359757587],"citations":[{"label":"Unlock (EDINA) gazetteer, gazetteer record unlock:11315278"}]},{"type":"Point","coordinates":[-1.46327,52.5381],"citations":[{"label":"Key to English Place-Names (KEPN), gazetteer record 4957"}]}]},"relations":[{"relationType":"gvp:broaderPartitive","relationTo":"https://w3id.org/whg-epns/13/002286","label":"within Atherstone Division"}]}]}