{"@context":"https://raw.githubusercontent.com/LinkedPasts/linked-places-format/main/linkedplaces-context-v1.1.jsonld","type":"FeatureCollection","license":"Digitisation of English Placenames MADS data is licensed to Jisc by the English Place Names Society and released under a Creative Commons Attribution-NonCommercial 4.0 International License.","note":"LPF v1.3, lossy; derived from the PLATO record; plato_commit=fa0d247ccc0263f8f19c8d7cdcd163df96935d1e","features":[{"@id":"https://w3id.org/whg-epns/13/003327","type":"Feature","properties":{"title":"Easenhall","ccodes":["GB"],"fclasses":["A","P"]},"names":[{"toponym":"Easenhall","lang":"en","citations":[{"label":"English Place-Name Society survey, volume 13: Warwickshire"}]}],"types":[{"identifier":"http://vocab.getty.edu/aat/300232418","label":"administrative division","sourceLabels":[{"label":"parish","lang":"en"}]}],"geometry":{"type":"GeometryCollection","geometries":[{"type":"Point","coordinates":[-1.32608,52.41296],"citations":[{"label":"GeoNames, gazetteer record geonames:7293962"}]},{"type":"Point","coordinates":[-1.316305831631124,52.41114667887393],"citations":[{"label":"Unlock (EDINA) gazetteer, gazetteer record unlock:11135522"}]},{"type":"Point","coordinates":[-1.3178,52.4115],"citations":[{"label":"Key to English Place-Names (KEPN), gazetteer record 4835"}]}]},"links":[{"type":"closeMatch","identifier":"https://sws.geonames.org/7293962/"}],"relations":[{"relationType":"gvp:broaderPartitive","relationTo":"https://w3id.org/whg-epns/13/003000","label":"within Brinklow Hundred"}]}]}