{"@context":"https://raw.githubusercontent.com/LinkedPasts/linked-places-format/main/linkedplaces-context-v1.1.jsonld","type":"FeatureCollection","license":"Digitisation of English Placenames MADS data is licensed to Jisc by the English Place Names Society and released under a Creative Commons Attribution-NonCommercial 4.0 International License.","note":"LPF v1.3, lossy; derived from the PLATO record; plato_commit=ca0afadabec1e23a145c0b03df77e8f151f79832","features":[{"@id":"http://placenames.org.uk/id/placename/13/003315","type":"Feature","properties":{"title":"Cosford","ccodes":["GB"],"fclasses":["A","P"]},"names":[{"toponym":"Cosford","lang":"en","citations":[{"label":"English Place-Name Society survey, volume 13: Warwickshire"}]}],"types":[{"identifier":"http://vocab.getty.edu/aat/300232418","label":"administrative division","sourceLabels":[{"label":"parish","lang":"en"}]}],"geometry":{"type":"GeometryCollection","geometries":[{"type":"Point","coordinates":[-1.27155,52.40242],"citations":[{"label":"GeoNames, gazetteer record geonames:7299615"}]},{"type":"Point","coordinates":[-1.272200277570555,52.41088341059829],"citations":[{"label":"Unlock (EDINA) gazetteer, gazetteer record unlock:11116847"}]},{"type":"Point","coordinates":[-1.2737,52.4113],"citations":[{"label":"Key to English Place-Names (KEPN), gazetteer record 4834"}]}]},"links":[{"type":"closeMatch","identifier":"https://sws.geonames.org/7299615/"}],"relations":[{"relationType":"gvp:broaderPartitive","relationTo":"http://placenames.org.uk/id/placename/13/003000","label":"within Brinklow Hundred"}]}]}