{"@context":"https://raw.githubusercontent.com/LinkedPasts/linked-places-format/main/linkedplaces-context-v1.1.jsonld","type":"FeatureCollection","license":"Digitisation of English Placenames MADS data is licensed to Jisc by the English Place Names Society and released under a Creative Commons Attribution-NonCommercial 4.0 International License.","note":"LPF v1.3, lossy; derived from the PLATO record; plato_commit=ca0afadabec1e23a145c0b03df77e8f151f79832","features":[{"@id":"http://placenames.org.uk/id/placename/13/003328","type":"Feature","properties":{"title":"Easenhall","ccodes":["GB"],"fclasses":["A","P"]},"names":[{"toponym":"Easenhall","lang":"en","citations":[{"label":"English Place-Name Society survey, volume 13: Warwickshire"}]},{"toponym":"Esenhull","citations":[{"label":"1262–1789, recurring Ass","year":1262},{"label":"1262–1789, recurring Cary"},{"label":"1262 Ass","year":1262},{"label":"1789 Cary","year":1789}],"when":{"timespans":[{"start":{"in":"1262"},"end":{"in":"1789"}},{"start":{"in":"1262"},"end":{"in":"1262"}},{"start":{"in":"1285"},"end":{"in":"1285"}},{"start":{"in":"1789"},"end":{"in":"1789"}}]}},{"toponym":"Esynhull and Esenhill","citations":[{"label":"1262-1789 unspecified sources","year":1262}],"when":{"timespans":[{"start":{"in":"1262"},"end":{"in":"1789"}}]}},{"toponym":"Hesenhull","citations":[{"label":"1262 Ass","year":1262}],"when":{"timespans":[{"start":{"in":"1262"},"end":{"in":"1262"}}]}},{"toponym":"Esenell","citations":[{"label":"1564 FF","year":1564}],"when":{"timespans":[{"start":{"in":"1564"},"end":{"in":"1564"}}]}},{"toponym":"Essenhill","citations":[{"label":"1272 Ass","year":1272}],"when":{"timespans":[{"start":{"in":"1272"},"end":{"in":"1272"}}]}},{"toponym":"Essenhull","citations":[{"label":"1293 Ass","year":1293}],"when":{"timespans":[{"start":{"in":"1293"},"end":{"in":"1293"}}]}},{"toponym":"Essenell","citations":[{"label":"1553 Pat","year":1553}],"when":{"timespans":[{"start":{"in":"1553"},"end":{"in":"1553"}}]}},{"toponym":"Essenhull al. Esnell","citations":[{"label":"1604 FF","year":1604}],"when":{"timespans":[{"start":{"in":"1604"},"end":{"in":"1604"}}]}},{"toponym":"Eysenell","citations":[{"label":"1445 MinAcct","year":1445}],"when":{"timespans":[{"start":{"in":"1445"},"end":{"in":"1445"}}]}},{"toponym":"Eysnell","citations":[{"label":"1524 SR","year":1524}],"when":{"timespans":[{"start":{"in":"1524"},"end":{"in":"1524"}}]}},{"toponym":"Esinghull al. Esnell","citations":[{"label":"1635 Recov","year":1635}],"when":{"timespans":[{"start":{"in":"1635"},"end":{"in":"1635"}}]}},{"toponym":"Easnell","citations":[{"label":"1546 Trinity","year":1546}],"when":{"timespans":[{"start":{"in":"1546"},"end":{"in":"1546"}}]}}],"types":[{"identifier":"http://vocab.getty.edu/aat/300232418","label":"administrative division","sourceLabels":[{"label":"township","lang":"en"}]}],"geometry":{"type":"GeometryCollection","geometries":[{"type":"Point","coordinates":[-1.32608,52.41296],"citations":[{"label":"GeoNames, gazetteer record geonames:7293962"}]},{"type":"Point","coordinates":[-1.316305831631124,52.41114667887393],"citations":[{"label":"Unlock (EDINA) gazetteer, gazetteer record unlock:11135522"}]},{"type":"Point","coordinates":[-1.3178,52.4115],"citations":[{"label":"Key to English Place-Names (KEPN), gazetteer record 4835"}]}]},"when":{"timespans":[{"start":{"in":"1262"},"end":{"in":"1789"}}]},"links":[{"type":"closeMatch","identifier":"https://sws.geonames.org/7293962/"}],"relations":[{"relationType":"gvp:broaderPartitive","relationTo":"http://placenames.org.uk/id/placename/13/003327","label":"within Easenhall"}]}]}