{"@context":"https://raw.githubusercontent.com/LinkedPasts/linked-places-format/main/linkedplaces-context-v1.1.jsonld","type":"FeatureCollection","license":"Digitisation of English Placenames MADS data is licensed to Jisc by the English Place Names Society and released under a Creative Commons Attribution-NonCommercial 4.0 International License.","note":"LPF v1.3, lossy; derived from the PLATO record; plato_commit=ca0afadabec1e23a145c0b03df77e8f151f79832","features":[{"@id":"http://placenames.org.uk/id/placename/13/003734","type":"Feature","properties":{"title":"Wibtoft","ccodes":["GB"],"fclasses":["A","P"]},"names":[{"toponym":"Wibtoft","lang":"en","citations":[{"label":"English Place-Name Society survey, volume 13: Warwickshire"}]},{"toponym":"Wibbetofte","citations":[{"label":"1002 ASWills","year":1002},{"label":"1227 FF","year":1227},{"label":"1468 IpmR","year":1468}],"when":{"timespans":[{"start":{"in":"1002"},"end":{"in":"1002"}},{"start":{"in":"1227"},"end":{"in":"1227"}},{"start":{"in":"1468"},"end":{"in":"1468"}}]}},{"toponym":"Wibbetot","citations":[{"label":"1174 P","year":1174}],"when":{"timespans":[{"start":{"in":"1174"},"end":{"in":"1174"}}]}},{"toponym":"Wibetot","citations":[{"label":"1086 DB","year":1086},{"label":"1174 ChancR","year":1174},{"label":"1187 P","year":1187}],"when":{"timespans":[{"start":{"in":"1086"},"end":{"in":"1086"}},{"start":{"in":"1174"},"end":{"in":"1174"}},{"start":{"in":"1187"},"end":{"in":"1187"}}]}},{"toponym":"Wibetoth","citations":[{"label":"c. 1200 BM","year":1190}],"when":{"timespans":[{"start":{"earliest":"1190","latest":"1210"},"end":{"earliest":"1190","latest":"1210"}}]}},{"toponym":"Wybetouft","citations":[{"label":"13th AD","year":1200}],"when":{"timespans":[{"start":{"earliest":"1200","latest":"1300"},"end":{"earliest":"1200","latest":"1300"}}]}},{"toponym":"Wybetoft","citations":[{"label":"1285 FF","year":1285},{"label":"1289 AD","year":1289},{"label":"1318 Pat","year":1318},{"label":"1327 SR","year":1327}],"when":{"timespans":[{"start":{"in":"1285"},"end":{"in":"1285"}},{"start":{"in":"1289"},"end":{"in":"1289"}},{"start":{"in":"1318"},"end":{"in":"1318"}},{"start":{"in":"1327"},"end":{"in":"1327"}}]}},{"toponym":"Wybytoft","citations":[{"label":"1299 Ipm","year":1299},{"label":"1301 FF","year":1301}],"when":{"timespans":[{"start":{"in":"1299"},"end":{"in":"1299"}},{"start":{"in":"1301"},"end":{"in":"1301"}}]}},{"toponym":"Whibetoft","citations":[{"label":"1262 Ass","year":1262}],"when":{"timespans":[{"start":{"in":"1262"},"end":{"in":"1262"}}]}},{"toponym":"Wibtoft","citations":[{"label":"1271 Ipm","year":1271}],"when":{"timespans":[{"start":{"in":"1271"},"end":{"in":"1271"}}]}},{"toponym":"Wibtaft","citations":[{"label":"1735 FF","year":1735}],"when":{"timespans":[{"start":{"in":"1735"},"end":{"in":"1735"}}]}},{"toponym":"Wibertoft","citations":[{"label":"1361 Ipm","year":1361},{"label":"1553 Pat","year":1553}],"when":{"timespans":[{"start":{"in":"1361"},"end":{"in":"1361"}},{"start":{"in":"1553"},"end":{"in":"1553"}}]}}],"types":[{"identifier":"http://vocab.getty.edu/aat/300232418","label":"administrative division","sourceLabels":[{"label":"township","lang":"en"}]}],"geometry":{"type":"GeometryCollection","geometries":[{"type":"Point","coordinates":[-1.29458,52.48566],"citations":[{"label":"GeoNames, gazetteer record geonames:2633989"}]},{"type":"Point","coordinates":[-1.300465414277289,52.48298387622039],"citations":[{"label":"Unlock (EDINA) gazetteer, gazetteer record unlock:11322377"}]},{"type":"Point","coordinates":[-1.30196,52.4834],"citations":[{"label":"Key to English Place-Names (KEPN), gazetteer record 4848"}]}]},"when":{"timespans":[{"start":{"in":"1002"},"end":{"in":"1735"}}]},"links":[{"type":"closeMatch","identifier":"https://sws.geonames.org/2633989/"}],"relations":[{"relationType":"gvp:broaderPartitive","relationTo":"http://placenames.org.uk/id/placename/13/003733","label":"within Wibtoft"}]}]}