{"@context":"https://raw.githubusercontent.com/LinkedPasts/linked-places-format/main/linkedplaces-context-v1.1.jsonld","type":"FeatureCollection","license":"Digitisation of English Placenames MADS data is licensed to Jisc by the English Place Names Society and released under a Creative Commons Attribution-NonCommercial 4.0 International License.","note":"LPF v1.3, lossy; derived from the PLATO record; plato_commit=ca0afadabec1e23a145c0b03df77e8f151f79832","features":[{"@id":"http://placenames.org.uk/id/placename/13/003702","type":"Feature","properties":{"title":"Stretton Baskerville","ccodes":["GB"],"fclasses":["A","P"]},"names":[{"toponym":"Stretton Baskerville","lang":"en","citations":[{"label":"English Place-Name Society survey, volume 13: Warwickshire"}]}],"types":[{"identifier":"http://vocab.getty.edu/aat/300232418","label":"administrative division","sourceLabels":[{"label":"parish","lang":"en"}]}],"geometry":{"type":"GeometryCollection","geometries":[{"type":"Point","coordinates":[-1.39609,52.52283],"citations":[{"label":"GeoNames, gazetteer record geonames:7292684"}]},{"type":"Point","coordinates":[-1.373584623433606,52.51935806140363],"citations":[{"label":"Unlock (EDINA) gazetteer, gazetteer record unlock:11294400"}]},{"type":"Point","coordinates":[-1.37507,52.5197],"citations":[{"label":"Key to English Place-Names (KEPN), gazetteer record 4846"}]}]},"links":[{"type":"closeMatch","identifier":"https://sws.geonames.org/7292684/"}],"relations":[{"relationType":"gvp:broaderPartitive","relationTo":"http://placenames.org.uk/id/placename/13/003000","label":"within Brinklow Hundred"}]}]}