{"@context":"https://raw.githubusercontent.com/LinkedPasts/linked-places-format/main/linkedplaces-context-v1.1.jsonld","type":"FeatureCollection","license":"Digitisation of English Placenames MADS data is licensed to Jisc by the English Place Names Society and released under a Creative Commons Attribution-NonCommercial 4.0 International License.","note":"LPF v1.3, lossy; derived from the PLATO record; plato_commit=ca0afadabec1e23a145c0b03df77e8f151f79832","features":[{"@id":"http://placenames.org.uk/id/placename/13/003980","type":"Feature","properties":{"title":"Dunchurch","ccodes":["GB"],"fclasses":["A","P"]},"names":[{"toponym":"Dunchurch","lang":"en","citations":[{"label":"English Place-Name Society survey, volume 13: Warwickshire"}]}],"types":[{"identifier":"http://vocab.getty.edu/aat/300232418","label":"administrative division","sourceLabels":[{"label":"parish","lang":"en"}]}],"geometry":{"type":"GeometryCollection","geometries":[{"type":"Point","coordinates":[-1.29136,52.33757],"citations":[{"label":"GeoNames, gazetteer record geonames:2650761"}]},{"type":"Point","coordinates":[-1.28805961014029,52.33904920081284],"citations":[{"label":"Unlock (EDINA) gazetteer, gazetteer record unlock:11133994"}]},{"type":"Point","coordinates":[-1.28955,52.3394],"citations":[{"label":"Key to English Place-Names (KEPN), gazetteer record 4979"}]}]},"links":[{"type":"closeMatch","identifier":"https://sws.geonames.org/2650761/"}],"relations":[{"relationType":"gvp:broaderPartitive","relationTo":"http://placenames.org.uk/id/placename/13/003828","label":"within Marton Hundred"}]}]}