{"@context":"https://raw.githubusercontent.com/LinkedPasts/linked-places-format/main/linkedplaces-context-v1.1.jsonld","type":"FeatureCollection","license":"Digitisation of English Placenames MADS data is licensed to Jisc by the English Place Names Society and released under a Creative Commons Attribution-NonCommercial 4.0 International License.","note":"LPF v1.3, lossy; derived from the PLATO record; plato_commit=ca0afadabec1e23a145c0b03df77e8f151f79832","features":[{"@id":"http://placenames.org.uk/id/placename/13/004041","type":"Feature","properties":{"title":"Grandborough","ccodes":["GB"],"fclasses":["A","P"]},"names":[{"toponym":"Grandborough","lang":"en","citations":[{"label":"English Place-Name Society survey, volume 13: Warwickshire"}]}],"types":[{"identifier":"http://vocab.getty.edu/aat/300232418","label":"administrative division","sourceLabels":[{"label":"parish","lang":"en"}]}],"geometry":{"type":"GeometryCollection","geometries":[{"type":"Point","coordinates":[-1.28034,52.29683],"citations":[{"label":"GeoNames, gazetteer record geonames:2648223"}]},{"type":"Point","coordinates":[-1.274117556119868,52.29400716564879],"citations":[{"label":"Unlock (EDINA) gazetteer, gazetteer record unlock:11157475"}]},{"type":"Point","coordinates":[-1.27561,52.2944],"citations":[{"label":"Key to English Place-Names (KEPN), gazetteer record 4982"}]}]},"links":[{"type":"closeMatch","identifier":"https://sws.geonames.org/2648223/"}],"relations":[{"relationType":"gvp:broaderPartitive","relationTo":"http://placenames.org.uk/id/placename/13/003828","label":"within Marton Hundred"}]}]}