{"@context":"https://raw.githubusercontent.com/LinkedPasts/linked-places-format/main/linkedplaces-context-v1.1.jsonld","type":"FeatureCollection","license":"Digitisation of English Placenames MADS data is licensed to Jisc by the English Place Names Society and released under a Creative Commons Attribution-NonCommercial 4.0 International License.","note":"LPF v1.3, lossy; derived from the PLATO record; plato_commit=fa0d247ccc0263f8f19c8d7cdcd163df96935d1e","features":[{"@id":"https://w3id.org/whg-epns/13/004611","type":"Feature","properties":{"title":"Watergall","ccodes":["GB"],"fclasses":["A","P"]},"names":[{"toponym":"Watergall","lang":"en","citations":[{"label":"English Place-Name Society survey, volume 13: Warwickshire"}]},{"toponym":"Watergall","citations":[{"label":"1595 Ladbroke","year":1595}],"when":{"timespans":[{"start":{"in":"1595"},"end":{"in":"1595"}},{"start":{"in":"1603"},"end":{"in":"1603"}},{"start":{"in":"1619"},"end":{"in":"1619"}}]}},{"toponym":"Watergate style","citations":[{"label":"c. 1600 Ladbroke","year":1590}],"when":{"timespans":[{"start":{"earliest":"1590","latest":"1610"},"end":{"earliest":"1590","latest":"1610"}}]}},{"toponym":"Watergalle","citations":[{"label":"1607 Recov","year":1607}],"when":{"timespans":[{"start":{"in":"1607"},"end":{"in":"1607"}}]}},{"toponym":"Wattergale","citations":[{"label":"1667 HT","year":1667}],"when":{"timespans":[{"start":{"in":"1667"},"end":{"in":"1667"}}]}}],"types":[{"identifier":"http://vocab.getty.edu/aat/300232418","label":"administrative division","sourceLabels":[{"label":"township","lang":"en"}]}],"geometry":{"type":"GeometryCollection","geometries":[{"type":"Point","coordinates":[-1.38823,52.19443],"citations":[{"label":"GeoNames, gazetteer record geonames:7301510"}]},{"type":"Point","coordinates":[-1.392898125785737,52.18677944921175],"citations":[{"label":"Unlock (EDINA) gazetteer, gazetteer record unlock:11314314"}]},{"type":"Point","coordinates":[-1.37962,52.1961],"citations":[{"label":"Key to English Place-Names (KEPN), gazetteer record 5003"}]}]},"when":{"timespans":[{"start":{"in":"1590"},"end":{"in":"1667"}}]},"links":[{"type":"closeMatch","identifier":"https://sws.geonames.org/7301510/"}],"relations":[{"relationType":"gvp:broaderPartitive","relationTo":"https://w3id.org/whg-epns/13/004610","label":"within Watergall"}]}]}