{"@context":"https://raw.githubusercontent.com/LinkedPasts/linked-places-format/main/linkedplaces-context-v1.1.jsonld","type":"FeatureCollection","license":"Digitisation of English Placenames MADS data is licensed to Jisc by the English Place Names Society and released under a Creative Commons Attribution-NonCommercial 4.0 International License.","note":"LPF v1.3, lossy; derived from the PLATO record; plato_commit=fa0d247ccc0263f8f19c8d7cdcd163df96935d1e","features":[{"@id":"https://w3id.org/whg-epns/13/005480","type":"Feature","properties":{"title":"Harbury","ccodes":["GB"],"fclasses":["A","P"]},"names":[{"toponym":"Harbury","lang":"en","citations":[{"label":"English Place-Name Society survey, volume 13: Warwickshire"}]}],"types":[{"identifier":"http://vocab.getty.edu/aat/300232418","label":"administrative division","sourceLabels":[{"label":"parish","lang":"en"}]}],"geometry":{"type":"GeometryCollection","geometries":[{"type":"Point","coordinates":[-1.45706,52.23537],"citations":[{"label":"GeoNames, gazetteer record geonames:2647502"}]},{"type":"Point","coordinates":[-1.450856909362388,52.23202105197356],"citations":[{"label":"Unlock (EDINA) gazetteer, gazetteer record unlock:11165581"}]},{"type":"Point","coordinates":[-1.45233,52.2324],"citations":[{"label":"Key to English Place-Names (KEPN), gazetteer record 5028"}]}]},"links":[{"type":"closeMatch","identifier":"https://sws.geonames.org/2647502/"}],"relations":[{"relationType":"gvp:broaderPartitive","relationTo":"https://w3id.org/whg-epns/13/004756","label":"within Stoneleigh Hundred"}]}]}