{"@context":"https://raw.githubusercontent.com/LinkedPasts/linked-places-format/main/linkedplaces-context-v1.1.jsonld","type":"FeatureCollection","license":"Digitisation of English Placenames MADS data is licensed to Jisc by the English Place Names Society and released under a Creative Commons Attribution-NonCommercial 4.0 International License.","note":"LPF v1.3, lossy; derived from the PLATO record; plato_commit=fa0d247ccc0263f8f19c8d7cdcd163df96935d1e","features":[{"@id":"https://w3id.org/whg-epns/13/005512","type":"Feature","properties":{"title":"Bishops Itchington","ccodes":["GB"],"fclasses":["A","P"]},"names":[{"toponym":"Bishops Itchington","lang":"en","citations":[{"label":"English Place-Name Society survey, volume 13: Warwickshire"}]}],"types":[{"identifier":"http://vocab.getty.edu/aat/300232418","label":"administrative division","sourceLabels":[{"label":"parish","lang":"en"}]}],"geometry":{"type":"GeometryCollection","geometries":[{"type":"Point","coordinates":[-1.43303,52.21581],"citations":[{"label":"GeoNames, gazetteer record geonames:2655565"}]},{"type":"Point","coordinates":[-1.421804454570333,52.21389928895453],"citations":[{"label":"Unlock (EDINA) gazetteer, gazetteer record unlock:11078061"}]},{"type":"Point","coordinates":[-1.42328,52.2143],"citations":[{"label":"Key to English Place-Names (KEPN), gazetteer record 5021"}]}]},"links":[{"type":"closeMatch","identifier":"https://sws.geonames.org/2655565/"}],"relations":[{"relationType":"gvp:broaderPartitive","relationTo":"https://w3id.org/whg-epns/13/004756","label":"within Stoneleigh Hundred"}]}]}