{"@context":"https://raw.githubusercontent.com/LinkedPasts/linked-places-format/main/linkedplaces-context-v1.1.jsonld","type":"FeatureCollection","license":"Digitisation of English Placenames MADS data is licensed to Jisc by the English Place Names Society and released under a Creative Commons Attribution-NonCommercial 4.0 International License.","note":"LPF v1.3, lossy; derived from the PLATO record; plato_commit=ca0afadabec1e23a145c0b03df77e8f151f79832","features":[{"@id":"https://w3id.org/whg-epns/13/006194","type":"Feature","properties":{"title":"Willenhall","ccodes":["GB"],"fclasses":["A","P"]},"names":[{"toponym":"Willenhall","lang":"en","citations":[{"label":"English Place-Name Society survey, volume 13: Warwickshire"}]},{"toponym":"Wilenhala","citations":[{"label":"t. Hy 1 Kenilworth","year":1100}],"when":{"timespans":[{"start":{"earliest":"1100","latest":"1135"},"end":{"earliest":"1100","latest":"1135"}}]}},{"toponym":"Wilenhale","citations":[{"label":"1221 Pap","year":1221},{"label":"1221 Ass","year":1221},{"label":"c. 1236 AD","year":1226}],"when":{"timespans":[{"start":{"in":"1221"},"end":{"in":"1221"}},{"start":{"in":"1221"},"end":{"in":"1221"}},{"start":{"earliest":"1226","latest":"1246"},"end":{"earliest":"1226","latest":"1246"}}]}},{"toponym":"Wilenhall","citations":[{"label":"1221 Pap","year":1221}],"when":{"timespans":[{"start":{"in":"1221"},"end":{"in":"1221"}}]}},{"toponym":"Wylenhal","citations":[{"label":"1241 FF","year":1241},{"label":"1279 Nott","year":1279}],"when":{"timespans":[{"start":{"in":"1241"},"end":{"in":"1241"}},{"start":{"in":"1279"},"end":{"in":"1279"}}]}},{"toponym":"Wylynhale","citations":[{"label":"1327 SR","year":1327}],"when":{"timespans":[{"start":{"in":"1327"},"end":{"in":"1327"}}]}},{"toponym":"Wilihale","citations":[{"label":"1195 P","year":1195}],"when":{"timespans":[{"start":{"in":"1195"},"end":{"in":"1195"}}]}},{"toponym":"Wilnhal(e)","citations":[{"label":"1236 Fees","year":1236},{"label":"1291 Tax","year":1291},{"label":"1334 Ipm","year":1334}],"when":{"timespans":[{"start":{"in":"1236"},"end":{"in":"1236"}},{"start":{"in":"1291"},"end":{"in":"1291"}},{"start":{"in":"1334"},"end":{"in":"1334"}}]}},{"toponym":"Wyln(e)hale","citations":[{"label":"1262 Ass","year":1262},{"label":"1302 AD","year":1302},{"label":"1332 SR","year":1332},{"label":"1334 Ipm","year":1334}],"when":{"timespans":[{"start":{"in":"1262"},"end":{"in":"1262"}},{"start":{"in":"1302"},"end":{"in":"1302"}},{"start":{"in":"1332"},"end":{"in":"1332"}},{"start":{"in":"1334"},"end":{"in":"1334"}}]}},{"toponym":"Wylnale","citations":[{"label":"1369 Pat","year":1369}],"when":{"timespans":[{"start":{"in":"1369"},"end":{"in":"1369"}}]}},{"toponym":"Wynhale","citations":[{"label":"1291 Tax","year":1291}],"when":{"timespans":[{"start":{"in":"1291"},"end":{"in":"1291"}}]}},{"toponym":"Wynnall","citations":[{"label":"1535 VE","year":1535}],"when":{"timespans":[{"start":{"in":"1535"},"end":{"in":"1535"}}]}},{"toponym":"Wynnall juxta Coventre","citations":[{"label":"1542 MinAcct","year":1542}],"when":{"timespans":[{"start":{"in":"1542"},"end":{"in":"1542"}}]}},{"toponym":"Winnall","citations":[{"label":"1656 Dugdale","year":1656}],"when":{"timespans":[{"start":{"in":"1656"},"end":{"in":"1656"}}]}},{"toponym":"Willenhall al. Winnall","citations":[{"label":"1668 Recov","year":1668}],"when":{"timespans":[{"start":{"in":"1668"},"end":{"in":"1668"}}]}},{"toponym":"Wynald, Winnall","citations":[{"label":"1675 Ogilby","year":1675}],"when":{"timespans":[{"start":{"in":"1675"},"end":{"in":"1675"}}]}},{"toponym":"Willenhale","citations":[{"label":"1356 AD","year":1356},{"label":"1360 BPR","year":1360}],"when":{"timespans":[{"start":{"in":"1356"},"end":{"in":"1356"}},{"start":{"in":"1360"},"end":{"in":"1360"}}]}},{"toponym":"Wyllenhall","citations":[{"label":"1535 VE","year":1535}],"when":{"timespans":[{"start":{"in":"1535"},"end":{"in":"1535"}}]}}],"types":[{"identifier":"http://vocab.getty.edu/aat/300232418","label":"administrative division","sourceLabels":[{"label":"township","lang":"en"}]}],"geometry":{"type":"GeometryCollection","geometries":[{"type":"Point","coordinates":[-1.463656005272188,52.38493320118134],"citations":[{"label":"Unlock (EDINA) gazetteer, gazetteer record unlock:11323033"}]},{"type":"Point","coordinates":[-1.46513,52.3853],"citations":[{"label":"Key to English Place-Names (KEPN), gazetteer record 5046"}]}]},"when":{"timespans":[{"start":{"in":"1100"},"end":{"in":"1675"}}]},"relations":[{"relationType":"gvp:broaderPartitive","relationTo":"https://w3id.org/whg-epns/13/006193","label":"within Willenhall"}]}]}