{"@context":"https://raw.githubusercontent.com/LinkedPasts/linked-places-format/main/linkedplaces-context-v1.1.jsonld","type":"FeatureCollection","license":"Digitisation of English Placenames MADS data is licensed to Jisc by the English Place Names Society and released under a Creative Commons Attribution-NonCommercial 4.0 International License.","note":"LPF v1.3, lossy; derived from the PLATO record; plato_commit=fa0d247ccc0263f8f19c8d7cdcd163df96935d1e","features":[{"@id":"https://w3id.org/whg-epns/13/006297","type":"Feature","properties":{"title":"Alcester","ccodes":["GB"],"fclasses":["A","P"]},"names":[{"toponym":"Alcester","lang":"en","citations":[{"label":"English Place-Name Society survey, volume 13: Warwickshire"}]},{"toponym":"Alencestre","citations":[{"label":"1138 Ch","year":1138},{"label":"P","year":1165},{"label":"FA"},{"label":"1165 to 1189 P","year":1165},{"label":"1316 FA","year":1316}],"when":{"timespans":[{"start":{"in":"1138"},"end":{"in":"1138"}},{"start":{"in":"1165"},"end":{"in":"1316"}},{"start":{"earliest":"1165","latest":"1189"},"end":{"earliest":"1165","latest":"1189"}},{"start":{"in":"1316"},"end":{"in":"1316"}}]}},{"toponym":"Alincestre","citations":[{"label":"1262 Ipm","year":1262}],"when":{"timespans":[{"start":{"in":"1262"},"end":{"in":"1262"}},{"start":{"in":"1274"},"end":{"in":"1274"}},{"start":{"in":"1329"},"end":{"in":"1329"}}]}},{"toponym":"Alyncestre","citations":[{"label":"1275 Wigorn","year":1275},{"label":"1392 FF","year":1392}],"when":{"timespans":[{"start":{"in":"1275"},"end":{"in":"1275"}},{"start":{"in":"1392"},"end":{"in":"1392"}}]}},{"toponym":"Alyngcestre","citations":[{"label":"1344 Ass","year":1344}],"when":{"timespans":[{"start":{"in":"1344"},"end":{"in":"1344"}}]}},{"toponym":"Allencester","citations":[{"label":"1312 RegAlb","year":1312}],"when":{"timespans":[{"start":{"in":"1312"},"end":{"in":"1312"}}]}},{"toponym":"Alnecestria","citations":[{"label":"t. Hy 2 AD","year":1154}],"when":{"timespans":[{"start":{"earliest":"1154","latest":"1189"},"end":{"earliest":"1154","latest":"1189"}}]}},{"toponym":"Alecestre","citations":[{"label":"1205 ChR","year":1205},{"label":"1292 Ch","year":1292},{"label":"1298 Pat","year":1298}],"when":{"timespans":[{"start":{"in":"1205"},"end":{"in":"1205"}},{"start":{"in":"1292"},"end":{"in":"1292"}},{"start":{"in":"1305"},"end":{"in":"1305"}},{"start":{"in":"1298"},"end":{"in":"1298"}},{"start":{"in":"1318"},"end":{"in":"1318"}}]}},{"toponym":"Alicestre","citations":[{"label":"1291 Tax","year":1291},{"label":"1320 Ipm","year":1320}],"when":{"timespans":[{"start":{"in":"1291"},"end":{"in":"1291"}},{"start":{"in":"1320"},"end":{"in":"1320"}}]}},{"toponym":"Aylecestre","citations":[{"label":"1318 Ass","year":1318}],"when":{"timespans":[{"start":{"in":"1318"},"end":{"in":"1318"}}]}},{"toponym":"Aucestre","citations":[{"label":"1318 Wigorn","year":1318}],"when":{"timespans":[{"start":{"in":"1318"},"end":{"in":"1318"}}]}},{"toponym":"Alcestre","citations":[{"label":"Ipm","year":1349},{"label":"AD"},{"label":"1349 Ipm","year":1349},{"label":"1505 AD","year":1505}],"when":{"timespans":[{"start":{"in":"1349"},"end":{"in":"1505"}},{"start":{"in":"1349"},"end":{"in":"1349"}},{"start":{"in":"1505"},"end":{"in":"1505"}}]}},{"toponym":"Alincester al. Alcester","citations":[{"label":"1564 FF","year":1564}],"when":{"timespans":[{"start":{"in":"1564"},"end":{"in":"1564"}}]}},{"toponym":"Alcester al. Aulcester","citations":[{"label":"1794 Recov","year":1794}],"when":{"timespans":[{"start":{"in":"1794"},"end":{"in":"1794"}}]}},{"toponym":"Alsettur","citations":[{"label":"1421 Fine","year":1421}],"when":{"timespans":[{"start":{"in":"1421"},"end":{"in":"1421"}}]}},{"toponym":"Alcetur","citations":[{"label":"1478 Pat","year":1478}],"when":{"timespans":[{"start":{"in":"1478"},"end":{"in":"1478"}}]}},{"toponym":"Alceter","citations":[{"label":"c. 1500 Harl","year":1490},{"label":"1537 Recov","year":1537}],"when":{"timespans":[{"start":{"earliest":"1490","latest":"1510"},"end":{"earliest":"1490","latest":"1510"}},{"start":{"in":"1537"},"end":{"in":"1537"}}]}},{"toponym":"Aucytor","citations":[{"label":"1538 LP","year":1538}],"when":{"timespans":[{"start":{"in":"1538"},"end":{"in":"1538"}}]}},{"toponym":"Alcettor","citations":[{"label":"1547 Monast","year":1547},{"label":"1553 Pat","year":1553}],"when":{"timespans":[{"start":{"in":"1547"},"end":{"in":"1547"}},{"start":{"in":"1553"},"end":{"in":"1553"}}]}},{"toponym":"Alceter al. Alcester","citations":[{"label":"1576 FF","year":1576}],"when":{"timespans":[{"start":{"in":"1576"},"end":{"in":"1576"}}]}},{"toponym":"Alcetter al. Awcestre","citations":[{"label":"1584 Recov","year":1584}],"when":{"timespans":[{"start":{"in":"1584"},"end":{"in":"1584"}}]}}],"types":[{"identifier":"http://vocab.getty.edu/aat/300232418","label":"administrative division","sourceLabels":[{"label":"township","lang":"en"}]}],"geometry":{"type":"GeometryCollection","geometries":[{"type":"Point","coordinates":[-1.86667,52.21667],"citations":[{"label":"GeoNames, gazetteer record geonames:2657566"}]},{"type":"Point","coordinates":[-1.875574899826758,52.21524997939227],"citations":[{"label":"Unlock (EDINA) gazetteer, gazetteer record unlock:11057914"}]},{"type":"Point","coordinates":[-1.87699,52.2157],"citations":[{"label":"Key to English Place-Names (KEPN), gazetteer record 4852"}]}]},"when":{"timespans":[{"start":{"in":"1138"},"end":{"in":"1794"}}]},"links":[{"type":"closeMatch","identifier":"https://sws.geonames.org/2657566/"}],"relations":[{"relationType":"gvp:broaderPartitive","relationTo":"https://w3id.org/whg-epns/13/006296","label":"within Alcester"}]}]}