{"@context":"https://raw.githubusercontent.com/LinkedPasts/linked-places-format/main/linkedplaces-context-v1.1.jsonld","type":"FeatureCollection","license":"Digitisation of English Placenames MADS data is licensed to Jisc by the English Place Names Society and released under a Creative Commons Attribution-NonCommercial 4.0 International License.","note":"LPF v1.3, lossy; derived from the PLATO record; plato_commit=fa0d247ccc0263f8f19c8d7cdcd163df96935d1e","features":[{"@id":"https://w3id.org/whg-epns/13/006389","type":"Feature","properties":{"title":"Arrow","ccodes":["GB"],"fclasses":["A","P"]},"names":[{"toponym":"Arrow","lang":"en","citations":[{"label":"English Place-Name Society survey, volume 13: Warwickshire"}]},{"toponym":"Arosætna","citations":[{"label":"11th BCS","year":1000}],"when":{"timespans":[{"start":{"earliest":"1000","latest":"1100"},"end":{"earliest":"1000","latest":"1100"}}]}},{"toponym":"Arne","citations":[{"label":"710 BCS","year":710}],"when":{"timespans":[{"start":{"in":"0710"},"end":{"in":"0710"}}]}},{"toponym":"Arue","citations":[{"label":"1086 DB","year":1086},{"label":"1230 P","year":1230}],"when":{"timespans":[{"start":{"in":"1086"},"end":{"in":"1086"}},{"start":{"in":"1230"},"end":{"in":"1230"}}]}},{"toponym":"Arwa","citations":[{"label":"c. 1086 Evesham","year":1076}],"when":{"timespans":[{"start":{"earliest":"1076","latest":"1096"},"end":{"earliest":"1076","latest":"1096"}}]}},{"toponym":"Aruue","citations":[{"label":"1070-77 ChronEve","year":1070}],"when":{"timespans":[{"start":{"earliest":"1070","latest":"1077"},"end":{"earliest":"1070","latest":"1077"}}]}},{"toponym":"Arwe","citations":[{"label":"Cur","year":1194},{"label":"FF"},{"label":"1194 Cur","year":1194},{"label":"1275 FF","year":1275}],"when":{"timespans":[{"start":{"in":"1194"},"end":{"in":"1275"}},{"start":{"in":"1194"},"end":{"in":"1194"}},{"start":{"in":"1275"},"end":{"in":"1275"}}]}},{"toponym":"Arewe","citations":[{"label":"FF","year":1220},{"label":"AD"},{"label":"1220 FF","year":1220},{"label":"1390 AD","year":1390}],"when":{"timespans":[{"start":{"in":"1220"},"end":{"in":"1390"}},{"start":{"in":"1220"},"end":{"in":"1220"}},{"start":{"in":"1390"},"end":{"in":"1390"}}]}},{"toponym":"Arowe","citations":[{"label":"1233 Cl","year":1233},{"label":"1327 Ch","year":1327},{"label":"1428 FA","year":1428}],"when":{"timespans":[{"start":{"in":"1233"},"end":{"in":"1233"}},{"start":{"in":"1327"},"end":{"in":"1327"}},{"start":{"in":"1428"},"end":{"in":"1428"}}]}},{"toponym":"Arrowe","citations":[{"label":"1535 VE","year":1535}],"when":{"timespans":[{"start":{"in":"1535"},"end":{"in":"1535"}}]}},{"toponym":"Aruw(e)","citations":[{"label":"1275 RH","year":1275},{"label":"1316 FA","year":1316},{"label":"1344 Ass","year":1344}],"when":{"timespans":[{"start":{"in":"1275"},"end":{"in":"1275"}},{"start":{"in":"1316"},"end":{"in":"1316"}},{"start":{"in":"1344"},"end":{"in":"1344"}}]}}],"types":[{"identifier":"http://vocab.getty.edu/aat/300232418","label":"administrative division","sourceLabels":[{"label":"township","lang":"en"}]}],"geometry":{"type":"GeometryCollection","geometries":[{"type":"Point","coordinates":[-1.890235277621283,52.20627309918464],"citations":[{"label":"Unlock (EDINA) gazetteer, gazetteer record unlock:11063959"}]},{"type":"Point","coordinates":[-1.87702,52.2067],"citations":[{"label":"Key to English Place-Names (KEPN), gazetteer record 4853"}]}]},"when":{"timespans":[{"start":{"in":"0710"},"end":{"in":"1535"}}]},"relations":[{"relationType":"gvp:broaderPartitive","relationTo":"https://w3id.org/whg-epns/13/006388","label":"within Arrow"}]}]}