{"@context":"https://raw.githubusercontent.com/LinkedPasts/linked-places-format/main/linkedplaces-context-v1.1.jsonld","type":"FeatureCollection","license":"Digitisation of English Placenames MADS data is licensed to Jisc by the English Place Names Society and released under a Creative Commons Attribution-NonCommercial 4.0 International License.","note":"LPF v1.3, lossy; derived from the PLATO record; plato_commit=ca0afadabec1e23a145c0b03df77e8f151f79832","features":[{"@id":"https://w3id.org/whg-epns/13/006514","type":"Feature","properties":{"title":"Beaudesert","ccodes":["GB"],"fclasses":["A","P"]},"names":[{"toponym":"Beaudesert","lang":"en","citations":[{"label":"English Place-Name Society survey, volume 13: Warwickshire"}]},{"toponym":"(Castellum) de Bello Deserto","citations":[{"label":"1141 Geoffrey de Mandeville","year":1141}],"when":{"timespans":[{"start":{"in":"1141"},"end":{"in":"1141"}}]}},{"toponym":"Bealdesert","citations":[{"label":"1175 P","year":1175}],"when":{"timespans":[{"start":{"in":"1175"},"end":{"in":"1175"}}]}},{"toponym":"Beaudesert(e)","citations":[{"label":"1221–1584, recurring Ass","year":1221},{"label":"1221–1584, recurring FF"},{"label":"1221 Ass","year":1221},{"label":"1584 FF","year":1584}],"when":{"timespans":[{"start":{"in":"1221"},"end":{"in":"1584"}},{"start":{"in":"1221"},"end":{"in":"1221"}},{"start":{"in":"1584"},"end":{"in":"1584"}}]}},{"toponym":"Beawdesert(e)","citations":[{"label":"1589 PCC","year":1589}],"when":{"timespans":[{"start":{"in":"1589"},"end":{"in":"1589"}}]}},{"toponym":"Beldesert","citations":[{"label":"1180 ChancR","year":1180},{"label":"1202–1656, recurring FF","year":1202},{"label":"1202–1656, recurring Dugdale"},{"label":"1202 FF","year":1202},{"label":"1656 Dugdale","year":1656}],"when":{"timespans":[{"start":{"in":"1180"},"end":{"in":"1180"}},{"start":{"in":"1202"},"end":{"in":"1656"}},{"start":{"in":"1202"},"end":{"in":"1202"}},{"start":{"in":"1656"},"end":{"in":"1656"}}]}},{"toponym":"Beudesert","citations":[{"label":"1199 FF","year":1199},{"label":"1262 Ass","year":1262},{"label":"1356 AD","year":1356},{"label":"1376 BM","year":1376}],"when":{"timespans":[{"start":{"in":"1199"},"end":{"in":"1199"}},{"start":{"in":"1262"},"end":{"in":"1262"}},{"start":{"in":"1356"},"end":{"in":"1356"}},{"start":{"in":"1376"},"end":{"in":"1376"}}]}},{"toponym":"Beadesert","citations":[{"label":"1227 ClR","year":1227}],"when":{"timespans":[{"start":{"in":"1227"},"end":{"in":"1227"}}]}},{"toponym":"in Bello Deserto","citations":[{"label":"1242 FF","year":1242},{"label":"1296 Ipm","year":1296}],"when":{"timespans":[{"start":{"in":"1242"},"end":{"in":"1242"}},{"start":{"in":"1296"},"end":{"in":"1296"}},{"start":{"in":"1495"},"end":{"in":"1495"}}]}},{"toponym":"Belloderco","citations":[{"label":"1328 Ch","year":1328}],"when":{"timespans":[{"start":{"in":"1328"},"end":{"in":"1328"}}]}},{"toponym":"Belteserd","citations":[{"label":"1282 AD","year":1282}],"when":{"timespans":[{"start":{"in":"1282"},"end":{"in":"1282"}}]}},{"toponym":"Beltesert","citations":[{"label":"1291 AD","year":1291}],"when":{"timespans":[{"start":{"in":"1291"},"end":{"in":"1291"}}]}},{"toponym":"Baudesert","citations":[{"label":"1368 Wigorn","year":1368}],"when":{"timespans":[{"start":{"in":"1368"},"end":{"in":"1368"}}]}},{"toponym":"Bewdesert(e)","citations":[{"label":"1429 AD","year":1429}],"when":{"timespans":[{"start":{"in":"1429"},"end":{"in":"1429"}}]}},{"toponym":"Bewdesarde","citations":[{"label":"1546 SR","year":1546}],"when":{"timespans":[{"start":{"in":"1546"},"end":{"in":"1546"}}]}},{"toponym":"Bewdesert al. Belsert","citations":[{"label":"1618 FF","year":1618}],"when":{"timespans":[{"start":{"in":"1618"},"end":{"in":"1618"}}]}},{"toponym":"Bewdesert al. Belsart","citations":[{"label":"1629 Recov","year":1629}],"when":{"timespans":[{"start":{"in":"1629"},"end":{"in":"1629"}}]}},{"toponym":"Bewdsart","citations":[{"label":"1633 Sess","year":1633}],"when":{"timespans":[{"start":{"in":"1633"},"end":{"in":"1633"}}]}},{"toponym":"Belserte","citations":[{"label":"1447 AD","year":1447}],"when":{"timespans":[{"start":{"in":"1447"},"end":{"in":"1447"}}]}},{"toponym":"Bellesert","citations":[{"label":"t. Hy 8 MinAcct","year":1509}],"when":{"timespans":[{"start":{"earliest":"1509","latest":"1547"},"end":{"earliest":"1509","latest":"1547"}}]}},{"toponym":"Belzert","citations":[{"label":"1587 FF","year":1587}],"when":{"timespans":[{"start":{"in":"1587"},"end":{"in":"1587"}}]}},{"toponym":"Belsert al. Beaudesert","citations":[{"label":"1655 FF","year":1655}],"when":{"timespans":[{"start":{"in":"1655"},"end":{"in":"1655"}}]}},{"toponym":"Beaudesert al. Belldesert al. Bellsert al. Bewdesert","citations":[{"label":"1756 Recov","year":1756}],"when":{"timespans":[{"start":{"in":"1756"},"end":{"in":"1756"}}]}}],"types":[{"identifier":"http://vocab.getty.edu/aat/300232418","label":"administrative division","sourceLabels":[{"label":"township","lang":"en"}]}],"geometry":{"type":"GeometryCollection","geometries":[{"type":"Point","coordinates":[-1.77988,52.30674],"citations":[{"label":"GeoNames, gazetteer record geonames:7299624"}]},{"type":"Point","coordinates":[-1.77269455455858,52.29601901282865],"citations":[{"label":"Unlock (EDINA) gazetteer, gazetteer record unlock:11072800"}]},{"type":"Point","coordinates":[-1.77413,52.2964],"citations":[{"label":"Key to English Place-Names (KEPN), gazetteer record 4856"}]}]},"when":{"timespans":[{"start":{"in":"1141"},"end":{"in":"1756"}}]},"links":[{"type":"closeMatch","identifier":"https://sws.geonames.org/7299624/"}],"relations":[{"relationType":"gvp:broaderPartitive","relationTo":"https://w3id.org/whg-epns/13/006513","label":"within Beaudesert"}]}]}