{"@context":"https://raw.githubusercontent.com/LinkedPasts/linked-places-format/main/linkedplaces-context-v1.1.jsonld","type":"FeatureCollection","license":"Digitisation of English Placenames MADS data is licensed to Jisc by the English Place Names Society and released under a Creative Commons Attribution-NonCommercial 4.0 International License.","note":"LPF v1.3, lossy; derived from the PLATO record; plato_commit=ca0afadabec1e23a145c0b03df77e8f151f79832","features":[{"@id":"https://w3id.org/whg-epns/13/006650","type":"Feature","properties":{"title":"Billesley","ccodes":["GB"],"fclasses":["A","P"]},"names":[{"toponym":"Billesley","lang":"en","citations":[{"label":"English Place-Name Society survey, volume 13: Warwickshire"}]}],"types":[{"identifier":"http://vocab.getty.edu/aat/300232418","label":"administrative division","sourceLabels":[{"label":"parish","lang":"en"}]}],"geometry":{"type":"GeometryCollection","geometries":[{"type":"Point","coordinates":[-1.78828,52.2105],"citations":[{"label":"GeoNames, gazetteer record geonames:2655670"}]},{"type":"Point","coordinates":[-1.787788781037044,52.20613335111492],"citations":[{"label":"Unlock (EDINA) gazetteer, gazetteer record unlock:11076946"}]},{"type":"Point","coordinates":[-1.78922,52.2065],"citations":[{"label":"Key to English Place-Names (KEPN), gazetteer record 4859"}]}]},"links":[{"type":"closeMatch","identifier":"https://sws.geonames.org/2655670/"}],"relations":[{"relationType":"gvp:broaderPartitive","relationTo":"https://w3id.org/whg-epns/13/006294","label":"within Ferncumbe Hundred"}]}]}