{"@context":"https://raw.githubusercontent.com/LinkedPasts/linked-places-format/main/linkedplaces-context-v1.1.jsonld","type":"FeatureCollection","license":"Digitisation of English Placenames MADS data is licensed to Jisc by the English Place Names Society and released under a Creative Commons Attribution-NonCommercial 4.0 International License.","note":"LPF v1.3, lossy; derived from the PLATO record; plato_commit=ca0afadabec1e23a145c0b03df77e8f151f79832","features":[{"@id":"http://placenames.org.uk/id/placename/13/006651","type":"Feature","properties":{"title":"Billesley","ccodes":["GB"],"fclasses":["A","P"]},"names":[{"toponym":"Billesley","lang":"en","citations":[{"label":"English Place-Name Society survey, volume 13: Warwickshire"}]},{"toponym":"Billes læh","citations":[{"label":"704-9 BCS","year":704}],"when":{"timespans":[{"start":{"earliest":"0704","latest":"0709"},"end":{"earliest":"0704","latest":"0709"}}]}},{"toponym":"Billeslei","citations":[{"label":"1086–1086, recurring DB","year":1086},{"label":"1086 DB","year":1086}],"when":{"timespans":[{"start":{"in":"1086"},"end":{"in":"1086"}},{"start":{"in":"1086"},"end":{"in":"1086"}}]}},{"toponym":"Billesley(e), Billeslegh(e)","citations":[{"label":"1086-1600 unspecified sources","year":1086}],"when":{"timespans":[{"start":{"in":"1086"},"end":{"in":"1600"}}]}},{"toponym":"Bileslega, Bileslea","citations":[{"label":"1157 P","year":1157},{"label":"1158 RBE","year":1158}],"when":{"timespans":[{"start":{"in":"1157"},"end":{"in":"1157"}},{"start":{"in":"1158"},"end":{"in":"1158"}},{"start":{"in":"1158"},"end":{"in":"1158"}}]}},{"toponym":"Bellesleye","citations":[{"label":"1291 Tax","year":1291}],"when":{"timespans":[{"start":{"in":"1291"},"end":{"in":"1291"}}]}}],"types":[{"identifier":"http://vocab.getty.edu/aat/300232418","label":"administrative division","sourceLabels":[{"label":"township","lang":"en"}]}],"geometry":{"type":"GeometryCollection","geometries":[{"type":"Point","coordinates":[-1.78828,52.2105],"citations":[{"label":"GeoNames, gazetteer record geonames:2655670"}]},{"type":"Point","coordinates":[-1.787788781037044,52.20613335111492],"citations":[{"label":"Unlock (EDINA) gazetteer, gazetteer record unlock:11076946"}]},{"type":"Point","coordinates":[-1.78922,52.2065],"citations":[{"label":"Key to English Place-Names (KEPN), gazetteer record 4859"}]}]},"when":{"timespans":[{"start":{"in":"0704"},"end":{"in":"1600"}}]},"links":[{"type":"closeMatch","identifier":"https://sws.geonames.org/2655670/"}],"relations":[{"relationType":"gvp:broaderPartitive","relationTo":"http://placenames.org.uk/id/placename/13/006650","label":"within Billesley"}]}]}