{"@context":"https://raw.githubusercontent.com/LinkedPasts/linked-places-format/main/linkedplaces-context-v1.1.jsonld","type":"FeatureCollection","license":"Digitisation of English Placenames MADS data is licensed to Jisc by the English Place Names Society and released under a Creative Commons Attribution-NonCommercial 4.0 International License.","note":"LPF v1.3, lossy; derived from the PLATO record; plato_commit=fa0d247ccc0263f8f19c8d7cdcd163df96935d1e","features":[{"@id":"https://w3id.org/whg-epns/13/006791","type":"Feature","properties":{"title":"Coughton","ccodes":["GB"],"fclasses":["A","P"]},"names":[{"toponym":"Coughton","lang":"en","citations":[{"label":"English Place-Name Society survey, volume 13: Warwickshire"}]}],"types":[{"identifier":"http://vocab.getty.edu/aat/300232418","label":"administrative division","sourceLabels":[{"label":"parish","lang":"en"}]}],"geometry":{"type":"GeometryCollection","geometries":[{"type":"Point","coordinates":[-1.88256,52.23882],"citations":[{"label":"GeoNames, gazetteer record geonames:7297410"}]},{"type":"Point","coordinates":[-1.890146560579902,52.24223863358763],"citations":[{"label":"Unlock (EDINA) gazetteer, gazetteer record unlock:11117324"}]},{"type":"Point","coordinates":[-1.87692,52.2426],"citations":[{"label":"Key to English Place-Names (KEPN), gazetteer record 4863"}]}]},"links":[{"type":"closeMatch","identifier":"https://sws.geonames.org/7297410/"}],"relations":[{"relationType":"gvp:broaderPartitive","relationTo":"https://w3id.org/whg-epns/13/006294","label":"within Ferncumbe Hundred"}]}]}