{"@context":"https://raw.githubusercontent.com/LinkedPasts/linked-places-format/main/linkedplaces-context-v1.1.jsonld","type":"FeatureCollection","license":"Digitisation of English Placenames MADS data is licensed to Jisc by the English Place Names Society and released under a Creative Commons Attribution-NonCommercial 4.0 International License.","note":"LPF v1.3, lossy; derived from the PLATO record; plato_commit=ca0afadabec1e23a145c0b03df77e8f151f79832","features":[{"@id":"https://w3id.org/whg-epns/13/006839","type":"Feature","properties":{"title":"Fulbrook","ccodes":["GB"],"fclasses":["A","P"]},"names":[{"toponym":"Fulbrook","lang":"en","citations":[{"label":"English Place-Name Society survey, volume 13: Warwickshire"}]},{"toponym":"Fulebroc","citations":[{"label":"1086 DB","year":1086},{"label":"1123 Warwick","year":1123},{"label":"1175 P","year":1175},{"label":"1198 FF","year":1198}],"when":{"timespans":[{"start":{"in":"1086"},"end":{"in":"1086"}},{"start":{"in":"1123"},"end":{"in":"1123"}},{"start":{"in":"1175"},"end":{"in":"1175"}},{"start":{"in":"1198"},"end":{"in":"1198"}}]}},{"toponym":"Fulbroche","citations":[{"label":"1174 P","year":1174}],"when":{"timespans":[{"start":{"in":"1174"},"end":{"in":"1174"}}]}},{"toponym":"Folebroke","citations":[{"label":"1242 Fees","year":1242},{"label":"1275 RH","year":1275},{"label":"1285 FF","year":1285}],"when":{"timespans":[{"start":{"in":"1242"},"end":{"in":"1242"}},{"start":{"in":"1275"},"end":{"in":"1275"}},{"start":{"in":"1285"},"end":{"in":"1285"}}]}},{"toponym":"Full(e)brok","citations":[{"label":"1241 FF","year":1241},{"label":"1315 Ipm","year":1315}],"when":{"timespans":[{"start":{"in":"1241"},"end":{"in":"1241"}},{"start":{"in":"1254"},"end":{"in":"1254"}},{"start":{"in":"1315"},"end":{"in":"1315"}}]}},{"toponym":"Foulebrok(e)","citations":[{"label":"1293 Ass","year":1293},{"label":"1368 IpmR","year":1368}],"when":{"timespans":[{"start":{"in":"1293"},"end":{"in":"1293"}},{"start":{"in":"1368"},"end":{"in":"1368"}}]}}],"types":[{"identifier":"http://vocab.getty.edu/aat/300232418","label":"administrative division","sourceLabels":[{"label":"township","lang":"en"}]}],"geometry":{"type":"GeometryCollection","geometries":[{"type":"Point","coordinates":[-1.63864,52.24413],"citations":[{"label":"GeoNames, gazetteer record geonames:7292690"}]},{"type":"Point","coordinates":[-1.6426,52.2421],"citations":[{"label":"Key to English Place-Names (KEPN), gazetteer record 4865"}]}]},"when":{"timespans":[{"start":{"in":"1086"},"end":{"in":"1368"}}]},"links":[{"type":"closeMatch","identifier":"https://sws.geonames.org/7292690/"}],"relations":[{"relationType":"gvp:broaderPartitive","relationTo":"https://w3id.org/whg-epns/13/006838","label":"within Fulbrook"}]}]}