{"@context":"https://raw.githubusercontent.com/LinkedPasts/linked-places-format/main/linkedplaces-context-v1.1.jsonld","type":"FeatureCollection","license":"Digitisation of English Placenames MADS data is licensed to Jisc by the English Place Names Society and released under a Creative Commons Attribution-NonCommercial 4.0 International License.","note":"LPF v1.3, lossy; derived from the PLATO record; plato_commit=ca0afadabec1e23a145c0b03df77e8f151f79832","features":[{"@id":"http://placenames.org.uk/id/placename/13/007626","type":"Feature","properties":{"title":"Alveston","ccodes":["GB"],"fclasses":["A","P"]},"names":[{"toponym":"Alveston","lang":"en","citations":[{"label":"English Place-Name Society survey, volume 13: Warwickshire"}]}],"types":[{"identifier":"http://vocab.getty.edu/aat/300232418","label":"administrative division","sourceLabels":[{"label":"parish","lang":"en"}]}],"geometry":{"type":"GeometryCollection","geometries":[{"type":"Point","coordinates":[-1.65,52.2],"citations":[{"label":"GeoNames, gazetteer record geonames:2657387"}]},{"type":"Point","coordinates":[-1.656073551704379,52.20582300463398],"citations":[{"label":"Unlock (EDINA) gazetteer, gazetteer record unlock:11061540"}]},{"type":"Point","coordinates":[-1.65752,52.2062],"citations":[{"label":"Key to English Place-Names (KEPN), gazetteer record 5008"}]}]},"links":[{"type":"closeMatch","identifier":"https://sws.geonames.org/2657387/"}],"relations":[{"relationType":"gvp:broaderPartitive","relationTo":"http://placenames.org.uk/id/placename/13/007618","label":"within Pathlow Hundred"}]}]}