{"@context":"https://raw.githubusercontent.com/LinkedPasts/linked-places-format/main/linkedplaces-context-v1.1.jsonld","type":"FeatureCollection","license":"Digitisation of English Placenames MADS data is licensed to Jisc by the English Place Names Society and released under a Creative Commons Attribution-NonCommercial 4.0 International License.","note":"LPF v1.3, lossy; derived from the PLATO record; plato_commit=fa0d247ccc0263f8f19c8d7cdcd163df96935d1e","features":[{"@id":"https://w3id.org/whg-epns/13/008685","type":"Feature","properties":{"title":"Warwick","ccodes":["GB"],"fclasses":["A","P"]},"names":[{"toponym":"Warwick","lang":"en","citations":[{"label":"English Place-Name Society survey, volume 13: Warwickshire"}]},{"toponym":"Veri","citations":[{"label":"t. Aethelstan Coins","year":925}],"when":{"timespans":[{"start":{"earliest":"0925","latest":"0940"},"end":{"earliest":"0925","latest":"0940"}}]}},{"toponym":"Wærine","citations":[{"label":"t. Cnut Coins","year":1017}],"when":{"timespans":[{"start":{"earliest":"1017","latest":"1035"},"end":{"earliest":"1017","latest":"1035"}}]}},{"toponym":"Wærincw","citations":[{"label":"t. Harold 1 Coins","year":1035}],"when":{"timespans":[{"start":{"earliest":"1035","latest":"1040"},"end":{"earliest":"1035","latest":"1040"}}]}},{"toponym":"Wearw","citations":[{"label":"t. Harold 2 Coins","year":1066}],"when":{"timespans":[{"start":{"in":"1066"},"end":{"in":"1066"}}]}},{"toponym":"(in) Wærinc wicum","citations":[{"label":"1001 KCD","year":1001}],"when":{"timespans":[{"start":{"in":"1001"},"end":{"in":"1001"}}]}},{"toponym":"(on) Wærincwican","citations":[{"label":"1016 KCD","year":1016}],"when":{"timespans":[{"start":{"in":"1016"},"end":{"in":"1016"}}]}},{"toponym":"Wærinc wic","citations":[{"label":"c. 1050 ASC","year":1040}],"when":{"timespans":[{"start":{"earliest":"1040","latest":"1060"},"end":{"earliest":"1040","latest":"1060"}}]}},{"toponym":"(æt) Wæring wicum","citations":[{"label":"c. 1050 ASC","year":1040}],"when":{"timespans":[{"start":{"earliest":"1040","latest":"1060"},"end":{"earliest":"1040","latest":"1060"}}]}},{"toponym":"(into) Wærincg wican","citations":[{"label":"11th BCS","year":1000}],"when":{"timespans":[{"start":{"earliest":"1000","latest":"1100"},"end":{"earliest":"1000","latest":"1100"}}]}},{"toponym":"Warvic","citations":[{"label":"1086 DB","year":1086}],"when":{"timespans":[{"start":{"in":"1086"},"end":{"in":"1086"}}]}},{"toponym":"Warwic","citations":[{"label":"DB","year":1086},{"label":"1086 DB","year":1086}],"when":{"timespans":[{"start":{"in":"1086"},"end":{"in":"1086"}},{"start":{"in":"1086"},"end":{"in":"1086"}}]}},{"toponym":"Warwye, Warwyk, Warwik","citations":[{"label":"1086-1600 unspecified sources","year":1086}],"when":{"timespans":[{"start":{"in":"1086"},"end":{"in":"1600"}}]}},{"toponym":"Warwick","citations":[{"label":"1268 Ipm","year":1268},{"label":"1409 AD","year":1409}],"when":{"timespans":[{"start":{"in":"1268"},"end":{"in":"1268"}},{"start":{"in":"1409"},"end":{"in":"1409"}}]}},{"toponym":"Guarewic","citations":[{"label":"t. Hy 1 Kenilworth","year":1100}],"when":{"timespans":[{"start":{"earliest":"1100","latest":"1135"},"end":{"earliest":"1100","latest":"1135"}}]}},{"toponym":"Warrewych","citations":[{"label":"t. Hy 2 Ch","year":1154}],"when":{"timespans":[{"start":{"earliest":"1154","latest":"1189"},"end":{"earliest":"1154","latest":"1189"}}]}},{"toponym":"Wærewic","citations":[{"label":"c. 1150 FW","year":1140}],"when":{"timespans":[{"start":{"earliest":"1140","latest":"1160"},"end":{"earliest":"1140","latest":"1160"}}]}},{"toponym":"Warewiche","citations":[{"label":"1173 P","year":1173}],"when":{"timespans":[{"start":{"in":"1173"},"end":{"in":"1173"}},{"start":{"in":"1181"},"end":{"in":"1181"}},{"start":{"in":"1190"},"end":{"in":"1190"}}]}},{"toponym":"Warewike","citations":[{"label":"13th AD","year":1200}],"when":{"timespans":[{"start":{"earliest":"1200","latest":"1300"},"end":{"earliest":"1200","latest":"1300"}}]}},{"toponym":"Warrewic(k)","citations":[{"label":"t. Ric i Ch","year":1189}],"when":{"timespans":[{"start":{"earliest":"1189","latest":"1199"},"end":{"earliest":"1189","latest":"1199"}}]}},{"toponym":"Warrywic(k)","citations":[{"label":"1207 Cur","year":1207},{"label":"c. 1286 AD","year":1276}],"when":{"timespans":[{"start":{"in":"1207"},"end":{"in":"1207"}},{"start":{"earliest":"1276","latest":"1296"},"end":{"earliest":"1276","latest":"1296"}}]}},{"toponym":"Warrewyk","citations":[{"label":"1304 AD","year":1304},{"label":"1344 Ipm","year":1344}],"when":{"timespans":[{"start":{"in":"1304"},"end":{"in":"1304"}},{"start":{"in":"1344"},"end":{"in":"1344"}},{"start":{"in":"1486"},"end":{"in":"1486"}}]}}],"types":[{"identifier":"http://vocab.getty.edu/aat/300232418","label":"administrative division","sourceLabels":[{"label":"township","lang":"en"}]}],"geometry":{"type":"GeometryCollection","geometries":[{"type":"Point","coordinates":[-1.58333,52.28333],"citations":[{"label":"GeoNames, gazetteer record geonames:2634725"}]},{"type":"Point","coordinates":[-1.582140134589936,52.28650722319568],"citations":[{"label":"Unlock (EDINA) gazetteer, gazetteer record unlock:11313882"}]},{"type":"Point","coordinates":[-1.5836,52.2869],"citations":[{"label":"Key to English Place-Names (KEPN), gazetteer record 5066"}]}]},"when":{"timespans":[{"start":{"in":"0925"},"end":{"in":"1600"}}]},"links":[{"type":"closeMatch","identifier":"https://sws.geonames.org/2634725/"}],"relations":[{"relationType":"gvp:broaderPartitive","relationTo":"https://w3id.org/whg-epns/13/008684","label":"within Warwick St Mary and St Nicholas"}]}]}