{"@context":"https://raw.githubusercontent.com/LinkedPasts/linked-places-format/main/linkedplaces-context-v1.1.jsonld","type":"FeatureCollection","license":"Digitisation of English Placenames MADS data is licensed to Jisc by the English Place Names Society and released under a Creative Commons Attribution-NonCommercial 4.0 International License.","note":"LPF v1.3, lossy; derived from the PLATO record; plato_commit=ca0afadabec1e23a145c0b03df77e8f151f79832","features":[{"@id":"https://w3id.org/whg-epns/13/009101","type":"Feature","properties":{"title":"Priors Hardwick","ccodes":["GB"],"fclasses":["A","P"]},"names":[{"toponym":"Priors Hardwick","lang":"en","citations":[{"label":"English Place-Name Society survey, volume 13: Warwickshire"}]},{"toponym":"Herdewyk","citations":[{"label":"1043 KCD","year":1043}],"when":{"timespans":[{"start":{"in":"1043"},"end":{"in":"1043"}}]}},{"toponym":"Herdewiche","citations":[{"label":"1086 DB","year":1086},{"label":"1194 Cur","year":1194},{"label":"1195 P","year":1195}],"when":{"timespans":[{"start":{"in":"1086"},"end":{"in":"1086"}},{"start":{"in":"1194"},"end":{"in":"1194"}},{"start":{"in":"1195"},"end":{"in":"1195"}}]}},{"toponym":"Herdewyk Priour","citations":[{"label":"1310 AD","year":1310}],"when":{"timespans":[{"start":{"in":"1310"},"end":{"in":"1310"}}]}},{"toponym":"Prioures Herdywyk","citations":[{"label":"1401 AD","year":1401}],"when":{"timespans":[{"start":{"in":"1401"},"end":{"in":"1401"}}]}},{"toponym":"Herdwike","citations":[{"label":"c. 1048 KCD","year":1038}],"when":{"timespans":[{"start":{"earliest":"1038","latest":"1058"},"end":{"earliest":"1038","latest":"1058"}}]}},{"toponym":"Herdwic","citations":[{"label":"1236 FF","year":1236},{"label":"1316 FA","year":1316}],"when":{"timespans":[{"start":{"in":"1236"},"end":{"in":"1236"}},{"start":{"in":"1316"},"end":{"in":"1316"}}]}},{"toponym":"Herdewyke Prior or Hardewyk Prior","citations":[{"label":"1488 Pat","year":1488}],"when":{"timespans":[{"start":{"in":"1488"},"end":{"in":"1488"}}]}},{"toponym":"Hardewyk","citations":[{"label":"1535 VE","year":1535}],"when":{"timespans":[{"start":{"in":"1535"},"end":{"in":"1535"}}]}},{"toponym":"Prioris","citations":[{"label":"1558 BM","year":1558}],"when":{"timespans":[{"start":{"in":"1558"},"end":{"in":"1558"}}]}}],"types":[{"identifier":"http://vocab.getty.edu/aat/300232418","label":"administrative division","sourceLabels":[{"label":"township","lang":"en"}]}],"geometry":{"type":"GeometryCollection","geometries":[{"type":"Point","coordinates":[-1.32578,52.20701],"citations":[{"label":"GeoNames, gazetteer record geonames:7297423"}]},{"type":"Point","coordinates":[-1.304990720645723,52.19528600595504],"citations":[{"label":"Unlock (EDINA) gazetteer, gazetteer record unlock:11250296"}]},{"type":"Point","coordinates":[-1.30634,52.2047],"citations":[{"label":"Key to English Place-Names (KEPN), gazetteer record 4964"}]}]},"when":{"timespans":[{"start":{"in":"1038"},"end":{"in":"1558"}}]},"links":[{"type":"closeMatch","identifier":"https://sws.geonames.org/7297423/"}],"relations":[{"relationType":"gvp:broaderPartitive","relationTo":"https://w3id.org/whg-epns/13/009100","label":"within Priors Hardwick"}]}]}