{"@context":"https://raw.githubusercontent.com/LinkedPasts/linked-places-format/main/linkedplaces-context-v1.1.jsonld","type":"FeatureCollection","license":"Digitisation of English Placenames MADS data is licensed to Jisc by the English Place Names Society and released under a Creative Commons Attribution-NonCommercial 4.0 International License.","note":"LPF v1.3, lossy; derived from the PLATO record; plato_commit=ca0afadabec1e23a145c0b03df77e8f151f79832","features":[{"@id":"http://placenames.org.uk/id/placename/13/009430","type":"Feature","properties":{"title":"Oxhill","ccodes":["GB"],"fclasses":["A","P"]},"names":[{"toponym":"Oxhill","lang":"en","citations":[{"label":"English Place-Name Society survey, volume 13: Warwickshire"}]}],"types":[{"identifier":"http://vocab.getty.edu/aat/300232418","label":"administrative division","sourceLabels":[{"label":"parish","lang":"en"}]}],"geometry":{"type":"GeometryCollection","geometries":[{"type":"Point","coordinates":[-1.53852,52.10759],"citations":[{"label":"GeoNames, gazetteer record geonames:2640725"}]},{"type":"Point","coordinates":[-1.540016389356727,52.10652038355979],"citations":[{"label":"Unlock (EDINA) gazetteer, gazetteer record unlock:11238336"}]},{"type":"Point","coordinates":[-1.54147,52.1069],"citations":[{"label":"Key to English Place-Names (KEPN), gazetteer record 4899"}]}]},"links":[{"type":"closeMatch","identifier":"https://sws.geonames.org/2640725/"}],"relations":[{"relationType":"gvp:broaderPartitive","relationTo":"http://placenames.org.uk/id/placename/13/009259","label":"within Fexhole Hundred"}]}]}