{"@context":"https://raw.githubusercontent.com/LinkedPasts/linked-places-format/main/linkedplaces-context-v1.1.jsonld","type":"FeatureCollection","license":"Digitisation of English Placenames MADS data is licensed to Jisc by the English Place Names Society and released under a Creative Commons Attribution-NonCommercial 4.0 International License.","note":"LPF v1.3, lossy; derived from the PLATO record; plato_commit=ca0afadabec1e23a145c0b03df77e8f151f79832","features":[{"@id":"http://placenames.org.uk/id/placename/13/010085","type":"Feature","properties":{"title":"Ilmington","ccodes":["GB"],"fclasses":["A","P"]},"names":[{"toponym":"Ilmington","lang":"en","citations":[{"label":"English Place-Name Society survey, volume 13: Warwickshire"}]},{"toponym":"Ylman dunes gemære","citations":[{"label":"978 KCD","year":978}],"when":{"timespans":[{"start":{"in":"0978"},"end":{"in":"0978"}}]}},{"toponym":"(æt) Ylmondune","citations":[{"label":"c. 1000 Aelfric, Dedicatory Epistle to Homilies","year":990}],"when":{"timespans":[{"start":{"earliest":"0990","latest":"1010"},"end":{"earliest":"0990","latest":"1010"}}]}},{"toponym":"Edelmitone","citations":[{"label":"1086 DB","year":1086}],"when":{"timespans":[{"start":{"in":"1086"},"end":{"in":"1086"}}]}},{"toponym":"Ilmedon(e)","citations":[{"label":"1086 DB","year":1086}],"when":{"timespans":[{"start":{"in":"1086"},"end":{"in":"1086"}}]}},{"toponym":"Ilmedone","citations":[{"label":"1247–1428, recurring Fees","year":1247},{"label":"1247–1428, recurring FA"},{"label":"1247 Fees","year":1247},{"label":"1428 FA","year":1428}],"when":{"timespans":[{"start":{"in":"1247"},"end":{"in":"1428"}},{"start":{"in":"1247"},"end":{"in":"1247"}},{"start":{"in":"1428"},"end":{"in":"1428"}}]}},{"toponym":"Ilmedona","citations":[{"label":"1168 P","year":1168}],"when":{"timespans":[{"start":{"in":"1168"},"end":{"in":"1168"}}]}},{"toponym":"Ylmedon","citations":[{"label":"t. Hy 3 CartMisc","year":1216}],"when":{"timespans":[{"start":{"earliest":"1216","latest":"1272"},"end":{"earliest":"1216","latest":"1272"}}]}},{"toponym":"Imeldona","citations":[{"label":"1178 P","year":1178}],"when":{"timespans":[{"start":{"in":"1178"},"end":{"in":"1178"}}]}},{"toponym":"Illamedone","citations":[{"label":"1204 Cl","year":1204}],"when":{"timespans":[{"start":{"in":"1204"},"end":{"in":"1204"}}]}},{"toponym":"Hylmendone","citations":[{"label":"1227 FF","year":1227},{"label":"1232 Ass","year":1232}],"when":{"timespans":[{"start":{"in":"1227"},"end":{"in":"1227"}},{"start":{"in":"1232"},"end":{"in":"1232"}}]}},{"toponym":"Hilmendon","citations":[{"label":"1262 Ass","year":1262}],"when":{"timespans":[{"start":{"in":"1262"},"end":{"in":"1262"}}]}},{"toponym":"Hulmendon","citations":[{"label":"1376 AD","year":1376}],"when":{"timespans":[{"start":{"in":"1376"},"end":{"in":"1376"}}]}},{"toponym":"Ilmyndon(e)","citations":[{"label":"1269–1428, recurring Wigorn","year":1269},{"label":"1269–1428, recurring AD"},{"label":"1269 Wigorn","year":1269},{"label":"1428 AD","year":1428}],"when":{"timespans":[{"start":{"in":"1269"},"end":{"in":"1428"}},{"start":{"in":"1269"},"end":{"in":"1269"}},{"start":{"in":"1428"},"end":{"in":"1428"}}]}},{"toponym":"Ilmendon(e)","citations":[{"label":"1248 Cl","year":1248},{"label":"1272 FF","year":1272},{"label":"1298 Ipm","year":1298}],"when":{"timespans":[{"start":{"in":"1248"},"end":{"in":"1248"}},{"start":{"in":"1272"},"end":{"in":"1272"}},{"start":{"in":"1298"},"end":{"in":"1298"}}]}},{"toponym":"Ilmyngdon(e)","citations":[{"label":"1306 Ass","year":1306},{"label":"1496 Pat","year":1496},{"label":"1535 VE","year":1535}],"when":{"timespans":[{"start":{"in":"1306"},"end":{"in":"1306"}},{"start":{"in":"1496"},"end":{"in":"1496"}},{"start":{"in":"1535"},"end":{"in":"1535"}}]}},{"toponym":"Ilmyngton","citations":[{"label":"1535 VE","year":1535}],"when":{"timespans":[{"start":{"in":"1535"},"end":{"in":"1535"}}]}},{"toponym":"Elmyngdon","citations":[{"label":"1445 Pat","year":1445}],"when":{"timespans":[{"start":{"in":"1445"},"end":{"in":"1445"}}]}}],"types":[{"identifier":"http://vocab.getty.edu/aat/300232418","label":"administrative division","sourceLabels":[{"label":"township","lang":"en"}]}],"geometry":{"type":"GeometryCollection","geometries":[{"type":"Point","coordinates":[-1.69138,52.08921],"citations":[{"label":"GeoNames, gazetteer record geonames:2646266"}]},{"type":"Point","coordinates":[-1.686166234230772,52.08901670741812],"citations":[{"label":"Unlock (EDINA) gazetteer, gazetteer record unlock:11182267"}]},{"type":"Point","coordinates":[-1.6876,52.0894],"citations":[{"label":"Key to English Place-Names (KEPN), gazetteer record 4815"}]}]},"when":{"timespans":[{"start":{"in":"0978"},"end":{"in":"1535"}}]},"links":[{"type":"closeMatch","identifier":"https://sws.geonames.org/2646266/"}],"relations":[{"relationType":"gvp:broaderPartitive","relationTo":"http://placenames.org.uk/id/placename/13/010084","label":"within Ilmington"}]}]}