{"@context":"https://raw.githubusercontent.com/LinkedPasts/linked-places-format/main/linkedplaces-context-v1.1.jsonld","type":"FeatureCollection","license":"Digitisation of English Placenames MADS data is licensed to Jisc by the English Place Names Society and released under a Creative Commons Attribution-NonCommercial 4.0 International License.","note":"LPF v1.3, lossy; derived from the PLATO record; plato_commit=fa0d247ccc0263f8f19c8d7cdcd163df96935d1e","features":[{"@id":"https://w3id.org/whg-epns/13/010038","type":"Feature","properties":{"title":"Great and Little Wolford","ccodes":["GB"],"fclasses":["A","P"]},"names":[{"toponym":"Great and Little Wolford","lang":"en","citations":[{"label":"English Place-Name Society survey, volume 13: Warwickshire"}]},{"toponym":"Volwarde, Worwarde, Ulwarda, Ulware","citations":[{"label":"1086 DB","year":1086}],"when":{"timespans":[{"start":{"in":"1086"},"end":{"in":"1086"}}]}},{"toponym":"Wlfuuardia","citations":[{"label":"c. 1140 BM","year":1130}],"when":{"timespans":[{"start":{"earliest":"1130","latest":"1150"},"end":{"earliest":"1130","latest":"1150"}}]}},{"toponym":"Wlfward","citations":[{"label":"1138-47 Stafford","year":1138},{"label":"1212 RBE","year":1212}],"when":{"timespans":[{"start":{"earliest":"1138","latest":"1147"},"end":{"earliest":"1138","latest":"1147"}},{"start":{"in":"1212"},"end":{"in":"1212"}}]}},{"toponym":"Wulfward","citations":[{"label":"1177 CR","year":1177}],"when":{"timespans":[{"start":{"in":"1177"},"end":{"in":"1177"}}]}},{"toponym":"Wlwarda","citations":[{"label":"1170 Ch","year":1170},{"label":"1201 Cur","year":1201}],"when":{"timespans":[{"start":{"in":"1170"},"end":{"in":"1170"}},{"start":{"in":"1201"},"end":{"in":"1201"}}]}},{"toponym":"Wluuard","citations":[{"label":"1199 FF","year":1199},{"label":"1235 Fees","year":1235}],"when":{"timespans":[{"start":{"in":"1199"},"end":{"in":"1199"}},{"start":{"in":"1225"},"end":{"in":"1225"}},{"start":{"in":"1235"},"end":{"in":"1235"}}]}},{"toponym":"Parva Wlward","citations":[{"label":"1227 FF","year":1227},{"label":"1301 Ch","year":1301}],"when":{"timespans":[{"start":{"in":"1227"},"end":{"in":"1227"}},{"start":{"in":"1301"},"end":{"in":"1301"}}]}},{"toponym":"Wul(e)ward","citations":[{"label":"1232 Cl","year":1232},{"label":"1266 Merton","year":1266}],"when":{"timespans":[{"start":{"in":"1232"},"end":{"in":"1232"}},{"start":{"in":"1266"},"end":{"in":"1266"}}]}},{"toponym":"Magna, Parva Woluuarde","citations":[{"label":"1247 SR","year":1247}],"when":{"timespans":[{"start":{"in":"1247"},"end":{"in":"1247"}}]}},{"toponym":"Chirkewoleward","citations":[{"label":"1262 Ass","year":1262},{"label":"1262 Ass","year":1262}],"when":{"timespans":[{"start":{"in":"1262"},"end":{"in":"1262"}},{"start":{"in":"1262"},"end":{"in":"1262"}}]}},{"toponym":"Cherchewolward","citations":[{"label":"1272 Ass","year":1272}],"when":{"timespans":[{"start":{"in":"1272"},"end":{"in":"1272"}}]}},{"toponym":"Wolward","citations":[{"label":"1310 Merton","year":1310}],"when":{"timespans":[{"start":{"in":"1310"},"end":{"in":"1310"}}]}},{"toponym":"Wlfarde","citations":[{"label":"1199 FF","year":1199}],"when":{"timespans":[{"start":{"in":"1199"},"end":{"in":"1199"}}]}},{"toponym":"Wolfarde parva","citations":[{"label":"1279 Nott","year":1279}],"when":{"timespans":[{"start":{"in":"1279"},"end":{"in":"1279"}}]}},{"toponym":"Wlford","citations":[{"label":"1199 FF","year":1199}],"when":{"timespans":[{"start":{"in":"1199"},"end":{"in":"1199"}}]}},{"toponym":"Wolvord","citations":[{"label":"1291 Tax","year":1291}],"when":{"timespans":[{"start":{"in":"1291"},"end":{"in":"1291"}}]}},{"toponym":"Wolforde magna, Wolforde parva","citations":[{"label":"1327 SR","year":1327}],"when":{"timespans":[{"start":{"in":"1327"},"end":{"in":"1327"}}]}},{"toponym":"Wolford","citations":[{"label":"1351 Pat","year":1351}],"when":{"timespans":[{"start":{"in":"1351"},"end":{"in":"1351"}}]}},{"toponym":"Wulford","citations":[{"label":"1372 IpmR","year":1372}],"when":{"timespans":[{"start":{"in":"1372"},"end":{"in":"1372"}}]}},{"toponym":"Much Wolford","citations":[{"label":"1518 Compton","year":1518}],"when":{"timespans":[{"start":{"in":"1518"},"end":{"in":"1518"}}]}},{"toponym":"Wolford Mychell","citations":[{"label":"1544 Merton","year":1544}],"when":{"timespans":[{"start":{"in":"1544"},"end":{"in":"1544"}}]}},{"toponym":"Wolford al. Wolvord","citations":[{"label":"1604 FF","year":1604}],"when":{"timespans":[{"start":{"in":"1604"},"end":{"in":"1604"}}]}},{"toponym":"Greate Woollford","citations":[{"label":"1695 Merton","year":1695}],"when":{"timespans":[{"start":{"in":"1695"},"end":{"in":"1695"}}]}},{"toponym":"Wuleward","citations":[{"label":"1213 Cur","year":1213}],"when":{"timespans":[{"start":{"in":"1213"},"end":{"in":"1213"}}]}},{"toponym":"Wulewardia","citations":[{"label":"1225 Bracton","year":1225}],"when":{"timespans":[{"start":{"in":"1225"},"end":{"in":"1225"}}]}},{"toponym":"Wolewarth","citations":[{"label":"1235 Fees","year":1235}],"when":{"timespans":[{"start":{"in":"1235"},"end":{"in":"1235"}}]}},{"toponym":"Magna, Parva Wulleward","citations":[{"label":"1242 Fees","year":1242}],"when":{"timespans":[{"start":{"in":"1242"},"end":{"in":"1242"}}]}},{"toponym":"(parva) Wolleward(e)","citations":[{"label":"1266 Merton","year":1266},{"label":"1272 Ass","year":1272}],"when":{"timespans":[{"start":{"in":"1266"},"end":{"in":"1266"}},{"start":{"in":"1272"},"end":{"in":"1272"}}]}},{"toponym":"Wulleward","citations":[{"label":"1301 Abbr","year":1301}],"when":{"timespans":[{"start":{"in":"1301"},"end":{"in":"1301"}}]}}],"types":[{"identifier":"http://vocab.getty.edu/aat/300232418","label":"administrative division","sourceLabels":[{"label":"township","lang":"en"}]}],"geometry":{"type":"Point","coordinates":[-1.62989,52.0084],"citations":[{"label":"Key to English Place-Names (KEPN), gazetteer record 4814"}]},"when":{"timespans":[{"start":{"in":"1086"},"end":{"in":"1695"}}]},"relations":[{"relationType":"gvp:broaderPartitive","relationTo":"https://w3id.org/whg-epns/13/010037","label":"within Wolford"}]}]}