{"@context":"https://raw.githubusercontent.com/LinkedPasts/linked-places-format/main/linkedplaces-context-v1.1.jsonld","type":"FeatureCollection","license":"Digitisation of English Placenames MADS data is licensed to Jisc by the English Place Names Society and released under a Creative Commons Attribution-NonCommercial 4.0 International License.","note":"LPF v1.3, lossy; derived from the PLATO record; plato_commit=fa0d247ccc0263f8f19c8d7cdcd163df96935d1e","features":[{"@id":"https://w3id.org/whg-epns/81/002803","type":"Feature","properties":{"title":"Burton on the Wolds","ccodes":["GB"],"fclasses":["A","P"]},"names":[{"toponym":"Burton on the Wolds","lang":"en","citations":[{"label":"English Place-Name Society survey, volume 81: Leicestershire"}]}],"types":[{"identifier":"http://vocab.getty.edu/aat/300232418","label":"administrative division","sourceLabels":[{"label":"parish","lang":"en"}]}],"geometry":{"type":"GeometryCollection","geometries":[{"type":"Point","coordinates":[-1.12988,52.78574],"citations":[{"label":"GeoNames, gazetteer record geonames:2654206"}]},{"type":"Point","coordinates":[-1.117632822953439,52.78745744548483],"citations":[{"label":"Unlock (EDINA) gazetteer, gazetteer record unlock:11094159"}]},{"type":"Point","coordinates":[-1.11916,52.7878],"citations":[{"label":"Key to English Place-Names (KEPN), gazetteer record 8809"}]}]},"links":[{"type":"closeMatch","identifier":"https://sws.geonames.org/2654206/"}],"relations":[{"relationType":"gvp:broaderPartitive","relationTo":"https://w3id.org/whg-epns/81/000002","label":"within East Goscote Hundred"}]}]}