{"@context":"https://raw.githubusercontent.com/LinkedPasts/linked-places-format/main/linkedplaces-context-v1.1.jsonld","type":"FeatureCollection","license":"Digitisation of English Placenames MADS data is licensed to Jisc by the English Place Names Society and released under a Creative Commons Attribution-NonCommercial 4.0 International License.","note":"LPF v1.3, lossy; derived from the PLATO record; plato_commit=fa0d247ccc0263f8f19c8d7cdcd163df96935d1e","features":[{"@id":"https://w3id.org/whg-epns/81/006061","type":"Feature","properties":{"title":"Grimston","ccodes":["GB"],"fclasses":["A","P"]},"names":[{"toponym":"Grimston","lang":"en","citations":[{"label":"English Place-Name Society survey, volume 81: Leicestershire"}]}],"types":[{"identifier":"http://vocab.getty.edu/aat/300232418","label":"administrative division","sourceLabels":[{"label":"parish","lang":"en"}]}],"geometry":{"type":"GeometryCollection","geometries":[{"type":"Point","coordinates":[-0.98656,52.79011],"citations":[{"label":"GeoNames, gazetteer record geonames:2647874"}]},{"type":"Point","coordinates":[-0.984186882545879,52.7863900618677],"citations":[{"label":"Unlock (EDINA) gazetteer, gazetteer record unlock:11161349"}]},{"type":"Point","coordinates":[-0.985733,52.7867],"citations":[{"label":"Key to English Place-Names (KEPN), gazetteer record 8815"}]}]},"links":[{"type":"closeMatch","identifier":"https://sws.geonames.org/2647874/"}],"relations":[{"relationType":"gvp:broaderPartitive","relationTo":"https://w3id.org/whg-epns/81/000002","label":"within East Goscote Hundred"}]}]}