{"@context":"https://raw.githubusercontent.com/LinkedPasts/linked-places-format/main/linkedplaces-context-v1.1.jsonld","type":"FeatureCollection","license":"Digitisation of English Placenames MADS data is licensed to Jisc by the English Place Names Society and released under a Creative Commons Attribution-NonCommercial 4.0 International License.","note":"LPF v1.3, lossy; derived from the PLATO record; plato_commit=ca0afadabec1e23a145c0b03df77e8f151f79832","features":[{"@id":"https://w3id.org/whg-epns/81/006358","type":"Feature","properties":{"title":"Shoby","ccodes":["GB"],"fclasses":["A","P"]},"names":[{"toponym":"Shoby","lang":"en","citations":[{"label":"English Place-Name Society survey, volume 81: Leicestershire"}]},{"toponym":"Seoldesberie","citations":[{"label":"1086 DB","year":1086}],"when":{"timespans":[{"start":{"in":"1086"},"end":{"in":"1086"}}]}},{"toponym":"Siwaldebia","citations":[{"label":"c.1130 LeicSurv","year":1120}],"when":{"timespans":[{"start":{"earliest":"1120","latest":"1140"},"end":{"earliest":"1120","latest":"1140"}}]}},{"toponym":"Siwaldebi","citations":[{"label":"Hy 2 Dane","year":1154},{"label":"e.13 Berkeley","year":1200}],"when":{"timespans":[{"start":{"earliest":"1154","latest":"1189"},"end":{"earliest":"1154","latest":"1189"}},{"start":{"earliest":"1200","latest":"1225"},"end":{"earliest":"1200","latest":"1225"}},{"start":{"earliest":"1230","latest":"1250"},"end":{"earliest":"1230","latest":"1250"}}]}},{"toponym":"Siwaldeby","citations":[{"label":"1220 MHW","year":1220},{"label":"1349 Nichols","year":1349}],"when":{"timespans":[{"start":{"in":"1220"},"end":{"in":"1220"}},{"start":{"in":"1349"},"end":{"in":"1349"}}]}},{"toponym":"Sywaldeby","citations":[{"label":"1238–1301, recurring RGros","year":1238},{"label":"1238–1301, recurring Tax"},{"label":"1238 RGros","year":1238},{"label":"c.1291 Tax","year":1281},{"label":"1344 Pat","year":1344}],"when":{"timespans":[{"start":{"in":"1238"},"end":{"in":"1301"}},{"start":{"in":"1238"},"end":{"in":"1238"}},{"start":{"in":"1242"},"end":{"in":"1242"}},{"start":{"earliest":"1281","latest":"1301"},"end":{"earliest":"1281","latest":"1301"}},{"start":{"in":"1344"},"end":{"in":"1344"}}]}},{"toponym":"Siwoldebi","citations":[{"label":"c.1240 Berkeley","year":1230}],"when":{"timespans":[{"start":{"earliest":"1230","latest":"1250"},"end":{"earliest":"1230","latest":"1250"}}]}},{"toponym":"Siwoldeby","citations":[{"label":"1247 Ass","year":1247},{"label":"1254–1322, recurring Val","year":1254},{"label":"1254–1322, recurring Hastings"},{"label":"1254 Val","year":1254},{"label":"1314 Hastings","year":1314},{"label":"1375 Banco","year":1375},{"label":"1377 SR","year":1377}],"when":{"timespans":[{"start":{"in":"1247"},"end":{"in":"1247"}},{"start":{"in":"1254"},"end":{"in":"1322"}},{"start":{"in":"1254"},"end":{"in":"1254"}},{"start":{"in":"1314"},"end":{"in":"1314"}},{"start":{"in":"1322"},"end":{"in":"1322"}},{"start":{"in":"1375"},"end":{"in":"1375"}},{"start":{"in":"1377"},"end":{"in":"1377"}}]}},{"toponym":"Sywoldeby","citations":[{"label":"1249 Cur","year":1249},{"label":"1250–1379, recurring RGros","year":1250},{"label":"1250–1379, recurring Banco"},{"label":"1250 RGros","year":1250},{"label":"1373 Banco","year":1373},{"label":"1466 Banco","year":1466}],"when":{"timespans":[{"start":{"in":"1249"},"end":{"in":"1249"}},{"start":{"in":"1250"},"end":{"in":"1379"}},{"start":{"in":"1250"},"end":{"in":"1250"}},{"start":{"in":"1373"},"end":{"in":"1373"}},{"start":{"in":"1379"},"end":{"in":"1379"}},{"start":{"in":"1466"},"end":{"in":"1466"}},{"start":{"in":"1498"},"end":{"in":"1498"}}]}},{"toponym":"Siwaldbi","citations":[{"label":"1242 RGros","year":1242}],"when":{"timespans":[{"start":{"in":"1242"},"end":{"in":"1242"}}]}},{"toponym":"Sywaldby","citations":[{"label":"1386 Fine","year":1386}],"when":{"timespans":[{"start":{"in":"1386"},"end":{"in":"1386"}}]}},{"toponym":"Siwoldby","citations":[{"label":"1316 FA","year":1316}],"when":{"timespans":[{"start":{"in":"1316"},"end":{"in":"1316"}}]}},{"toponym":"Sywoldby","citations":[{"label":"1374 Pat","year":1374},{"label":"1383 Fine","year":1383},{"label":"1510 LP","year":1510},{"label":"c.1545 ECP","year":1535}],"when":{"timespans":[{"start":{"in":"1374"},"end":{"in":"1374"}},{"start":{"in":"1383"},"end":{"in":"1383"}},{"start":{"in":"1510"},"end":{"in":"1510"}},{"start":{"earliest":"1535","latest":"1555"},"end":{"earliest":"1535","latest":"1555"}}]}},{"toponym":"Siwolby","citations":[{"label":"1362 BPR","year":1362}],"when":{"timespans":[{"start":{"in":"1362"},"end":{"in":"1362"}}]}},{"toponym":"Sywolby","citations":[{"label":"1465 Banco","year":1465},{"label":"1559 Pat","year":1559}],"when":{"timespans":[{"start":{"in":"1465"},"end":{"in":"1465"}},{"start":{"in":"1559"},"end":{"in":"1559"}}]}},{"toponym":"Sywalby","citations":[{"label":"1454 Pat","year":1454},{"label":"1465–1547, recurring Banco","year":1465},{"label":"1465–1547, recurring ECP"},{"label":"1465 Banco","year":1465},{"label":"1547 ECP","year":1547}],"when":{"timespans":[{"start":{"in":"1454"},"end":{"in":"1454"}},{"start":{"in":"1465"},"end":{"in":"1547"}},{"start":{"in":"1465"},"end":{"in":"1465"}},{"start":{"in":"1547"},"end":{"in":"1547"}}]}},{"toponym":"Sywouldeby","citations":[{"label":"1531 ISLR","year":1531}],"when":{"timespans":[{"start":{"in":"1531"},"end":{"in":"1531"}}]}},{"toponym":"Sywouldby","citations":[{"label":"c.1545 ECP","year":1535}],"when":{"timespans":[{"start":{"earliest":"1535","latest":"1555"},"end":{"earliest":"1535","latest":"1555"}}]}},{"toponym":"Sywowldbye","citations":[{"label":"1576 Saxton","year":1576}],"when":{"timespans":[{"start":{"in":"1576"},"end":{"in":"1576"}}]}},{"toponym":"Shouldby","citations":[{"label":"1610 Speed","year":1610}],"when":{"timespans":[{"start":{"in":"1610"},"end":{"in":"1610"}}]}},{"toponym":"Sholby","citations":[{"label":"1722 LML","year":1722},{"label":"1547 ECP","year":1547},{"label":"1598–1614, recurring Fine","year":1598},{"label":"1598–1614, recurring LML"},{"label":"1598 Fine","year":1598},{"label":"1614 LML","year":1614},{"label":"1651 Fine","year":1651}],"when":{"timespans":[{"start":{"in":"1722"},"end":{"in":"1722"}},{"start":{"in":"1547"},"end":{"in":"1547"}},{"start":{"in":"1598"},"end":{"in":"1614"}},{"start":{"in":"1598"},"end":{"in":"1598"}},{"start":{"in":"1614"},"end":{"in":"1614"}},{"start":{"in":"1651"},"end":{"in":"1651"}}]}},{"toponym":"Shoulby(e)","citations":[{"label":"c.1538 ECP","year":1528}],"when":{"timespans":[{"start":{"earliest":"1528","latest":"1548"},"end":{"earliest":"1528","latest":"1548"}},{"start":{"earliest":"1536","latest":"1556"},"end":{"earliest":"1536","latest":"1556"}}]}},{"toponym":"Showlby","citations":[{"label":"1544 Fine","year":1544}],"when":{"timespans":[{"start":{"in":"1544"},"end":{"in":"1544"}}]}},{"toponym":"Shoulbie","citations":[{"label":"1580 Fisher","year":1580}],"when":{"timespans":[{"start":{"in":"1580"},"end":{"in":"1580"}}]}},{"toponym":"Sholbie","citations":[{"label":"1601 Ipm","year":1601},{"label":"1610 Fine","year":1610}],"when":{"timespans":[{"start":{"in":"1601"},"end":{"in":"1601"}},{"start":{"in":"1610"},"end":{"in":"1610"}}]}},{"toponym":"Sholeby","citations":[{"label":"1604 SR","year":1604}],"when":{"timespans":[{"start":{"in":"1604"},"end":{"in":"1604"}}]}},{"toponym":"Showby","citations":[{"label":"1507 Ipm","year":1507}],"when":{"timespans":[{"start":{"in":"1507"},"end":{"in":"1507"}}]}},{"toponym":"Shoby","citations":[{"label":"1806 Map","year":1806},{"label":"1811 Nichols","year":1811},{"label":"1836–1836, recurring O","year":1836},{"label":"1836 O","year":1836}],"when":{"timespans":[{"start":{"in":"1806"},"end":{"in":"1806"}},{"start":{"in":"1811"},"end":{"in":"1811"}},{"start":{"in":"1836"},"end":{"in":"1836"}},{"start":{"in":"1836"},"end":{"in":"1836"}}]}}],"types":[{"identifier":"http://vocab.getty.edu/aat/300232418","label":"administrative division","sourceLabels":[{"label":"township","lang":"en"}]}],"geometry":{"type":"GeometryCollection","geometries":[{"type":"Point","coordinates":[-0.9843961945121821,52.77740092493123],"citations":[{"label":"Unlock (EDINA) gazetteer, gazetteer record unlock:11283117"}]},{"type":"Point","coordinates":[-0.985942,52.7778],"citations":[{"label":"Key to English Place-Names (KEPN), gazetteer record 8891"}]}]},"when":{"timespans":[{"start":{"in":"1086"},"end":{"in":"1836"}}]},"relations":[{"relationType":"gvp:broaderPartitive","relationTo":"https://w3id.org/whg-epns/81/006061","label":"within Grimston"}]}]}