{"@context":"https://raw.githubusercontent.com/LinkedPasts/linked-places-format/main/linkedplaces-context-v1.1.jsonld","type":"FeatureCollection","license":"Digitisation of English Placenames MADS data is licensed to Jisc by the English Place Names Society and released under a Creative Commons Attribution-NonCommercial 4.0 International License.","note":"LPF v1.3, lossy; derived from the PLATO record; plato_commit=ca0afadabec1e23a145c0b03df77e8f151f79832","features":[{"@id":"http://placenames.org.uk/id/placename/81/009811","type":"Feature","properties":{"title":"Lowesby","ccodes":["GB"],"fclasses":["A","P"]},"names":[{"toponym":"Lowesby","lang":"en","citations":[{"label":"English Place-Name Society survey, volume 81: Leicestershire"}]},{"toponym":"Glowesbi","citations":[{"label":"1086 DB","year":1086}],"when":{"timespans":[{"start":{"in":"1086"},"end":{"in":"1086"}}]}},{"toponym":"Lousebia","citations":[{"label":"c.1130 LeicSurv","year":1120}],"when":{"timespans":[{"start":{"earliest":"1120","latest":"1140"},"end":{"earliest":"1120","latest":"1140"}}]}},{"toponym":"Lousebi","citations":[{"label":"1184 P","year":1184},{"label":"e.13 Laz","year":1200},{"label":"1232 RHug","year":1232},{"label":"c.1250 Laz","year":1240}],"when":{"timespans":[{"start":{"in":"1184"},"end":{"in":"1184"}},{"start":{"earliest":"1200","latest":"1225"},"end":{"earliest":"1200","latest":"1225"}},{"start":{"in":"1232"},"end":{"in":"1232"}},{"start":{"earliest":"1240","latest":"1260"},"end":{"earliest":"1240","latest":"1260"}}]}},{"toponym":"Louseby","citations":[{"label":"1200 Dugd","year":1200},{"label":"1220 MHW","year":1220},{"label":"1229–1364, recurring RHug","year":1229},{"label":"1229–1364, recurring Wyg"},{"label":"1229 RHug","year":1229},{"label":"1364 Wyg","year":1364},{"label":"1404–1445, recurring Laz","year":1404},{"label":"1404–1445, recurring Nichols"},{"label":"1404 Laz","year":1404},{"label":"1445 Nichols","year":1445},{"label":"1446 Banco","year":1446}],"when":{"timespans":[{"start":{"in":"1200"},"end":{"in":"1200"}},{"start":{"in":"1220"},"end":{"in":"1220"}},{"start":{"in":"1229"},"end":{"in":"1364"}},{"start":{"in":"1229"},"end":{"in":"1229"}},{"start":{"in":"1232"},"end":{"in":"1232"}},{"start":{"in":"1364"},"end":{"in":"1364"}},{"start":{"in":"1404"},"end":{"in":"1445"}},{"start":{"in":"1404"},"end":{"in":"1404"}},{"start":{"in":"1445"},"end":{"in":"1445"}},{"start":{"in":"1446"},"end":{"in":"1446"}}]}},{"toponym":"Lousebya","citations":[{"label":"1209 × 19 RHug","year":1209}],"when":{"timespans":[{"start":{"earliest":"1209","latest":"1219"},"end":{"earliest":"1209","latest":"1219"}}]}},{"toponym":"Lowseby","citations":[{"label":"1315 AllS","year":1315},{"label":"1440 Fine","year":1440}],"when":{"timespans":[{"start":{"in":"1315"},"end":{"in":"1315"}},{"start":{"in":"1440"},"end":{"in":"1440"}}]}},{"toponym":"Lowceby","citations":[{"label":"1412 FA","year":1412}],"when":{"timespans":[{"start":{"in":"1412"},"end":{"in":"1412"}}]}},{"toponym":"Losebi","citations":[{"label":"e.Hy 2 Dane","year":1154}],"when":{"timespans":[{"start":{"earliest":"1154","latest":"1189"},"end":{"earliest":"1154","latest":"1189"}}]}},{"toponym":"Loseb(e)ia","citations":[{"label":"Hy 2 Dugd","year":1154},{"label":"1178 × 84 Ch","year":1178}],"when":{"timespans":[{"start":{"earliest":"1154","latest":"1189"},"end":{"earliest":"1154","latest":"1189"}},{"start":{"earliest":"1178","latest":"1184"},"end":{"earliest":"1178","latest":"1184"}}]}},{"toponym":"Lousby","citations":[{"label":"1199–1332, recurring Nichols","year":1199},{"label":"1199–1332, recurring SR"},{"label":"John Nichols","year":1199},{"label":"1332 SR","year":1332},{"label":"1352 Nichols","year":1352}],"when":{"timespans":[{"start":{"in":"1199"},"end":{"in":"1332"}},{"start":{"earliest":"1199","latest":"1216"},"end":{"earliest":"1199","latest":"1216"}},{"start":{"in":"1265"},"end":{"in":"1265"}},{"start":{"in":"1332"},"end":{"in":"1332"}},{"start":{"in":"1352"},"end":{"in":"1352"}}]}},{"toponym":"Lowsby","citations":[{"label":"1468 Pat","year":1468},{"label":"1518 Visit","year":1518}],"when":{"timespans":[{"start":{"in":"1468"},"end":{"in":"1468"}},{"start":{"in":"1518"},"end":{"in":"1518"}}]}},{"toponym":"Lowesby","citations":[{"label":"1241 RGros","year":1241},{"label":"1265–1435, recurring Misc","year":1265},{"label":"1265–1435, recurring Comp"},{"label":"1265 Misc","year":1265},{"label":"1435 Comp","year":1435},{"label":"1438 Peake","year":1438}],"when":{"timespans":[{"start":{"in":"1241"},"end":{"in":"1241"}},{"start":{"in":"1265"},"end":{"in":"1435"}},{"start":{"in":"1265"},"end":{"in":"1265"}},{"start":{"in":"1435"},"end":{"in":"1435"}},{"start":{"in":"1438"},"end":{"in":"1438"}}]}},{"toponym":"Louesby","citations":[{"label":"1261 RGrav","year":1261},{"label":"1491 BM","year":1491}],"when":{"timespans":[{"start":{"in":"1261"},"end":{"in":"1261"}},{"start":{"in":"1491"},"end":{"in":"1491"}}]}},{"toponym":"Lawcebye","citations":[{"label":"1562 AAS","year":1562}],"when":{"timespans":[{"start":{"in":"1562"},"end":{"in":"1562"}}]}},{"toponym":"Lawisbie","citations":[{"label":"1580 LEpis","year":1580}],"when":{"timespans":[{"start":{"in":"1580"},"end":{"in":"1580"}}]}},{"toponym":"Loasebie","citations":[{"label":"1606 LML","year":1606}],"when":{"timespans":[{"start":{"in":"1606"},"end":{"in":"1606"}}]}},{"toponym":"Loaseby","citations":[{"label":"1609 LML","year":1609}],"when":{"timespans":[{"start":{"in":"1609"},"end":{"in":"1609"}}]}},{"toponym":"Loasby(e)","citations":[{"label":"1612 LML","year":1612}],"when":{"timespans":[{"start":{"in":"1612"},"end":{"in":"1612"}},{"start":{"in":"1628"},"end":{"in":"1628"}}]}},{"toponym":"Loseby(e)","citations":[{"label":"1576 Saxton","year":1576},{"label":"1610 Speed","year":1610}],"when":{"timespans":[{"start":{"in":"1576"},"end":{"in":"1576"}},{"start":{"in":"1610"},"end":{"in":"1610"}}]}}],"types":[{"identifier":"http://vocab.getty.edu/aat/300232418","label":"administrative division","sourceLabels":[{"label":"township","lang":"en"}]}],"geometry":{"type":"GeometryCollection","geometries":[{"type":"Point","coordinates":[-0.93169,52.66056],"citations":[{"label":"GeoNames, gazetteer record geonames:2643493"}]},{"type":"Point","coordinates":[-0.9279710960903657,52.66002065598378],"citations":[{"label":"Unlock (EDINA) gazetteer, gazetteer record unlock:11209061"}]},{"type":"Point","coordinates":[-0.929518,52.6604],"citations":[{"label":"Key to English Place-Names (KEPN), gazetteer record 8821"}]}]},"when":{"timespans":[{"start":{"in":"1086"},"end":{"in":"1628"}}]},"links":[{"type":"closeMatch","identifier":"https://sws.geonames.org/2643493/"}],"relations":[{"relationType":"gvp:broaderPartitive","relationTo":"http://placenames.org.uk/id/placename/81/009810","label":"within Lowesby"}]}]}