{"@context":"https://raw.githubusercontent.com/LinkedPasts/linked-places-format/main/linkedplaces-context-v1.1.jsonld","type":"FeatureCollection","license":"Digitisation of English Placenames MADS data is licensed to Jisc by the English Place Names Society and released under a Creative Commons Attribution-NonCommercial 4.0 International License.","note":"LPF v1.3, lossy; derived from the PLATO record; plato_commit=ca0afadabec1e23a145c0b03df77e8f151f79832","features":[{"@id":"https://w3id.org/whg-epns/76/003947","type":"Feature","properties":{"title":"Burcot","ccodes":["GB"],"fclasses":["A","P"]},"names":[{"toponym":"Burcot","lang":"en","citations":[{"label":"English Place-Name Society survey, volume 76: Shropshire"}]},{"toponym":"Burcote","citations":[{"label":"1291-2 Ass","year":1291}],"when":{"timespans":[{"start":{"earliest":"1291","latest":"1292"},"end":{"earliest":"1291","latest":"1292"}}]}},{"toponym":"Burcot","citations":[{"label":"1655 PR(L)","year":1655}],"when":{"timespans":[{"start":{"in":"1655"},"end":{"in":"1655"}}]}},{"toponym":"Burcott","citations":[{"label":"1711 PR(L)","year":1711}],"when":{"timespans":[{"start":{"in":"1711"},"end":{"in":"1711"}}]}}],"types":[{"identifier":"http://vocab.getty.edu/aat/300232418","label":"administrative division","sourceLabels":[{"label":"township","lang":"en"}]}],"geometry":{"type":"GeometryCollection","geometries":[{"type":"Point","coordinates":[-2.557894391,52.69502297],"citations":[{"label":"English Place-Name Society survey (DEEP coordinates)"}]},{"type":"Point","coordinates":[-2.554878059845435,52.69054272682179],"citations":[{"label":"Unlock (EDINA) gazetteer, gazetteer record unlock:11092549"}]}]},"when":{"timespans":[{"start":{"in":"1291"},"end":{"in":"1711"}}]},"relations":[{"relationType":"gvp:broaderPartitive","relationTo":"https://w3id.org/whg-epns/76/003839","label":"within Wrockwardine"}]}]}