{"@context":"https://raw.githubusercontent.com/LinkedPasts/linked-places-format/main/linkedplaces-context-v1.1.jsonld","type":"FeatureCollection","license":"Digitisation of English Placenames MADS data is licensed to Jisc by the English Place Names Society and released under a Creative Commons Attribution-NonCommercial 4.0 International License.","note":"LPF v1.3, lossy; derived from the PLATO record; plato_commit=fa0d247ccc0263f8f19c8d7cdcd163df96935d1e","features":[{"@id":"https://w3id.org/whg-epns/76/005635","type":"Feature","properties":{"title":"Beckbury","ccodes":["GB"],"fclasses":["A","P"]},"names":[{"toponym":"Beckbury","lang":"en","citations":[{"label":"English Place-Name Society survey, volume 76: Shropshire"}]},{"toponym":"Becheberie","citations":[{"label":"1086 DB","year":1086}],"when":{"timespans":[{"start":{"in":"1086"},"end":{"in":"1086"}}]}},{"toponym":"Beccheberia","citations":[{"label":"1155 SAC","year":1155}],"when":{"timespans":[{"start":{"in":"1155"},"end":{"in":"1155"}}]}},{"toponym":"Beckebir'","citations":[{"label":"Cl","year":1229},{"label":"Pat"},{"label":"1229 Cl","year":1229},{"label":"1376 Pat","year":1376}],"when":{"timespans":[{"start":{"in":"1229"},"end":{"in":"1376"}},{"start":{"in":"1229"},"end":{"in":"1229"}},{"start":{"in":"1376"},"end":{"in":"1376"}}]}},{"toponym":"Beckebur', Beckebury, Beckeburi, Bekkebury","citations":[{"label":"1229-1376 unspecified sources","year":1229}],"when":{"timespans":[{"start":{"in":"1229"},"end":{"in":"1376"}}]}},{"toponym":"Bekebir'","citations":[{"label":"1203-4 Ass","year":1203},{"label":"1251 Fees","year":1251}],"when":{"timespans":[{"start":{"earliest":"1203","latest":"1204"},"end":{"earliest":"1203","latest":"1204"}},{"start":{"in":"1251"},"end":{"in":"1251"}}]}},{"toponym":"Bekebur'","citations":[{"label":"1242 Fees","year":1242}],"when":{"timespans":[{"start":{"in":"1242"},"end":{"in":"1242"}},{"start":{"in":"1251"},"end":{"in":"1251"}}]}},{"toponym":"Bekebury","citations":[{"label":"1255 RH","year":1255},{"label":"1325 Pat","year":1325}],"when":{"timespans":[{"start":{"in":"1255"},"end":{"in":"1255"}},{"start":{"in":"1325"},"end":{"in":"1325"}}]}},{"toponym":"Be(c)kesbir'","citations":[{"label":"1230 P","year":1230}],"when":{"timespans":[{"start":{"in":"1230"},"end":{"in":"1230"}}]}},{"toponym":"Bukkebur', Bakkebur'","citations":[{"label":"1242 Fees","year":1242}],"when":{"timespans":[{"start":{"in":"1242"},"end":{"in":"1242"}}]}},{"toponym":"Beckbur'","citations":[{"label":"1255 RH","year":1255}],"when":{"timespans":[{"start":{"in":"1255"},"end":{"in":"1255"}}]}},{"toponym":"Beckburi","citations":[{"label":"1284-5 FA","year":1284}],"when":{"timespans":[{"start":{"earliest":"1284","latest":"1285"},"end":{"earliest":"1284","latest":"1285"}}]}},{"toponym":"Bekbury","citations":[{"label":"1379 Pat","year":1379},{"label":"1502 Ipm","year":1502}],"when":{"timespans":[{"start":{"in":"1379"},"end":{"in":"1379"}},{"start":{"in":"1502"},"end":{"in":"1502"}}]}},{"toponym":"Becbury","citations":[{"label":"1505 Ipm","year":1505}],"when":{"timespans":[{"start":{"in":"1505"},"end":{"in":"1505"}}]}},{"toponym":"Beckbury","citations":[{"label":"1535 VE","year":1535},{"label":"1577 Saxton","year":1577}],"when":{"timespans":[{"start":{"in":"1535"},"end":{"in":"1535"}},{"start":{"in":"1577"},"end":{"in":"1577"}}]}}],"types":[{"identifier":"http://vocab.getty.edu/aat/300232418","label":"administrative division","sourceLabels":[{"label":"parish","lang":"en"}]}],"geometry":{"type":"GeometryCollection","geometries":[{"type":"Point","coordinates":[-2.34821,52.6121],"citations":[{"label":"GeoNames, gazetteer record geonames:2656066"}]},{"type":"Point","coordinates":[-2.347087662717443,52.6104160287851],"citations":[{"label":"Unlock (EDINA) gazetteer, gazetteer record unlock:11072964"}]},{"type":"Point","coordinates":[-2.34847,52.6108],"citations":[{"label":"Key to English Place-Names (KEPN), gazetteer record 13319"}]}]},"when":{"timespans":[{"start":{"in":"1086"},"end":{"in":"1577"}}]},"links":[{"type":"closeMatch","identifier":"https://sws.geonames.org/2656066/"}],"relations":[{"relationType":"gvp:broaderPartitive","relationTo":"https://w3id.org/whg-epns/76/004698","label":"within Northern Munslow Hundred and Wenlock Franchise"}]}]}