{"@context":"https://raw.githubusercontent.com/LinkedPasts/linked-places-format/main/linkedplaces-context-v1.1.jsonld","type":"FeatureCollection","license":"Digitisation of English Placenames MADS data is licensed to Jisc by the English Place Names Society and released under a Creative Commons Attribution-NonCommercial 4.0 International License.","note":"LPF v1.3, lossy; derived from the PLATO record; plato_commit=ca0afadabec1e23a145c0b03df77e8f151f79832","features":[{"@id":"http://placenames.org.uk/id/placename/76/008106","type":"Feature","properties":{"title":"Hatton","ccodes":["GB"],"fclasses":["A","P"]},"names":[{"toponym":"Hatton","lang":"en","citations":[{"label":"English Place-Name Society survey, volume 76: Shropshire"}]},{"toponym":"Hetton'","citations":[{"label":"1167 P","year":1167}],"when":{"timespans":[{"start":{"in":"1167"},"end":{"in":"1167"}}]}},{"toponym":"Heton'","citations":[{"label":"1255-6 Ass","year":1255}],"when":{"timespans":[{"start":{"earliest":"1255","latest":"1256"},"end":{"earliest":"1255","latest":"1256"}}]}},{"toponym":"Hatton'","citations":[{"label":"1227 Cur","year":1227},{"label":"1261-2 ForProc","year":1261}],"when":{"timespans":[{"start":{"in":"1227"},"end":{"in":"1227"}},{"start":{"in":"1231"},"end":{"in":"1231"}},{"start":{"earliest":"1261","latest":"1262"},"end":{"earliest":"1261","latest":"1262"}}]}},{"toponym":"Hatton","citations":[{"label":"1551 Pat","year":1551}],"when":{"timespans":[{"start":{"in":"1551"},"end":{"in":"1551"}}]}}],"types":[{"identifier":"http://vocab.getty.edu/aat/300232418","label":"administrative division","sourceLabels":[{"label":"township","lang":"en"}]}],"geometry":{"type":"Point","coordinates":[-2.783917981,52.50762928],"citations":[{"label":"English Place-Name Society survey (DEEP coordinates)"}]},"when":{"timespans":[{"start":{"in":"1167"},"end":{"in":"1551"}}]},"relations":[{"relationType":"gvp:broaderPartitive","relationTo":"http://placenames.org.uk/id/placename/76/007901","label":"within Eaton under Heywood"}]}]}