{"@context":"https://raw.githubusercontent.com/LinkedPasts/linked-places-format/main/linkedplaces-context-v1.1.jsonld","type":"FeatureCollection","license":"Digitisation of English Placenames MADS data is licensed to Jisc by the English Place Names Society and released under a Creative Commons Attribution-NonCommercial 4.0 International License.","note":"LPF v1.3, lossy; derived from the PLATO record; plato_commit=fa0d247ccc0263f8f19c8d7cdcd163df96935d1e","features":[{"@id":"https://w3id.org/whg-epns/76/008212","type":"Feature","properties":{"title":"Millichope","ccodes":["GB"],"fclasses":["A","P"]},"names":[{"toponym":"Millichope","lang":"en","citations":[{"label":"English Place-Name Society survey, volume 76: Shropshire"}]},{"toponym":"Melicope","citations":[{"label":"1086 DB","year":1086}],"when":{"timespans":[{"start":{"in":"1086"},"end":{"in":"1086"}}]}},{"toponym":"Myllincheope","citations":[{"label":"c.1175 Pat","year":1165}],"when":{"timespans":[{"start":{"earliest":"1165","latest":"1185"},"end":{"earliest":"1165","latest":"1185"}}]}},{"toponym":"Milinchope","citations":[{"label":"1249 Ipm","year":1249}],"when":{"timespans":[{"start":{"in":"1249"},"end":{"in":"1249"}}]}},{"toponym":"Myllynchehope","citations":[{"label":"1301 Ipm","year":1301}],"when":{"timespans":[{"start":{"in":"1301"},"end":{"in":"1301"}}]}},{"toponym":"Millynchope","citations":[{"label":"1334 SR","year":1334}],"when":{"timespans":[{"start":{"in":"1334"},"end":{"in":"1334"}}]}},{"toponym":"Millinchop","citations":[{"label":"1550-1 RentSur","year":1550},{"label":"1637 PR(H)","year":1637}],"when":{"timespans":[{"start":{"earliest":"1550","latest":"1551"},"end":{"earliest":"1550","latest":"1551"}},{"start":{"in":"1637"},"end":{"in":"1637"}}]}},{"toponym":"Millinghope","citations":[{"label":"1199 P","year":1199},{"label":"1221-2 Ass","year":1221},{"label":"1301 SAC","year":1301},{"label":"1316 FA","year":1316},{"label":"1346 Cl","year":1346}],"when":{"timespans":[{"start":{"in":"1199"},"end":{"in":"1199"}},{"start":{"earliest":"1221","latest":"1222"},"end":{"earliest":"1221","latest":"1222"}},{"start":{"earliest":"1255","latest":"1256"},"end":{"earliest":"1255","latest":"1256"}},{"start":{"in":"1301"},"end":{"in":"1301"}},{"start":{"in":"1316"},"end":{"in":"1316"}},{"start":{"in":"1346"},"end":{"in":"1346"}}]}},{"toponym":"Millinghop","citations":[{"label":"1268 Cl","year":1268},{"label":"1294 InqMisc","year":1294},{"label":"1294 Ipm","year":1294}],"when":{"timespans":[{"start":{"in":"1268"},"end":{"in":"1268"}},{"start":{"in":"1294"},"end":{"in":"1294"}},{"start":{"in":"1294"},"end":{"in":"1294"}}]}},{"toponym":"Millynghop'","citations":[{"label":"1271-2 Ass","year":1271}],"when":{"timespans":[{"start":{"earliest":"1271","latest":"1272"},"end":{"earliest":"1271","latest":"1272"}}]}},{"toponym":"Myllynghope","citations":[{"label":"1291-2 Ass","year":1291}],"when":{"timespans":[{"start":{"earliest":"1291","latest":"1292"},"end":{"earliest":"1291","latest":"1292"}}]}},{"toponym":"Millynghope","citations":[{"label":"1322 Pat","year":1322},{"label":"1421 Cl","year":1421}],"when":{"timespans":[{"start":{"in":"1322"},"end":{"in":"1322"}},{"start":{"in":"1421"},"end":{"in":"1421"}}]}},{"toponym":"Millingehop'","citations":[{"label":"1221-2 Ass","year":1221}],"when":{"timespans":[{"start":{"earliest":"1221","latest":"1222"},"end":{"earliest":"1221","latest":"1222"}}]}},{"toponym":"Millingehop","citations":[{"label":"1255 RH","year":1255}],"when":{"timespans":[{"start":{"in":"1255"},"end":{"in":"1255"}}]}},{"toponym":"Millingehope","citations":[{"label":"1271-2 Ass","year":1271},{"label":"1331 Pat","year":1331}],"when":{"timespans":[{"start":{"earliest":"1271","latest":"1272"},"end":{"earliest":"1271","latest":"1272"}},{"start":{"earliest":"1291","latest":"1292"},"end":{"earliest":"1291","latest":"1292"}},{"start":{"in":"1331"},"end":{"in":"1331"}}]}},{"toponym":"Myllyngehope","citations":[{"label":"1402 Cl","year":1402},{"label":"1418 Fine","year":1418}],"when":{"timespans":[{"start":{"in":"1402"},"end":{"in":"1402"}},{"start":{"in":"1418"},"end":{"in":"1418"}}]}},{"toponym":"Millyngehop","citations":[{"label":"1416 AD","year":1416}],"when":{"timespans":[{"start":{"in":"1416"},"end":{"in":"1416"}}]}},{"toponym":"Millyngehope","citations":[{"label":"1421 Cl","year":1421}],"when":{"timespans":[{"start":{"in":"1421"},"end":{"in":"1421"}}]}},{"toponym":"Milinghop'","citations":[{"label":"1255 RH","year":1255}],"when":{"timespans":[{"start":{"in":"1255"},"end":{"in":"1255"}}]}},{"toponym":"Milingehop'","citations":[{"label":"1255-6 Ass","year":1255}],"when":{"timespans":[{"start":{"earliest":"1255","latest":"1256"},"end":{"earliest":"1255","latest":"1256"}}]}},{"toponym":"Molynghop'","citations":[{"label":"1271-2 Ass","year":1271}],"when":{"timespans":[{"start":{"earliest":"1271","latest":"1272"},"end":{"earliest":"1271","latest":"1272"}}]}},{"toponym":"Mileshope","citations":[{"label":"1332 Cl","year":1332}],"when":{"timespans":[{"start":{"in":"1332"},"end":{"in":"1332"}}]}},{"toponym":"Millyngeshope","citations":[{"label":"1360 Fine","year":1360}],"when":{"timespans":[{"start":{"in":"1360"},"end":{"in":"1360"}}]}},{"toponym":"Millichop","citations":[{"label":"1535 VE","year":1535},{"label":"1632 PR(H)","year":1632}],"when":{"timespans":[{"start":{"in":"1535"},"end":{"in":"1535"}},{"start":{"in":"1632"},"end":{"in":"1632"}}]}},{"toponym":"Millichope","citations":[{"label":"Pat","year":1551},{"label":"1551 Pat","year":1551}],"when":{"timespans":[{"start":{"in":"1551"},"end":{"in":"1551"}},{"start":{"in":"1551"},"end":{"in":"1551"}}]}},{"toponym":"Millichere, Millicherr","citations":[{"label":"1551 Pat","year":1551}],"when":{"timespans":[{"start":{"in":"1551"},"end":{"in":"1551"}}]}},{"toponym":"Myllychape","citations":[{"label":"1577 Saxton","year":1577}],"when":{"timespans":[{"start":{"in":"1577"},"end":{"in":"1577"}}]}},{"toponym":"Millichapp","citations":[{"label":"1575 PR(H)","year":1575}],"when":{"timespans":[{"start":{"in":"1575"},"end":{"in":"1575"}}]}},{"toponym":"Milchap","citations":[{"label":"1695 Morden","year":1695}],"when":{"timespans":[{"start":{"in":"1695"},"end":{"in":"1695"}}]}},{"toponym":"Mellychop","citations":[{"label":"1672 HTR","year":1672}],"when":{"timespans":[{"start":{"in":"1672"},"end":{"in":"1672"}}]}}],"types":[{"identifier":"http://vocab.getty.edu/aat/300232418","label":"administrative division","sourceLabels":[{"label":"township","lang":"en"}]}],"geometry":{"type":"Point","coordinates":[-2.469812586,52.48501723],"citations":[{"label":"English Place-Name Society survey (DEEP coordinates)"}]},"when":{"timespans":[{"start":{"in":"1086"},"end":{"in":"1695"}}]},"relations":[{"relationType":"gvp:broaderPartitive","relationTo":"https://w3id.org/whg-epns/76/007901","label":"within Eaton under Heywood"}]}]}