{"@context":"https://raw.githubusercontent.com/LinkedPasts/linked-places-format/main/linkedplaces-context-v1.1.jsonld","type":"FeatureCollection","license":"Digitisation of English Placenames MADS data is licensed to Jisc by the English Place Names Society and released under a Creative Commons Attribution-NonCommercial 4.0 International License.","note":"LPF v1.3, lossy; derived from the PLATO record; plato_commit=ca0afadabec1e23a145c0b03df77e8f151f79832","features":[{"@id":"https://w3id.org/whg-epns/76/009798","type":"Feature","properties":{"title":"Aston","ccodes":["GB"],"fclasses":["A","P"]},"names":[{"toponym":"Aston","lang":"en","citations":[{"label":"English Place-Name Society survey, volume 76: Shropshire"}]},{"toponym":"Estune","citations":[{"label":"1086 DB","year":1086}],"when":{"timespans":[{"start":{"in":"1086"},"end":{"in":"1086"}}]}},{"toponym":"Estona","citations":[{"label":"1167 P","year":1167}],"when":{"timespans":[{"start":{"in":"1167"},"end":{"in":"1167"}}]}},{"toponym":"Eston'","citations":[{"label":"1189 P","year":1189},{"label":"1242 Fees","year":1242}],"when":{"timespans":[{"start":{"in":"1189"},"end":{"in":"1189"}},{"start":{"in":"1242"},"end":{"in":"1242"}}]}},{"toponym":"Aston","citations":[{"label":"1255–1255, recurring RH","year":1255},{"label":"1255 RH","year":1255}],"when":{"timespans":[{"start":{"in":"1255"},"end":{"in":"1255"}},{"start":{"in":"1255"},"end":{"in":"1255"}}]}},{"toponym":"Aston'","citations":[{"label":"1255-1600 unspecified sources","year":1255}],"when":{"timespans":[{"start":{"in":"1255"},"end":{"in":"1600"}}]}},{"toponym":"Aston in Corvedale","citations":[{"label":"1303 Pat","year":1303}],"when":{"timespans":[{"start":{"in":"1303"},"end":{"in":"1303"}},{"start":{"in":"1410"},"end":{"in":"1410"}}]}},{"toponym":"Aston by Munselowe","citations":[{"label":"1343 InqMisc","year":1343}],"when":{"timespans":[{"start":{"in":"1343"},"end":{"in":"1343"}}]}},{"toponym":"Aston in Monslowe in Corfedale","citations":[{"label":"1402 Cl","year":1402}],"when":{"timespans":[{"start":{"in":"1402"},"end":{"in":"1402"}}]}},{"toponym":"Aston in Corfedale","citations":[{"label":"1463 Cl","year":1463}],"when":{"timespans":[{"start":{"in":"1463"},"end":{"in":"1463"}}]}},{"toponym":"Monslows Aston","citations":[{"label":"1565 PR(H)","year":1565}],"when":{"timespans":[{"start":{"in":"1565"},"end":{"in":"1565"}}]}},{"toponym":"Aston Coruistram","citations":[{"label":"1695 Morden","year":1695}],"when":{"timespans":[{"start":{"in":"1695"},"end":{"in":"1695"}}]}}],"types":[{"identifier":"http://vocab.getty.edu/aat/300232418","label":"administrative division","sourceLabels":[{"label":"township","lang":"en"}]}],"geometry":{"type":"Point","coordinates":[-2.717073781,52.47478586],"citations":[{"label":"English Place-Name Society survey (DEEP coordinates)"}]},"when":{"timespans":[{"start":{"in":"1086"},"end":{"in":"1695"}}]},"relations":[{"relationType":"gvp:broaderPartitive","relationTo":"https://w3id.org/whg-epns/76/009775","label":"within Munslow"}]}]}