{"@context":"https://raw.githubusercontent.com/LinkedPasts/linked-places-format/main/linkedplaces-context-v1.1.jsonld","type":"FeatureCollection","license":"Digitisation of English Placenames MADS data is licensed to Jisc by the English Place Names Society and released under a Creative Commons Attribution-NonCommercial 4.0 International License.","note":"LPF v1.3, lossy; derived from the PLATO record; plato_commit=fa0d247ccc0263f8f19c8d7cdcd163df96935d1e","features":[{"@id":"https://w3id.org/whg-epns/97/000011","type":"Feature","properties":{"title":"Ely","ccodes":["GB"],"fclasses":["A","P"]},"names":[{"toponym":"Ely","lang":"en","citations":[{"label":"English Place-Name Society survey, volume 19: The Isle of Ely"}]},{"toponym":"(in regione quae uocatur) Elge","citations":[{"label":"c. 750 Bede","year":740},{"label":"c. 1150 FW","year":1140},{"label":"1170 LibEl","year":1170}],"when":{"timespans":[{"start":{"earliest":"0740","latest":"0760"},"end":{"earliest":"0740","latest":"0760"}},{"start":{"earliest":"1140","latest":"1160"},"end":{"earliest":"1140","latest":"1160"}},{"start":{"in":"1170"},"end":{"in":"1170"}}]}},{"toponym":"elgae","citations":[{"label":"8th Bede","year":700}],"when":{"timespans":[{"start":{"earliest":"0700","latest":"0800"},"end":{"earliest":"0700","latest":"0800"}}]}},{"toponym":"(æt) Elige","citations":[{"label":"673 ASC","year":673}],"when":{"timespans":[{"start":{"in":"0673"},"end":{"in":"0673"}}]}},{"toponym":"in þæm þeodlonde þe is geceged Elige","citations":[{"label":"c. 1000 OE Bede","year":990}],"when":{"timespans":[{"start":{"earliest":"0990","latest":"1010"},"end":{"earliest":"0990","latest":"1010"}}]}},{"toponym":"in regione Elig","citations":[{"label":"970 BCS","year":970}],"when":{"timespans":[{"start":{"in":"0970"},"end":{"in":"0970"}}]}},{"toponym":"on Elig, into Elig","citations":[{"label":"970 BCS","year":970}],"when":{"timespans":[{"start":{"in":"0970"},"end":{"in":"0970"}}]}},{"toponym":"Elyg","citations":[{"label":"1004 KCD","year":1004},{"label":"1086 DB","year":1086}],"when":{"timespans":[{"start":{"in":"1004"},"end":{"in":"1004"}},{"start":{"in":"1086"},"end":{"in":"1086"}}]}},{"toponym":"(on) Eligabirig","citations":[{"label":"c. 1000 Saints","year":990}],"when":{"timespans":[{"start":{"earliest":"0990","latest":"1010"},"end":{"earliest":"0990","latest":"1010"}}]}},{"toponym":"(to) Eligbyrig","citations":[{"label":"1036 ASC","year":1036}],"when":{"timespans":[{"start":{"in":"1036"},"end":{"in":"1036"}}]}},{"toponym":"(to) Elibyrig","citations":[{"label":"1036 ASC","year":1036}],"when":{"timespans":[{"start":{"in":"1036"},"end":{"in":"1036"}}]}},{"toponym":"hlige","citations":[{"label":"c. 1000 OE Bede","year":990}],"when":{"timespans":[{"start":{"earliest":"0990","latest":"1010"},"end":{"earliest":"0990","latest":"1010"}}]}},{"toponym":"(æt) Helige","citations":[{"label":"673 ASC","year":673}],"when":{"timespans":[{"start":{"in":"0673"},"end":{"in":"0673"}}]}},{"toponym":"(æt) Helig","citations":[{"label":"957 BCS","year":957}],"when":{"timespans":[{"start":{"in":"0957"},"end":{"in":"0957"}}]}},{"toponym":"(into) Helig","citations":[{"label":"11th KCD","year":1000}],"when":{"timespans":[{"start":{"earliest":"1000","latest":"1100"},"end":{"earliest":"1000","latest":"1100"}}]}},{"toponym":"(to) Hélig","citations":[{"label":"1072 ASC","year":1072}],"when":{"timespans":[{"start":{"in":"1072"},"end":{"in":"1072"}}]}},{"toponym":"(into) Ælig","citations":[{"label":"c. 1000 ASWills","year":990}],"when":{"timespans":[{"start":{"earliest":"0990","latest":"1010"},"end":{"earliest":"0990","latest":"1010"}}]}},{"toponym":"ǽl ǽg","citations":[{"label":"c. 1040 OE Bede","year":1030}],"when":{"timespans":[{"start":{"earliest":"1030","latest":"1050"},"end":{"earliest":"1030","latest":"1050"}}]}},{"toponym":"Ylig","citations":[{"label":"11th ASWills","year":1000}],"when":{"timespans":[{"start":{"earliest":"1000","latest":"1100"},"end":{"earliest":"1000","latest":"1100"}}]}},{"toponym":"(in) Hely","citations":[{"label":"c. 1050 KCD","year":1040},{"label":"LibEl","year":1108},{"label":"RG"},{"label":"1108 LibEl","year":1108},{"label":"c. 1400 RG","year":1390}],"when":{"timespans":[{"start":{"earliest":"1040","latest":"1060"},"end":{"earliest":"1040","latest":"1060"}},{"start":{"in":"1108"},"end":{"in":"1410"}},{"start":{"in":"1108"},"end":{"in":"1108"}},{"start":{"earliest":"1390","latest":"1410"},"end":{"earliest":"1390","latest":"1410"}}]}},{"toponym":"into Heli, to Heli","citations":[{"label":"c. 1050 LibEl","year":1040},{"label":"c. 1130 SD","year":1120},{"label":"c. 1260 Gervase","year":1250}],"when":{"timespans":[{"start":{"earliest":"1040","latest":"1060"},"end":{"earliest":"1040","latest":"1060"}},{"start":{"earliest":"1120","latest":"1140"},"end":{"earliest":"1120","latest":"1140"}},{"start":{"earliest":"1250","latest":"1270"},"end":{"earliest":"1250","latest":"1270"}}]}},{"toponym":"(æt) Hele","citations":[{"label":"p. 1066 KCD","year":1066}],"when":{"timespans":[{"start":{"earliest":"1066","latest":"1116"},"end":{"earliest":"1066","latest":"1116"}}]}},{"toponym":"(æt) Eli","citations":[{"label":"673 ASC","year":673},{"label":"1155-61 P","year":1155},{"label":"1203 Cur","year":1203}],"when":{"timespans":[{"start":{"in":"0673"},"end":{"in":"0673"}},{"start":{"earliest":"1155","latest":"1161"},"end":{"earliest":"1155","latest":"1161"}},{"start":{"in":"1203"},"end":{"in":"1203"}}]}},{"toponym":"(in) Ely","citations":[{"label":"956 BCS","year":956},{"label":"970 BCS","year":970},{"label":"ICC","year":1086},{"label":"DB"},{"label":"InqEl"},{"label":"1086 ICC","year":1086},{"label":"1086 DB","year":1086},{"label":"1086 InqEl","year":1086}],"when":{"timespans":[{"start":{"in":"0956"},"end":{"in":"0956"}},{"start":{"in":"0970"},"end":{"in":"0970"}},{"start":{"in":"1086"},"end":{"in":"1086"}},{"start":{"in":"1086"},"end":{"in":"1086"}},{"start":{"in":"1086"},"end":{"in":"1086"}},{"start":{"in":"1086"},"end":{"in":"1086"}}]}},{"toponym":"Ealye","citations":[{"label":"1591 Depositions","year":1591}],"when":{"timespans":[{"start":{"in":"1591"},"end":{"in":"1591"}}]}},{"toponym":"Elley","citations":[{"label":"1616 Bentham","year":1616}],"when":{"timespans":[{"start":{"in":"1616"},"end":{"in":"1616"}}]}}],"types":[{"identifier":"http://vocab.getty.edu/aat/300232418","label":"administrative division","sourceLabels":[{"label":"township","lang":"en"}]}],"geometry":{"type":"GeometryCollection","geometries":[{"type":"Point","coordinates":[0.25811,52.39857],"citations":[{"label":"GeoNames, gazetteer record geonames:2650023"}]},{"type":"Point","coordinates":[0.271209509899074,52.40029560001565],"citations":[{"label":"Unlock (EDINA) gazetteer, gazetteer record unlock:11139895"}]},{"type":"Point","coordinates":[0.254847,52.401],"citations":[{"label":"Key to English Place-Names (KEPN), gazetteer record 4098"}]}]},"when":{"timespans":[{"start":{"in":"0673"},"end":{"in":"1616"}}]},"links":[{"type":"closeMatch","identifier":"https://sws.geonames.org/2650023/"}],"relations":[{"relationType":"gvp:broaderPartitive","relationTo":"https://w3id.org/whg-epns/97/000010","label":"within Ely"}]}]}