{"@context":"https://raw.githubusercontent.com/LinkedPasts/linked-places-format/main/linkedplaces-context-v1.1.jsonld","type":"FeatureCollection","license":"Digitisation of English Placenames MADS data is licensed to Jisc by the English Place Names Society and released under a Creative Commons Attribution-NonCommercial 4.0 International License.","note":"LPF v1.3, lossy; derived from the PLATO record; plato_commit=ca0afadabec1e23a145c0b03df77e8f151f79832","features":[{"@id":"http://placenames.org.uk/id/placename/97/000615","type":"Feature","properties":{"title":"Coveney","ccodes":["GB"],"fclasses":["A","P"]},"names":[{"toponym":"Coveney","lang":"en","citations":[{"label":"English Place-Name Society survey, volume 19: The Isle of Ely"}]}],"types":[{"identifier":"http://vocab.getty.edu/aat/300232418","label":"administrative division","sourceLabels":[{"label":"parish","lang":"en"}]}],"geometry":{"type":"GeometryCollection","geometries":[{"type":"Point","coordinates":[0.18848,52.41666],"citations":[{"label":"GeoNames, gazetteer record geonames:2652224"}]},{"type":"Point","coordinates":[0.1839659049425692,52.41992577383837],"citations":[{"label":"Unlock (EDINA) gazetteer, gazetteer record unlock:11117788"}]},{"type":"Point","coordinates":[0.182299,52.4203],"citations":[{"label":"Key to English Place-Names (KEPN), gazetteer record 4101"}]}]},"links":[{"type":"closeMatch","identifier":"https://sws.geonames.org/2652224/"}],"relations":[{"relationType":"gvp:broaderPartitive","relationTo":"http://placenames.org.uk/id/placename/97/000614","label":"within Hundred of South Witchford"}]}]}