{"@context":"https://raw.githubusercontent.com/LinkedPasts/linked-places-format/main/linkedplaces-context-v1.1.jsonld","type":"FeatureCollection","license":"Digitisation of English Placenames MADS data is licensed to Jisc by the English Place Names Society and released under a Creative Commons Attribution-NonCommercial 4.0 International License.","note":"LPF v1.3, lossy; derived from the PLATO record; plato_commit=ca0afadabec1e23a145c0b03df77e8f151f79832","features":[{"@id":"http://placenames.org.uk/id/placename/97/000857","type":"Feature","properties":{"title":"Manea","ccodes":["GB"],"fclasses":["A","P"]},"names":[{"toponym":"Manea","lang":"en","citations":[{"label":"English Place-Name Society survey, volume 19: The Isle of Ely"}]},{"toponym":"Moneia, Moneya, Moneye","citations":[{"label":"1177–1326, recurring P","year":1177},{"label":"1177–1326, recurring MinAcct"},{"label":"1177 P","year":1177},{"label":"1326 MinAcct","year":1326}],"when":{"timespans":[{"start":{"in":"1177"},"end":{"in":"1326"}},{"start":{"in":"1177"},"end":{"in":"1177"}},{"start":{"in":"1326"},"end":{"in":"1326"}}]}},{"toponym":"Monea","citations":[{"label":"1576 Saxton","year":1576},{"label":"1695 SN","year":1695}],"when":{"timespans":[{"start":{"in":"1576"},"end":{"in":"1576"}},{"start":{"in":"1695"},"end":{"in":"1695"}}]}},{"toponym":"Maneia, Maney(e), Manaye, Manye","citations":[{"label":"1178–1575, recurring P","year":1178},{"label":"1178–1575, recurring Ely"},{"label":"1178 P","year":1178},{"label":"1575 Ely","year":1575}],"when":{"timespans":[{"start":{"in":"1178"},"end":{"in":"1575"}},{"start":{"in":"1178"},"end":{"in":"1178"}},{"start":{"in":"1575"},"end":{"in":"1575"}}]}},{"toponym":"Mane","citations":[{"label":"1570 SR","year":1570}],"when":{"timespans":[{"start":{"in":"1570"},"end":{"in":"1570"}}]}},{"toponym":"Mawna","citations":[{"label":"1499 Ipm","year":1499}],"when":{"timespans":[{"start":{"in":"1499"},"end":{"in":"1499"}}]}}],"types":[{"identifier":"http://vocab.getty.edu/aat/300232418","label":"administrative division","sourceLabels":[{"label":"township","lang":"en"}]}],"geometry":{"type":"GeometryCollection","geometries":[{"type":"Point","coordinates":[0.17857,52.48304],"citations":[{"label":"GeoNames, gazetteer record geonames:2643121"}]},{"type":"Point","coordinates":[0.1870805681932745,52.48281732576446],"citations":[{"label":"Unlock (EDINA) gazetteer, gazetteer record unlock:11211908"}]},{"type":"Point","coordinates":[0.200125,52.4829],"citations":[{"label":"Key to English Place-Names (KEPN), gazetteer record 4104"}]}]},"when":{"timespans":[{"start":{"in":"1177"},"end":{"in":"1695"}}]},"links":[{"type":"closeMatch","identifier":"https://sws.geonames.org/2643121/"}],"relations":[{"relationType":"gvp:broaderPartitive","relationTo":"http://placenames.org.uk/id/placename/97/000856","label":"within Manea"}]}]}