{"@context":"https://raw.githubusercontent.com/LinkedPasts/linked-places-format/main/linkedplaces-context-v1.1.jsonld","type":"FeatureCollection","license":"Digitisation of English Placenames MADS data is licensed to Jisc by the English Place Names Society and released under a Creative Commons Attribution-NonCommercial 4.0 International License.","note":"LPF v1.3, lossy; derived from the PLATO record; plato_commit=ca0afadabec1e23a145c0b03df77e8f151f79832","features":[{"@id":"http://placenames.org.uk/id/placename/97/001734","type":"Feature","properties":{"title":"Whittlesey","ccodes":["GB"],"fclasses":["A","P"]},"names":[{"toponym":"Whittlesey","lang":"en","citations":[{"label":"English Place-Name Society survey, volume 19: The Isle of Ely"}]},{"toponym":"(W)itlesig","citations":[{"label":"c. 972 ASCh","year":962}],"when":{"timespans":[{"start":{"earliest":"0962","latest":"0982"},"end":{"earliest":"0962","latest":"0982"}}]}},{"toponym":"Witlesig","citations":[{"label":"973 BCS","year":973}],"when":{"timespans":[{"start":{"in":"0973"},"end":{"in":"0973"}}]}},{"toponym":"Witleseie, Witt(e)leseia","citations":[{"label":"1086 InqEl","year":1086}],"when":{"timespans":[{"start":{"in":"1086"},"end":{"in":"1086"}}]}},{"toponym":"Wit(e)leseia, Wytleseia, Wit(e)leseia, Wit(e)leseie, Wit(e)leseya, Wit(e)lesey(e), Wit(e)leseye","citations":[{"label":"1110–1553, recurring HarlCh","year":1110},{"label":"1110–1553, recurring Pat"},{"label":"c. 1120 HarlCh","year":1110},{"label":"1553 Pat","year":1553}],"when":{"timespans":[{"start":{"in":"1110"},"end":{"in":"1553"}},{"start":{"earliest":"1110","latest":"1130"},"end":{"earliest":"1110","latest":"1130"}},{"start":{"in":"1553"},"end":{"in":"1553"}}]}},{"toponym":"Witleseye Andree, Witleseye Sancte Marie","citations":[{"label":"1256 Barnwell","year":1256}],"when":{"timespans":[{"start":{"in":"1256"},"end":{"in":"1256"}}]}},{"toponym":"Witleseye Maries","citations":[{"label":"1559 Rental","year":1559}],"when":{"timespans":[{"start":{"in":"1559"},"end":{"in":"1559"}}]}},{"toponym":"Withleseya","citations":[{"label":"c. 1020 LibEl","year":1010}],"when":{"timespans":[{"start":{"earliest":"1010","latest":"1030"},"end":{"earliest":"1010","latest":"1030"}}]}},{"toponym":"Withleseie","citations":[{"label":"1086 InqEl","year":1086}],"when":{"timespans":[{"start":{"in":"1086"},"end":{"in":"1086"}}]}},{"toponym":"Withleseia, Wythleseia, Wythleseya, Wythleseie, Wythlesey(e)","citations":[{"label":"1120–1285, recurring ElyD","year":1120},{"label":"1120–1285, recurring Ass"},{"label":"c. 1130 ElyD","year":1120},{"label":"1285 Ass","year":1285}],"when":{"timespans":[{"start":{"in":"1120"},"end":{"in":"1285"}},{"start":{"earliest":"1120","latest":"1140"},"end":{"earliest":"1120","latest":"1140"}},{"start":{"in":"1285"},"end":{"in":"1285"}}]}},{"toponym":"Witesie","citations":[{"label":"1086 DB","year":1086}],"when":{"timespans":[{"start":{"in":"1086"},"end":{"in":"1086"}}]}},{"toponym":"Witeseia","citations":[{"label":"1086 InqEl","year":1086}],"when":{"timespans":[{"start":{"in":"1086"},"end":{"in":"1086"}}]}},{"toponym":"Wyteseye","citations":[{"label":"1291 Tax","year":1291}],"when":{"timespans":[{"start":{"in":"1291"},"end":{"in":"1291"}}]}},{"toponym":"Wytlesheye","citations":[{"label":"1234 ElyCouch","year":1234}],"when":{"timespans":[{"start":{"in":"1234"},"end":{"in":"1234"}}]}},{"toponym":"Wythlesheye","citations":[{"label":"1277 Ely","year":1277}],"when":{"timespans":[{"start":{"in":"1277"},"end":{"in":"1277"}}]}},{"toponym":"Whytesleye","citations":[{"label":"1322 Pat","year":1322}],"when":{"timespans":[{"start":{"in":"1322"},"end":{"in":"1322"}}]}},{"toponym":"Whitleseye","citations":[{"label":"1346 Pat","year":1346}],"when":{"timespans":[{"start":{"in":"1346"},"end":{"in":"1346"}}]}},{"toponym":"Wyddylsay","citations":[{"label":"1518 Fenland","year":1518}],"when":{"timespans":[{"start":{"in":"1518"},"end":{"in":"1518"}}]}},{"toponym":"Wic(k)lesey or Wittlesea","citations":[{"label":"1586 ChancP","year":1586}],"when":{"timespans":[{"start":{"in":"1586"},"end":{"in":"1586"}}]}}],"types":[{"identifier":"http://vocab.getty.edu/aat/300232418","label":"administrative division","sourceLabels":[{"label":"township","lang":"en"}]}],"geometry":{"type":"GeometryCollection","geometries":[{"type":"Point","coordinates":[-0.13016,52.55804],"citations":[{"label":"GeoNames, gazetteer record geonames:2634010"}]},{"type":"Point","coordinates":[-0.1189387002743182,52.56001786121394],"citations":[{"label":"Unlock (EDINA) gazetteer, gazetteer record unlock:11322229"}]},{"type":"Point","coordinates":[-0.120576,52.5604],"citations":[{"label":"Key to English Place-Names (KEPN), gazetteer record 4119"}]}]},"when":{"timespans":[{"start":{"in":"0962"},"end":{"in":"1586"}}]},"links":[{"type":"closeMatch","identifier":"https://sws.geonames.org/2634010/"}],"relations":[{"relationType":"gvp:broaderPartitive","relationTo":"http://placenames.org.uk/id/placename/97/001733","label":"within Whittlesey"}]}]}