{"@context":"https://raw.githubusercontent.com/LinkedPasts/linked-places-format/main/linkedplaces-context-v1.1.jsonld","type":"FeatureCollection","license":"Digitisation of English Placenames MADS data is licensed to Jisc by the English Place Names Society and released under a Creative Commons Attribution-NonCommercial 4.0 International License.","note":"LPF v1.3, lossy; derived from the PLATO record; plato_commit=ca0afadabec1e23a145c0b03df77e8f151f79832","features":[{"@id":"http://placenames.org.uk/id/placename/97/001979","type":"Feature","properties":{"title":"Wimblington","ccodes":["GB"],"fclasses":["A","P"]},"names":[{"toponym":"Wimblington","lang":"en","citations":[{"label":"English Place-Name Society survey, volume 19: The Isle of Ely"}]},{"toponym":"Wimblingetune","citations":[{"label":"c. 975 LibEl","year":965},{"label":"12th Libellus","year":1100}],"when":{"timespans":[{"start":{"earliest":"0965","latest":"0985"},"end":{"earliest":"0965","latest":"0985"}},{"start":{"earliest":"1100","latest":"1200"},"end":{"earliest":"1100","latest":"1200"}}]}},{"toponym":"Wimblingtune","citations":[{"label":"12th Libellus","year":1100},{"label":"1170 LibEl","year":1170}],"when":{"timespans":[{"start":{"earliest":"1100","latest":"1200"},"end":{"earliest":"1100","latest":"1200"}},{"start":{"in":"1170"},"end":{"in":"1170"}}]}},{"toponym":"Wymb(e)lington, Wymb(e)lyngton","citations":[{"label":"1251–1617, recurring ElyCouch","year":1251},{"label":"1251–1617, recurring Imb"},{"label":"1251 ElyCouch","year":1251},{"label":"1617 Imb","year":1617}],"when":{"timespans":[{"start":{"in":"1251"},"end":{"in":"1617"}},{"start":{"in":"1251"},"end":{"in":"1251"}},{"start":{"in":"1617"},"end":{"in":"1617"}}]}},{"toponym":"Wimiligtune","citations":[{"label":"12th Libellus","year":1100}],"when":{"timespans":[{"start":{"earliest":"1100","latest":"1200"},"end":{"earliest":"1100","latest":"1200"}}]}},{"toponym":"Wymelitone","citations":[{"label":"1221 ElyA","year":1221}],"when":{"timespans":[{"start":{"in":"1221"},"end":{"in":"1221"}}]}},{"toponym":"Wym(e)lington, Wim(e)lington, Wym(e)lyngton","citations":[{"label":"1251–1576, recurring ElyCouch","year":1251},{"label":"1251–1576, recurring Saxton"},{"label":"1251 ElyCouch","year":1251},{"label":"1576 Saxton","year":1576}],"when":{"timespans":[{"start":{"in":"1251"},"end":{"in":"1576"}},{"start":{"in":"1251"},"end":{"in":"1251"}},{"start":{"in":"1576"},"end":{"in":"1576"}}]}},{"toponym":"Wimblitone","citations":[{"label":"1277 Ely","year":1277}],"when":{"timespans":[{"start":{"in":"1277"},"end":{"in":"1277"}}]}},{"toponym":"Wymbleton, Wimbleton","citations":[{"label":"1617 SewersD","year":1617},{"label":"1638 ElyVis","year":1638}],"when":{"timespans":[{"start":{"in":"1617"},"end":{"in":"1617"}},{"start":{"in":"1638"},"end":{"in":"1638"}}]}},{"toponym":"Winelington","citations":[{"label":"1285 Ass","year":1285}],"when":{"timespans":[{"start":{"in":"1285"},"end":{"in":"1285"}}]}},{"toponym":"Wemblington, Wemblyngton","citations":[{"label":"1298 MinAcct","year":1298}],"when":{"timespans":[{"start":{"in":"1298"},"end":{"in":"1298"}}]}},{"toponym":"Wemyllyngton","citations":[{"label":"1541 MinAcct","year":1541}],"when":{"timespans":[{"start":{"in":"1541"},"end":{"in":"1541"}}]}},{"toponym":"Wylmyngton, Wilmyngton, Wilmington","citations":[{"label":"1337–1547, recurring Chateriz","year":1337},{"label":"1337–1547, recurring Rental"},{"label":"1337 Chateriz","year":1337},{"label":"t. Hy 8 Rental","year":1509}],"when":{"timespans":[{"start":{"in":"1337"},"end":{"in":"1547"}},{"start":{"in":"1337"},"end":{"in":"1337"}},{"start":{"earliest":"1509","latest":"1547"},"end":{"earliest":"1509","latest":"1547"}}]}},{"toponym":"Wymyngton","citations":[{"label":"1386 Pat","year":1386}],"when":{"timespans":[{"start":{"in":"1386"},"end":{"in":"1386"}},{"start":{"in":"1388"},"end":{"in":"1388"}}]}}],"types":[{"identifier":"http://vocab.getty.edu/aat/300232418","label":"administrative division","sourceLabels":[{"label":"township","lang":"en"}]}],"geometry":{"type":"GeometryCollection","geometries":[{"type":"Point","coordinates":[0.08416,52.50925],"citations":[{"label":"GeoNames, gazetteer record geonames:2633864"}]},{"type":"Point","coordinates":[0.08533725258571018,52.51163264712974],"citations":[{"label":"Unlock (EDINA) gazetteer, gazetteer record unlock:11323532"}]},{"type":"Point","coordinates":[0.0836778,52.512],"citations":[{"label":"Key to English Place-Names (KEPN), gazetteer record 4120"}]}]},"when":{"timespans":[{"start":{"in":"0965"},"end":{"in":"1638"}}]},"links":[{"type":"closeMatch","identifier":"https://sws.geonames.org/2633864/"}],"relations":[{"relationType":"gvp:broaderPartitive","relationTo":"http://placenames.org.uk/id/placename/97/001978","label":"within Wimblington"}]}]}