{"@context":"https://raw.githubusercontent.com/LinkedPasts/linked-places-format/main/linkedplaces-context-v1.1.jsonld","type":"FeatureCollection","license":"Digitisation of English Placenames MADS data is licensed to Jisc by the English Place Names Society and released under a Creative Commons Attribution-NonCommercial 4.0 International License.","note":"LPF v1.3, lossy; derived from the PLATO record; plato_commit=ca0afadabec1e23a145c0b03df77e8f151f79832","features":[{"@id":"http://placenames.org.uk/id/placename/97/002917","type":"Feature","properties":{"title":"Wisbech","ccodes":["GB"],"fclasses":["A","P"]},"names":[{"toponym":"Wisbech","lang":"en","citations":[{"label":"English Place-Name Society survey, volume 19: The Isle of Ely"}]},{"toponym":"Wisbece","citations":[{"label":"1086 DB","year":1086}],"when":{"timespans":[{"start":{"in":"1086"},"end":{"in":"1086"}}]}},{"toponym":"Wisbecce","citations":[{"label":"1086 InqEl","year":1086}],"when":{"timespans":[{"start":{"in":"1086"},"end":{"in":"1086"}}]}},{"toponym":"Wisbech(e), Wysbech(e)","citations":[{"label":"1284–1284, recurring Peterb","year":1284},{"label":"1284 Peterb","year":1284}],"when":{"timespans":[{"start":{"in":"1284"},"end":{"in":"1284"}},{"start":{"in":"1284"},"end":{"in":"1284"}}]}},{"toponym":"Wisbich(e), Wysbich(e)","citations":[{"label":"1436–1594, recurring Pat","year":1436},{"label":"1436–1594, recurring Camden"},{"label":"1436 Pat","year":1436},{"label":"1594 Camden","year":1594}],"when":{"timespans":[{"start":{"in":"1436"},"end":{"in":"1594"}},{"start":{"in":"1436"},"end":{"in":"1436"}},{"start":{"in":"1594"},"end":{"in":"1594"}}]}},{"toponym":"Wisbitch","citations":[{"label":"1588 Fenland","year":1588}],"when":{"timespans":[{"start":{"in":"1588"},"end":{"in":"1588"}}]}},{"toponym":"Wisbeeche","citations":[{"label":"1657 FF","year":1657}],"when":{"timespans":[{"start":{"in":"1657"},"end":{"in":"1657"}}]}},{"toponym":"Wisbidge","citations":[{"label":"1664 BedL","year":1664}],"when":{"timespans":[{"start":{"in":"1664"},"end":{"in":"1664"}}]}},{"toponym":"Wisebache","citations":[{"label":"1086 InqEl","year":1086}],"when":{"timespans":[{"start":{"in":"1086"},"end":{"in":"1086"}}]}},{"toponym":"Wysebach","citations":[{"label":"1470 ECP","year":1470}],"when":{"timespans":[{"start":{"in":"1470"},"end":{"in":"1470"}}]}},{"toponym":"Wisebece","citations":[{"label":"655 ASC","year":655}],"when":{"timespans":[{"start":{"in":"0655"},"end":{"in":"0655"}}]}},{"toponym":"Wisebec","citations":[{"label":"1173 P","year":1173},{"label":"1199 Cur","year":1199}],"when":{"timespans":[{"start":{"in":"1173"},"end":{"in":"1173"}},{"start":{"in":"1199"},"end":{"in":"1199"}}]}},{"toponym":"Wisebec(c)h(e), Wysebec(c)h(e)","citations":[{"label":"1229–1484, recurring FF","year":1229},{"label":"1229–1484, recurring Pat"},{"label":"1229 FF","year":1229},{"label":"1484 Pat","year":1484}],"when":{"timespans":[{"start":{"in":"1229"},"end":{"in":"1484"}},{"start":{"in":"1229"},"end":{"in":"1229"}},{"start":{"in":"1484"},"end":{"in":"1484"}}]}},{"toponym":"Wisebek","citations":[{"label":"1217 Pat","year":1217}],"when":{"timespans":[{"start":{"in":"1217"},"end":{"in":"1217"}}]}},{"toponym":"Wysebeck'","citations":[{"label":"c. 1277 Misc","year":1267}],"when":{"timespans":[{"start":{"earliest":"1267","latest":"1287"},"end":{"earliest":"1267","latest":"1287"}}]}},{"toponym":"Wissebech(e), Wyssebech(e)","citations":[{"label":"1291–1469, recurring Tax","year":1291},{"label":"1291–1469, recurring Pat"},{"label":"1291 Tax","year":1291},{"label":"1469 Pat","year":1469}],"when":{"timespans":[{"start":{"in":"1291"},"end":{"in":"1469"}},{"start":{"in":"1291"},"end":{"in":"1291"}},{"start":{"in":"1469"},"end":{"in":"1469"}}]}},{"toponym":"Weysebech","citations":[{"label":"1342 Pat","year":1342}],"when":{"timespans":[{"start":{"in":"1342"},"end":{"in":"1342"}}]}},{"toponym":"Wes(e)bech(e)","citations":[{"label":"1360–1608, recurring Ipm","year":1360},{"label":"1360–1608, recurring FF"},{"label":"1360 Ipm","year":1360},{"label":"1608 FF","year":1608}],"when":{"timespans":[{"start":{"in":"1360"},"end":{"in":"1608"}},{"start":{"in":"1360"},"end":{"in":"1360"}},{"start":{"in":"1608"},"end":{"in":"1608"}}]}},{"toponym":"Wosbyshe","citations":[{"label":"1463 Pat","year":1463}],"when":{"timespans":[{"start":{"in":"1463"},"end":{"in":"1463"}}]}},{"toponym":"Wesbiche","citations":[{"label":"1576 PC","year":1576}],"when":{"timespans":[{"start":{"in":"1576"},"end":{"in":"1576"}}]}},{"toponym":"Wyskebeche","citations":[{"label":"1452 Pat","year":1452}],"when":{"timespans":[{"start":{"in":"1452"},"end":{"in":"1452"}}]}},{"toponym":"Wyshebyche","citations":[{"label":"1511 EA","year":1511}],"when":{"timespans":[{"start":{"in":"1511"},"end":{"in":"1511"}}]}},{"toponym":"Wisbishe","citations":[{"label":"1497 PCC","year":1497}],"when":{"timespans":[{"start":{"in":"1497"},"end":{"in":"1497"}}]}},{"toponym":"Wysbitche","citations":[{"label":"1550 PCC","year":1550}],"when":{"timespans":[{"start":{"in":"1550"},"end":{"in":"1550"}}]}}],"types":[{"identifier":"http://vocab.getty.edu/aat/300232418","label":"administrative division","sourceLabels":[{"label":"township","lang":"en"}]}],"geometry":{"type":"GeometryCollection","geometries":[{"type":"Point","coordinates":[0.1069487740319832,52.65512875716414],"citations":[{"label":"Unlock (EDINA) gazetteer, gazetteer record unlock:11324431"}]},{"type":"Point","coordinates":[0.105281,52.6555],"citations":[{"label":"Key to English Place-Names (KEPN), gazetteer record 4129"}]}]},"when":{"timespans":[{"start":{"in":"0655"},"end":{"in":"1664"}}]},"relations":[{"relationType":"gvp:broaderPartitive","relationTo":"http://placenames.org.uk/id/placename/97/002916","label":"within Wisbech"}]}]}