{"@context":"https://raw.githubusercontent.com/LinkedPasts/linked-places-format/main/linkedplaces-context-v1.1.jsonld","type":"FeatureCollection","license":"Digitisation of English Placenames MADS data is licensed to Jisc by the English Place Names Society and released under a Creative Commons Attribution-NonCommercial 4.0 International License.","note":"LPF v1.3, lossy; derived from the PLATO record; plato_commit=ca0afadabec1e23a145c0b03df77e8f151f79832","features":[{"@id":"https://w3id.org/whg-epns/72/001447","type":"Feature","properties":{"title":"Ashby","ccodes":["GB"],"fclasses":["A","P"]},"names":[{"toponym":"Ashby","lang":"en","citations":[{"label":"English Place-Name Society survey, volume 72: Norfolk"}]},{"toponym":"Askeby","citations":[{"label":"1044-7 Sawyer","year":1044},{"label":"1044-7 KCD","year":1044},{"label":"1101-7 Holme","year":1101},{"label":"1247 to 1379 FF","year":1247},{"label":"1269 Ass","year":1269},{"label":"1275 RH","year":1275},{"label":"1302 FA","year":1302},{"label":"1303 Ch","year":1303},{"label":"1327 Banco","year":1327},{"label":"1333 Pat","year":1333},{"label":"1336 NfD","year":1336},{"label":"1535 VE","year":1535}],"when":{"timespans":[{"start":{"earliest":"1044","latest":"1047"},"end":{"earliest":"1044","latest":"1047"}},{"start":{"earliest":"1044","latest":"1047"},"end":{"earliest":"1044","latest":"1047"}},{"start":{"earliest":"1101","latest":"1107"},"end":{"earliest":"1101","latest":"1107"}},{"start":{"earliest":"1190","latest":"1210"},"end":{"earliest":"1190","latest":"1210"}},{"start":{"earliest":"1247","latest":"1379"},"end":{"earliest":"1247","latest":"1379"}},{"start":{"in":"1269"},"end":{"in":"1269"}},{"start":{"in":"1286"},"end":{"in":"1286"}},{"start":{"in":"1275"},"end":{"in":"1275"}},{"start":{"in":"1302"},"end":{"in":"1302"}},{"start":{"earliest":"1401","latest":"1402"},"end":{"earliest":"1401","latest":"1402"}},{"start":{"in":"1303"},"end":{"in":"1303"}},{"start":{"in":"1327"},"end":{"in":"1327"}},{"start":{"in":"1333"},"end":{"in":"1333"}},{"start":{"in":"1498"},"end":{"in":"1498"}},{"start":{"in":"1336"},"end":{"in":"1336"}},{"start":{"in":"1535"},"end":{"in":"1535"}}]}},{"toponym":"Aschebei (2x), Asseby","citations":[{"label":"1086 DB","year":1086}],"when":{"timespans":[{"start":{"in":"1086"},"end":{"in":"1086"}}]}},{"toponym":"Askebi","citations":[{"label":"1196 FF","year":1196}],"when":{"timespans":[{"start":{"in":"1196"},"end":{"in":"1196"}},{"start":{"in":"1197"},"end":{"in":"1197"}}]}},{"toponym":"Essebi","citations":[{"label":"1199 FF","year":1199}],"when":{"timespans":[{"start":{"in":"1199"},"end":{"in":"1199"}}]}},{"toponym":"Asheby","citations":[{"label":"1325 FF","year":1325},{"label":"1535 VE","year":1535}],"when":{"timespans":[{"start":{"in":"1325"},"end":{"in":"1325"}},{"start":{"in":"1327"},"end":{"in":"1327"}},{"start":{"in":"1535"},"end":{"in":"1535"}}]}},{"toponym":"Ascheby","citations":[{"label":"1361 AD","year":1361}],"when":{"timespans":[{"start":{"in":"1361"},"end":{"in":"1361"}}]}},{"toponym":"Aissby","citations":[{"label":"1535 VE","year":1535}],"when":{"timespans":[{"start":{"in":"1535"},"end":{"in":"1535"}}]}}],"types":[{"identifier":"http://vocab.getty.edu/aat/300232418","label":"administrative division","sourceLabels":[{"label":"township","lang":"en"}]}],"geometry":{"type":"GeometryCollection","geometries":[{"type":"Point","coordinates":[1.580404854,52.67820623],"citations":[{"label":"English Place-Name Society survey (DEEP coordinates)"}]},{"type":"Point","coordinates":[1.57155,52.6833],"citations":[{"label":"Key to English Place-Names (KEPN), gazetteer record 9230"}]}]},"when":{"timespans":[{"start":{"in":"1044"},"end":{"in":"1535"}}]},"relations":[{"relationType":"gvp:broaderPartitive","relationTo":"https://w3id.org/whg-epns/72/001446","label":"within Ashby with Oby and Thurne"}]}]}