{"@context":"https://raw.githubusercontent.com/LinkedPasts/linked-places-format/main/linkedplaces-context-v1.1.jsonld","type":"FeatureCollection","license":"Digitisation of English Placenames MADS data is licensed to Jisc by the English Place Names Society and released under a Creative Commons Attribution-NonCommercial 4.0 International License.","note":"LPF v1.3, lossy; derived from the PLATO record; plato_commit=ca0afadabec1e23a145c0b03df77e8f151f79832","features":[{"@id":"http://placenames.org.uk/id/placename/72/001663","type":"Feature","properties":{"title":"Billockby and Burgh St Margaret","ccodes":["GB"],"fclasses":["A","P"]},"names":[{"toponym":"Billockby and Burgh St Margaret","lang":"en","citations":[{"label":"English Place-Name Society survey, volume 72: Norfolk"}]}],"types":[{"identifier":"http://vocab.getty.edu/aat/300232418","label":"administrative division","sourceLabels":[{"label":"parish","lang":"en"}]}],"geometry":{"type":"Point","coordinates":[1.58484,52.6649],"citations":[{"label":"Key to English Place-Names (KEPN), gazetteer record 9231"}]},"relations":[{"relationType":"gvp:broaderPartitive","relationTo":"http://placenames.org.uk/id/placename/72/001426","label":"within West Flegg Hundred"}]}]}