{"@context":"https://raw.githubusercontent.com/LinkedPasts/linked-places-format/main/linkedplaces-context-v1.1.jsonld","type":"FeatureCollection","license":"Digitisation of English Placenames MADS data is licensed to Jisc by the English Place Names Society and released under a Creative Commons Attribution-NonCommercial 4.0 International License.","note":"LPF v1.3, lossy; derived from the PLATO record; plato_commit=fa0d247ccc0263f8f19c8d7cdcd163df96935d1e","features":[{"@id":"https://w3id.org/whg-epns/72/001866","type":"Feature","properties":{"title":"Clippesby","ccodes":["GB"],"fclasses":["A","P"]},"names":[{"toponym":"Clippesby","lang":"en","citations":[{"label":"English Place-Name Society survey, volume 72: Norfolk"}]}],"types":[{"identifier":"http://vocab.getty.edu/aat/300232418","label":"administrative division","sourceLabels":[{"label":"parish","lang":"en"}]}],"geometry":{"type":"GeometryCollection","geometries":[{"type":"Point","coordinates":[1.59283,52.67404],"citations":[{"label":"GeoNames, gazetteer record geonames:2652824"}]},{"type":"Point","coordinates":[1.579670417,52.66923307],"citations":[{"label":"English Place-Name Society survey (DEEP coordinates)"}]},{"type":"Point","coordinates":[1.58741965199437,52.67349719123284],"citations":[{"label":"Unlock (EDINA) gazetteer, gazetteer record unlock:11109374"}]},{"type":"Point","coordinates":[1.58558,52.6739],"citations":[{"label":"Key to English Place-Names (KEPN), gazetteer record 9233"}]}]},"links":[{"type":"closeMatch","identifier":"https://sws.geonames.org/2652824/"}],"relations":[{"relationType":"gvp:broaderPartitive","relationTo":"https://w3id.org/whg-epns/72/001426","label":"within West Flegg Hundred"}]}]}