{"@context":"https://raw.githubusercontent.com/LinkedPasts/linked-places-format/main/linkedplaces-context-v1.1.jsonld","type":"FeatureCollection","license":"Digitisation of English Placenames MADS data is licensed to Jisc by the English Place Names Society and released under a Creative Commons Attribution-NonCommercial 4.0 International License.","note":"LPF v1.3, lossy; derived from the PLATO record; plato_commit=ca0afadabec1e23a145c0b03df77e8f151f79832","features":[{"@id":"https://w3id.org/whg-epns/72/007585","type":"Feature","properties":{"title":"Hoveton St John","ccodes":["GB"],"fclasses":["A","P"]},"names":[{"toponym":"Hoveton St John","lang":"en","citations":[{"label":"English Place-Name Society survey, volume 72: Norfolk"}]}],"types":[{"identifier":"http://vocab.getty.edu/aat/300232418","label":"administrative division","sourceLabels":[{"label":"township","lang":"en"}]}],"geometry":{"type":"GeometryCollection","geometries":[{"type":"Point","coordinates":[1.405310954,52.71035639],"citations":[{"label":"English Place-Name Society survey (DEEP coordinates)"}]},{"type":"Point","coordinates":[1.41123,52.715],"citations":[{"label":"Key to English Place-Names (KEPN), gazetteer record 9675"}]}]},"relations":[{"relationType":"gvp:broaderPartitive","relationTo":"https://w3id.org/whg-epns/72/007554","label":"within Hoveton St John and St Peter"}]}]}