{"@context":"https://raw.githubusercontent.com/LinkedPasts/linked-places-format/main/linkedplaces-context-v1.1.jsonld","type":"FeatureCollection","license":"Digitisation of English Placenames MADS data is licensed to Jisc by the English Place Names Society and released under a Creative Commons Attribution-NonCommercial 4.0 International License.","note":"LPF v1.3, lossy; derived from the PLATO record; plato_commit=fa0d247ccc0263f8f19c8d7cdcd163df96935d1e","features":[{"@id":"https://w3id.org/whg-epns/72/008880","type":"Feature","properties":{"title":"Swafield","ccodes":["GB"],"fclasses":["A","P"]},"names":[{"toponym":"Swafield","lang":"en","citations":[{"label":"English Place-Name Society survey, volume 72: Norfolk"}]},{"toponym":"Suaffelda, Suafelda, Suauelda","citations":[{"label":"1086 DB","year":1086}],"when":{"timespans":[{"start":{"in":"1086"},"end":{"in":"1086"}}]}},{"toponym":"Swadefeld","citations":[{"label":"c. 1145 CAcre","year":1135},{"label":"1207 Ass","year":1207}],"when":{"timespans":[{"start":{"earliest":"1135","latest":"1155"},"end":{"earliest":"1135","latest":"1155"}},{"start":{"in":"1207"},"end":{"in":"1207"}},{"start":{"in":"1257"},"end":{"in":"1257"}}]}},{"toponym":"Suadefeld","citations":[{"label":"1198 Cur","year":1198},{"label":"13 NfD","year":1200},{"label":"1206 AR","year":1206},{"label":"c. 1250 HMC","year":1240}],"when":{"timespans":[{"start":{"in":"1198"},"end":{"in":"1198"}},{"start":{"earliest":"1200","latest":"1300"},"end":{"earliest":"1200","latest":"1300"}},{"start":{"in":"1206"},"end":{"in":"1206"}},{"start":{"earliest":"1240","latest":"1260"},"end":{"earliest":"1240","latest":"1260"}}]}},{"toponym":"Swadefeud","citations":[{"label":"1250 Ass","year":1250},{"label":"c. 1250 HMC","year":1240}],"when":{"timespans":[{"start":{"in":"1250"},"end":{"in":"1250"}},{"start":{"earliest":"1240","latest":"1260"},"end":{"earliest":"1240","latest":"1260"}}]}},{"toponym":"Suadfeld","citations":[{"label":"1192-4 P","year":1192}],"when":{"timespans":[{"start":{"earliest":"1192","latest":"1194"},"end":{"earliest":"1192","latest":"1194"}}]}},{"toponym":"Suathefeld","citations":[{"label":"12 CAcre","year":1100},{"label":"c. 1150 Crawf","year":1140},{"label":"1199 Fees","year":1199},{"label":"1204 P","year":1204},{"label":"1206 AR","year":1206}],"when":{"timespans":[{"start":{"earliest":"1100","latest":"1200"},"end":{"earliest":"1100","latest":"1200"}},{"start":{"earliest":"1140","latest":"1160"},"end":{"earliest":"1140","latest":"1160"}},{"start":{"in":"1199"},"end":{"in":"1199"}},{"start":{"in":"1204"},"end":{"in":"1204"}},{"start":{"in":"1205"},"end":{"in":"1205"}},{"start":{"in":"1206"},"end":{"in":"1206"}}]}},{"toponym":"Swathefeld","citations":[{"label":"c. 1200 Bromh","year":1190},{"label":"1206 AR","year":1206},{"label":"1236 Reg I","year":1236},{"label":"1237-51 Holme","year":1237},{"label":"c. 1250 HMC","year":1240},{"label":"1275 RH","year":1275},{"label":"1277 to 1366 FF","year":1277},{"label":"1288 NoLeet","year":1288},{"label":"1302 FA","year":1302},{"label":"1306 Pat","year":1306},{"label":"1346 BM","year":1346},{"label":"1347 Fine","year":1347},{"label":"1348 Ipm","year":1348}],"when":{"timespans":[{"start":{"earliest":"1190","latest":"1210"},"end":{"earliest":"1190","latest":"1210"}},{"start":{"in":"1206"},"end":{"in":"1206"}},{"start":{"in":"1236"},"end":{"in":"1236"}},{"start":{"earliest":"1237","latest":"1251"},"end":{"earliest":"1237","latest":"1251"}},{"start":{"earliest":"1240","latest":"1260"},"end":{"earliest":"1240","latest":"1260"}},{"start":{"in":"1275"},"end":{"in":"1275"}},{"start":{"earliest":"1277","latest":"1366"},"end":{"earliest":"1277","latest":"1366"}},{"start":{"in":"1288"},"end":{"in":"1288"}},{"start":{"in":"1302"},"end":{"in":"1302"}},{"start":{"in":"1346"},"end":{"in":"1346"}},{"start":{"in":"1306"},"end":{"in":"1306"}},{"start":{"in":"1319"},"end":{"in":"1319"}},{"start":{"in":"1361"},"end":{"in":"1361"}},{"start":{"in":"1346"},"end":{"in":"1346"}},{"start":{"in":"1347"},"end":{"in":"1347"}},{"start":{"in":"1348"},"end":{"in":"1348"}}]}},{"toponym":"Swathefeud","citations":[{"label":"1234 NCReg","year":1234},{"label":"1257 Ass","year":1257},{"label":"1288 NoD","year":1288}],"when":{"timespans":[{"start":{"in":"1234"},"end":{"in":"1234"}},{"start":{"in":"1257"},"end":{"in":"1257"}},{"start":{"in":"1269"},"end":{"in":"1269"}},{"start":{"in":"1286"},"end":{"in":"1286"}},{"start":{"in":"1288"},"end":{"in":"1288"}}]}},{"toponym":"Suathefeud","citations":[{"label":"1254-75 Val","year":1254}],"when":{"timespans":[{"start":{"earliest":"1254","latest":"1275"},"end":{"earliest":"1254","latest":"1275"}}]}},{"toponym":"Swathfeld","citations":[{"label":"1191 FF","year":1191},{"label":"1316 FA","year":1316}],"when":{"timespans":[{"start":{"in":"1191"},"end":{"in":"1191"}},{"start":{"in":"1316"},"end":{"in":"1316"}},{"start":{"in":"1428"},"end":{"in":"1428"}}]}},{"toponym":"Swatfeld","citations":[{"label":"1202 P","year":1202}],"when":{"timespans":[{"start":{"in":"1202"},"end":{"in":"1202"}}]}},{"toponym":"Swafeld","citations":[{"label":"1195 Cur","year":1195},{"label":"1204 RP","year":1204},{"label":"1208 P","year":1208},{"label":"1439 BM","year":1439},{"label":"1453 FF","year":1453},{"label":"1486 Pat","year":1486},{"label":"1518 AD","year":1518}],"when":{"timespans":[{"start":{"in":"1195"},"end":{"in":"1195"}},{"start":{"in":"1204"},"end":{"in":"1204"}},{"start":{"in":"1208"},"end":{"in":"1208"}},{"start":{"in":"1439"},"end":{"in":"1439"}},{"start":{"in":"1453"},"end":{"in":"1453"}},{"start":{"in":"1486"},"end":{"in":"1486"}},{"start":{"in":"1518"},"end":{"in":"1518"}}]}},{"toponym":"Suafeld","citations":[{"label":"1208 Mem","year":1208}],"when":{"timespans":[{"start":{"in":"1208"},"end":{"in":"1208"}}]}},{"toponym":"Swaffelde","citations":[{"label":"1535 VE","year":1535}],"when":{"timespans":[{"start":{"in":"1535"},"end":{"in":"1535"}}]}},{"toponym":"Swauesfeld","citations":[{"label":"1196 Cur","year":1196}],"when":{"timespans":[{"start":{"in":"1196"},"end":{"in":"1196"}}]}},{"toponym":"Swathesfeud","citations":[{"label":"1250 Ass","year":1250}],"when":{"timespans":[{"start":{"in":"1250"},"end":{"in":"1250"}}]}},{"toponym":"Swaiefeud","citations":[{"label":"1254 NfA","year":1254}],"when":{"timespans":[{"start":{"in":"1254"},"end":{"in":"1254"}}]}},{"toponym":"Swayfield","citations":[{"label":"1636 Mason","year":1636}],"when":{"timespans":[{"start":{"in":"1636"},"end":{"in":"1636"}}]}},{"toponym":"Swayfilde","citations":[{"label":"1650 NfA","year":1650}],"when":{"timespans":[{"start":{"in":"1650"},"end":{"in":"1650"}}]}}],"types":[{"identifier":"http://vocab.getty.edu/aat/300232418","label":"administrative division","sourceLabels":[{"label":"township","lang":"en"}]}],"geometry":{"type":"GeometryCollection","geometries":[{"type":"Point","coordinates":[1.39385,52.83868],"citations":[{"label":"GeoNames, gazetteer record geonames:2636460"}]},{"type":"Point","coordinates":[1.386200007,52.84582582],"citations":[{"label":"English Place-Name Society survey (DEEP coordinates)"}]},{"type":"Point","coordinates":[1.393262457577711,52.84112765626892],"citations":[{"label":"Unlock (EDINA) gazetteer, gazetteer record unlock:11296000"}]},{"type":"Point","coordinates":[1.39144,52.8415],"citations":[{"label":"Key to English Place-Names (KEPN), gazetteer record 9684"}]}]},"when":{"timespans":[{"start":{"in":"1086"},"end":{"in":"1650"}}]},"links":[{"type":"closeMatch","identifier":"https://sws.geonames.org/2636460/"}],"relations":[{"relationType":"gvp:broaderPartitive","relationTo":"https://w3id.org/whg-epns/72/008879","label":"within Swafield"}]}]}