{"@context":"https://raw.githubusercontent.com/LinkedPasts/linked-places-format/main/linkedplaces-context-v1.1.jsonld","type":"FeatureCollection","license":"Digitisation of English Placenames MADS data is licensed to Jisc by the English Place Names Society and released under a Creative Commons Attribution-NonCommercial 4.0 International License.","note":"LPF v1.3, lossy; derived from the PLATO record; plato_commit=fa0d247ccc0263f8f19c8d7cdcd163df96935d1e","features":[{"@id":"https://w3id.org/whg-epns/72/009124","type":"Feature","properties":{"title":"Westwick","ccodes":["GB"],"fclasses":["A","P"]},"names":[{"toponym":"Westwick","lang":"en","citations":[{"label":"English Place-Name Society survey, volume 72: Norfolk"}]},{"toponym":"Westwic","citations":[{"label":"1086 DB","year":1086},{"label":"1250 Ass","year":1250}],"when":{"timespans":[{"start":{"in":"1086"},"end":{"in":"1086"}},{"start":{"in":"1250"},"end":{"in":"1250"}},{"start":{"in":"1257"},"end":{"in":"1257"}}]}},{"toponym":"Westwyc","citations":[{"label":"1101-7 Holme","year":1101},{"label":"13 Holme","year":1200},{"label":"1250 Ass","year":1250},{"label":"1293 BM","year":1293}],"when":{"timespans":[{"start":{"earliest":"1101","latest":"1107"},"end":{"earliest":"1101","latest":"1107"}},{"start":{"earliest":"1200","latest":"1300"},"end":{"earliest":"1200","latest":"1300"}},{"start":{"in":"1250"},"end":{"in":"1250"}},{"start":{"in":"1293"},"end":{"in":"1293"}}]}},{"toponym":"Westwik","citations":[{"label":"1155-89 Holme","year":1155},{"label":"1250 Ass","year":1250},{"label":"1254-75 Val","year":1254}],"when":{"timespans":[{"start":{"earliest":"1155","latest":"1189"},"end":{"earliest":"1155","latest":"1189"}},{"start":{"in":"1250"},"end":{"in":"1250"}},{"start":{"earliest":"1254","latest":"1275"},"end":{"earliest":"1254","latest":"1275"}}]}},{"toponym":"Westwyk","citations":[{"label":"1250 Ass","year":1250},{"label":"1311 FF","year":1311},{"label":"1316 FA","year":1316},{"label":"1344 Cl","year":1344},{"label":"1361 Pat","year":1361},{"label":"1534 Ct Bromh","year":1534}],"when":{"timespans":[{"start":{"in":"1250"},"end":{"in":"1250"}},{"start":{"in":"1311"},"end":{"in":"1311"}},{"start":{"in":"1334"},"end":{"in":"1334"}},{"start":{"in":"1352"},"end":{"in":"1352"}},{"start":{"in":"1316"},"end":{"in":"1316"}},{"start":{"in":"1346"},"end":{"in":"1346"}},{"start":{"in":"1402"},"end":{"in":"1402"}},{"start":{"in":"1344"},"end":{"in":"1344"}},{"start":{"in":"1361"},"end":{"in":"1361"}},{"start":{"in":"1534"},"end":{"in":"1534"}}]}},{"toponym":"Westwich","citations":[{"label":"1254-75 Val","year":1254}],"when":{"timespans":[{"start":{"earliest":"1254","latest":"1275"},"end":{"earliest":"1254","latest":"1275"}}]}},{"toponym":"Westwyke","citations":[{"label":"1269 Ass","year":1269}],"when":{"timespans":[{"start":{"in":"1269"},"end":{"in":"1269"}},{"start":{"in":"1286"},"end":{"in":"1286"}}]}},{"toponym":"Westwike","citations":[{"label":"1286 Ass","year":1286}],"when":{"timespans":[{"start":{"in":"1286"},"end":{"in":"1286"}}]}},{"toponym":"Westewyk","citations":[{"label":"1356 FF","year":1356}],"when":{"timespans":[{"start":{"in":"1356"},"end":{"in":"1356"}}]}},{"toponym":"Westwycke","citations":[{"label":"1535 VE","year":1535}],"when":{"timespans":[{"start":{"in":"1535"},"end":{"in":"1535"}}]}}],"types":[{"identifier":"http://vocab.getty.edu/aat/300232418","label":"administrative division","sourceLabels":[{"label":"township","lang":"en"}]}],"geometry":{"type":"GeometryCollection","geometries":[{"type":"Point","coordinates":[1.37905,52.78678],"citations":[{"label":"GeoNames, gazetteer record geonames:7296606"}]},{"type":"Point","coordinates":[1.380619407,52.77402725],"citations":[{"label":"English Place-Name Society survey (DEEP coordinates)"}]},{"type":"Point","coordinates":[1.374263065212189,52.78770153617389],"citations":[{"label":"Unlock (EDINA) gazetteer, gazetteer record unlock:11319176"}]},{"type":"Point","coordinates":[1.37244,52.7881],"citations":[{"label":"Key to English Place-Names (KEPN), gazetteer record 9686"}]}]},"when":{"timespans":[{"start":{"in":"1086"},"end":{"in":"1535"}}]},"links":[{"type":"closeMatch","identifier":"https://sws.geonames.org/7296606/"}],"relations":[{"relationType":"gvp:broaderPartitive","relationTo":"https://w3id.org/whg-epns/72/009123","label":"within Westwick"}]}]}