{"@context":"https://raw.githubusercontent.com/LinkedPasts/linked-places-format/main/linkedplaces-context-v1.1.jsonld","type":"FeatureCollection","license":"Digitisation of English Placenames MADS data is licensed to Jisc by the English Place Names Society and released under a Creative Commons Attribution-NonCommercial 4.0 International License.","note":"LPF v1.3, lossy; derived from the PLATO record; plato_commit=ca0afadabec1e23a145c0b03df77e8f151f79832","features":[{"@id":"http://placenames.org.uk/id/placename/64/003589","type":"Feature","properties":{"title":"Caistor","ccodes":["GB"],"fclasses":["A","P"]},"names":[{"toponym":"Caistor","lang":"en","citations":[{"label":"English Place-Name Society survey, volume 64: Lincolnshire"}]},{"toponym":"CASTR","citations":[{"label":"975-8 ASCoins","year":975}],"when":{"timespans":[{"start":{"earliest":"0975","latest":"0978"},"end":{"earliest":"0975","latest":"0978"}}]}},{"toponym":"CAZT","citations":[{"label":"978-9 ASCoins","year":978}],"when":{"timespans":[{"start":{"earliest":"0978","latest":"0979"},"end":{"earliest":"0978","latest":"0979"}}]}},{"toponym":"Castre","citations":[{"label":"1070-87 RA","year":1070},{"label":"1086 DB","year":1086},{"label":"1138-9 RA","year":1138},{"label":"1146 RA","year":1146},{"label":"c.1150 TYR","year":1140},{"label":"c.1155 NCot","year":1145},{"label":"1157-63 Dane","year":1157},{"label":"1158-9 RBE","year":1158},{"label":"a1180 NCot","year":1130},{"label":"1195–1556, recurring P","year":1195},{"label":"1195–1556, recurring CA"},{"label":"1195 P","year":1195},{"label":"1556 CA","year":1556}],"when":{"timespans":[{"start":{"earliest":"1070","latest":"1087"},"end":{"earliest":"1070","latest":"1087"}},{"start":{"in":"1086"},"end":{"in":"1086"}},{"start":{"earliest":"1138","latest":"1139"},"end":{"earliest":"1138","latest":"1139"}},{"start":{"in":"1146"},"end":{"in":"1146"}},{"start":{"earliest":"1140","latest":"1160"},"end":{"earliest":"1140","latest":"1160"}},{"start":{"earliest":"1145","latest":"1165"},"end":{"earliest":"1145","latest":"1165"}},{"start":{"earliest":"1157","latest":"1163"},"end":{"earliest":"1157","latest":"1163"}},{"start":{"earliest":"1158","latest":"1159"},"end":{"earliest":"1158","latest":"1159"}},{"start":{"earliest":"1130","latest":"1180"},"end":{"earliest":"1130","latest":"1180"}},{"start":{"in":"1195"},"end":{"in":"1556"}},{"start":{"in":"1195"},"end":{"in":"1195"}},{"start":{"in":"1556"},"end":{"in":"1556"}}]}},{"toponym":"Castra","citations":[{"label":"1090 RA","year":1090},{"label":"1130 P","year":1130},{"label":"1135-6 RA","year":1135},{"label":"1135-54 Ch","year":1135},{"label":"1139 RA","year":1139},{"label":"1154-8 Ch","year":1154},{"label":"c.1155 Dane","year":1145},{"label":"1155-61 RA","year":1155},{"label":"1150–1254, recurring Dane","year":1150},{"label":"1150–1254, recurring ValNor"},{"label":"c.1160 Dane","year":1150},{"label":"1254 ValNor","year":1254}],"when":{"timespans":[{"start":{"in":"1090"},"end":{"in":"1090"}},{"start":{"earliest":"1093","latest":"1100"},"end":{"earliest":"1093","latest":"1100"}},{"start":{"earliest":"1100","latest":"1115"},"end":{"earliest":"1100","latest":"1115"}},{"start":{"in":"1110"},"end":{"in":"1110"}},{"start":{"in":"1130"},"end":{"in":"1130"}},{"start":{"earliest":"1135","latest":"1136"},"end":{"earliest":"1135","latest":"1136"}},{"start":{"earliest":"1135","latest":"1154"},"end":{"earliest":"1135","latest":"1154"}},{"start":{"earliest":"1138","latest":"1139"},"end":{"earliest":"1138","latest":"1139"}},{"start":{"in":"1139"},"end":{"in":"1139"}},{"start":{"in":"1146"},"end":{"in":"1146"}},{"start":{"earliest":"1147","latest":"1153"},"end":{"earliest":"1147","latest":"1153"}},{"start":{"earliest":"1154","latest":"1158"},"end":{"earliest":"1154","latest":"1158"}},{"start":{"earliest":"1145","latest":"1165"},"end":{"earliest":"1145","latest":"1165"}},{"start":{"earliest":"1155","latest":"1161"},"end":{"earliest":"1155","latest":"1161"}},{"start":{"in":"1150"},"end":{"in":"1254"}},{"start":{"earliest":"1150","latest":"1170"},"end":{"earliest":"1150","latest":"1170"}},{"start":{"in":"1254"},"end":{"in":"1254"}}]}},{"toponym":"Castr'","citations":[{"label":"1159–1329, recurring P","year":1159},{"label":"1159–1329, recurring Pat"},{"label":"1159 P","year":1159},{"label":"1329 Pat","year":1329},{"label":"1343 NI","year":1343},{"label":"1393 Works","year":1393}],"when":{"timespans":[{"start":{"in":"1159"},"end":{"in":"1329"}},{"start":{"in":"1159"},"end":{"in":"1159"}},{"start":{"in":"1160"},"end":{"in":"1160"}},{"start":{"in":"1161"},"end":{"in":"1161"}},{"start":{"in":"1166"},"end":{"in":"1166"}},{"start":{"in":"1167"},"end":{"in":"1167"}},{"start":{"in":"1169"},"end":{"in":"1169"}},{"start":{"in":"1171"},"end":{"in":"1171"}},{"start":{"in":"1173"},"end":{"in":"1173"}},{"start":{"in":"1329"},"end":{"in":"1329"}},{"start":{"in":"1343"},"end":{"in":"1343"}},{"start":{"in":"1393"},"end":{"in":"1393"}}]}},{"toponym":"Castor","citations":[{"label":"c. 1275 LNQ","year":1265},{"label":"1392 Works","year":1392},{"label":"1555 Pat","year":1555}],"when":{"timespans":[{"start":{"earliest":"1265","latest":"1285"},"end":{"earliest":"1265","latest":"1285"}},{"start":{"in":"1392"},"end":{"in":"1392"}},{"start":{"in":"1555"},"end":{"in":"1555"}}]}},{"toponym":"Castor Saxonice Đuangcaster & Thongcaster","citations":[{"label":"1587 Camden","year":1587},{"label":"1695 Pryme","year":1695}],"when":{"timespans":[{"start":{"in":"1587"},"end":{"in":"1587"}},{"start":{"in":"1695"},"end":{"in":"1695"}}]}},{"toponym":"Castor alias Thong Castor","citations":[{"label":"1741 PT","year":1741},{"label":"1824 O","year":1824}],"when":{"timespans":[{"start":{"in":"1741"},"end":{"in":"1741"}},{"start":{"in":"1824"},"end":{"in":"1824"}}]}},{"toponym":"Caster","citations":[{"label":"1276 Gilb","year":1276},{"label":"1331 Pap","year":1331},{"label":"1491 Pat","year":1491},{"label":"1509 Ipm","year":1509},{"label":"1526–1697, recurring Sub","year":1526},{"label":"1526–1697, recurring LNQ"},{"label":"1526 Sub","year":1526},{"label":"1697 LNQ","year":1697}],"when":{"timespans":[{"start":{"in":"1276"},"end":{"in":"1276"}},{"start":{"in":"1331"},"end":{"in":"1331"}},{"start":{"in":"1491"},"end":{"in":"1491"}},{"start":{"in":"1509"},"end":{"in":"1509"}},{"start":{"in":"1526"},"end":{"in":"1697"}},{"start":{"in":"1526"},"end":{"in":"1526"}},{"start":{"in":"1697"},"end":{"in":"1697"}}]}},{"toponym":"Castur","citations":[{"label":"1443 Fine","year":1443}],"when":{"timespans":[{"start":{"in":"1443"},"end":{"in":"1443"}}]}},{"toponym":"Kastur","citations":[{"label":"1536 LP","year":1536}],"when":{"timespans":[{"start":{"in":"1536"},"end":{"in":"1536"}}]}},{"toponym":"Castyr","citations":[{"label":"1445 AASR","year":1445}],"when":{"timespans":[{"start":{"in":"1445"},"end":{"in":"1445"}}]}},{"toponym":"Caestre","citations":[{"label":"1472 WillsPCC","year":1472}],"when":{"timespans":[{"start":{"in":"1472"},"end":{"in":"1472"}}]}},{"toponym":"Caister","citations":[{"label":"1485 Pat","year":1485},{"label":"1569 SP","year":1569},{"label":"1576 LER","year":1576}],"when":{"timespans":[{"start":{"in":"1485"},"end":{"in":"1485"}},{"start":{"in":"1548"},"end":{"in":"1548"}},{"start":{"in":"1550"},"end":{"in":"1550"}},{"start":{"in":"1557"},"end":{"in":"1557"}},{"start":{"in":"1569"},"end":{"in":"1569"}},{"start":{"in":"1576"},"end":{"in":"1576"}}]}},{"toponym":"Caistre","citations":[{"label":"16 CA","year":1500}],"when":{"timespans":[{"start":{"earliest":"1500","latest":"1600"},"end":{"earliest":"1500","latest":"1600"}}]}},{"toponym":"Cayster","citations":[{"label":"1537-8 Dugd","year":1537}],"when":{"timespans":[{"start":{"earliest":"1537","latest":"1538"},"end":{"earliest":"1537","latest":"1538"}}]}},{"toponym":"Kayster","citations":[{"label":"1539 LP","year":1539}],"when":{"timespans":[{"start":{"in":"1539"},"end":{"in":"1539"}}]}},{"toponym":"Keyster","citations":[{"label":"1526 Sub","year":1526}],"when":{"timespans":[{"start":{"in":"1526"},"end":{"in":"1526"}}]}},{"toponym":"Caistor","citations":[{"label":"1634–1634, recurring SP","year":1634},{"label":"1634 SP","year":1634}],"when":{"timespans":[{"start":{"in":"1634"},"end":{"in":"1634"}},{"start":{"in":"1634"},"end":{"in":"1634"}}]}},{"toponym":"Kester","citations":[{"label":"1536 LP","year":1536}],"when":{"timespans":[{"start":{"in":"1536"},"end":{"in":"1536"}}]}},{"toponym":"Thwancastr(e)","citations":[{"label":"1190 NCot","year":1190},{"label":"1329 Ass","year":1329},{"label":"1337 Pat","year":1337},{"label":"1338 Misc","year":1338},{"label":"1342 Ipm","year":1342},{"label":"1356 Pat","year":1356},{"label":"1373 Peace","year":1373},{"label":"1391 FF","year":1391}],"when":{"timespans":[{"start":{"in":"1190"},"end":{"in":"1190"}},{"start":{"in":"1291"},"end":{"in":"1291"}},{"start":{"in":"1329"},"end":{"in":"1329"}},{"start":{"in":"1337"},"end":{"in":"1337"}},{"start":{"in":"1338"},"end":{"in":"1338"}},{"start":{"in":"1342"},"end":{"in":"1342"}},{"start":{"in":"1356"},"end":{"in":"1356"}},{"start":{"in":"1373"},"end":{"in":"1373"}},{"start":{"in":"1391"},"end":{"in":"1391"}}]}},{"toponym":"Thuancast' als Castor","citations":[{"label":"1576 Saxton","year":1576}],"when":{"timespans":[{"start":{"in":"1576"},"end":{"in":"1576"}}]}},{"toponym":"Thwangcastr(e)","citations":[{"label":"1298 Ass","year":1298},{"label":"1303 Ipm","year":1303},{"label":"1303 Cl","year":1303},{"label":"1310 Extent","year":1310},{"label":"1316–1465, recurring Pat","year":1316},{"label":"1316–1465, recurring Dixon"},{"label":"1316 Pat","year":1316},{"label":"1465 Dixon","year":1465}],"when":{"timespans":[{"start":{"in":"1298"},"end":{"in":"1298"}},{"start":{"in":"1303"},"end":{"in":"1303"}},{"start":{"in":"1303"},"end":{"in":"1303"}},{"start":{"in":"1310"},"end":{"in":"1310"}},{"start":{"in":"1316"},"end":{"in":"1465"}},{"start":{"in":"1316"},"end":{"in":"1316"}},{"start":{"in":"1465"},"end":{"in":"1465"}}]}},{"toponym":"Thwongcastre","citations":[{"label":"1345 FF","year":1345}],"when":{"timespans":[{"start":{"in":"1345"},"end":{"in":"1345"}}]}},{"toponym":"Thowncaster","citations":[{"label":"1538-44 ECP","year":1538}],"when":{"timespans":[{"start":{"earliest":"1538","latest":"1544"},"end":{"earliest":"1538","latest":"1544"}}]}},{"toponym":"Twangcastre","citations":[{"label":"1316 Pat","year":1316}],"when":{"timespans":[{"start":{"in":"1316"},"end":{"in":"1316"}}]}},{"toponym":"Twancastre","citations":[{"label":"1318 Cl","year":1318}],"when":{"timespans":[{"start":{"in":"1318"},"end":{"in":"1318"}}]}},{"toponym":"Thangcastr'","citations":[{"label":"c. 1275 LNQ","year":1265}],"when":{"timespans":[{"start":{"earliest":"1265","latest":"1285"},"end":{"earliest":"1265","latest":"1285"}}]}},{"toponym":"Thaungkastre","citations":[{"label":"1346 FA","year":1346}],"when":{"timespans":[{"start":{"in":"1346"},"end":{"in":"1346"}}]}},{"toponym":"Yongcastr'","citations":[{"label":"1275 RH","year":1275}],"when":{"timespans":[{"start":{"in":"1275"},"end":{"in":"1275"}}]}},{"toponym":"Yoncastre","citations":[{"label":"1276 RH","year":1276}],"when":{"timespans":[{"start":{"in":"1276"},"end":{"in":"1276"}}]}},{"toponym":"Thong Caster","citations":[{"label":"1610 Speed","year":1610}],"when":{"timespans":[{"start":{"in":"1610"},"end":{"in":"1610"}}]}},{"toponym":"Thong Castor","citations":[{"label":"1799 Young","year":1799}],"when":{"timespans":[{"start":{"in":"1799"},"end":{"in":"1799"}}]}}],"types":[{"identifier":"http://vocab.getty.edu/aat/300232418","label":"administrative division","sourceLabels":[{"label":"township","lang":"en"}]}],"geometry":{"type":"GeometryCollection","geometries":[{"type":"Point","coordinates":[-0.31538,53.49673],"citations":[{"label":"GeoNames, gazetteer record geonames:2654043"}]},{"type":"Point","coordinates":[-0.3189162963631837,53.49811604620393],"citations":[{"label":"Unlock (EDINA) gazetteer, gazetteer record unlock:11096390"}]},{"type":"Point","coordinates":[-0.320572,53.4984],"citations":[{"label":"Key to English Place-Names (KEPN), gazetteer record 10829"}]}]},"when":{"timespans":[{"start":{"in":"0975"},"end":{"in":"1824"}}]},"links":[{"type":"closeMatch","identifier":"https://sws.geonames.org/2654043/"}],"relations":[{"relationType":"gvp:broaderPartitive","relationTo":"http://placenames.org.uk/id/placename/64/003588","label":"within Caistor"}]}]}