{"@context":"https://raw.githubusercontent.com/LinkedPasts/linked-places-format/main/linkedplaces-context-v1.1.jsonld","type":"FeatureCollection","license":"Digitisation of English Placenames MADS data is licensed to Jisc by the English Place Names Society and released under a Creative Commons Attribution-NonCommercial 4.0 International License.","note":"LPF v1.3, lossy; derived from the PLATO record; plato_commit=ca0afadabec1e23a145c0b03df77e8f151f79832","features":[{"@id":"https://w3id.org/whg-epns/64/010546","type":"Feature","properties":{"title":"Riby","ccodes":["GB"],"fclasses":["A","P"]},"names":[{"toponym":"Riby","lang":"en","citations":[{"label":"English Place-Name Society survey, volume 64: Lincolnshire"}]},{"toponym":"Ribi","citations":[{"label":"1086 DB","year":1086},{"label":"c.1115 LS","year":1105},{"label":"1177 P","year":1177},{"label":"1199 CurR","year":1199},{"label":"1200 Cur","year":1200},{"label":"c.1200 Dane","year":1190},{"label":"1200 FF","year":1200},{"label":"1202 Ass","year":1202},{"label":"1205 P both","year":1205},{"label":"c.1300 RA","year":1290}],"when":{"timespans":[{"start":{"in":"1086"},"end":{"in":"1086"}},{"start":{"earliest":"1105","latest":"1125"},"end":{"earliest":"1105","latest":"1125"}},{"start":{"in":"1177"},"end":{"in":"1177"}},{"start":{"in":"1199"},"end":{"in":"1199"}},{"start":{"in":"1200"},"end":{"in":"1200"}},{"start":{"earliest":"1190","latest":"1210"},"end":{"earliest":"1190","latest":"1210"}},{"start":{"in":"1200"},"end":{"in":"1200"}},{"start":{"in":"1202"},"end":{"in":"1202"}},{"start":{"in":"1205"},"end":{"in":"1205"}},{"start":{"in":"1206"},"end":{"in":"1206"}},{"start":{"earliest":"1290","latest":"1310"},"end":{"earliest":"1290","latest":"1310"}}]}},{"toponym":"Riby","citations":[{"label":"c.1150 NCot","year":1140},{"label":"1210 Abbr","year":1210},{"label":"Hy3 Selby","year":1216},{"label":"1218 Ass","year":1218},{"label":"1247-8 RRG","year":1247},{"label":"1290 RSu","year":1290},{"label":"1316–1316, recurring FA","year":1316},{"label":"1316 FA","year":1316}],"when":{"timespans":[{"start":{"earliest":"1140","latest":"1160"},"end":{"earliest":"1140","latest":"1160"}},{"start":{"earliest":"1159","latest":"1181"},"end":{"earliest":"1159","latest":"1181"}},{"start":{"earliest":"1130","latest":"1180"},"end":{"earliest":"1130","latest":"1180"}},{"start":{"in":"1210"},"end":{"in":"1210"}},{"start":{"earliest":"1216","latest":"1272"},"end":{"earliest":"1216","latest":"1272"}},{"start":{"in":"1218"},"end":{"in":"1218"}},{"start":{"earliest":"1247","latest":"1248"},"end":{"earliest":"1247","latest":"1248"}},{"start":{"in":"1290"},"end":{"in":"1290"}},{"start":{"in":"1316"},"end":{"in":"1316"}},{"start":{"in":"1316"},"end":{"in":"1316"}}]}},{"toponym":"Ribie","citations":[{"label":"1556 InstBen","year":1556},{"label":"1576 LER","year":1576},{"label":"1589 BT","year":1589},{"label":"1606 Terrier","year":1606},{"label":"1693 Terrier","year":1693},{"label":"1700 Terrier","year":1700},{"label":"1703 Terrier","year":1703}],"when":{"timespans":[{"start":{"in":"1556"},"end":{"in":"1556"}},{"start":{"in":"1576"},"end":{"in":"1576"}},{"start":{"in":"1589"},"end":{"in":"1589"}},{"start":{"in":"1592"},"end":{"in":"1592"}},{"start":{"in":"1605"},"end":{"in":"1605"}},{"start":{"in":"1606"},"end":{"in":"1606"}},{"start":{"in":"1693"},"end":{"in":"1693"}},{"start":{"in":"1700"},"end":{"in":"1700"}},{"start":{"in":"1703"},"end":{"in":"1703"}}]}},{"toponym":"Ribe","citations":[{"label":"1650 WillsPCC","year":1650}],"when":{"timespans":[{"start":{"in":"1650"},"end":{"in":"1650"}}]}},{"toponym":"Ribye","citations":[{"label":"1596 BT","year":1596},{"label":"1733 PT","year":1733}],"when":{"timespans":[{"start":{"in":"1596"},"end":{"in":"1596"}},{"start":{"in":"1606"},"end":{"in":"1606"}},{"start":{"in":"1733"},"end":{"in":"1733"}}]}},{"toponym":"Riebi","citations":[{"label":"1155-58 Ch","year":1155},{"label":"1159 P","year":1159},{"label":"1177-82 RA","year":1177},{"label":"1198 Cur","year":1198},{"label":"1202 P both","year":1202},{"label":"1205 ChancR","year":1205},{"label":"1207 P","year":1207},{"label":"1461 Pat","year":1461}],"when":{"timespans":[{"start":{"earliest":"1155","latest":"1158"},"end":{"earliest":"1155","latest":"1158"}},{"start":{"in":"1159"},"end":{"in":"1159"}},{"start":{"in":"1160"},"end":{"in":"1160"}},{"start":{"in":"1163"},"end":{"in":"1163"}},{"start":{"earliest":"1177","latest":"1182"},"end":{"earliest":"1177","latest":"1182"}},{"start":{"in":"1198"},"end":{"in":"1198"}},{"start":{"in":"1202"},"end":{"in":"1202"}},{"start":{"in":"1203"},"end":{"in":"1203"}},{"start":{"in":"1205"},"end":{"in":"1205"}},{"start":{"in":"1207"},"end":{"in":"1207"}},{"start":{"in":"1461"},"end":{"in":"1461"}}]}},{"toponym":"Rieb'","citations":[{"label":"1163 RA","year":1163}],"when":{"timespans":[{"start":{"in":"1163"},"end":{"in":"1163"}}]}},{"toponym":"Riebia","citations":[{"label":"1212 Fees","year":1212}],"when":{"timespans":[{"start":{"in":"1212"},"end":{"in":"1212"}}]}},{"toponym":"Rieby","citations":[{"label":"1201 P","year":1201},{"label":"1202 FF","year":1202},{"label":"1202 Ass","year":1202},{"label":"1207 OblR","year":1207}],"when":{"timespans":[{"start":{"in":"1201"},"end":{"in":"1201"}},{"start":{"in":"1202"},"end":{"in":"1202"}},{"start":{"in":"1202"},"end":{"in":"1202"}},{"start":{"in":"1207"},"end":{"in":"1207"}}]}},{"toponym":"Ryby","citations":[{"label":"1200 OblR","year":1200},{"label":"1226 FF","year":1226},{"label":"eHy3 And","year":1216},{"label":"1251 FF","year":1251},{"label":"1254 ValNor","year":1254},{"label":"1276 RH","year":1276},{"label":"1281 QW","year":1281},{"label":"1291 Tax","year":1291},{"label":"1310–1530, recurring Cl","year":1310},{"label":"1310–1530, recurring Wills"},{"label":"1310 Cl","year":1310},{"label":"1530 Wills","year":1530},{"label":"1602 Terrier","year":1602},{"label":"1713 PT","year":1713}],"when":{"timespans":[{"start":{"in":"1200"},"end":{"in":"1200"}},{"start":{"in":"1226"},"end":{"in":"1226"}},{"start":{"earliest":"1216","latest":"1272"},"end":{"earliest":"1216","latest":"1272"}},{"start":{"in":"1251"},"end":{"in":"1251"}},{"start":{"in":"1254"},"end":{"in":"1254"}},{"start":{"in":"1276"},"end":{"in":"1276"}},{"start":{"in":"1281"},"end":{"in":"1281"}},{"start":{"in":"1291"},"end":{"in":"1291"}},{"start":{"in":"1310"},"end":{"in":"1530"}},{"start":{"in":"1310"},"end":{"in":"1310"}},{"start":{"in":"1530"},"end":{"in":"1530"}},{"start":{"in":"1602"},"end":{"in":"1602"}},{"start":{"in":"1713"},"end":{"in":"1713"}}]}},{"toponym":"Ryby als Rybye","citations":[{"label":"1664 PT","year":1664}],"when":{"timespans":[{"start":{"in":"1664"},"end":{"in":"1664"}},{"start":{"in":"1680"},"end":{"in":"1680"}}]}},{"toponym":"Rybe","citations":[{"label":"1535 VE","year":1535}],"when":{"timespans":[{"start":{"in":"1535"},"end":{"in":"1535"}}]}},{"toponym":"Rybye","citations":[{"label":"1538 LP","year":1538},{"label":"1544 PT","year":1544},{"label":"1576 Saxton","year":1576},{"label":"1578 PT","year":1578},{"label":"1604 BT","year":1604},{"label":"1610 Speed","year":1610},{"label":"1608 PT","year":1608}],"when":{"timespans":[{"start":{"in":"1538"},"end":{"in":"1538"}},{"start":{"in":"1544"},"end":{"in":"1544"}},{"start":{"in":"1576"},"end":{"in":"1576"}},{"start":{"in":"1578"},"end":{"in":"1578"}},{"start":{"in":"1580"},"end":{"in":"1580"}},{"start":{"in":"1604"},"end":{"in":"1604"}},{"start":{"in":"1610"},"end":{"in":"1610"}},{"start":{"in":"1608"},"end":{"in":"1608"}},{"start":{"in":"1674"},"end":{"in":"1674"}}]}},{"toponym":"Rybie","citations":[{"label":"1570 BT","year":1570},{"label":"1587 BT","year":1587},{"label":"1597–1706, recurring BT","year":1597},{"label":"1597–1706, recurring BT"},{"label":"1597 BT","year":1597},{"label":"1706 BT","year":1706}],"when":{"timespans":[{"start":{"in":"1570"},"end":{"in":"1570"}},{"start":{"in":"1587"},"end":{"in":"1587"}},{"start":{"in":"1597"},"end":{"in":"1706"}},{"start":{"in":"1597"},"end":{"in":"1597"}},{"start":{"in":"1706"},"end":{"in":"1706"}}]}},{"toponym":"Ryebi","citations":[{"label":"1201 ChancR","year":1201},{"label":"c.1275 LNQ","year":1265},{"label":"1759 PT","year":1759}],"when":{"timespans":[{"start":{"in":"1201"},"end":{"in":"1201"}},{"start":{"earliest":"1265","latest":"1285"},"end":{"earliest":"1265","latest":"1285"}},{"start":{"in":"1759"},"end":{"in":"1759"}}]}},{"toponym":"Rybi","citations":[{"label":"1211-12 RBE","year":1211}],"when":{"timespans":[{"start":{"earliest":"1211","latest":"1212"},"end":{"earliest":"1211","latest":"1212"}}]}}],"types":[{"identifier":"http://vocab.getty.edu/aat/300232418","label":"administrative division","sourceLabels":[{"label":"township","lang":"en"}]}],"geometry":{"type":"GeometryCollection","geometries":[{"type":"Point","coordinates":[-0.21321,53.55649],"citations":[{"label":"GeoNames, gazetteer record geonames:2639395"}]},{"type":"Point","coordinates":[-0.2111615810710399,53.55049591615683],"citations":[{"label":"Unlock (EDINA) gazetteer, gazetteer record unlock:11255558"}]},{"type":"Point","coordinates":[-0.212832,53.5508],"citations":[{"label":"Key to English Place-Names (KEPN), gazetteer record 10847"}]}]},"when":{"timespans":[{"start":{"in":"1086"},"end":{"in":"1759"}}]},"links":[{"type":"closeMatch","identifier":"https://sws.geonames.org/2639395/"}],"relations":[{"relationType":"gvp:broaderPartitive","relationTo":"https://w3id.org/whg-epns/64/010545","label":"within Riby"}]}]}