{"@context":"https://raw.githubusercontent.com/LinkedPasts/linked-places-format/main/linkedplaces-context-v1.1.jsonld","type":"FeatureCollection","license":"Digitisation of English Placenames MADS data is licensed to Jisc by the English Place Names Society and released under a Creative Commons Attribution-NonCommercial 4.0 International License.","note":"LPF v1.3, lossy; derived from the PLATO record; plato_commit=ca0afadabec1e23a145c0b03df77e8f151f79832","features":[{"@id":"https://w3id.org/whg-epns/64/010822","type":"Feature","properties":{"title":"Saxby All Saints","ccodes":["GB"],"fclasses":["A","P"]},"names":[{"toponym":"Saxby All Saints","lang":"en","citations":[{"label":"English Place-Name Society survey, volume 64: Lincolnshire"}]}],"types":[{"identifier":"http://vocab.getty.edu/aat/300232418","label":"administrative division","sourceLabels":[{"label":"parish","lang":"en"}]}],"geometry":{"type":"GeometryCollection","geometries":[{"type":"Point","coordinates":[-0.503,53.63726],"citations":[{"label":"GeoNames, gazetteer record geonames:2638469"}]},{"type":"Point","coordinates":[-0.4949888865510975,53.63531713636579],"citations":[{"label":"Unlock (EDINA) gazetteer, gazetteer record unlock:11278459"}]},{"type":"Point","coordinates":[-0.49663,53.6356],"citations":[{"label":"Key to English Place-Names (KEPN), gazetteer record 10848"}]}]},"links":[{"type":"closeMatch","identifier":"https://sws.geonames.org/2638469/"}],"relations":[{"relationType":"gvp:broaderPartitive","relationTo":"https://w3id.org/whg-epns/64/000085","label":"within Yarborough Wapentake"}]}]}