{"@context":"https://raw.githubusercontent.com/LinkedPasts/linked-places-format/main/linkedplaces-context-v1.1.jsonld","type":"FeatureCollection","license":"Digitisation of English Placenames MADS data is licensed to Jisc by the English Place Names Society and released under a Creative Commons Attribution-NonCommercial 4.0 International License.","note":"LPF v1.3, lossy; derived from the PLATO record; plato_commit=fa0d247ccc0263f8f19c8d7cdcd163df96935d1e","features":[{"@id":"https://w3id.org/whg-epns/64/011283","type":"Feature","properties":{"title":"Somerby","ccodes":["GB"],"fclasses":["A","P"]},"names":[{"toponym":"Somerby","lang":"en","citations":[{"label":"English Place-Name Society survey, volume 64: Lincolnshire"}]},{"toponym":"Sumerledeby","citations":[{"label":"1190-96 Whit","year":1190},{"label":"1100-15 Whit","year":1100},{"label":"a1135 Whit","year":1085},{"label":"1174-79 Whit","year":1174}],"when":{"timespans":[{"start":{"earliest":"1190","latest":"1196"},"end":{"earliest":"1190","latest":"1196"}},{"start":{"earliest":"1100","latest":"1115"},"end":{"earliest":"1100","latest":"1115"}},{"start":{"earliest":"1085","latest":"1135"},"end":{"earliest":"1085","latest":"1135"}},{"start":{"earliest":"1174","latest":"1179"},"end":{"earliest":"1174","latest":"1179"}}]}},{"toponym":"Summerledeby","citations":[{"label":"1100-15 Whit","year":1100}],"when":{"timespans":[{"start":{"earliest":"1100","latest":"1115"},"end":{"earliest":"1100","latest":"1115"}}]}},{"toponym":"Sumertebi, Summertebi","citations":[{"label":"1086 DB","year":1086}],"when":{"timespans":[{"start":{"in":"1086"},"end":{"in":"1086"}}]}},{"toponym":"Sumeretebi","citations":[{"label":"1219 Ass","year":1219}],"when":{"timespans":[{"start":{"in":"1219"},"end":{"in":"1219"}}]}},{"toponym":"Sumereteby","citations":[{"label":"1254 ValNor","year":1254}],"when":{"timespans":[{"start":{"in":"1254"},"end":{"in":"1254"}}]}},{"toponym":"Someretteby","citations":[{"label":"1291 Tax","year":1291}],"when":{"timespans":[{"start":{"in":"1291"},"end":{"in":"1291"}}]}},{"toponym":"Sumeretbi","citations":[{"label":"1238-43 Fees","year":1238},{"label":"l13 Percy","year":1275}],"when":{"timespans":[{"start":{"earliest":"1238","latest":"1243"},"end":{"earliest":"1238","latest":"1243"}},{"start":{"earliest":"1275","latest":"1300"},"end":{"earliest":"1275","latest":"1300"}}]}},{"toponym":"Sumeretby","citations":[{"label":"1242-43 Fees","year":1242},{"label":"1245 FF","year":1245},{"label":"1338 Pat","year":1338}],"when":{"timespans":[{"start":{"earliest":"1242","latest":"1243"},"end":{"earliest":"1242","latest":"1243"}},{"start":{"in":"1245"},"end":{"in":"1245"}},{"start":{"in":"1338"},"end":{"in":"1338"}}]}},{"toponym":"(North) Someretby","citations":[{"label":"1274 Ipm","year":1274},{"label":"1303 FA","year":1303},{"label":"1308 Ipm","year":1308},{"label":"FA","year":1316},{"label":"LDD"},{"label":"1316 FA","year":1316},{"label":"1450 LDD","year":1450}],"when":{"timespans":[{"start":{"in":"1274"},"end":{"in":"1274"}},{"start":{"in":"1303"},"end":{"in":"1303"}},{"start":{"in":"1308"},"end":{"in":"1308"}},{"start":{"in":"1316"},"end":{"in":"1450"}},{"start":{"in":"1316"},"end":{"in":"1316"}},{"start":{"in":"1450"},"end":{"in":"1450"}}]}},{"toponym":"Somertby besydes Bekeby","citations":[{"label":"1557 VisitN","year":1557}],"when":{"timespans":[{"start":{"in":"1557"},"end":{"in":"1557"}}]}},{"toponym":"Somertby Iuxta bekby","citations":[{"label":"1562 BT","year":1562}],"when":{"timespans":[{"start":{"in":"1562"},"end":{"in":"1562"}}]}},{"toponym":"Sumerdebi","citations":[{"label":"c.1115 DB","year":1105},{"label":"1212 Fees","year":1212}],"when":{"timespans":[{"start":{"earliest":"1105","latest":"1125"},"end":{"earliest":"1105","latest":"1125"}},{"start":{"in":"1212"},"end":{"in":"1212"}}]}},{"toponym":"Sumerdeb'","citations":[{"label":"1204 Cur","year":1204}],"when":{"timespans":[{"start":{"in":"1204"},"end":{"in":"1204"}}]}},{"toponym":"Summerdeby","citations":[{"label":"1242-43 Fees","year":1242}],"when":{"timespans":[{"start":{"earliest":"1242","latest":"1243"},"end":{"earliest":"1242","latest":"1243"}}]}},{"toponym":"Somerdeby","citations":[{"label":"1287 Abbr","year":1287},{"label":"1335 Pat","year":1335}],"when":{"timespans":[{"start":{"in":"1287"},"end":{"in":"1287"}},{"start":{"in":"1335"},"end":{"in":"1335"}}]}},{"toponym":"Sumeredeby","citations":[{"label":"a1221 Welles","year":1171},{"label":"1315 Ipm","year":1315}],"when":{"timespans":[{"start":{"earliest":"1171","latest":"1221"},"end":{"earliest":"1171","latest":"1221"}},{"start":{"in":"1234"},"end":{"in":"1234"}},{"start":{"in":"1315"},"end":{"in":"1315"}}]}},{"toponym":"Sumeredby","citations":[{"label":"1279 RRGr","year":1279}],"when":{"timespans":[{"start":{"in":"1279"},"end":{"in":"1279"}}]}},{"toponym":"Sumerdby","citations":[{"label":"1240-45 RA","year":1240}],"when":{"timespans":[{"start":{"earliest":"1240","latest":"1245"},"end":{"earliest":"1240","latest":"1245"}}]}},{"toponym":"Somerebi","citations":[{"label":"1194 CurP","year":1194}],"when":{"timespans":[{"start":{"in":"1194"},"end":{"in":"1194"}}]}},{"toponym":"Sumereby","citations":[{"label":"c.1234 BS","year":1224}],"when":{"timespans":[{"start":{"earliest":"1224","latest":"1244"},"end":{"earliest":"1224","latest":"1244"}}]}},{"toponym":"Somerby","citations":[{"label":"1332 SR","year":1332},{"label":"1343 NI","year":1343},{"label":"1346 FA","year":1346},{"label":"1368 Ipm","year":1368},{"label":"1375 Works","year":1375},{"label":"FA","year":1428},{"label":"1428 FA","year":1428}],"when":{"timespans":[{"start":{"in":"1332"},"end":{"in":"1332"}},{"start":{"in":"1343"},"end":{"in":"1343"}},{"start":{"in":"1346"},"end":{"in":"1346"}},{"start":{"in":"1368"},"end":{"in":"1368"}},{"start":{"in":"1375"},"end":{"in":"1375"}},{"start":{"in":"1428"},"end":{"in":"1431"}},{"start":{"in":"1428"},"end":{"in":"1428"}},{"start":{"in":"1431"},"end":{"in":"1431"}}]}},{"toponym":"Somerby next Bigby","citations":[{"label":"1664 Terrier","year":1664}],"when":{"timespans":[{"start":{"in":"1664"},"end":{"in":"1664"}},{"start":{"in":"1668"},"end":{"in":"1668"}},{"start":{"in":"1671"},"end":{"in":"1671"}}]}},{"toponym":"Somerbye","citations":[{"label":"1552 Pat","year":1552},{"label":"1556 ASSR","year":1556},{"label":"1576 Saxton","year":1576},{"label":"1610 Speed","year":1610}],"when":{"timespans":[{"start":{"in":"1552"},"end":{"in":"1552"}},{"start":{"in":"1556"},"end":{"in":"1556"}},{"start":{"in":"1576"},"end":{"in":"1576"}},{"start":{"in":"1610"},"end":{"in":"1610"}}]}},{"toponym":"Somerbie","citations":[{"label":"1576 LER","year":1576},{"label":"1593 BT","year":1593},{"label":"1635 Terrier","year":1635}],"when":{"timespans":[{"start":{"in":"1576"},"end":{"in":"1576"}},{"start":{"in":"1593"},"end":{"in":"1593"}},{"start":{"in":"1635"},"end":{"in":"1635"}}]}},{"toponym":"Sumerbie","citations":[{"label":"1638 Terrier","year":1638}],"when":{"timespans":[{"start":{"in":"1638"},"end":{"in":"1638"}}]}},{"toponym":"Summerby","citations":[{"label":"1697 Terrier","year":1697}],"when":{"timespans":[{"start":{"in":"1697"},"end":{"in":"1697"}},{"start":{"in":"1700"},"end":{"in":"1700"}},{"start":{"in":"1707"},"end":{"in":"1707"}}]}},{"toponym":"Summerby juxta Bigby","citations":[{"label":"1712 Terrier","year":1712}],"when":{"timespans":[{"start":{"in":"1712"},"end":{"in":"1712"}}]}},{"toponym":"Someresby","citations":[{"label":"1428 FA","year":1428}],"when":{"timespans":[{"start":{"in":"1428"},"end":{"in":"1428"}}]}},{"toponym":"Somersby","citations":[{"label":"1548 ChantCert","year":1548}],"when":{"timespans":[{"start":{"in":"1548"},"end":{"in":"1548"}}]}}],"types":[{"identifier":"http://vocab.getty.edu/aat/300232418","label":"administrative division","sourceLabels":[{"label":"township","lang":"en"}]}],"geometry":{"type":"GeometryCollection","geometries":[{"type":"Point","coordinates":[-0.39208,53.54305],"citations":[{"label":"GeoNames, gazetteer record geonames:7291904"}]},{"type":"Point","coordinates":[-0.3925676318823511,53.54408170766395],"citations":[{"label":"Unlock (EDINA) gazetteer, gazetteer record unlock:11286656"}]},{"type":"Point","coordinates":[-0.394216,53.5443],"citations":[{"label":"Key to English Place-Names (KEPN), gazetteer record 10850"}]}]},"when":{"timespans":[{"start":{"in":"1085"},"end":{"in":"1712"}}]},"links":[{"type":"closeMatch","identifier":"https://sws.geonames.org/7291904/"}],"relations":[{"relationType":"gvp:broaderPartitive","relationTo":"https://w3id.org/whg-epns/64/011282","label":"within Somerby"}]}]}