{"@context":"https://raw.githubusercontent.com/LinkedPasts/linked-places-format/main/linkedplaces-context-v1.1.jsonld","type":"FeatureCollection","license":"Digitisation of English Placenames MADS data is licensed to Jisc by the English Place Names Society and released under a Creative Commons Attribution-NonCommercial 4.0 International License.","note":"LPF v1.3, lossy; derived from the PLATO record; plato_commit=ca0afadabec1e23a145c0b03df77e8f151f79832","features":[{"@id":"http://placenames.org.uk/id/placename/64/012544","type":"Feature","properties":{"title":"Ulceby","ccodes":["GB"],"fclasses":["A","P"]},"names":[{"toponym":"Ulceby","lang":"en","citations":[{"label":"English Place-Name Society survey, volume 64: Lincolnshire"}]},{"toponym":"Ulvesbi (3x), Uluesbi, Vluesbi","citations":[{"label":"1086 DB","year":1086}],"when":{"timespans":[{"start":{"in":"1086"},"end":{"in":"1086"}}]}},{"toponym":"Ulesbi","citations":[{"label":"c.1115 LS","year":1105},{"label":"a1147 Dane","year":1097}],"when":{"timespans":[{"start":{"earliest":"1105","latest":"1125"},"end":{"earliest":"1105","latest":"1125"}},{"start":{"earliest":"1097","latest":"1147"},"end":{"earliest":"1097","latest":"1147"}},{"start":{"earliest":"1140","latest":"1160"},"end":{"earliest":"1140","latest":"1160"}},{"start":{"earliest":"1150","latest":"1160"},"end":{"earliest":"1150","latest":"1160"}},{"start":{"earliest":"1175","latest":"1200"},"end":{"earliest":"1175","latest":"1200"}}]}},{"toponym":"Ulesby","citations":[{"label":"1190 Dugd","year":1190},{"label":"1202 Ass","year":1202},{"label":"1219 FF","year":1219},{"label":"1343 NI","year":1343}],"when":{"timespans":[{"start":{"in":"1190"},"end":{"in":"1190"}},{"start":{"in":"1202"},"end":{"in":"1202"}},{"start":{"in":"1219"},"end":{"in":"1219"}},{"start":{"in":"1343"},"end":{"in":"1343"}}]}},{"toponym":"Uleseby","citations":[{"label":"c.1155 Dane","year":1145}],"when":{"timespans":[{"start":{"earliest":"1145","latest":"1165"},"end":{"earliest":"1145","latest":"1165"}}]}},{"toponym":"Hulesbi","citations":[{"label":"c.1160 Dane","year":1150},{"label":"1212 Fees","year":1212}],"when":{"timespans":[{"start":{"earliest":"1150","latest":"1170"},"end":{"earliest":"1150","latest":"1170"}},{"start":{"in":"1212"},"end":{"in":"1212"}}]}},{"toponym":"Ulseby","citations":[{"label":"1163-76 YCh","year":1163},{"label":"1190 Dugd","year":1190},{"label":"l12 NCot","year":1175},{"label":"1228 Cur","year":1228},{"label":"1231 Cl","year":1231},{"label":"1242-43 Fees","year":1242},{"label":"1254–1431, recurring ValNor","year":1254},{"label":"1254–1431, recurring FA"},{"label":"1254 ValNor","year":1254},{"label":"1431 FA","year":1431}],"when":{"timespans":[{"start":{"earliest":"1163","latest":"1176"},"end":{"earliest":"1163","latest":"1176"}},{"start":{"earliest":"1175","latest":"1178"},"end":{"earliest":"1175","latest":"1178"}},{"start":{"earliest":"1187","latest":"1193"},"end":{"earliest":"1187","latest":"1193"}},{"start":{"in":"1190"},"end":{"in":"1190"}},{"start":{"earliest":"1175","latest":"1200"},"end":{"earliest":"1175","latest":"1200"}},{"start":{"in":"1228"},"end":{"in":"1228"}},{"start":{"in":"1231"},"end":{"in":"1231"}},{"start":{"earliest":"1242","latest":"1243"},"end":{"earliest":"1242","latest":"1243"}},{"start":{"in":"1254"},"end":{"in":"1431"}},{"start":{"in":"1254"},"end":{"in":"1254"}},{"start":{"in":"1431"},"end":{"in":"1431"}}]}},{"toponym":"Ulsebye","citations":[{"label":"1276 RH","year":1276}],"when":{"timespans":[{"start":{"in":"1276"},"end":{"in":"1276"}}]}},{"toponym":"Ulsebi","citations":[{"label":"l12 Dane","year":1175},{"label":"1277 Pap","year":1277}],"when":{"timespans":[{"start":{"earliest":"1175","latest":"1200"},"end":{"earliest":"1175","latest":"1200"}},{"start":{"in":"1277"},"end":{"in":"1277"}}]}},{"toponym":"Vlseby","citations":[{"label":"1178 RA","year":1178},{"label":"1272 Ass","year":1272},{"label":"1303–1303, recurring HarlCh","year":1303},{"label":"1303 HarlCh","year":1303}],"when":{"timespans":[{"start":{"in":"1178"},"end":{"in":"1178"}},{"start":{"earliest":"1128","latest":"1178"},"end":{"earliest":"1128","latest":"1178"}},{"start":{"earliest":"1189","latest":"1195"},"end":{"earliest":"1189","latest":"1195"}},{"start":{"in":"1272"},"end":{"in":"1272"}},{"start":{"in":"1303"},"end":{"in":"1303"}},{"start":{"in":"1303"},"end":{"in":"1303"}}]}},{"toponym":"Vlseby iuxta Claxby","citations":[{"label":"1391 FF","year":1391}],"when":{"timespans":[{"start":{"in":"1391"},"end":{"in":"1391"}}]}},{"toponym":"Vlsebia","citations":[{"label":"1236-47 HarlCh","year":1236}],"when":{"timespans":[{"start":{"earliest":"1236","latest":"1247"},"end":{"earliest":"1236","latest":"1247"}}]}},{"toponym":"Vlsseby","citations":[{"label":"1383 Peace","year":1383}],"when":{"timespans":[{"start":{"in":"1383"},"end":{"in":"1383"}}]}},{"toponym":"Wlsebi","citations":[{"label":"1238-43 Fees","year":1238}],"when":{"timespans":[{"start":{"earliest":"1238","latest":"1243"},"end":{"earliest":"1238","latest":"1243"}}]}},{"toponym":"Wlseby","citations":[{"label":"1268 Ch","year":1268},{"label":"1383 Peace","year":1383},{"label":"1428 FA","year":1428}],"when":{"timespans":[{"start":{"in":"1268"},"end":{"in":"1268"}},{"start":{"in":"1383"},"end":{"in":"1383"}},{"start":{"in":"1428"},"end":{"in":"1428"}}]}},{"toponym":"Hulseby","citations":[{"label":"1209-35 LAHW","year":1209}],"when":{"timespans":[{"start":{"earliest":"1209","latest":"1235"},"end":{"earliest":"1209","latest":"1235"}}]}},{"toponym":"Hulseb'","citations":[{"label":"c.1221 Welles","year":1211}],"when":{"timespans":[{"start":{"earliest":"1211","latest":"1231"},"end":{"earliest":"1211","latest":"1231"}}]}},{"toponym":"Hulsbe","citations":[{"label":"1539 LP","year":1539}],"when":{"timespans":[{"start":{"in":"1539"},"end":{"in":"1539"}}]}},{"toponym":"Olesbi","citations":[{"label":"1202 Ass","year":1202}],"when":{"timespans":[{"start":{"in":"1202"},"end":{"in":"1202"}}]}},{"toponym":"Olesby","citations":[{"label":"1504 Ipm","year":1504}],"when":{"timespans":[{"start":{"in":"1504"},"end":{"in":"1504"}}]}},{"toponym":"Olseby","citations":[{"label":"c.1220 NCot","year":1210},{"label":"1277 Cl","year":1277},{"label":"1383 Peace","year":1383}],"when":{"timespans":[{"start":{"earliest":"1210","latest":"1230"},"end":{"earliest":"1210","latest":"1230"}},{"start":{"in":"1277"},"end":{"in":"1277"}},{"start":{"in":"1383"},"end":{"in":"1383"}}]}},{"toponym":"Olsby","citations":[{"label":"1294 Ass","year":1294}],"when":{"timespans":[{"start":{"in":"1294"},"end":{"in":"1294"}}]}},{"toponym":"Ulceby","citations":[{"label":"1270 RRGr","year":1270},{"label":"1281 Tax","year":1281},{"label":"1325 FA","year":1325},{"label":"1343 Ipm","year":1343},{"label":"1428 FA","year":1428},{"label":"1464 WillsPCC","year":1464},{"label":"1465 Pat","year":1465},{"label":"1495 IBL","year":1495},{"label":"1552–1552, recurring Pat","year":1552},{"label":"1552 Pat","year":1552}],"when":{"timespans":[{"start":{"in":"1270"},"end":{"in":"1270"}},{"start":{"in":"1281"},"end":{"in":"1281"}},{"start":{"in":"1325"},"end":{"in":"1325"}},{"start":{"in":"1343"},"end":{"in":"1343"}},{"start":{"in":"1428"},"end":{"in":"1428"}},{"start":{"in":"1464"},"end":{"in":"1464"}},{"start":{"in":"1465"},"end":{"in":"1465"}},{"start":{"in":"1495"},"end":{"in":"1495"}},{"start":{"in":"1552"},"end":{"in":"1552"}},{"start":{"in":"1552"},"end":{"in":"1552"}}]}},{"toponym":"Ulceby alias Wolceby","citations":[{"label":"1539 LP","year":1539},{"label":"1571 Pat","year":1571}],"when":{"timespans":[{"start":{"in":"1539"},"end":{"in":"1539"}},{"start":{"in":"1571"},"end":{"in":"1571"}}]}},{"toponym":"Ulcebye","citations":[{"label":"1552 Pat","year":1552},{"label":"1601 Terrier","year":1601}],"when":{"timespans":[{"start":{"in":"1552"},"end":{"in":"1552"}},{"start":{"in":"1601"},"end":{"in":"1601"}},{"start":{"in":"1606"},"end":{"in":"1606"}},{"start":{"in":"1612"},"end":{"in":"1612"}}]}},{"toponym":"Ulcebie","citations":[{"label":"1554 Pat","year":1554},{"label":"1576 LER","year":1576}],"when":{"timespans":[{"start":{"in":"1554"},"end":{"in":"1554"}},{"start":{"in":"1576"},"end":{"in":"1576"}}]}},{"toponym":"Vlceby","citations":[{"label":"1327 SR","year":1327},{"label":"1375 Peace","year":1375}],"when":{"timespans":[{"start":{"in":"1327"},"end":{"in":"1327"}},{"start":{"in":"1375"},"end":{"in":"1375"}}]}},{"toponym":"Vlcebie","citations":[{"label":"1587 Yarb","year":1587}],"when":{"timespans":[{"start":{"in":"1587"},"end":{"in":"1587"}}]}},{"toponym":"Vlsby","citations":[{"label":"1294 Ass","year":1294}],"when":{"timespans":[{"start":{"in":"1294"},"end":{"in":"1294"}}]}},{"toponym":"Ulsby","citations":[{"label":"1346 FA","year":1346},{"label":"1398 Cl","year":1398}],"when":{"timespans":[{"start":{"in":"1346"},"end":{"in":"1346"}},{"start":{"in":"1398"},"end":{"in":"1398"}}]}},{"toponym":"Ulsbye","citations":[{"label":"1576 Saxton","year":1576},{"label":"1610 Speed","year":1610}],"when":{"timespans":[{"start":{"in":"1576"},"end":{"in":"1576"}},{"start":{"in":"1610"},"end":{"in":"1610"}}]}},{"toponym":"Usseby","citations":[{"label":"1283 Ipm","year":1283}],"when":{"timespans":[{"start":{"in":"1283"},"end":{"in":"1283"}}]}},{"toponym":"Hwlceby iuxta Newsom","citations":[{"label":"1381 Peace","year":1381}],"when":{"timespans":[{"start":{"in":"1381"},"end":{"in":"1381"}}]}},{"toponym":"Wolsby","citations":[{"label":"1515-18 ECP","year":1515}],"when":{"timespans":[{"start":{"earliest":"1515","latest":"1518"},"end":{"earliest":"1515","latest":"1518"}}]}},{"toponym":"Howsby","citations":[{"label":"1519 DV","year":1519}],"when":{"timespans":[{"start":{"in":"1519"},"end":{"in":"1519"}}]}},{"toponym":"Housby","citations":[{"label":"1690 Terrier (Croxton)","year":1690}],"when":{"timespans":[{"start":{"in":"1690"},"end":{"in":"1690"}}]}},{"toponym":"Usselby alias Ulceby","citations":[{"label":"1571 Pat","year":1571}],"when":{"timespans":[{"start":{"in":"1571"},"end":{"in":"1571"}}]}},{"toponym":"Owlsebye","citations":[{"label":"1581 Yarb","year":1581}],"when":{"timespans":[{"start":{"in":"1581"},"end":{"in":"1581"}}]}}],"types":[{"identifier":"http://vocab.getty.edu/aat/300232418","label":"administrative division","sourceLabels":[{"label":"township","lang":"en"}]}],"geometry":{"type":"GeometryCollection","geometries":[{"type":"Point","coordinates":[-0.33333,53.61667],"citations":[{"label":"GeoNames, gazetteer record geonames:2635205"}]},{"type":"Point","coordinates":[-0.2988056219227374,53.62369897319259],"citations":[{"label":"Unlock (EDINA) gazetteer, gazetteer record unlock:11309174"}]},{"type":"Point","coordinates":[-0.300469,53.624],"citations":[{"label":"Key to English Place-Names (KEPN), gazetteer record 10854"}]}]},"when":{"timespans":[{"start":{"in":"1086"},"end":{"in":"1690"}}]},"links":[{"type":"closeMatch","identifier":"https://sws.geonames.org/2635205/"}],"relations":[{"relationType":"gvp:broaderPartitive","relationTo":"http://placenames.org.uk/id/placename/64/012543","label":"within Ulceby"}]}]}