{"@context":"https://raw.githubusercontent.com/LinkedPasts/linked-places-format/main/linkedplaces-context-v1.1.jsonld","type":"FeatureCollection","license":"Digitisation of English Placenames MADS data is licensed to Jisc by the English Place Names Society and released under a Creative Commons Attribution-NonCommercial 4.0 International License.","note":"LPF v1.3, lossy; derived from the PLATO record; plato_commit=ca0afadabec1e23a145c0b03df77e8f151f79832","features":[{"@id":"http://placenames.org.uk/id/placename/64/013128","type":"Feature","properties":{"title":"Worlaby","ccodes":["GB"],"fclasses":["A","P"]},"names":[{"toponym":"Worlaby","lang":"en","citations":[{"label":"English Place-Name Society survey, volume 64: Lincolnshire"}]},{"toponym":"Uluricebi, Vluricebi","citations":[{"label":"1086 DB","year":1086}],"when":{"timespans":[{"start":{"in":"1086"},"end":{"in":"1086"}}]}},{"toponym":"Wirichebi","citations":[{"label":"1086 DB","year":1086}],"when":{"timespans":[{"start":{"in":"1086"},"end":{"in":"1086"}}]}},{"toponym":"Wulfrichesbi","citations":[{"label":"c.1115 LS","year":1105}],"when":{"timespans":[{"start":{"earliest":"1105","latest":"1125"},"end":{"earliest":"1105","latest":"1125"}}]}},{"toponym":"Wolurikesbi","citations":[{"label":"1202 Ass","year":1202}],"when":{"timespans":[{"start":{"in":"1202"},"end":{"in":"1202"}}]}},{"toponym":"Wulurikesbi","citations":[{"label":"1209 P","year":1209}],"when":{"timespans":[{"start":{"in":"1209"},"end":{"in":"1209"}}]}},{"toponym":"Wlfriohebi","citations":[{"label":"c.1115 LS","year":1105}],"when":{"timespans":[{"start":{"earliest":"1105","latest":"1125"},"end":{"earliest":"1105","latest":"1125"}}]}},{"toponym":"Wlfrechebi","citations":[{"label":"c.1115 LS","year":1105}],"when":{"timespans":[{"start":{"earliest":"1105","latest":"1125"},"end":{"earliest":"1105","latest":"1125"}}]}},{"toponym":"Wulurikebi","citations":[{"label":"1202 Ass","year":1202}],"when":{"timespans":[{"start":{"in":"1202"},"end":{"in":"1202"}},{"start":{"in":"1219"},"end":{"in":"1219"}}]}},{"toponym":"Wulfrikeby","citations":[{"label":"Hy2 Stix","year":1154},{"label":"1209-35 LAHW","year":1209},{"label":"1231 FF","year":1231}],"when":{"timespans":[{"start":{"earliest":"1154","latest":"1189"},"end":{"earliest":"1154","latest":"1189"}},{"start":{"earliest":"1209","latest":"1235"},"end":{"earliest":"1209","latest":"1235"}},{"start":{"in":"1231"},"end":{"in":"1231"}}]}},{"toponym":"Wlfrikeby","citations":[{"label":"1229 Cur","year":1229},{"label":"1268 Ch","year":1268}],"when":{"timespans":[{"start":{"in":"1229"},"end":{"in":"1229"}},{"start":{"in":"1268"},"end":{"in":"1268"}}]}},{"toponym":"vulfrikeby","citations":[{"label":"1301 FF","year":1301}],"when":{"timespans":[{"start":{"in":"1301"},"end":{"in":"1301"}}]}},{"toponym":"Wulfrichebi","citations":[{"label":"Hy3 HarlCh","year":1216}],"when":{"timespans":[{"start":{"earliest":"1216","latest":"1272"},"end":{"earliest":"1216","latest":"1272"}}]}},{"toponym":"Wlfricbie","citations":[{"label":"1148-52 LAAS","year":1148},{"label":"c.1150 TYR","year":1140}],"when":{"timespans":[{"start":{"earliest":"1148","latest":"1152"},"end":{"earliest":"1148","latest":"1152"}},{"start":{"earliest":"1140","latest":"1160"},"end":{"earliest":"1140","latest":"1160"}}]}},{"toponym":"Wlfricbi","citations":[{"label":"1212 Fees","year":1212}],"when":{"timespans":[{"start":{"in":"1212"},"end":{"in":"1212"}}]}},{"toponym":"Wlfricbia","citations":[{"label":"1212 Fees","year":1212}],"when":{"timespans":[{"start":{"in":"1212"},"end":{"in":"1212"}}]}},{"toponym":"Wlrikeby","citations":[{"label":"eHy2 NCot","year":1154},{"label":"1254 ValNor","year":1254},{"label":"1271 RRGr","year":1271},{"label":"1289 HMCRutl","year":1289}],"when":{"timespans":[{"start":{"earliest":"1154","latest":"1189"},"end":{"earliest":"1154","latest":"1189"}},{"start":{"in":"1254"},"end":{"in":"1254"}},{"start":{"in":"1271"},"end":{"in":"1271"}},{"start":{"in":"1289"},"end":{"in":"1289"}}]}},{"toponym":"Wlrykeby","citations":[{"label":"1291 Tax","year":1291}],"when":{"timespans":[{"start":{"in":"1291"},"end":{"in":"1291"}}]}},{"toponym":"Wolrikeb'","citations":[{"label":"1185 Templar","year":1185}],"when":{"timespans":[{"start":{"in":"1185"},"end":{"in":"1185"}}]}},{"toponym":"Wolrikeby","citations":[{"label":"1271-72 Ass","year":1271},{"label":"1298 Ass","year":1298},{"label":"1328 Banco","year":1328},{"label":"1335 Pat","year":1335}],"when":{"timespans":[{"start":{"earliest":"1271","latest":"1272"},"end":{"earliest":"1271","latest":"1272"}},{"start":{"in":"1298"},"end":{"in":"1298"}},{"start":{"in":"1328"},"end":{"in":"1328"}},{"start":{"in":"1335"},"end":{"in":"1335"}}]}},{"toponym":"Wolrykeby","citations":[{"label":"1271 Ass","year":1271}],"when":{"timespans":[{"start":{"in":"1271"},"end":{"in":"1271"}}]}},{"toponym":"Wolrickeby","citations":[{"label":"1287 Ass","year":1287}],"when":{"timespans":[{"start":{"in":"1287"},"end":{"in":"1287"}}]}},{"toponym":"Wulrikeby","citations":[{"label":"1226 FF","year":1226},{"label":"1242-43 Fees","year":1242},{"label":"1282 FF","year":1282},{"label":"1289 Cl","year":1289},{"label":"1338 Pat","year":1338}],"when":{"timespans":[{"start":{"in":"1226"},"end":{"in":"1226"}},{"start":{"earliest":"1242","latest":"1243"},"end":{"earliest":"1242","latest":"1243"}},{"start":{"in":"1282"},"end":{"in":"1282"}},{"start":{"in":"1289"},"end":{"in":"1289"}},{"start":{"in":"1338"},"end":{"in":"1338"}}]}},{"toponym":"Wolrekeby","citations":[{"label":"1291 Tax","year":1291}],"when":{"timespans":[{"start":{"in":"1291"},"end":{"in":"1291"}}]}},{"toponym":"Wolrickby","citations":[{"label":"1314 Ipm","year":1314}],"when":{"timespans":[{"start":{"in":"1314"},"end":{"in":"1314"}}]}},{"toponym":"Wolricby (iuxta Bondeby)","citations":[{"label":"1314 FF","year":1314},{"label":"1343 NI","year":1343},{"label":"1346 FA","year":1346},{"label":"1373 Peace","year":1373}],"when":{"timespans":[{"start":{"in":"1314"},"end":{"in":"1314"}},{"start":{"in":"1343"},"end":{"in":"1343"}},{"start":{"in":"1346"},"end":{"in":"1346"}},{"start":{"in":"1373"},"end":{"in":"1373"}},{"start":{"in":"1375"},"end":{"in":"1375"}},{"start":{"in":"1376"},"end":{"in":"1376"}}]}},{"toponym":"Wolrikby","citations":[{"label":"1315 Ipm","year":1315},{"label":"1316 FA","year":1316},{"label":"1332 SR","year":1332},{"label":"1354 Cor","year":1354}],"when":{"timespans":[{"start":{"in":"1315"},"end":{"in":"1315"}},{"start":{"in":"1316"},"end":{"in":"1316"}},{"start":{"in":"1332"},"end":{"in":"1332"}},{"start":{"in":"1354"},"end":{"in":"1354"}}]}},{"toponym":"Wolrikby “by Elsham”","citations":[{"label":"1360 Cl","year":1360},{"label":"1362 Pat","year":1362},{"label":"1387 Peace","year":1387}],"when":{"timespans":[{"start":{"in":"1360"},"end":{"in":"1360"}},{"start":{"in":"1362"},"end":{"in":"1362"}},{"start":{"in":"1387"},"end":{"in":"1387"}}]}},{"toponym":"Wolrykby","citations":[{"label":"1327 SR","year":1327},{"label":"1431 FA","year":1431},{"label":"1534 AS","year":1534}],"when":{"timespans":[{"start":{"in":"1327"},"end":{"in":"1327"}},{"start":{"in":"1431"},"end":{"in":"1431"}},{"start":{"in":"1534"},"end":{"in":"1534"}}]}},{"toponym":"Wolrichby","citations":[{"label":"1315 Cl","year":1315}],"when":{"timespans":[{"start":{"in":"1315"},"end":{"in":"1315"}}]}},{"toponym":"Wolrekby","citations":[{"label":"1428 FA","year":1428},{"label":"1534 AS","year":1534}],"when":{"timespans":[{"start":{"in":"1428"},"end":{"in":"1428"}},{"start":{"in":"1534"},"end":{"in":"1534"}}]}},{"toponym":"Wlricbi","citations":[{"label":"1238-43 Fees","year":1238},{"label":"1289 Ipm","year":1289}],"when":{"timespans":[{"start":{"earliest":"1238","latest":"1243"},"end":{"earliest":"1238","latest":"1243"}},{"start":{"in":"1289"},"end":{"in":"1289"}}]}},{"toponym":"Wolrigby","citations":[{"label":"1303 FA","year":1303},{"label":"1335 Pat","year":1335},{"label":"1346 FA","year":1346},{"label":"1354 Fine","year":1354},{"label":"1412 AS","year":1412},{"label":"1428 FA","year":1428},{"label":"1448 Ass","year":1448}],"when":{"timespans":[{"start":{"in":"1303"},"end":{"in":"1303"}},{"start":{"in":"1335"},"end":{"in":"1335"}},{"start":{"in":"1346"},"end":{"in":"1346"}},{"start":{"in":"1354"},"end":{"in":"1354"}},{"start":{"in":"1412"},"end":{"in":"1412"}},{"start":{"in":"1428"},"end":{"in":"1428"}},{"start":{"in":"1448"},"end":{"in":"1448"}}]}},{"toponym":"Wolriby","citations":[{"label":"1354 Orig","year":1354},{"label":"1354 Ipm","year":1354},{"label":"1373 Peace","year":1373}],"when":{"timespans":[{"start":{"in":"1354"},"end":{"in":"1354"}},{"start":{"in":"1354"},"end":{"in":"1354"}},{"start":{"in":"1373"},"end":{"in":"1373"}},{"start":{"in":"1381"},"end":{"in":"1381"}}]}},{"toponym":"Wolryby","citations":[{"label":"1328 FA","year":1328}],"when":{"timespans":[{"start":{"in":"1328"},"end":{"in":"1328"}}]}},{"toponym":"Wulryby","citations":[{"label":"1338 Misc","year":1338}],"when":{"timespans":[{"start":{"in":"1338"},"end":{"in":"1338"}}]}},{"toponym":"Wlreby","citations":[{"label":"1402 FA","year":1402}],"when":{"timespans":[{"start":{"in":"1402"},"end":{"in":"1402"}}]}},{"toponym":"Worleby","citations":[{"label":"1395 Peace","year":1395}],"when":{"timespans":[{"start":{"in":"1395"},"end":{"in":"1395"}}]}},{"toponym":"Worleby iuxta Elsham","citations":[{"label":"1420-21 AD","year":1420},{"label":"1449-53 ECP","year":1449}],"when":{"timespans":[{"start":{"earliest":"1420","latest":"1421"},"end":{"earliest":"1420","latest":"1421"}},{"start":{"earliest":"1449","latest":"1453"},"end":{"earliest":"1449","latest":"1453"}}]}},{"toponym":"Worleby “by Saxby”","citations":[{"label":"1460 Pat","year":1460},{"label":"1494 Ipm","year":1494},{"label":"1526–1664, recurring Sub","year":1526},{"label":"1526–1664, recurring Terrier"},{"label":"1526 Sub","year":1526},{"label":"1664 Terrier","year":1664}],"when":{"timespans":[{"start":{"in":"1460"},"end":{"in":"1460"}},{"start":{"in":"1461"},"end":{"in":"1461"}},{"start":{"in":"1494"},"end":{"in":"1494"}},{"start":{"in":"1526"},"end":{"in":"1664"}},{"start":{"in":"1526"},"end":{"in":"1526"}},{"start":{"in":"1664"},"end":{"in":"1664"}}]}},{"toponym":"Worlebie","citations":[{"label":"1553 Pat","year":1553},{"label":"1562-67 LNQ","year":1562}],"when":{"timespans":[{"start":{"in":"1553"},"end":{"in":"1553"}},{"start":{"earliest":"1562","latest":"1567"},"end":{"earliest":"1562","latest":"1567"}}]}},{"toponym":"Worlebee","citations":[{"label":"1695 Pryme","year":1695}],"when":{"timespans":[{"start":{"in":"1695"},"end":{"in":"1695"}}]}},{"toponym":"Worleyby","citations":[{"label":"1538-39 Dugd","year":1538}],"when":{"timespans":[{"start":{"earliest":"1538","latest":"1539"},"end":{"earliest":"1538","latest":"1539"}}]}},{"toponym":"Worlyby","citations":[{"label":"1542 AS","year":1542}],"when":{"timespans":[{"start":{"in":"1542"},"end":{"in":"1542"}}]}},{"toponym":"Wurleby","citations":[{"label":"1502 Ipm","year":1502}],"when":{"timespans":[{"start":{"in":"1502"},"end":{"in":"1502"}}]}},{"toponym":"Worlaby","citations":[{"label":"1478 FF","year":1478}],"when":{"timespans":[{"start":{"in":"1478"},"end":{"in":"1478"}}]}},{"toponym":"Worlaby al's Worletby","citations":[{"label":"1636 AS","year":1636},{"label":"1668–1678, recurring Terrier","year":1668},{"label":"1668 Terrier","year":1668}],"when":{"timespans":[{"start":{"in":"1636"},"end":{"in":"1636"}},{"start":{"in":"1668"},"end":{"in":"1678"}},{"start":{"in":"1668"},"end":{"in":"1668"}},{"start":{"in":"1674"},"end":{"in":"1674"}},{"start":{"in":"1678"},"end":{"in":"1678"}}]}},{"toponym":"Worlaby alias Worletby","citations":[{"label":"1717 LCC","year":1717}],"when":{"timespans":[{"start":{"in":"1717"},"end":{"in":"1717"}}]}},{"toponym":"Worlaby otherwise Worletby","citations":[{"label":"1764 LCC","year":1764}],"when":{"timespans":[{"start":{"in":"1764"},"end":{"in":"1764"}}]}},{"toponym":"Worlabie","citations":[{"label":"1552 Pat","year":1552}],"when":{"timespans":[{"start":{"in":"1552"},"end":{"in":"1552"}}]}},{"toponym":"Worlabey","citations":[{"label":"1574 AS","year":1574}],"when":{"timespans":[{"start":{"in":"1574"},"end":{"in":"1574"}}]}},{"toponym":"Worlabye","citations":[{"label":"1576 Saxton","year":1576},{"label":"1610 Speed","year":1610},{"label":"1638 Monson","year":1638},{"label":"1724 Terrier","year":1724}],"when":{"timespans":[{"start":{"in":"1576"},"end":{"in":"1576"}},{"start":{"in":"1610"},"end":{"in":"1610"}},{"start":{"in":"1638"},"end":{"in":"1638"}},{"start":{"in":"1724"},"end":{"in":"1724"}},{"start":{"in":"1730"},"end":{"in":"1730"}}]}},{"toponym":"Worelaby","citations":[{"label":"1535 VE","year":1535}],"when":{"timespans":[{"start":{"in":"1535"},"end":{"in":"1535"}}]}},{"toponym":"Werliby","citations":[{"label":"1402 Cl","year":1402}],"when":{"timespans":[{"start":{"in":"1402"},"end":{"in":"1402"}}]}},{"toponym":"Wirlaby","citations":[{"label":"1491 Ipm","year":1491}],"when":{"timespans":[{"start":{"in":"1491"},"end":{"in":"1491"}}]}},{"toponym":"Wirleby","citations":[{"label":"1519 DV","year":1519}],"when":{"timespans":[{"start":{"in":"1519"},"end":{"in":"1519"}}]}},{"toponym":"Worletby","citations":[{"label":"1546 AS","year":1546},{"label":"1638 Terrier","year":1638}],"when":{"timespans":[{"start":{"in":"1546"},"end":{"in":"1546"}},{"start":{"in":"1577"},"end":{"in":"1577"}},{"start":{"in":"1619"},"end":{"in":"1619"}},{"start":{"in":"1638"},"end":{"in":"1638"}},{"start":{"in":"1690"},"end":{"in":"1690"}},{"start":{"in":"1697"},"end":{"in":"1697"}},{"start":{"in":"1703"},"end":{"in":"1703"}}]}},{"toponym":"Worletbye","citations":[{"label":"1539 LP","year":1539}],"when":{"timespans":[{"start":{"in":"1539"},"end":{"in":"1539"}}]}},{"toponym":"Worletbye alias Worlebye","citations":[{"label":"1594 AS","year":1594}],"when":{"timespans":[{"start":{"in":"1594"},"end":{"in":"1594"}}]}},{"toponym":"Worletbie","citations":[{"label":"1573 AS","year":1573},{"label":"1579 Terrier","year":1579}],"when":{"timespans":[{"start":{"in":"1573"},"end":{"in":"1573"}},{"start":{"in":"1579"},"end":{"in":"1579"}},{"start":{"in":"1601"},"end":{"in":"1601"}},{"start":{"in":"1606"},"end":{"in":"1606"}},{"start":{"in":"1612"},"end":{"in":"1612"}}]}},{"toponym":"Worlettbie","citations":[{"label":"c.1580 AS","year":1570}],"when":{"timespans":[{"start":{"earliest":"1570","latest":"1590"},"end":{"earliest":"1570","latest":"1590"}}]}},{"toponym":"Wollerby","citations":[{"label":"1402 AS","year":1402}],"when":{"timespans":[{"start":{"in":"1402"},"end":{"in":"1402"}}]}}],"types":[{"identifier":"http://vocab.getty.edu/aat/300232418","label":"administrative division","sourceLabels":[{"label":"township","lang":"en"}]}],"geometry":{"type":"GeometryCollection","geometries":[{"type":"Point","coordinates":[-0.46667,53.6],"citations":[{"label":"GeoNames, gazetteer record geonames:2633549"}]},{"type":"Point","coordinates":[-0.4657273799186884,53.60797491815639],"citations":[{"label":"Unlock (EDINA) gazetteer, gazetteer record unlock:11327228"}]},{"type":"Point","coordinates":[-0.46737,53.6082],"citations":[{"label":"Key to English Place-Names (KEPN), gazetteer record 10856"}]}]},"when":{"timespans":[{"start":{"in":"1086"},"end":{"in":"1764"}}]},"links":[{"type":"closeMatch","identifier":"https://sws.geonames.org/2633549/"}],"relations":[{"relationType":"gvp:broaderPartitive","relationTo":"http://placenames.org.uk/id/placename/64/013127","label":"within Worlaby"}]}]}