{"@context":"https://raw.githubusercontent.com/LinkedPasts/linked-places-format/main/linkedplaces-context-v1.1.jsonld","type":"FeatureCollection","license":"Digitisation of English Placenames MADS data is licensed to Jisc by the English Place Names Society and released under a Creative Commons Attribution-NonCommercial 4.0 International License.","note":"LPF v1.3, lossy; derived from the PLATO record; plato_commit=ca0afadabec1e23a145c0b03df77e8f151f79832","features":[{"@id":"https://w3id.org/whg-epns/21/000176","type":"Feature","properties":{"title":"Bassenthwaite","ccodes":["GB"],"fclasses":["A","P"]},"names":[{"toponym":"Bassenthwaite","lang":"en","citations":[{"label":"English Place-Name Society survey, volume 21: Cumberland"}]},{"toponym":"Bistunthweit","citations":[{"label":"c. 1160 Fountains","year":1150}],"when":{"timespans":[{"start":{"earliest":"1150","latest":"1170"},"end":{"earliest":"1150","latest":"1170"}}]}},{"toponym":"Bastunthuait","citations":[{"label":"c. 1175 Hesley","year":1165}],"when":{"timespans":[{"start":{"earliest":"1165","latest":"1185"},"end":{"earliest":"1165","latest":"1185"}}]}},{"toponym":"Bastunthweit, Bastuntwayt, Bastunthwait","citations":[{"label":"t. John Fountains","year":1199},{"label":"c. 1240 StB","year":1230},{"label":"1298 StBA","year":1298}],"when":{"timespans":[{"start":{"earliest":"1199","latest":"1216"},"end":{"earliest":"1199","latest":"1216"}},{"start":{"earliest":"1230","latest":"1250"},"end":{"earliest":"1230","latest":"1250"}},{"start":{"in":"1298"},"end":{"in":"1298"}}]}},{"toponym":"Bastenethwait","citations":[{"label":"1208 FF","year":1208}],"when":{"timespans":[{"start":{"in":"1208"},"end":{"in":"1208"}}]}},{"toponym":"Bastenthwyt","citations":[{"label":"1212 StBA","year":1212}],"when":{"timespans":[{"start":{"in":"1212"},"end":{"in":"1212"}}]}},{"toponym":"Bastenthwait","citations":[{"label":"1241–1403, recurring Cl","year":1241},{"label":"1241–1403, recurring Pat"},{"label":"1241 Cl","year":1241},{"label":"1403 Pat","year":1403}],"when":{"timespans":[{"start":{"in":"1241"},"end":{"in":"1403"}},{"start":{"in":"1241"},"end":{"in":"1241"}},{"start":{"in":"1403"},"end":{"in":"1403"}}]}},{"toponym":"Bastenthwayt, Bastentwait, Bastentweyt","citations":[{"label":"1241-1403 unspecified sources","year":1241}],"when":{"timespans":[{"start":{"in":"1241"},"end":{"in":"1403"}}]}},{"toponym":"Bastenqweyth'","citations":[{"label":"1308 Netherhall","year":1308}],"when":{"timespans":[{"start":{"in":"1308"},"end":{"in":"1308"}}]}},{"toponym":"Bastanswayt","citations":[{"label":"1256 FF","year":1256}],"when":{"timespans":[{"start":{"in":"1256"},"end":{"in":"1256"}}]}},{"toponym":"Bastanthweyt","citations":[{"label":"1278 Ass","year":1278}],"when":{"timespans":[{"start":{"in":"1278"},"end":{"in":"1278"}},{"start":{"in":"1279"},"end":{"in":"1279"}}]}},{"toponym":"Bastinthwayt, Bastinthwait","citations":[{"label":"1292 Ass","year":1292},{"label":"1372 StB","year":1372}],"when":{"timespans":[{"start":{"in":"1292"},"end":{"in":"1292"}},{"start":{"in":"1372"},"end":{"in":"1372"}}]}},{"toponym":"Bastynthuate","citations":[{"label":"1535 VE","year":1535}],"when":{"timespans":[{"start":{"in":"1535"},"end":{"in":"1535"}}]}},{"toponym":"Bastingthwayt","citations":[{"label":"1292 Ass","year":1292}],"when":{"timespans":[{"start":{"in":"1292"},"end":{"in":"1292"}}]}},{"toponym":"Bastingthewyt","citations":[{"label":"1292 Ass","year":1292}],"when":{"timespans":[{"start":{"in":"1292"},"end":{"in":"1292"}}]}},{"toponym":"Bastingthweyt","citations":[{"label":"1308 Cl","year":1308}],"when":{"timespans":[{"start":{"in":"1308"},"end":{"in":"1308"}}]}},{"toponym":"Bastingthwaite","citations":[{"label":"1547 FF","year":1547}],"when":{"timespans":[{"start":{"in":"1547"},"end":{"in":"1547"}}]}},{"toponym":"Bastonethwayt","citations":[{"label":"c. 1230 Fountains","year":1220}],"when":{"timespans":[{"start":{"earliest":"1220","latest":"1240"},"end":{"earliest":"1220","latest":"1240"}}]}},{"toponym":"Bastonthwait","citations":[{"label":"1303 Pat","year":1303}],"when":{"timespans":[{"start":{"in":"1303"},"end":{"in":"1303"}}]}},{"toponym":"Basyngthwaite","citations":[{"label":"1492 DunBev","year":1492}],"when":{"timespans":[{"start":{"in":"1492"},"end":{"in":"1492"}}]}},{"toponym":"Bassyngthwayte","citations":[{"label":"1540 AOMB","year":1540}],"when":{"timespans":[{"start":{"in":"1540"},"end":{"in":"1540"}}]}},{"toponym":"Basonthwaite","citations":[{"label":"1599 FF","year":1599}],"when":{"timespans":[{"start":{"in":"1599"},"end":{"in":"1599"}}]}},{"toponym":"Bastyntwhat","citations":[{"label":"1562 PR (Crosth)","year":1562}],"when":{"timespans":[{"start":{"in":"1562"},"end":{"in":"1562"}}]}}],"types":[{"identifier":"http://vocab.getty.edu/aat/300232418","label":"administrative division","sourceLabels":[{"label":"township","lang":"en"}]}],"geometry":{"type":"GeometryCollection","geometries":[{"type":"Point","coordinates":[-3.19548,54.67969],"citations":[{"label":"GeoNames, gazetteer record geonames:6620347"}]},{"type":"Point","coordinates":[-3.186667117994916,54.68162943544549],"citations":[{"label":"Unlock (EDINA) gazetteer, gazetteer record unlock:11071444"}]},{"type":"Point","coordinates":[-3.18802,54.6817],"citations":[{"label":"Key to English Place-Names (KEPN), gazetteer record 4459"}]}]},"when":{"timespans":[{"start":{"in":"1150"},"end":{"in":"1599"}}]},"links":[{"type":"closeMatch","identifier":"https://sws.geonames.org/6620347/"}],"relations":[{"relationType":"gvp:broaderPartitive","relationTo":"https://w3id.org/whg-epns/21/000175","label":"within Bassenthwaite"}]}]}