{"@context":"https://raw.githubusercontent.com/LinkedPasts/linked-places-format/main/linkedplaces-context-v1.1.jsonld","type":"FeatureCollection","license":"Digitisation of English Placenames MADS data is licensed to Jisc by the English Place Names Society and released under a Creative Commons Attribution-NonCommercial 4.0 International License.","note":"LPF v1.3, lossy; derived from the PLATO record; plato_commit=ca0afadabec1e23a145c0b03df77e8f151f79832","features":[{"@id":"https://w3id.org/whg-epns/21/002133","type":"Feature","properties":{"title":"Ireby, High Ireby and Low Ireby","ccodes":["GB"],"fclasses":["A","P"]},"names":[{"toponym":"Ireby, High Ireby and Low Ireby","lang":"en","citations":[{"label":"English Place-Name Society survey, volume 21: Cumberland"}]},{"toponym":"Irebi","citations":[{"label":"c. 1160 Fountains","year":1150},{"label":"c. 1175 Hesley","year":1165}],"when":{"timespans":[{"start":{"earliest":"1150","latest":"1170"},"end":{"earliest":"1150","latest":"1170"}},{"start":{"earliest":"1165","latest":"1185"},"end":{"earliest":"1165","latest":"1185"}}]}},{"toponym":"Ireby","citations":[{"label":"1140–1160, recurring StB","year":1140},{"label":"c. 1150 StB","year":1140}],"when":{"timespans":[{"start":{"in":"1140"},"end":{"in":"1160"}},{"start":{"earliest":"1140","latest":"1160"},"end":{"earliest":"1140","latest":"1160"}}]}},{"toponym":"Yreby","citations":[{"label":"c. 1150-1600 unspecified sources","year":1140}],"when":{"timespans":[{"start":{"in":"1140"},"end":{"in":"1600"}}]}},{"toponym":"Irreby","citations":[{"label":"1256 FF","year":1256},{"label":"1279 Ass","year":1279},{"label":"1292 Ass","year":1292}],"when":{"timespans":[{"start":{"in":"1256"},"end":{"in":"1256"}},{"start":{"in":"1279"},"end":{"in":"1279"}},{"start":{"in":"1292"},"end":{"in":"1292"}}]}},{"toponym":"Hyrby","citations":[{"label":"c. 1275 Scotland","year":1265}],"when":{"timespans":[{"start":{"earliest":"1265","latest":"1285"},"end":{"earliest":"1265","latest":"1285"}}]}},{"toponym":"Hirby","citations":[{"label":"1276 Pat","year":1276}],"when":{"timespans":[{"start":{"in":"1276"},"end":{"in":"1276"}}]}},{"toponym":"Hyrreby","citations":[{"label":"1279 Ass","year":1279}],"when":{"timespans":[{"start":{"in":"1279"},"end":{"in":"1279"}}]}},{"toponym":"Irby","citations":[{"label":"1292 Ass","year":1292},{"label":"1319 Ipm","year":1319}],"when":{"timespans":[{"start":{"in":"1292"},"end":{"in":"1292"}},{"start":{"in":"1319"},"end":{"in":"1319"}}]}},{"toponym":"Ereby","citations":[{"label":"1449 Pat","year":1449}],"when":{"timespans":[{"start":{"in":"1449"},"end":{"in":"1449"}}]}}],"types":[{"identifier":"http://vocab.getty.edu/aat/300232418","label":"administrative division","sourceLabels":[{"label":"township","lang":"en"}]}],"geometry":{"type":"GeometryCollection","geometries":[{"type":"Point","coordinates":[-3.18333,54.73333],"citations":[{"label":"GeoNames, gazetteer record geonames:2646053"}]},{"type":"Point","coordinates":[-3.203504883740544,54.72640496307118],"citations":[{"label":"Unlock (EDINA) gazetteer, gazetteer record unlock:11171989"}]},{"type":"Point","coordinates":[-3.18986,54.7446],"citations":[{"label":"Key to English Place-Names (KEPN), gazetteer record 4479"}]}]},"when":{"timespans":[{"start":{"in":"1140"},"end":{"in":"1600"}}]},"links":[{"type":"closeMatch","identifier":"https://sws.geonames.org/2646053/"}],"relations":[{"relationType":"gvp:broaderPartitive","relationTo":"https://w3id.org/whg-epns/21/002132","label":"within Ireby, High Ireby and Low Ireby"}]}]}