{"@context":"https://raw.githubusercontent.com/LinkedPasts/linked-places-format/main/linkedplaces-context-v1.1.jsonld","type":"FeatureCollection","license":"Digitisation of English Placenames MADS data is licensed to Jisc by the English Place Names Society and released under a Creative Commons Attribution-NonCommercial 4.0 International License.","note":"LPF v1.3, lossy; derived from the PLATO record; plato_commit=ca0afadabec1e23a145c0b03df77e8f151f79832","features":[{"@id":"http://placenames.org.uk/id/placename/21/002192","type":"Feature","properties":{"title":"Isel Oldpark","ccodes":["GB"],"fclasses":["A","P"]},"names":[{"toponym":"Isel Oldpark","lang":"en","citations":[{"label":"English Place-Name Society survey, volume 21: Cumberland"}]},{"toponym":"Old Parke","citations":[{"label":"1555 FF","year":1555}],"when":{"timespans":[{"start":{"in":"1555"},"end":{"in":"1555"}}]}},{"toponym":"Owldparke","citations":[{"label":"1631 Brayton","year":1631}],"when":{"timespans":[{"start":{"in":"1631"},"end":{"in":"1631"}}]}},{"toponym":"Isellold-park","citations":[{"label":"1718 Brayton","year":1718}],"when":{"timespans":[{"start":{"in":"1718"},"end":{"in":"1718"}}]}}],"types":[{"identifier":"http://vocab.getty.edu/aat/300232418","label":"administrative division","sourceLabels":[{"label":"township","lang":"en"}]}],"geometry":{"type":"Point","coordinates":[-3.2506,54.6991],"citations":[{"label":"Key to English Place-Names (KEPN), gazetteer record 4484"}]},"when":{"timespans":[{"start":{"in":"1555"},"end":{"in":"1718"}}]},"relations":[{"relationType":"gvp:broaderPartitive","relationTo":"http://placenames.org.uk/id/placename/21/002191","label":"within Isel Oldpark"}]}]}