{"@context":"https://raw.githubusercontent.com/LinkedPasts/linked-places-format/main/linkedplaces-context-v1.1.jsonld","type":"FeatureCollection","license":"Digitisation of English Placenames MADS data is licensed to Jisc by the English Place Names Society and released under a Creative Commons Attribution-NonCommercial 4.0 International License.","note":"LPF v1.3, lossy; derived from the PLATO record; plato_commit=fa0d247ccc0263f8f19c8d7cdcd163df96935d1e","features":[{"@id":"https://w3id.org/whg-epns/21/002550","type":"Feature","properties":{"title":"Plumbland","ccodes":["GB"],"fclasses":["A","P"]},"names":[{"toponym":"Plumbland","lang":"en","citations":[{"label":"English Place-Name Society survey, volume 21: Cumberland"}]}],"types":[{"identifier":"http://vocab.getty.edu/aat/300232418","label":"administrative division","sourceLabels":[{"label":"parish","lang":"en"}]}],"geometry":{"type":"GeometryCollection","geometries":[{"type":"Point","coordinates":[-3.32084,54.73993],"citations":[{"label":"GeoNames, gazetteer record geonames:2640208"}]},{"type":"Point","coordinates":[-3.313049817001625,54.75223321754277],"citations":[{"label":"Unlock (EDINA) gazetteer, gazetteer record unlock:11246903"}]},{"type":"Point","coordinates":[-3.3141,54.7433],"citations":[{"label":"Key to English Place-Names (KEPN), gazetteer record 4494"}]}]},"links":[{"type":"closeMatch","identifier":"https://sws.geonames.org/2640208/"}],"relations":[{"relationType":"gvp:broaderPartitive","relationTo":"https://w3id.org/whg-epns/21/000002","label":"within Allerdale Below Derwent Ward"}]}]}