{"@context":"https://raw.githubusercontent.com/LinkedPasts/linked-places-format/main/linkedplaces-context-v1.1.jsonld","type":"FeatureCollection","license":"Digitisation of English Placenames MADS data is licensed to Jisc by the English Place Names Society and released under a Creative Commons Attribution-NonCommercial 4.0 International License.","note":"LPF v1.3, lossy; derived from the PLATO record; plato_commit=ca0afadabec1e23a145c0b03df77e8f151f79832","features":[{"@id":"https://w3id.org/whg-epns/21/005769","type":"Feature","properties":{"title":"Drigg","ccodes":["GB"],"fclasses":["A","P"]},"names":[{"toponym":"Drigg","lang":"en","citations":[{"label":"English Place-Name Society survey, volume 21: Cumberland"}]},{"toponym":"Dreg","citations":[{"label":"1175-99 DuLa","year":1175},{"label":"1170–1363, recurring StB","year":1170},{"label":"1170–1363, recurring Ipm"},{"label":"c. 1180 StB","year":1170},{"label":"1363 Ipm","year":1363}],"when":{"timespans":[{"start":{"earliest":"1175","latest":"1199"},"end":{"earliest":"1175","latest":"1199"}},{"start":{"in":"1170"},"end":{"in":"1363"}},{"start":{"earliest":"1170","latest":"1190"},"end":{"earliest":"1170","latest":"1190"}},{"start":{"in":"1363"},"end":{"in":"1363"}}]}},{"toponym":"Dreg in Coupland","citations":[{"label":"c. 1290 StB","year":1280}],"when":{"timespans":[{"start":{"earliest":"1280","latest":"1300"},"end":{"earliest":"1280","latest":"1300"}}]}},{"toponym":"Drege otherwise Dregge","citations":[{"label":"1557 Netherhall","year":1557}],"when":{"timespans":[{"start":{"in":"1557"},"end":{"in":"1557"}}]}},{"toponym":"Dregg(e)","citations":[{"label":"1279–1514, recurring Ass","year":1279},{"label":"1279–1514, recurring BM"},{"label":"1279 Ass","year":1279},{"label":"1514 BM","year":1514}],"when":{"timespans":[{"start":{"in":"1279"},"end":{"in":"1514"}},{"start":{"in":"1279"},"end":{"in":"1279"}},{"start":{"in":"1514"},"end":{"in":"1514"}}]}},{"toponym":"le Dregg","citations":[{"label":"1279 Ass","year":1279}],"when":{"timespans":[{"start":{"in":"1279"},"end":{"in":"1279"}}]}},{"toponym":"Drigg","citations":[{"label":"1572 FF","year":1572}],"when":{"timespans":[{"start":{"in":"1572"},"end":{"in":"1572"}}]}},{"toponym":"Drigge al. Dregge","citations":[{"label":"1579 FF","year":1579}],"when":{"timespans":[{"start":{"in":"1579"},"end":{"in":"1579"}}]}}],"types":[{"identifier":"http://vocab.getty.edu/aat/300232418","label":"administrative division","sourceLabels":[{"label":"township","lang":"en"}]}],"geometry":{"type":"GeometryCollection","geometries":[{"type":"Point","coordinates":[-3.44282,54.37761],"citations":[{"label":"GeoNames, gazetteer record geonames:2650989"}]},{"type":"Point","coordinates":[-3.439496775554796,54.37326861076275],"citations":[{"label":"Unlock (EDINA) gazetteer, gazetteer record unlock:11131770"}]},{"type":"Point","coordinates":[-3.44081,54.3734],"citations":[{"label":"Key to English Place-Names (KEPN), gazetteer record 4529"}]}]},"when":{"timespans":[{"start":{"in":"1170"},"end":{"in":"1579"}}]},"links":[{"type":"closeMatch","identifier":"https://sws.geonames.org/2650989/"}],"relations":[{"relationType":"gvp:broaderPartitive","relationTo":"https://w3id.org/whg-epns/21/005768","label":"within Drigg and Carleton"}]}]}