{"@context":"https://raw.githubusercontent.com/LinkedPasts/linked-places-format/main/linkedplaces-context-v1.1.jsonld","type":"FeatureCollection","license":"Digitisation of English Placenames MADS data is licensed to Jisc by the English Place Names Society and released under a Creative Commons Attribution-NonCommercial 4.0 International License.","note":"LPF v1.3, lossy; derived from the PLATO record; plato_commit=ca0afadabec1e23a145c0b03df77e8f151f79832","features":[{"@id":"http://placenames.org.uk/id/placename/21/005875","type":"Feature","properties":{"title":"Egremont","ccodes":["GB"],"fclasses":["A","P"]},"names":[{"toponym":"Egremont","lang":"en","citations":[{"label":"English Place-Name Society survey, volume 21: Cumberland"}]},{"toponym":"Egremont","citations":[{"label":"c. 1125 StB","year":1115},{"label":"1170–1190, recurring Hesley","year":1170},{"label":"c. 1180 Hesley","year":1170}],"when":{"timespans":[{"start":{"earliest":"1115","latest":"1135"},"end":{"earliest":"1115","latest":"1135"}},{"start":{"in":"1170"},"end":{"in":"1190"}},{"start":{"earliest":"1170","latest":"1190"},"end":{"earliest":"1170","latest":"1190"}}]}},{"toponym":"Echermund","citations":[{"label":"c. 1130 StB","year":1120}],"when":{"timespans":[{"start":{"earliest":"1120","latest":"1140"},"end":{"earliest":"1120","latest":"1140"}}]}},{"toponym":"Egermund","citations":[{"label":"1195–1327, recurring CW (OS)","year":1195},{"label":"1195–1327, recurring Ipm"},{"label":"c. 1205 CW (OS)","year":1195},{"label":"1327 Ipm","year":1327}],"when":{"timespans":[{"start":{"in":"1195"},"end":{"in":"1327"}},{"start":{"earliest":"1195","latest":"1215"},"end":{"earliest":"1195","latest":"1215"}},{"start":{"in":"1327"},"end":{"in":"1327"}}]}},{"toponym":"Egermond","citations":[{"label":"1294 Cl","year":1294}],"when":{"timespans":[{"start":{"in":"1294"},"end":{"in":"1294"}}]}},{"toponym":"Egermount","citations":[{"label":"1338 StB","year":1338}],"when":{"timespans":[{"start":{"in":"1338"},"end":{"in":"1338"}}]}},{"toponym":"Egremunt","citations":[{"label":"1125–1281, recurring Lowther","year":1125},{"label":"1125–1281, recurring FF"},{"label":"c. 1135 Lowther","year":1125},{"label":"1281 FF","year":1281}],"when":{"timespans":[{"start":{"in":"1125"},"end":{"in":"1281"}},{"start":{"earliest":"1125","latest":"1145"},"end":{"earliest":"1125","latest":"1145"}},{"start":{"in":"1281"},"end":{"in":"1281"}}]}},{"toponym":"Egremund","citations":[{"label":"1150–1317, recurring StB","year":1150},{"label":"1150–1317, recurring Misc"},{"label":"c. 1160 StB","year":1150},{"label":"1317 Misc","year":1317}],"when":{"timespans":[{"start":{"in":"1150"},"end":{"in":"1317"}},{"start":{"earliest":"1150","latest":"1170"},"end":{"earliest":"1150","latest":"1170"}},{"start":{"in":"1317"},"end":{"in":"1317"}}]}},{"toponym":"Egremond","citations":[{"label":"1231 FF","year":1231},{"label":"1291 Tax","year":1291},{"label":"1428 FA","year":1428}],"when":{"timespans":[{"start":{"in":"1231"},"end":{"in":"1231"}},{"start":{"in":"1291"},"end":{"in":"1291"}},{"start":{"in":"1428"},"end":{"in":"1428"}}]}},{"toponym":"Egremound(e)","citations":[{"label":"1278 Ass","year":1278},{"label":"c. 1310 BM","year":1300}],"when":{"timespans":[{"start":{"in":"1278"},"end":{"in":"1278"}},{"start":{"earliest":"1300","latest":"1320"},"end":{"earliest":"1300","latest":"1320"}}]}},{"toponym":"Agremunt","citations":[{"label":"c. 1165 StB","year":1155}],"when":{"timespans":[{"start":{"earliest":"1155","latest":"1175"},"end":{"earliest":"1155","latest":"1175"}}]}},{"toponym":"Agremonde","citations":[{"label":"1537 CW (OS)","year":1537}],"when":{"timespans":[{"start":{"in":"1537"},"end":{"in":"1537"}}]}},{"toponym":"burgenses de Acrimonte","citations":[{"label":"c. 1200 CW (OS)","year":1190}],"when":{"timespans":[{"start":{"earliest":"1190","latest":"1210"},"end":{"earliest":"1190","latest":"1210"}}]}},{"toponym":"Eggermuth","citations":[{"label":"1260 Cl","year":1260}],"when":{"timespans":[{"start":{"in":"1260"},"end":{"in":"1260"}}]}},{"toponym":"Egyrmunde","citations":[{"label":"1278 StB","year":1278}],"when":{"timespans":[{"start":{"in":"1278"},"end":{"in":"1278"}}]}},{"toponym":"Egirmond","citations":[{"label":"1363 Ipm","year":1363}],"when":{"timespans":[{"start":{"in":"1363"},"end":{"in":"1363"}}]}},{"toponym":"Egirmound","citations":[{"label":"1386 Pat","year":1386}],"when":{"timespans":[{"start":{"in":"1386"},"end":{"in":"1386"}}]}}],"types":[{"identifier":"http://vocab.getty.edu/aat/300232418","label":"administrative division","sourceLabels":[{"label":"township","lang":"en"}]}],"geometry":{"type":"GeometryCollection","geometries":[{"type":"Point","coordinates":[-3.52756,54.47941],"citations":[{"label":"GeoNames, gazetteer record geonames:2650174"}]},{"type":"Point","coordinates":[-3.520433015525314,54.48014542681776],"citations":[{"label":"Unlock (EDINA) gazetteer, gazetteer record unlock:11138309"}]},{"type":"Point","coordinates":[-3.52174,54.4803],"citations":[{"label":"Key to English Place-Names (KEPN), gazetteer record 4532"}]}]},"when":{"timespans":[{"start":{"in":"1115"},"end":{"in":"1537"}}]},"links":[{"type":"closeMatch","identifier":"https://sws.geonames.org/2650174/"}],"relations":[{"relationType":"gvp:broaderPartitive","relationTo":"http://placenames.org.uk/id/placename/21/005874","label":"within Egremont"}]}]}