{"@context":"https://raw.githubusercontent.com/LinkedPasts/linked-places-format/main/linkedplaces-context-v1.1.jsonld","type":"FeatureCollection","license":"Digitisation of English Placenames MADS data is licensed to Jisc by the English Place Names Society and released under a Creative Commons Attribution-NonCommercial 4.0 International License.","note":"LPF v1.3, lossy; derived from the PLATO record; plato_commit=fa0d247ccc0263f8f19c8d7cdcd163df96935d1e","features":[{"@id":"https://w3id.org/whg-epns/21/006713","type":"Feature","properties":{"title":"Gosforth","ccodes":["GB"],"fclasses":["A","P"]},"names":[{"toponym":"Gosforth","lang":"en","citations":[{"label":"English Place-Name Society survey, volume 21: Cumberland"}]}],"types":[{"identifier":"http://vocab.getty.edu/aat/300232418","label":"administrative division","sourceLabels":[{"label":"parish","lang":"en"}]}],"geometry":{"type":"GeometryCollection","geometries":[{"type":"Point","coordinates":[-3.43366,54.41718],"citations":[{"label":"GeoNames, gazetteer record geonames:2648274"}]},{"type":"Point","coordinates":[-3.441070731641803,54.41819500260748],"citations":[{"label":"Unlock (EDINA) gazetteer, gazetteer record unlock:11156880"}]},{"type":"Point","coordinates":[-3.42698,54.4185],"citations":[{"label":"Key to English Place-Names (KEPN), gazetteer record 4536"}]}]},"links":[{"type":"closeMatch","identifier":"https://sws.geonames.org/2648274/"}],"relations":[{"relationType":"gvp:broaderPartitive","relationTo":"https://w3id.org/whg-epns/21/003765","label":"within Allerdale Above Derwent Ward"}]}]}