{"@context":"https://raw.githubusercontent.com/LinkedPasts/linked-places-format/main/linkedplaces-context-v1.1.jsonld","type":"FeatureCollection","license":"Digitisation of English Placenames MADS data is licensed to Jisc by the English Place Names Society and released under a Creative Commons Attribution-NonCommercial 4.0 International License.","note":"LPF v1.3, lossy; derived from the PLATO record; plato_commit=ca0afadabec1e23a145c0b03df77e8f151f79832","features":[{"@id":"https://w3id.org/whg-epns/21/006919","type":"Feature","properties":{"title":"Greysouthen","ccodes":["GB"],"fclasses":["A","P"]},"names":[{"toponym":"Greysouthen","lang":"en","citations":[{"label":"English Place-Name Society survey, volume 21: Cumberland"}]},{"toponym":"Craykesuthen","citations":[{"label":"c. 1187 HolmC","year":1177}],"when":{"timespans":[{"start":{"earliest":"1177","latest":"1197"},"end":{"earliest":"1177","latest":"1197"}}]}},{"toponym":"Creiksuthen","citations":[{"label":"1230 Scotland","year":1230}],"when":{"timespans":[{"start":{"in":"1230"},"end":{"in":"1230"}}]}},{"toponym":"Craicsuthen","citations":[{"label":"c. 1258 StB","year":1248}],"when":{"timespans":[{"start":{"earliest":"1248","latest":"1268"},"end":{"earliest":"1248","latest":"1268"}}]}},{"toponym":"Creisuth, Craysuth, Creysuth","citations":[{"label":"1278 Ass","year":1278}],"when":{"timespans":[{"start":{"in":"1278"},"end":{"in":"1278"}},{"start":{"in":"1279"},"end":{"in":"1279"}}]}},{"toponym":"Cressewen","citations":[{"label":"1278 Ass","year":1278}],"when":{"timespans":[{"start":{"in":"1278"},"end":{"in":"1278"}}]}},{"toponym":"Kreyksuchen","citations":[{"label":"1279 Ass","year":1279}],"when":{"timespans":[{"start":{"in":"1279"},"end":{"in":"1279"}}]}},{"toponym":"Graykesothen, Craykesothen","citations":[{"label":"1292 Ass","year":1292}],"when":{"timespans":[{"start":{"in":"1292"},"end":{"in":"1292"}}]}},{"toponym":"Craysuthen, Creysuthen","citations":[{"label":"1292 Ass","year":1292}],"when":{"timespans":[{"start":{"in":"1292"},"end":{"in":"1292"}},{"start":{"in":"1301"},"end":{"in":"1301"}}]}},{"toponym":"Craysothen, Creysothen","citations":[{"label":"1293 FF","year":1293},{"label":"1304 Ipm","year":1304},{"label":"1307 Cl","year":1307}],"when":{"timespans":[{"start":{"in":"1293"},"end":{"in":"1293"}},{"start":{"in":"1299"},"end":{"in":"1299"}},{"start":{"in":"1304"},"end":{"in":"1304"}},{"start":{"in":"1306"},"end":{"in":"1306"}},{"start":{"in":"1307"},"end":{"in":"1307"}}]}},{"toponym":"Craysothin","citations":[{"label":"1308 Ipm","year":1308}],"when":{"timespans":[{"start":{"in":"1308"},"end":{"in":"1308"}}]}},{"toponym":"Graysothen(e)","citations":[{"label":"1299 FF","year":1299},{"label":"1332 SR","year":1332},{"label":"1395 Ass","year":1395}],"when":{"timespans":[{"start":{"in":"1299"},"end":{"in":"1299"}},{"start":{"in":"1332"},"end":{"in":"1332"}},{"start":{"in":"1395"},"end":{"in":"1395"}},{"start":{"in":"1406"},"end":{"in":"1406"}}]}},{"toponym":"Graysothyn","citations":[{"label":"1306 Greenfield","year":1306}],"when":{"timespans":[{"start":{"in":"1306"},"end":{"in":"1306"}}]}},{"toponym":"Graysone","citations":[{"label":"1505 Cocker","year":1505}],"when":{"timespans":[{"start":{"in":"1505"},"end":{"in":"1505"}}]}},{"toponym":"Grasoone","citations":[{"label":"c. 1510 ECP","year":1500}],"when":{"timespans":[{"start":{"earliest":"1500","latest":"1520"},"end":{"earliest":"1500","latest":"1520"}}]}},{"toponym":"Graysuen","citations":[{"label":"1519 FF","year":1519}],"when":{"timespans":[{"start":{"in":"1519"},"end":{"in":"1519"}}]}},{"toponym":"Graysome als. Greysothen","citations":[{"label":"1635 Hudleston","year":1635}],"when":{"timespans":[{"start":{"in":"1635"},"end":{"in":"1635"}}]}},{"toponym":"Greysoon","citations":[{"label":"1765 PR","year":1765}],"when":{"timespans":[{"start":{"in":"1765"},"end":{"in":"1765"}}]}},{"toponym":"Greswithen","citations":[{"label":"1794 H","year":1794}],"when":{"timespans":[{"start":{"in":"1794"},"end":{"in":"1794"}}]}}],"types":[{"identifier":"http://vocab.getty.edu/aat/300232418","label":"administrative division","sourceLabels":[{"label":"township","lang":"en"}]}],"geometry":{"type":"GeometryCollection","geometries":[{"type":"Point","coordinates":[-3.44288,54.6435],"citations":[{"label":"GeoNames, gazetteer record geonames:7300109"}]},{"type":"Point","coordinates":[-3.433830099771257,54.65199076670297],"citations":[{"label":"Unlock (EDINA) gazetteer, gazetteer record unlock:11161117"}]},{"type":"Point","coordinates":[-3.43515,54.6521],"citations":[{"label":"Key to English Place-Names (KEPN), gazetteer record 4538"}]}]},"when":{"timespans":[{"start":{"in":"1177"},"end":{"in":"1794"}}]},"links":[{"type":"closeMatch","identifier":"https://sws.geonames.org/7300109/"}],"relations":[{"relationType":"gvp:broaderPartitive","relationTo":"https://w3id.org/whg-epns/21/006918","label":"within Greysouthen"}]}]}