{"@context":"https://raw.githubusercontent.com/LinkedPasts/linked-places-format/main/linkedplaces-context-v1.1.jsonld","type":"FeatureCollection","license":"Digitisation of English Placenames MADS data is licensed to Jisc by the English Place Names Society and released under a Creative Commons Attribution-NonCommercial 4.0 International License.","note":"LPF v1.3, lossy; derived from the PLATO record; plato_commit=ca0afadabec1e23a145c0b03df77e8f151f79832","features":[{"@id":"http://placenames.org.uk/id/placename/21/007136","type":"Feature","properties":{"title":"Irton with Santon","ccodes":["GB"],"fclasses":["A","P"]},"names":[{"toponym":"Irton with Santon","lang":"en","citations":[{"label":"English Place-Name Society survey, volume 21: Cumberland"}]}],"types":[{"identifier":"http://vocab.getty.edu/aat/300232418","label":"administrative division","sourceLabels":[{"label":"parish","lang":"en"}]}],"geometry":{"type":"Point","coordinates":[-3.33425,54.4106],"citations":[{"label":"Key to English Place-Names (KEPN), gazetteer record 4542"}]},"relations":[{"relationType":"gvp:broaderPartitive","relationTo":"http://placenames.org.uk/id/placename/21/003765","label":"within Allerdale Above Derwent Ward"}]}]}