{"@context":"https://raw.githubusercontent.com/LinkedPasts/linked-places-format/main/linkedplaces-context-v1.1.jsonld","type":"FeatureCollection","license":"Digitisation of English Placenames MADS data is licensed to Jisc by the English Place Names Society and released under a Creative Commons Attribution-NonCommercial 4.0 International License.","note":"LPF v1.3, lossy; derived from the PLATO record; plato_commit=fa0d247ccc0263f8f19c8d7cdcd163df96935d1e","features":[{"@id":"https://w3id.org/whg-epns/21/008292","type":"Feature","properties":{"title":"Muncaster","ccodes":["GB"],"fclasses":["A","P"]},"names":[{"toponym":"Muncaster","lang":"en","citations":[{"label":"English Place-Name Society survey, volume 21: Cumberland"}]}],"types":[{"identifier":"http://vocab.getty.edu/aat/300232418","label":"administrative division","sourceLabels":[{"label":"parish","lang":"en"}]}],"geometry":{"type":"GeometryCollection","geometries":[{"type":"Point","coordinates":[-3.35498,54.35902],"citations":[{"label":"GeoNames, gazetteer record geonames:7300139"}]},{"type":"Point","coordinates":[-3.377332670616727,54.35601591563322],"citations":[{"label":"Unlock (EDINA) gazetteer, gazetteer record unlock:11225125"}]},{"type":"Point","coordinates":[-3.37865,54.3561],"citations":[{"label":"Key to English Place-Names (KEPN), gazetteer record 4552"}]}]},"links":[{"type":"closeMatch","identifier":"https://sws.geonames.org/7300139/"}],"relations":[{"relationType":"gvp:broaderPartitive","relationTo":"https://w3id.org/whg-epns/21/003765","label":"within Allerdale Above Derwent Ward"}]}]}