{"@context":"https://raw.githubusercontent.com/LinkedPasts/linked-places-format/main/linkedplaces-context-v1.1.jsonld","type":"FeatureCollection","license":"Digitisation of English Placenames MADS data is licensed to Jisc by the English Place Names Society and released under a Creative Commons Attribution-NonCommercial 4.0 International License.","note":"LPF v1.3, lossy; derived from the PLATO record; plato_commit=fa0d247ccc0263f8f19c8d7cdcd163df96935d1e","features":[{"@id":"https://w3id.org/whg-epns/21/009578","type":"Feature","properties":{"title":"Whitehaven","ccodes":["GB"],"fclasses":["A","P"]},"names":[{"toponym":"Whitehaven","lang":"en","citations":[{"label":"English Place-Name Society survey, volume 21: Cumberland"}]},{"toponym":"Qwithofhavene","citations":[{"label":"c. 1135 StB","year":1125}],"when":{"timespans":[{"start":{"earliest":"1125","latest":"1145"},"end":{"earliest":"1125","latest":"1145"}}]}},{"toponym":"Hwithothavene","citations":[{"label":"1203 FF","year":1203}],"when":{"timespans":[{"start":{"in":"1203"},"end":{"in":"1203"}}]}},{"toponym":"Whithofthaven","citations":[{"label":"c. 1240 StB","year":1230}],"when":{"timespans":[{"start":{"earliest":"1230","latest":"1250"},"end":{"earliest":"1230","latest":"1250"}}]}},{"toponym":"Whitouthavene","citations":[{"label":"c. 1260 StB","year":1250}],"when":{"timespans":[{"start":{"earliest":"1250","latest":"1270"},"end":{"earliest":"1250","latest":"1270"}}]}},{"toponym":"Quitonthavene","citations":[{"label":"1304 Cl","year":1304}],"when":{"timespans":[{"start":{"in":"1304"},"end":{"in":"1304"}}]}},{"toponym":"Whitofhaven","citations":[{"label":"1323 Pat","year":1323}],"when":{"timespans":[{"start":{"in":"1323"},"end":{"in":"1323"}}]}},{"toponym":"Whittofthaven in villa de Kirkeby","citations":[{"label":"1329 StB","year":1329}],"when":{"timespans":[{"start":{"in":"1329"},"end":{"in":"1329"}}]}},{"toponym":"Withofhavene","citations":[{"label":"c. 1140 StB","year":1130}],"when":{"timespans":[{"start":{"earliest":"1130","latest":"1150"},"end":{"earliest":"1130","latest":"1150"}}]}},{"toponym":"Witehovedhafne","citations":[{"label":"c. 1140 StB","year":1130}],"when":{"timespans":[{"start":{"earliest":"1130","latest":"1150"},"end":{"earliest":"1130","latest":"1150"}}]}},{"toponym":"Wythodauene, Wythothauene","citations":[{"label":"1279 Ass","year":1279}],"when":{"timespans":[{"start":{"in":"1279"},"end":{"in":"1279"}}]}},{"toponym":"Wytetavene","citations":[{"label":"1323 Cl","year":1323}],"when":{"timespans":[{"start":{"in":"1323"},"end":{"in":"1323"}}]}},{"toponym":"Withoue","citations":[{"label":"c. 1180 StBA","year":1170}],"when":{"timespans":[{"start":{"earliest":"1170","latest":"1190"},"end":{"earliest":"1170","latest":"1190"}}]}},{"toponym":"Witenhauen","citations":[{"label":"1278 Ass","year":1278}],"when":{"timespans":[{"start":{"in":"1278"},"end":{"in":"1278"}}]}},{"toponym":"Wythauene, Whytehauene","citations":[{"label":"1279 Ass","year":1279}],"when":{"timespans":[{"start":{"in":"1279"},"end":{"in":"1279"}}]}},{"toponym":"Wytehauen","citations":[{"label":"c. 1280 StB","year":1270}],"when":{"timespans":[{"start":{"earliest":"1270","latest":"1290"},"end":{"earliest":"1270","latest":"1290"}}]}},{"toponym":"Whitehhavene","citations":[{"label":"1334 Cl","year":1334}],"when":{"timespans":[{"start":{"in":"1334"},"end":{"in":"1334"}}]}},{"toponym":"Wittehauen","citations":[{"label":"early 14th StMaryY","year":1300}],"when":{"timespans":[{"start":{"earliest":"1300","latest":"1325"},"end":{"earliest":"1300","latest":"1325"}}]}},{"toponym":"Whithaven","citations":[{"label":"1535 VE","year":1535}],"when":{"timespans":[{"start":{"in":"1535"},"end":{"in":"1535"}}]}},{"toponym":"Whithauin","citations":[{"label":"1576 S","year":1576}],"when":{"timespans":[{"start":{"in":"1576"},"end":{"in":"1576"}}]}}],"types":[{"identifier":"http://vocab.getty.edu/aat/300232418","label":"administrative division","sourceLabels":[{"label":"township","lang":"en"}]}],"geometry":{"type":"GeometryCollection","geometries":[{"type":"Point","coordinates":[-3.58412,54.54897],"citations":[{"label":"GeoNames, gazetteer record geonames:2634096"}]},{"type":"Point","coordinates":[-3.584931874701929,54.55122931271966],"citations":[{"label":"Unlock (EDINA) gazetteer, gazetteer record unlock:11321324"}]},{"type":"Point","coordinates":[-3.58589,54.5424],"citations":[{"label":"Key to English Place-Names (KEPN), gazetteer record 4569"}]}]},"when":{"timespans":[{"start":{"in":"1125"},"end":{"in":"1576"}}]},"links":[{"type":"closeMatch","identifier":"https://sws.geonames.org/2634096/"}],"relations":[{"relationType":"gvp:broaderPartitive","relationTo":"https://w3id.org/whg-epns/21/009577","label":"within Whitehaven"}]}]}