{"@context":"https://raw.githubusercontent.com/LinkedPasts/linked-places-format/main/linkedplaces-context-v1.1.jsonld","type":"FeatureCollection","license":"Digitisation of English Placenames MADS data is licensed to Jisc by the English Place Names Society and released under a Creative Commons Attribution-NonCommercial 4.0 International License.","note":"LPF v1.3, lossy; derived from the PLATO record; plato_commit=ca0afadabec1e23a145c0b03df77e8f151f79832","features":[{"@id":"https://w3id.org/whg-epns/77/000003","type":"Feature","properties":{"title":"West Riding","ccodes":["GB"],"fclasses":["A"]},"names":[{"toponym":"West Riding","lang":"en","citations":[{"label":"English Place-Name Society survey, volume 77: Lincolnshire"}]},{"toponym":"West Treding","citations":[{"label":"1086 DB","year":1086}],"when":{"timespans":[{"start":{"in":"1086"},"end":{"in":"1086"}}]}},{"toponym":"Westreeding","citations":[{"label":"1086 DB","year":1086}],"when":{"timespans":[{"start":{"in":"1086"},"end":{"in":"1086"}}]}},{"toponym":"West Triding","citations":[{"label":"c1115 LS","year":1105}],"when":{"timespans":[{"start":{"earliest":"1105","latest":"1125"},"end":{"earliest":"1105","latest":"1125"}}]}},{"toponym":"Westrithing","citations":[{"label":"c1160 RA","year":1150},{"label":"1219 Cur","year":1219},{"label":"1311 Ipm","year":1311}],"when":{"timespans":[{"start":{"earliest":"1150","latest":"1170"},"end":{"earliest":"1150","latest":"1170"}},{"start":{"earliest":"1183","latest":"1189"},"end":{"earliest":"1183","latest":"1189"}},{"start":{"in":"1219"},"end":{"in":"1219"}},{"start":{"in":"1311"},"end":{"in":"1311"}}]}},{"toponym":"West Trithing'","citations":[{"label":"1275 RH","year":1275}],"when":{"timespans":[{"start":{"in":"1275"},"end":{"in":"1275"}}]}},{"toponym":"Westtrithing","citations":[{"label":"1276 RH","year":1276},{"label":"1287 Ass","year":1287},{"label":"1319 Pat","year":1319}],"when":{"timespans":[{"start":{"in":"1276"},"end":{"in":"1276"}},{"start":{"in":"1287"},"end":{"in":"1287"}},{"start":{"in":"1319"},"end":{"in":"1319"}}]}},{"toponym":"Westriding","citations":[{"label":"1190 RA","year":1190},{"label":"1201 Cur","year":1201}],"when":{"timespans":[{"start":{"in":"1190"},"end":{"in":"1190"}},{"start":{"in":"1201"},"end":{"in":"1201"}}]}},{"toponym":"Westeredinge","citations":[{"label":"c1213 Gir","year":1203}],"when":{"timespans":[{"start":{"earliest":"1203","latest":"1223"},"end":{"earliest":"1203","latest":"1223"}}]}},{"toponym":"Westrething'","citations":[{"label":"1276 RH","year":1276}],"when":{"timespans":[{"start":{"in":"1276"},"end":{"in":"1276"}}]}}],"types":[{"identifier":"http://vocab.getty.edu/aat/300232418","label":"administrative division","sourceLabels":[{"label":"division","lang":"en"}]}],"geometry":null,"when":{"timespans":[{"start":{"in":"1086"},"end":{"in":"1319"}}]},"relations":[{"relationType":"gvp:broaderPartitive","relationTo":"https://w3id.org/whg-epns/77/000002","label":"within Lindsey"}]}]}