{"@context":"https://raw.githubusercontent.com/LinkedPasts/linked-places-format/main/linkedplaces-context-v1.1.jsonld","type":"FeatureCollection","license":"Digitisation of English Placenames MADS data is licensed to Jisc by the English Place Names Society and released under a Creative Commons Attribution-NonCommercial 4.0 International License.","note":"LPF v1.3, lossy; derived from the PLATO record; plato_commit=fa0d247ccc0263f8f19c8d7cdcd163df96935d1e","features":[{"@id":"https://w3id.org/whg-epns/77/002691","type":"Feature","properties":{"title":"Crosby","ccodes":["GB"],"fclasses":["A","P"]},"names":[{"toponym":"Crosby","lang":"en","citations":[{"label":"English Place-Name Society survey, volume 77: Lincolnshire"}]}],"types":[{"identifier":"http://vocab.getty.edu/aat/300232418","label":"administrative division","sourceLabels":[{"label":"parish","lang":"en"}]}],"geometry":{"type":"GeometryCollection","geometries":[{"type":"Point","coordinates":[-0.65,53.6],"citations":[{"label":"GeoNames, gazetteer record geonames:2651894"}]},{"type":"Point","coordinates":[-0.67784574108979,53.59252663647798],"citations":[{"label":"Unlock (EDINA) gazetteer, gazetteer record unlock:11122800"}]},{"type":"Point","coordinates":[-0.679463,53.5928],"citations":[{"label":"Key to English Place-Names (KEPN), gazetteer record 10726"}]}]},"links":[{"type":"closeMatch","identifier":"https://sws.geonames.org/2651894/"}],"relations":[{"relationType":"gvp:broaderPartitive","relationTo":"https://w3id.org/whg-epns/77/000013","label":"within Manley Wapentake"}]}]}