{"@context":"https://raw.githubusercontent.com/LinkedPasts/linked-places-format/main/linkedplaces-context-v1.1.jsonld","type":"FeatureCollection","license":"Digitisation of English Placenames MADS data is licensed to Jisc by the English Place Names Society and released under a Creative Commons Attribution-NonCommercial 4.0 International License.","note":"LPF v1.3, lossy; derived from the PLATO record; plato_commit=fa0d247ccc0263f8f19c8d7cdcd163df96935d1e","features":[{"@id":"https://w3id.org/whg-epns/77/002692","type":"Feature","properties":{"title":"Crosby","ccodes":["GB"],"fclasses":["A","P"]},"names":[{"toponym":"Crosby","lang":"en","citations":[{"label":"English Place-Name Society survey, volume 77: Lincolnshire"}]},{"toponym":"Cropesbi","citations":[{"label":"1086 DB","year":1086}],"when":{"timespans":[{"start":{"in":"1086"},"end":{"in":"1086"}}]}},{"toponym":"C[r]oc[hes]bi","citations":[{"label":"c1115 DB","year":1105}],"when":{"timespans":[{"start":{"earliest":"1105","latest":"1125"},"end":{"earliest":"1105","latest":"1125"}}]}},{"toponym":"Crosseby","citations":[{"label":"1206 Ass","year":1206},{"label":"1206 Cur","year":1206},{"label":"1227 Cur","year":1227},{"label":"1238-45 RA","year":1238},{"label":"1272 Ass","year":1272},{"label":"1275 RH","year":1275},{"label":"1291 Ipm","year":1291},{"label":"c1300 Shef","year":1290},{"label":"FA","year":1316},{"label":"LP"},{"label":"1316 FA","year":1316},{"label":"1546 LP","year":1546}],"when":{"timespans":[{"start":{"in":"1206"},"end":{"in":"1206"}},{"start":{"in":"1206"},"end":{"in":"1206"}},{"start":{"in":"1227"},"end":{"in":"1227"}},{"start":{"earliest":"1238","latest":"1245"},"end":{"earliest":"1238","latest":"1245"}},{"start":{"in":"1272"},"end":{"in":"1272"}},{"start":{"in":"1275"},"end":{"in":"1275"}},{"start":{"in":"1276"},"end":{"in":"1276"}},{"start":{"in":"1291"},"end":{"in":"1291"}},{"start":{"earliest":"1290","latest":"1310"},"end":{"earliest":"1290","latest":"1310"}},{"start":{"in":"1316"},"end":{"in":"1546"}},{"start":{"in":"1316"},"end":{"in":"1316"}},{"start":{"in":"1546"},"end":{"in":"1546"}}]}},{"toponym":"Crossebi","citations":[{"label":"1207 Cur","year":1207},{"label":"1210 P","year":1210},{"label":"1214 P","year":1214},{"label":"1219 FF","year":1219},{"label":"1219 Ass","year":1219},{"label":"1219-29 Shef","year":1219}],"when":{"timespans":[{"start":{"in":"1207"},"end":{"in":"1207"}},{"start":{"in":"1210"},"end":{"in":"1210"}},{"start":{"in":"1214"},"end":{"in":"1214"}},{"start":{"in":"1219"},"end":{"in":"1219"}},{"start":{"in":"1219"},"end":{"in":"1219"}},{"start":{"earliest":"1219","latest":"1229"},"end":{"earliest":"1219","latest":"1229"}}]}},{"toponym":"Crosceby","citations":[{"label":"1294 Ass","year":1294}],"when":{"timespans":[{"start":{"in":"1294"},"end":{"in":"1294"}}]}},{"toponym":"Crosby","citations":[{"label":"1327 SR","year":1327},{"label":"1350 Ch","year":1350},{"label":"1445 Cl","year":1445},{"label":"1525 Shef","year":1525},{"label":"1535 VE","year":1535},{"label":"Saxton","year":1576},{"label":"1576 Saxton","year":1576}],"when":{"timespans":[{"start":{"in":"1327"},"end":{"in":"1327"}},{"start":{"in":"1350"},"end":{"in":"1350"}},{"start":{"in":"1445"},"end":{"in":"1445"}},{"start":{"in":"1504"},"end":{"in":"1504"}},{"start":{"in":"1525"},"end":{"in":"1525"}},{"start":{"in":"1535"},"end":{"in":"1535"}},{"start":{"in":"1576"},"end":{"in":"1576"}},{"start":{"in":"1576"},"end":{"in":"1576"}}]}},{"toponym":"Crosbye","citations":[{"label":"1591 Shef","year":1591}],"when":{"timespans":[{"start":{"in":"1591"},"end":{"in":"1591"}}]}},{"toponym":"Crosbie","citations":[{"label":"1612 Foster","year":1612}],"when":{"timespans":[{"start":{"in":"1612"},"end":{"in":"1612"}}]}},{"toponym":"Croxby","citations":[{"label":"1303 FA","year":1303},{"label":"1347 Pat","year":1347}],"when":{"timespans":[{"start":{"in":"1303"},"end":{"in":"1303"}},{"start":{"in":"1346"},"end":{"in":"1346"}},{"start":{"in":"1428"},"end":{"in":"1428"}},{"start":{"in":"1347"},"end":{"in":"1347"}}]}}],"types":[{"identifier":"http://vocab.getty.edu/aat/300232418","label":"administrative division","sourceLabels":[{"label":"township","lang":"en"}]}],"geometry":{"type":"GeometryCollection","geometries":[{"type":"Point","coordinates":[-0.65,53.6],"citations":[{"label":"GeoNames, gazetteer record geonames:2651894"}]},{"type":"Point","coordinates":[-0.67784574108979,53.59252663647798],"citations":[{"label":"Unlock (EDINA) gazetteer, gazetteer record unlock:11122800"}]},{"type":"Point","coordinates":[-0.679463,53.5928],"citations":[{"label":"Key to English Place-Names (KEPN), gazetteer record 10726"}]}]},"when":{"timespans":[{"start":{"in":"1086"},"end":{"in":"1612"}}]},"links":[{"type":"closeMatch","identifier":"https://sws.geonames.org/2651894/"}],"relations":[{"relationType":"gvp:broaderPartitive","relationTo":"https://w3id.org/whg-epns/77/002691","label":"within Crosby"}]}]}