{"@context":"https://raw.githubusercontent.com/LinkedPasts/linked-places-format/main/linkedplaces-context-v1.1.jsonld","type":"FeatureCollection","license":"Digitisation of English Placenames MADS data is licensed to Jisc by the English Place Names Society and released under a Creative Commons Attribution-NonCommercial 4.0 International License.","note":"LPF v1.3, lossy; derived from the PLATO record; plato_commit=ca0afadabec1e23a145c0b03df77e8f151f79832","features":[{"@id":"https://w3id.org/whg-epns/77/003725","type":"Feature","properties":{"title":"Hibaldstow","ccodes":["GB"],"fclasses":["A","P"]},"names":[{"toponym":"Hibaldstow","lang":"en","citations":[{"label":"English Place-Name Society survey, volume 77: Lincolnshire"}]},{"toponym":"Hibaldestowa","citations":[{"label":"1066-87 Dugd","year":1066},{"label":"1087-88 RA","year":1087},{"label":"c1115 LS","year":1105},{"label":"1177 P","year":1177},{"label":"a1219 Welles","year":1169}],"when":{"timespans":[{"start":{"earliest":"1066","latest":"1087"},"end":{"earliest":"1066","latest":"1087"}},{"start":{"earliest":"1087","latest":"1088"},"end":{"earliest":"1087","latest":"1088"}},{"start":{"earliest":"1105","latest":"1125"},"end":{"earliest":"1105","latest":"1125"}},{"start":{"in":"1177"},"end":{"in":"1177"}},{"start":{"in":"1178"},"end":{"in":"1178"}},{"start":{"in":"1179"},"end":{"in":"1179"}},{"start":{"earliest":"1169","latest":"1219"},"end":{"earliest":"1169","latest":"1219"}}]}},{"toponym":"Hibaldestoua","citations":[{"label":"c1115 LS","year":1105},{"label":"1150-60 Dane","year":1150},{"label":"1163 RA","year":1163},{"label":"1191 P","year":1191}],"when":{"timespans":[{"start":{"earliest":"1105","latest":"1125"},"end":{"earliest":"1105","latest":"1125"}},{"start":{"earliest":"1150","latest":"1160"},"end":{"earliest":"1150","latest":"1160"}},{"start":{"in":"1163"},"end":{"in":"1163"}},{"start":{"in":"1191"},"end":{"in":"1191"}}]}},{"toponym":"Hibaldesto","citations":[{"label":"1164 P","year":1164},{"label":"1192 P","year":1192}],"when":{"timespans":[{"start":{"in":"1164"},"end":{"in":"1164"}},{"start":{"in":"1165"},"end":{"in":"1165"}},{"start":{"in":"1166"},"end":{"in":"1166"}},{"start":{"in":"1167"},"end":{"in":"1167"}},{"start":{"in":"1192"},"end":{"in":"1192"}},{"start":{"in":"1193"},"end":{"in":"1193"}}]}},{"toponym":"Hibaldestov","citations":[{"label":"c1170 RA","year":1160}],"when":{"timespans":[{"start":{"earliest":"1160","latest":"1180"},"end":{"earliest":"1160","latest":"1180"}}]}},{"toponym":"Hibaldestoue","citations":[{"label":"l12 CollTop","year":1175}],"when":{"timespans":[{"start":{"earliest":"1175","latest":"1200"},"end":{"earliest":"1175","latest":"1200"}}]}},{"toponym":"Hibaldestowe","citations":[{"label":"Hy2 Dugd","year":1154},{"label":"1201 FF","year":1201},{"label":"1215 CNat","year":1215},{"label":"1287–1395, recurring Ass","year":1287},{"label":"1287–1395, recurring Peace"},{"label":"1287 Ass","year":1287},{"label":"1395 Peace","year":1395}],"when":{"timespans":[{"start":{"earliest":"1154","latest":"1189"},"end":{"earliest":"1154","latest":"1189"}},{"start":{"in":"1201"},"end":{"in":"1201"}},{"start":{"in":"1215"},"end":{"in":"1215"}},{"start":{"in":"1287"},"end":{"in":"1395"}},{"start":{"in":"1287"},"end":{"in":"1287"}},{"start":{"in":"1395"},"end":{"in":"1395"}}]}},{"toponym":"Hibaldestouwe","citations":[{"label":"1219 Ass","year":1219},{"label":"p1393 HPFees","year":1393}],"when":{"timespans":[{"start":{"in":"1219"},"end":{"in":"1219"}},{"start":{"earliest":"1393","latest":"1443"},"end":{"earliest":"1393","latest":"1443"}}]}},{"toponym":"Hybaldestowe","citations":[{"label":"1215 PetWB","year":1215},{"label":"1245 FF","year":1245},{"label":"1254 ValNor","year":1254},{"label":"1266 RA","year":1266},{"label":"1271–1465, recurring RH","year":1271},{"label":"1271–1465, recurring Fine"},{"label":"1271 RH","year":1271},{"label":"1465 Fine","year":1465}],"when":{"timespans":[{"start":{"in":"1215"},"end":{"in":"1215"}},{"start":{"in":"1245"},"end":{"in":"1245"}},{"start":{"in":"1254"},"end":{"in":"1254"}},{"start":{"in":"1266"},"end":{"in":"1266"}},{"start":{"in":"1268"},"end":{"in":"1268"}},{"start":{"in":"1271"},"end":{"in":"1465"}},{"start":{"in":"1271"},"end":{"in":"1271"}},{"start":{"in":"1465"},"end":{"in":"1465"}}]}},{"toponym":"Hybaldestouwe","citations":[{"label":"1227 Ch","year":1227}],"when":{"timespans":[{"start":{"in":"1227"},"end":{"in":"1227"}}]}},{"toponym":"Hibaldstow","citations":[{"label":"1189 Ch","year":1189},{"label":"1431 FA","year":1431}],"when":{"timespans":[{"start":{"in":"1189"},"end":{"in":"1189"}},{"start":{"in":"1431"},"end":{"in":"1431"}}]}},{"toponym":"Hibaldstow Cornwell","citations":[{"label":"1724 Dixon","year":1724}],"when":{"timespans":[{"start":{"in":"1724"},"end":{"in":"1724"}}]}},{"toponym":"Hibaldstowe","citations":[{"label":"1242 RRG","year":1242},{"label":"1300 Ipm","year":1300},{"label":"1316 FA","year":1316},{"label":"1343–1343, recurring NI","year":1343},{"label":"1343 NI","year":1343}],"when":{"timespans":[{"start":{"in":"1242"},"end":{"in":"1242"}},{"start":{"in":"1300"},"end":{"in":"1300"}},{"start":{"in":"1316"},"end":{"in":"1316"}},{"start":{"in":"1343"},"end":{"in":"1343"}},{"start":{"in":"1343"},"end":{"in":"1343"}}]}},{"toponym":"Hybaldstowe","citations":[{"label":"1291 Tax","year":1291},{"label":"1381 RA","year":1381},{"label":"1388 Peace","year":1388},{"label":"1535 VE","year":1535},{"label":"1536 CollTop","year":1536}],"when":{"timespans":[{"start":{"in":"1291"},"end":{"in":"1291"}},{"start":{"in":"1381"},"end":{"in":"1381"}},{"start":{"in":"1388"},"end":{"in":"1388"}},{"start":{"in":"1535"},"end":{"in":"1535"}},{"start":{"in":"1536"},"end":{"in":"1536"}}]}},{"toponym":"Hybaldstow","citations":[{"label":"1314 Selby","year":1314}],"when":{"timespans":[{"start":{"in":"1314"},"end":{"in":"1314"}}]}},{"toponym":"Hibalstow","citations":[{"label":"1276 RH","year":1276},{"label":"1348 FA","year":1348}],"when":{"timespans":[{"start":{"in":"1276"},"end":{"in":"1276"}},{"start":{"in":"1348"},"end":{"in":"1348"}}]}},{"toponym":"Hibalstowe","citations":[{"label":"1428 FA","year":1428},{"label":"1503 LCCA","year":1503},{"label":"1504–1553, recurring Ipm","year":1504},{"label":"1504–1553, recurring Pat"},{"label":"1504 Ipm","year":1504},{"label":"1553 Pat","year":1553}],"when":{"timespans":[{"start":{"in":"1428"},"end":{"in":"1428"}},{"start":{"in":"1503"},"end":{"in":"1503"}},{"start":{"in":"1504"},"end":{"in":"1553"}},{"start":{"in":"1504"},"end":{"in":"1504"}},{"start":{"in":"1553"},"end":{"in":"1553"}}]}},{"toponym":"Hibalstowe Cornwall or Hibalstow Biron","citations":[{"label":"1671 Red","year":1671}],"when":{"timespans":[{"start":{"in":"1671"},"end":{"in":"1671"}}]}},{"toponym":"Hybalstowe","citations":[{"label":"1465 Fine","year":1465},{"label":"1545-47 MinAcct","year":1545}],"when":{"timespans":[{"start":{"in":"1465"},"end":{"in":"1465"}},{"start":{"earliest":"1545","latest":"1547"},"end":{"earliest":"1545","latest":"1547"}}]}},{"toponym":"Hybalstowe alias Hyberstowe","citations":[{"label":"1547 Pat","year":1547}],"when":{"timespans":[{"start":{"in":"1547"},"end":{"in":"1547"}}]}},{"toponym":"Hiboldestou","citations":[{"label":"1086 DB","year":1086},{"label":"c1128 ChronPetro","year":1118}],"when":{"timespans":[{"start":{"in":"1086"},"end":{"in":"1086"}},{"start":{"earliest":"1118","latest":"1138"},"end":{"earliest":"1118","latest":"1138"}}]}},{"toponym":"Hiboldestow'","citations":[{"label":"1202 Ass","year":1202}],"when":{"timespans":[{"start":{"in":"1202"},"end":{"in":"1202"}}]}},{"toponym":"Hiboldestowe","citations":[{"label":"1226 Cur","year":1226},{"label":"1375 Peace","year":1375}],"when":{"timespans":[{"start":{"in":"1226"},"end":{"in":"1226"}},{"start":{"in":"1375"},"end":{"in":"1375"}}]}},{"toponym":"Huboldestou","citations":[{"label":"1087-88 RA","year":1087}],"when":{"timespans":[{"start":{"earliest":"1087","latest":"1088"},"end":{"earliest":"1087","latest":"1088"}}]}},{"toponym":"Hubaldstowe","citations":[{"label":"1356 BPR","year":1356}],"when":{"timespans":[{"start":{"in":"1356"},"end":{"in":"1356"}}]}},{"toponym":"Hib'stowe","citations":[{"label":"1576 LER","year":1576}],"when":{"timespans":[{"start":{"in":"1576"},"end":{"in":"1576"}}]}},{"toponym":"Hiberstow","citations":[{"label":"1610 Speed","year":1610},{"label":"1612 DCLB","year":1612},{"label":"1697 Pryme","year":1697},{"label":"1709 Reeve","year":1709}],"when":{"timespans":[{"start":{"in":"1610"},"end":{"in":"1610"}},{"start":{"in":"1612"},"end":{"in":"1612"}},{"start":{"in":"1697"},"end":{"in":"1697"}},{"start":{"in":"1709"},"end":{"in":"1709"}}]}},{"toponym":"Hibstowe alias Hibalstow","citations":[{"label":"1589 DCLB","year":1589}],"when":{"timespans":[{"start":{"in":"1589"},"end":{"in":"1589"}}]}},{"toponym":"Hylbaldstede","citations":[{"label":"1503 FF","year":1503}],"when":{"timespans":[{"start":{"in":"1503"},"end":{"in":"1503"}}]}},{"toponym":"Hylbalested","citations":[{"label":"1504 Pat","year":1504}],"when":{"timespans":[{"start":{"in":"1504"},"end":{"in":"1504"}}]}},{"toponym":"Hibaldsted, Hailbalested","citations":[{"label":"1504 Cl","year":1504}],"when":{"timespans":[{"start":{"in":"1504"},"end":{"in":"1504"}}]}}],"types":[{"identifier":"http://vocab.getty.edu/aat/300232418","label":"administrative division","sourceLabels":[{"label":"township","lang":"en"}]}],"geometry":{"type":"GeometryCollection","geometries":[{"type":"Point","coordinates":[-0.52082,53.51133],"citations":[{"label":"GeoNames, gazetteer record geonames:2646994"}]},{"type":"Point","coordinates":[-0.5296012843112513,53.50988419472895],"citations":[{"label":"Unlock (EDINA) gazetteer, gazetteer record unlock:11171127"}]},{"type":"Point","coordinates":[-0.531232,53.5102],"citations":[{"label":"Key to English Place-Names (KEPN), gazetteer record 10736"}]}]},"when":{"timespans":[{"start":{"in":"1066"},"end":{"in":"1724"}}]},"links":[{"type":"closeMatch","identifier":"https://sws.geonames.org/2646994/"}],"relations":[{"relationType":"gvp:broaderPartitive","relationTo":"https://w3id.org/whg-epns/77/003724","label":"within Hibaldstow"}]}]}