{"@context":"https://raw.githubusercontent.com/LinkedPasts/linked-places-format/main/linkedplaces-context-v1.1.jsonld","type":"FeatureCollection","license":"Digitisation of English Placenames MADS data is licensed to Jisc by the English Place Names Society and released under a Creative Commons Attribution-NonCommercial 4.0 International License.","note":"LPF v1.3, lossy; derived from the PLATO record; plato_commit=ca0afadabec1e23a145c0b03df77e8f151f79832","features":[{"@id":"https://w3id.org/whg-epns/77/006765","type":"Feature","properties":{"title":"Winteringham","ccodes":["GB"],"fclasses":["A","P"]},"names":[{"toponym":"Winteringham","lang":"en","citations":[{"label":"English Place-Name Society survey, volume 77: Lincolnshire"}]},{"toponym":"Wintringeham","citations":[{"label":"1086 DB","year":1086},{"label":"c1115 DB","year":1105},{"label":"p1131 LibEl","year":1131},{"label":"1202 Ass","year":1202},{"label":"1244 Pap","year":1244}],"when":{"timespans":[{"start":{"in":"1086"},"end":{"in":"1086"}},{"start":{"earliest":"1105","latest":"1125"},"end":{"earliest":"1105","latest":"1125"}},{"start":{"earliest":"1131","latest":"1181"},"end":{"earliest":"1131","latest":"1181"}},{"start":{"in":"1202"},"end":{"in":"1202"}},{"start":{"in":"1244"},"end":{"in":"1244"}}]}},{"toponym":"Wyntringeham","citations":[{"label":"1269 Cl","year":1269}],"when":{"timespans":[{"start":{"in":"1269"},"end":{"in":"1269"}}]}},{"toponym":"Wintringham","citations":[{"label":"c1115 DB","year":1105},{"label":"1202 Ass","year":1202},{"label":"1203 Cur","year":1203},{"label":"1204 P","year":1204},{"label":"1240 FF","year":1240},{"label":"1241 Cl","year":1241},{"label":"1242-43 Fees","year":1242},{"label":"1266 Pat","year":1266},{"label":"1275 RH","year":1275},{"label":"1291 Pap","year":1291},{"label":"1292–1723, recurring Cl","year":1292},{"label":"1292–1723, recurring SDL"},{"label":"1292 Cl","year":1292},{"label":"1723 SDL","year":1723}],"when":{"timespans":[{"start":{"earliest":"1105","latest":"1125"},"end":{"earliest":"1105","latest":"1125"}},{"start":{"in":"1202"},"end":{"in":"1202"}},{"start":{"in":"1203"},"end":{"in":"1203"}},{"start":{"in":"1204"},"end":{"in":"1204"}},{"start":{"in":"1240"},"end":{"in":"1240"}},{"start":{"in":"1241"},"end":{"in":"1241"}},{"start":{"earliest":"1242","latest":"1243"},"end":{"earliest":"1242","latest":"1243"}},{"start":{"in":"1266"},"end":{"in":"1266"}},{"start":{"in":"1275"},"end":{"in":"1275"}},{"start":{"in":"1291"},"end":{"in":"1291"}},{"start":{"in":"1292"},"end":{"in":"1723"}},{"start":{"in":"1292"},"end":{"in":"1292"}},{"start":{"in":"1723"},"end":{"in":"1723"}}]}},{"toponym":"Wyntryngham","citations":[{"label":"m13 FountainsC","year":1225},{"label":"1292 Tax","year":1292},{"label":"1303 FA","year":1303},{"label":"1317 Ch","year":1317},{"label":"1317 Cl","year":1317},{"label":"1322 Ipm","year":1322},{"label":"1327–1550, recurring Banco","year":1327},{"label":"1327–1550, recurring Pat"},{"label":"1327 Banco","year":1327},{"label":"1550 Pat","year":1550}],"when":{"timespans":[{"start":{"earliest":"1225","latest":"1275"},"end":{"earliest":"1225","latest":"1275"}},{"start":{"in":"1292"},"end":{"in":"1292"}},{"start":{"in":"1303"},"end":{"in":"1303"}},{"start":{"in":"1317"},"end":{"in":"1317"}},{"start":{"in":"1317"},"end":{"in":"1317"}},{"start":{"in":"1322"},"end":{"in":"1322"}},{"start":{"in":"1327"},"end":{"in":"1550"}},{"start":{"in":"1327"},"end":{"in":"1327"}},{"start":{"in":"1550"},"end":{"in":"1550"}}]}},{"toponym":"Wyntringham","citations":[{"label":"1254 ValNor","year":1254},{"label":"1267 Cl","year":1267},{"label":"1276 RH","year":1276},{"label":"1292 Ch","year":1292},{"label":"1294 BS","year":1294},{"label":"1304 Ipm","year":1304},{"label":"1305 RA","year":1305},{"label":"1309–1559, recurring Inqaqd","year":1309},{"label":"1309–1559, recurring Pat"},{"label":"1309 Inqaqd","year":1309},{"label":"1559 Pat","year":1559}],"when":{"timespans":[{"start":{"in":"1254"},"end":{"in":"1254"}},{"start":{"in":"1267"},"end":{"in":"1267"}},{"start":{"in":"1276"},"end":{"in":"1276"}},{"start":{"in":"1292"},"end":{"in":"1292"}},{"start":{"in":"1294"},"end":{"in":"1294"}},{"start":{"in":"1304"},"end":{"in":"1304"}},{"start":{"in":"1305"},"end":{"in":"1305"}},{"start":{"in":"1309"},"end":{"in":"1559"}},{"start":{"in":"1309"},"end":{"in":"1309"}},{"start":{"in":"1559"},"end":{"in":"1559"}}]}},{"toponym":"Uuintrigham","citations":[{"label":"eHy2 Dane","year":1154}],"when":{"timespans":[{"start":{"earliest":"1154","latest":"1189"},"end":{"earliest":"1154","latest":"1189"}}]}},{"toponym":"Wintrincham","citations":[{"label":"1212 Fees","year":1212}],"when":{"timespans":[{"start":{"in":"1212"},"end":{"in":"1212"}}]}},{"toponym":"Wintrinkham","citations":[{"label":"1265 Misc","year":1265}],"when":{"timespans":[{"start":{"in":"1265"},"end":{"in":"1265"}}]}},{"toponym":"Winteringham","citations":[{"label":"1270 Pat","year":1270},{"label":"1554–1554, recurring Pat","year":1554},{"label":"1554 Pat","year":1554}],"when":{"timespans":[{"start":{"in":"1270"},"end":{"in":"1270"}},{"start":{"in":"1554"},"end":{"in":"1554"}},{"start":{"in":"1554"},"end":{"in":"1554"}}]}},{"toponym":"Wynteringham","citations":[{"label":"1297 Ass","year":1297},{"label":"1559 Pat","year":1559}],"when":{"timespans":[{"start":{"in":"1297"},"end":{"in":"1297"}},{"start":{"in":"1559"},"end":{"in":"1559"}}]}},{"toponym":"Wynteryngham","citations":[{"label":"1298 Ipm","year":1298},{"label":"1327 SR","year":1327},{"label":"1386 Peace","year":1386},{"label":"1446 Fine","year":1446},{"label":"1546 WinteringhamPD","year":1546}],"when":{"timespans":[{"start":{"in":"1298"},"end":{"in":"1298"}},{"start":{"in":"1327"},"end":{"in":"1327"}},{"start":{"in":"1386"},"end":{"in":"1386"}},{"start":{"in":"1446"},"end":{"in":"1446"}},{"start":{"in":"1546"},"end":{"in":"1546"}}]}}],"types":[{"identifier":"http://vocab.getty.edu/aat/300232418","label":"administrative division","sourceLabels":[{"label":"township","lang":"en"}]}],"geometry":{"type":"GeometryCollection","geometries":[{"type":"Point","coordinates":[-0.59183,53.68727],"citations":[{"label":"GeoNames, gazetteer record geonames:2633789"}]},{"type":"Point","coordinates":[-0.5990456581462673,53.69052038869254],"citations":[{"label":"Unlock (EDINA) gazetteer, gazetteer record unlock:11324319"}]},{"type":"Point","coordinates":[-0.600676,53.6908],"citations":[{"label":"Key to English Place-Names (KEPN), gazetteer record 10753"}]}]},"when":{"timespans":[{"start":{"in":"1086"},"end":{"in":"1723"}}]},"links":[{"type":"closeMatch","identifier":"https://sws.geonames.org/2633789/"}],"relations":[{"relationType":"gvp:broaderPartitive","relationTo":"https://w3id.org/whg-epns/77/006764","label":"within Winteringham"}]}]}