{"@context":"https://raw.githubusercontent.com/LinkedPasts/linked-places-format/main/linkedplaces-context-v1.1.jsonld","type":"FeatureCollection","license":"Digitisation of English Placenames MADS data is licensed to Jisc by the English Place Names Society and released under a Creative Commons Attribution-NonCommercial 4.0 International License.","note":"LPF v1.3, lossy; derived from the PLATO record; plato_commit=ca0afadabec1e23a145c0b03df77e8f151f79832","features":[{"@id":"https://w3id.org/whg-epns/77/009858","type":"Feature","properties":{"title":"Cold Hanworth","ccodes":["GB"],"fclasses":["A","P"]},"names":[{"toponym":"Cold Hanworth","lang":"en","citations":[{"label":"English Place-Name Society survey, volume 77: Lincolnshire"}]}],"types":[{"identifier":"http://vocab.getty.edu/aat/300232418","label":"administrative division","sourceLabels":[{"label":"parish","lang":"en"}]}],"geometry":{"type":"GeometryCollection","geometries":[{"type":"Point","coordinates":[-0.46229,53.33647],"citations":[{"label":"GeoNames, gazetteer record geonames:7291325"}]},{"type":"Point","coordinates":[-0.4453934059539269,53.33799843341512],"citations":[{"label":"Unlock (EDINA) gazetteer, gazetteer record unlock:11113482"}]},{"type":"Point","coordinates":[-0.447027,53.3383],"citations":[{"label":"Key to English Place-Names (KEPN), gazetteer record 10424"}]}]},"links":[{"type":"closeMatch","identifier":"https://sws.geonames.org/7291325/"}],"relations":[{"relationType":"gvp:broaderPartitive","relationTo":"https://w3id.org/whg-epns/77/007339","label":"within Aslacoe Wapentake"}]}]}