{"@context":"https://raw.githubusercontent.com/LinkedPasts/linked-places-format/main/linkedplaces-context-v1.1.jsonld","type":"FeatureCollection","license":"Digitisation of English Placenames MADS data is licensed to Jisc by the English Place Names Society and released under a Creative Commons Attribution-NonCommercial 4.0 International License.","note":"LPF v1.3, lossy; derived from the PLATO record; plato_commit=ca0afadabec1e23a145c0b03df77e8f151f79832","features":[{"@id":"http://placenames.org.uk/id/placename/71/001824","type":"Feature","properties":{"title":"Utterby","ccodes":["GB"],"fclasses":["A","P"]},"names":[{"toponym":"Utterby","lang":"en","citations":[{"label":"English Place-Name Society survey, volume 71: Lincolnshire"}]},{"toponym":"Uthterby","citations":[{"label":"1150-60 Gilb","year":1150}],"when":{"timespans":[{"start":{"earliest":"1150","latest":"1160"},"end":{"earliest":"1150","latest":"1160"}}]}},{"toponym":"Vthterbi","citations":[{"label":"l12 RA","year":1175}],"when":{"timespans":[{"start":{"earliest":"1175","latest":"1200"},"end":{"earliest":"1175","latest":"1200"}}]}},{"toponym":"Utterby","citations":[{"label":"Hy2 Gilb","year":1154},{"label":"c.1221 Welles","year":1211},{"label":"1242-43 Fees","year":1242},{"label":"1244 Cl","year":1244},{"label":"1254 ValNor","year":1254},{"label":"1263 FF","year":1263},{"label":"1276 RH","year":1276},{"label":"1281 QW","year":1281},{"label":"1287 Ipm","year":1287},{"label":"1291 Tax","year":1291},{"label":"1295 Pat","year":1295},{"label":"1316–1316, recurring FA","year":1316},{"label":"1316 FA","year":1316}],"when":{"timespans":[{"start":{"earliest":"1154","latest":"1189"},"end":{"earliest":"1154","latest":"1189"}},{"start":{"earliest":"1211","latest":"1231"},"end":{"earliest":"1211","latest":"1231"}},{"start":{"earliest":"1242","latest":"1243"},"end":{"earliest":"1242","latest":"1243"}},{"start":{"in":"1244"},"end":{"in":"1244"}},{"start":{"in":"1254"},"end":{"in":"1254"}},{"start":{"in":"1263"},"end":{"in":"1263"}},{"start":{"in":"1276"},"end":{"in":"1276"}},{"start":{"in":"1281"},"end":{"in":"1281"}},{"start":{"in":"1287"},"end":{"in":"1287"}},{"start":{"in":"1291"},"end":{"in":"1291"}},{"start":{"in":"1295"},"end":{"in":"1295"}},{"start":{"in":"1316"},"end":{"in":"1316"}},{"start":{"in":"1316"},"end":{"in":"1316"}}]}},{"toponym":"Utterby iuxta Ormesby","citations":[{"label":"1292 FF","year":1292}],"when":{"timespans":[{"start":{"in":"1292"},"end":{"in":"1292"}}]}},{"toponym":"Utterbye","citations":[{"label":"1551 Pat","year":1551},{"label":"1567 Harm","year":1567},{"label":"1574 AD","year":1574},{"label":"1576 Saxton","year":1576},{"label":"1582 BT","year":1582}],"when":{"timespans":[{"start":{"in":"1551"},"end":{"in":"1551"}},{"start":{"in":"1552"},"end":{"in":"1552"}},{"start":{"in":"1567"},"end":{"in":"1567"}},{"start":{"in":"1574"},"end":{"in":"1574"}},{"start":{"in":"1576"},"end":{"in":"1576"}},{"start":{"in":"1582"},"end":{"in":"1582"}},{"start":{"in":"1589"},"end":{"in":"1589"}}]}},{"toponym":"Utterbie","citations":[{"label":"1551 WillsStow","year":1551},{"label":"1562–1576, recurring BT","year":1562},{"label":"1562–1576, recurring LER"},{"label":"1562 BT","year":1562},{"label":"1576 LER","year":1576},{"label":"1607 PM","year":1607},{"label":"1625 Terrier","year":1625},{"label":"1628 BT","year":1628}],"when":{"timespans":[{"start":{"in":"1551"},"end":{"in":"1551"}},{"start":{"in":"1562"},"end":{"in":"1576"}},{"start":{"in":"1562"},"end":{"in":"1562"}},{"start":{"in":"1569"},"end":{"in":"1569"}},{"start":{"in":"1576"},"end":{"in":"1576"}},{"start":{"in":"1607"},"end":{"in":"1607"}},{"start":{"in":"1625"},"end":{"in":"1625"}},{"start":{"in":"1628"},"end":{"in":"1628"}}]}},{"toponym":"Uttirby","citations":[{"label":"1343 NI","year":1343},{"label":"1413 Fine","year":1413}],"when":{"timespans":[{"start":{"in":"1343"},"end":{"in":"1343"}},{"start":{"in":"1413"},"end":{"in":"1413"}}]}},{"toponym":"Uttyrby","citations":[{"label":"1428 FA","year":1428},{"label":"1430 IngCt","year":1430},{"label":"1454 WillsPCCC","year":1454}],"when":{"timespans":[{"start":{"in":"1428"},"end":{"in":"1428"}},{"start":{"in":"1430"},"end":{"in":"1430"}},{"start":{"in":"1454"},"end":{"in":"1454"}}]}},{"toponym":"Hutterby","citations":[{"label":"1287 Ass","year":1287}],"when":{"timespans":[{"start":{"in":"1287"},"end":{"in":"1287"}}]}},{"toponym":"Uterbi","citations":[{"label":"Hy3 Gilb","year":1216}],"when":{"timespans":[{"start":{"earliest":"1216","latest":"1272"},"end":{"earliest":"1216","latest":"1272"}}]}},{"toponym":"Uterb'","citations":[{"label":"1238-43 Fees","year":1238}],"when":{"timespans":[{"start":{"earliest":"1238","latest":"1243"},"end":{"earliest":"1238","latest":"1243"}}]}},{"toponym":"Vttrebi","citations":[{"label":"1195 P","year":1195}],"when":{"timespans":[{"start":{"in":"1195"},"end":{"in":"1195"}},{"start":{"in":"1197"},"end":{"in":"1197"}}]}},{"toponym":"Vtrebi","citations":[{"label":"1106 ChancR","year":1106}],"when":{"timespans":[{"start":{"in":"1106"},"end":{"in":"1106"}}]}},{"toponym":"Vtreby","citations":[{"label":"1288 Ass","year":1288}],"when":{"timespans":[{"start":{"in":"1288"},"end":{"in":"1288"}}]}},{"toponym":"Vtterby","citations":[{"label":"e13 RA","year":1200},{"label":"1209-35 LAHW","year":1209},{"label":"1272 Ass","year":1272},{"label":"1292 FF","year":1292},{"label":"1295 RA","year":1295},{"label":"1297 CoramR","year":1297},{"label":"1327 SR","year":1327},{"label":"1328 Banco","year":1328},{"label":"1332–1443, recurring SR","year":1332},{"label":"1332–1443, recurring DCAcct"},{"label":"1332 SR","year":1332},{"label":"1443 DCAcct","year":1443}],"when":{"timespans":[{"start":{"earliest":"1200","latest":"1225"},"end":{"earliest":"1200","latest":"1225"}},{"start":{"earliest":"1209","latest":"1235"},"end":{"earliest":"1209","latest":"1235"}},{"start":{"in":"1272"},"end":{"in":"1272"}},{"start":{"in":"1287"},"end":{"in":"1287"}},{"start":{"in":"1292"},"end":{"in":"1292"}},{"start":{"in":"1294"},"end":{"in":"1294"}},{"start":{"in":"1295"},"end":{"in":"1295"}},{"start":{"in":"1297"},"end":{"in":"1297"}},{"start":{"in":"1327"},"end":{"in":"1327"}},{"start":{"in":"1328"},"end":{"in":"1328"}},{"start":{"in":"1332"},"end":{"in":"1443"}},{"start":{"in":"1332"},"end":{"in":"1332"}},{"start":{"in":"1443"},"end":{"in":"1443"}}]}},{"toponym":"Vterby","citations":[{"label":"1295 RA","year":1295}],"when":{"timespans":[{"start":{"in":"1295"},"end":{"in":"1295"}}]}}],"types":[{"identifier":"http://vocab.getty.edu/aat/300232418","label":"administrative division","sourceLabels":[{"label":"township","lang":"en"}]}],"geometry":{"type":"GeometryCollection","geometries":[{"type":"Point","coordinates":[-0.03198,53.42099],"citations":[{"label":"GeoNames, gazetteer record geonames:2635044"}]},{"type":"Point","coordinates":[-0.03594621797211866,53.42187171018972],"citations":[{"label":"Unlock (EDINA) gazetteer, gazetteer record unlock:11310954"}]},{"type":"Point","coordinates":[-0.037632,53.4222],"citations":[{"label":"Key to English Place-Names (KEPN), gazetteer record 10713"}]}]},"when":{"timespans":[{"start":{"in":"1106"},"end":{"in":"1628"}}]},"links":[{"type":"closeMatch","identifier":"https://sws.geonames.org/2635044/"}],"relations":[{"relationType":"gvp:broaderPartitive","relationTo":"http://placenames.org.uk/id/placename/71/001823","label":"within Utterby"}]}]}