{"@context":"https://raw.githubusercontent.com/LinkedPasts/linked-places-format/main/linkedplaces-context-v1.1.jsonld","type":"FeatureCollection","license":"Digitisation of English Placenames MADS data is licensed to Jisc by the English Place Names Society and released under a Creative Commons Attribution-NonCommercial 4.0 International License.","note":"LPF v1.3, lossy; derived from the PLATO record; plato_commit=ca0afadabec1e23a145c0b03df77e8f151f79832","features":[{"@id":"https://w3id.org/whg-epns/71/002081","type":"Feature","properties":{"title":"Wyham","ccodes":["GB"],"fclasses":["A","P"]},"names":[{"toponym":"Wyham","lang":"en","citations":[{"label":"English Place-Name Society survey, volume 71: Lincolnshire"}]},{"toponym":"Widun","citations":[{"label":"1086 DB","year":1086}],"when":{"timespans":[{"start":{"in":"1086"},"end":{"in":"1086"}}]}},{"toponym":"Wihum","citations":[{"label":"c.1115 DB","year":1105},{"label":"Hy2 Gilb","year":1154},{"label":"a1184 Gilb","year":1134},{"label":"1210-12 RBE","year":1210},{"label":"1295 RA","year":1295}],"when":{"timespans":[{"start":{"earliest":"1105","latest":"1125"},"end":{"earliest":"1105","latest":"1125"}},{"start":{"earliest":"1154","latest":"1189"},"end":{"earliest":"1154","latest":"1189"}},{"start":{"earliest":"1134","latest":"1184"},"end":{"earliest":"1134","latest":"1184"}},{"start":{"earliest":"1210","latest":"1212"},"end":{"earliest":"1210","latest":"1212"}},{"start":{"in":"1295"},"end":{"in":"1295"}}]}},{"toponym":"Wihom","citations":[{"label":"1147-66 Gilb","year":1147},{"label":"1185-87 Dane","year":1185},{"label":"1303 FA","year":1303},{"label":"1332 SR","year":1332},{"label":"1399 Pat","year":1399},{"label":"1428 FA","year":1428}],"when":{"timespans":[{"start":{"earliest":"1147","latest":"1166"},"end":{"earliest":"1147","latest":"1166"}},{"start":{"earliest":"1185","latest":"1187"},"end":{"earliest":"1185","latest":"1187"}},{"start":{"in":"1303"},"end":{"in":"1303"}},{"start":{"in":"1332"},"end":{"in":"1332"}},{"start":{"in":"1399"},"end":{"in":"1399"}},{"start":{"in":"1428"},"end":{"in":"1428"}}]}},{"toponym":"Wyhum","citations":[{"label":"R1 Spald i","year":1189},{"label":"1221 Guis","year":1221},{"label":"1245 RRG","year":1245},{"label":"1245 FF","year":1245},{"label":"1250 Gilb","year":1250},{"label":"1254–1397, recurring ValNor","year":1254},{"label":"1254–1397, recurring Pat"},{"label":"1254 ValNor","year":1254},{"label":"1397 Pat","year":1397}],"when":{"timespans":[{"start":{"earliest":"1189","latest":"1199"},"end":{"earliest":"1189","latest":"1199"}},{"start":{"in":"1221"},"end":{"in":"1221"}},{"start":{"in":"1245"},"end":{"in":"1245"}},{"start":{"in":"1245"},"end":{"in":"1245"}},{"start":{"in":"1250"},"end":{"in":"1250"}},{"start":{"in":"1254"},"end":{"in":"1397"}},{"start":{"in":"1254"},"end":{"in":"1254"}},{"start":{"in":"1397"},"end":{"in":"1397"}}]}},{"toponym":"Wihome","citations":[{"label":"1551 Pat","year":1551}],"when":{"timespans":[{"start":{"in":"1551"},"end":{"in":"1551"}}]}},{"toponym":"Wihun","citations":[{"label":"1147-66 Gilb","year":1147}],"when":{"timespans":[{"start":{"earliest":"1147","latest":"1166"},"end":{"earliest":"1147","latest":"1166"}}]}},{"toponym":"Wyhun","citations":[{"label":"1233 Ch","year":1233},{"label":"1233 RA","year":1233},{"label":"1241 RRG","year":1241}],"when":{"timespans":[{"start":{"in":"1233"},"end":{"in":"1233"}},{"start":{"in":"1233"},"end":{"in":"1233"}},{"start":{"in":"1241"},"end":{"in":"1241"}},{"start":{"in":"1247"},"end":{"in":"1247"}}]}},{"toponym":"Wium","citations":[{"label":"Hy2 Dane","year":1154},{"label":"Hy2 Gilb","year":1154},{"label":"Hy2 Ch","year":1154},{"label":"1200 Cur","year":1200},{"label":"1202 ChancR","year":1202},{"label":"1202 Ass","year":1202},{"label":"1212 Fees","year":1212},{"label":"1218 Ass","year":1218},{"label":"1222 FF","year":1222},{"label":"1238-41 Fees","year":1238}],"when":{"timespans":[{"start":{"earliest":"1154","latest":"1189"},"end":{"earliest":"1154","latest":"1189"}},{"start":{"earliest":"1154","latest":"1189"},"end":{"earliest":"1154","latest":"1189"}},{"start":{"earliest":"1154","latest":"1189"},"end":{"earliest":"1154","latest":"1189"}},{"start":{"in":"1200"},"end":{"in":"1200"}},{"start":{"in":"1202"},"end":{"in":"1202"}},{"start":{"in":"1202"},"end":{"in":"1202"}},{"start":{"in":"1212"},"end":{"in":"1212"}},{"start":{"in":"1218"},"end":{"in":"1218"}},{"start":{"in":"1219"},"end":{"in":"1219"}},{"start":{"in":"1222"},"end":{"in":"1222"}},{"start":{"earliest":"1238","latest":"1241"},"end":{"earliest":"1238","latest":"1241"}}]}},{"toponym":"Wyum","citations":[{"label":"1200 Dugd","year":1200},{"label":"c.1200 RA","year":1190},{"label":"1219 FF","year":1219},{"label":"1230–1328, recurring P","year":1230},{"label":"1230–1328, recurring Banco"},{"label":"1230 P","year":1230},{"label":"1328 Banco","year":1328},{"label":"1428 FA","year":1428}],"when":{"timespans":[{"start":{"in":"1200"},"end":{"in":"1200"}},{"start":{"earliest":"1190","latest":"1210"},"end":{"earliest":"1190","latest":"1210"}},{"start":{"in":"1219"},"end":{"in":"1219"}},{"start":{"in":"1230"},"end":{"in":"1328"}},{"start":{"in":"1230"},"end":{"in":"1230"}},{"start":{"in":"1328"},"end":{"in":"1328"}},{"start":{"in":"1428"},"end":{"in":"1428"}}]}},{"toponym":"Wyom","citations":[{"label":"1199 Ch","year":1199},{"label":"1272 Ass","year":1272},{"label":"1381 Peace","year":1381}],"when":{"timespans":[{"start":{"in":"1199"},"end":{"in":"1199"}},{"start":{"in":"1272"},"end":{"in":"1272"}},{"start":{"in":"1381"},"end":{"in":"1381"}}]}},{"toponym":"Wiun","citations":[{"label":"1187–1212, recurring P","year":1187},{"label":"1187–1212, recurring P"},{"label":"1187 P","year":1187},{"label":"1212 P","year":1212},{"label":"1201 OblR","year":1201},{"label":"1202 Ass","year":1202},{"label":"1211 P","year":1211},{"label":"1219 Ass","year":1219}],"when":{"timespans":[{"start":{"in":"1187"},"end":{"in":"1212"}},{"start":{"in":"1187"},"end":{"in":"1187"}},{"start":{"in":"1188"},"end":{"in":"1188"}},{"start":{"in":"1190"},"end":{"in":"1190"}},{"start":{"in":"1212"},"end":{"in":"1212"}},{"start":{"in":"1201"},"end":{"in":"1201"}},{"start":{"in":"1202"},"end":{"in":"1202"}},{"start":{"in":"1211"},"end":{"in":"1211"}},{"start":{"in":"1214"},"end":{"in":"1214"}},{"start":{"in":"1219"},"end":{"in":"1219"}}]}},{"toponym":"Wyun","citations":[{"label":"c.1215 RA","year":1205},{"label":"1226 FF","year":1226},{"label":"1226 Welles","year":1226},{"label":"1238 Cl","year":1238},{"label":"1240 FF","year":1240},{"label":"1240 Cl","year":1240}],"when":{"timespans":[{"start":{"earliest":"1205","latest":"1225"},"end":{"earliest":"1205","latest":"1225"}},{"start":{"earliest":"1208","latest":"1228"},"end":{"earliest":"1208","latest":"1228"}},{"start":{"in":"1226"},"end":{"in":"1226"}},{"start":{"in":"1226"},"end":{"in":"1226"}},{"start":{"in":"1238"},"end":{"in":"1238"}},{"start":{"in":"1240"},"end":{"in":"1240"}},{"start":{"in":"1240"},"end":{"in":"1240"}}]}},{"toponym":"Viun","citations":[{"label":"1219 Ass","year":1219}],"when":{"timespans":[{"start":{"in":"1219"},"end":{"in":"1219"}}]}},{"toponym":"Wion","citations":[{"label":"1202 Ass","year":1202}],"when":{"timespans":[{"start":{"in":"1202"},"end":{"in":"1202"}}]}},{"toponym":"Wiam","citations":[{"label":"1200 Spald i","year":1200},{"label":"1276 RH","year":1276}],"when":{"timespans":[{"start":{"in":"1200"},"end":{"in":"1200"}},{"start":{"in":"1276"},"end":{"in":"1276"}}]}},{"toponym":"Wyam","citations":[{"label":"1526 Sub","year":1526},{"label":"1579 Terrier","year":1579}],"when":{"timespans":[{"start":{"in":"1526"},"end":{"in":"1526"}},{"start":{"in":"1579"},"end":{"in":"1579"}}]}},{"toponym":"Wiham","citations":[{"label":"c.1200 RA","year":1190},{"label":"a1219 Welles","year":1169}],"when":{"timespans":[{"start":{"earliest":"1190","latest":"1210"},"end":{"earliest":"1190","latest":"1210"}},{"start":{"earliest":"1169","latest":"1219"},"end":{"earliest":"1169","latest":"1219"}}]}},{"toponym":"Wyham","citations":[{"label":"Hy2 Gilb","year":1154},{"label":"1272 FF","year":1272},{"label":"1294 Pat","year":1294},{"label":"1346 FA","year":1346},{"label":"1401 RRep","year":1401},{"label":"1595 BT","year":1595},{"label":"1601–1601, recurring Terrier","year":1601},{"label":"1601 Terrier","year":1601}],"when":{"timespans":[{"start":{"earliest":"1154","latest":"1189"},"end":{"earliest":"1154","latest":"1189"}},{"start":{"in":"1272"},"end":{"in":"1272"}},{"start":{"in":"1294"},"end":{"in":"1294"}},{"start":{"in":"1312"},"end":{"in":"1312"}},{"start":{"in":"1346"},"end":{"in":"1346"}},{"start":{"in":"1401"},"end":{"in":"1401"}},{"start":{"in":"1595"},"end":{"in":"1595"}},{"start":{"in":"1596"},"end":{"in":"1596"}},{"start":{"in":"1601"},"end":{"in":"1601"}},{"start":{"in":"1601"},"end":{"in":"1601"}}]}},{"toponym":"Wyhame","citations":[{"label":"a1219 Welles","year":1169}],"when":{"timespans":[{"start":{"earliest":"1169","latest":"1219"},"end":{"earliest":"1169","latest":"1219"}}]}},{"toponym":"Wyorme als Wyham als Wyam","citations":[{"label":"1676 BRA","year":1676}],"when":{"timespans":[{"start":{"in":"1676"},"end":{"in":"1676"}}]}}],"types":[{"identifier":"http://vocab.getty.edu/aat/300232418","label":"administrative division","sourceLabels":[{"label":"township","lang":"en"}]}],"geometry":{"type":"GeometryCollection","geometries":[{"type":"Point","coordinates":[-0.08025895112243885,53.44057447360746],"citations":[{"label":"Unlock (EDINA) gazetteer, gazetteer record unlock:11327834"}]},{"type":"Point","coordinates":[-0.0819403,53.4409],"citations":[{"label":"Key to English Place-Names (KEPN), gazetteer record 10714"}]}]},"when":{"timespans":[{"start":{"in":"1086"},"end":{"in":"1676"}}]},"relations":[{"relationType":"gvp:broaderPartitive","relationTo":"https://w3id.org/whg-epns/71/002077","label":"within Wyham cum Cadeby"}]}]}