{"@context":"https://raw.githubusercontent.com/LinkedPasts/linked-places-format/main/linkedplaces-context-v1.1.jsonld","type":"FeatureCollection","license":"Digitisation of English Placenames MADS data is licensed to Jisc by the English Place Names Society and released under a Creative Commons Attribution-NonCommercial 4.0 International License.","note":"LPF v1.3, lossy; derived from the PLATO record; plato_commit=ca0afadabec1e23a145c0b03df77e8f151f79832","features":[{"@id":"https://w3id.org/whg-epns/71/002654","type":"Feature","properties":{"title":"Barnoldby le Beck","ccodes":["GB"],"fclasses":["A","P"]},"names":[{"toponym":"Barnoldby le Beck","lang":"en","citations":[{"label":"English Place-Name Society survey, volume 71: Lincolnshire"}]}],"types":[{"identifier":"http://vocab.getty.edu/aat/300232418","label":"administrative division","sourceLabels":[{"label":"parish","lang":"en"}]}],"geometry":{"type":"GeometryCollection","geometries":[{"type":"Point","coordinates":[-0.13847,53.51241],"citations":[{"label":"GeoNames, gazetteer record geonames:7298801"}]},{"type":"Point","coordinates":[-0.1373044256851309,53.51340490144906],"citations":[{"label":"Unlock (EDINA) gazetteer, gazetteer record unlock:11070577"}]},{"type":"Point","coordinates":[-0.138982,53.5137],"citations":[{"label":"Key to English Place-Names (KEPN), gazetteer record 10593"}]}]},"links":[{"type":"closeMatch","identifier":"https://sws.geonames.org/7298801/"}],"relations":[{"relationType":"gvp:broaderPartitive","relationTo":"https://w3id.org/whg-epns/71/002285","label":"within Haverstoe Wapentake"}]}]}