{"@context":"https://raw.githubusercontent.com/LinkedPasts/linked-places-format/main/linkedplaces-context-v1.1.jsonld","type":"FeatureCollection","license":"Digitisation of English Placenames MADS data is licensed to Jisc by the English Place Names Society and released under a Creative Commons Attribution-NonCommercial 4.0 International License.","note":"LPF v1.3, lossy; derived from the PLATO record; plato_commit=ca0afadabec1e23a145c0b03df77e8f151f79832","features":[{"@id":"https://w3id.org/whg-epns/71/004605","type":"Feature","properties":{"title":"Grainsby","ccodes":["GB"],"fclasses":["A","P"]},"names":[{"toponym":"Grainsby","lang":"en","citations":[{"label":"English Place-Name Society survey, volume 71: Lincolnshire"}]},{"toponym":"Grenesbi","citations":[{"label":"1086 DB","year":1086},{"label":"1146 RA","year":1146},{"label":"c.1150 Dane","year":1140},{"label":"1156-62 YCh","year":1156},{"label":"Hy2 Dane","year":1154},{"label":"1197 P","year":1197},{"label":"1198 Cur","year":1198},{"label":"1198 CurR","year":1198},{"label":"l12 HarlCh","year":1175},{"label":"1202 Cur","year":1202},{"label":"1202 Ass","year":1202},{"label":"1202 FF","year":1202},{"label":"1207 P","year":1207},{"label":"1208 ChancR","year":1208}],"when":{"timespans":[{"start":{"in":"1086"},"end":{"in":"1086"}},{"start":{"in":"1146"},"end":{"in":"1146"}},{"start":{"earliest":"1140","latest":"1160"},"end":{"earliest":"1140","latest":"1160"}},{"start":{"earliest":"1156","latest":"1162"},"end":{"earliest":"1156","latest":"1162"}},{"start":{"earliest":"1154","latest":"1189"},"end":{"earliest":"1154","latest":"1189"}},{"start":{"in":"1197"},"end":{"in":"1197"}},{"start":{"in":"1198"},"end":{"in":"1198"}},{"start":{"in":"1198"},"end":{"in":"1198"}},{"start":{"earliest":"1175","latest":"1200"},"end":{"earliest":"1175","latest":"1200"}},{"start":{"in":"1202"},"end":{"in":"1202"}},{"start":{"in":"1202"},"end":{"in":"1202"}},{"start":{"in":"1202"},"end":{"in":"1202"}},{"start":{"in":"1207"},"end":{"in":"1207"}},{"start":{"in":"1208"},"end":{"in":"1208"}}]}},{"toponym":"Grenesbia","citations":[{"label":"1136-45 YCh","year":1136}],"when":{"timespans":[{"start":{"earliest":"1136","latest":"1145"},"end":{"earliest":"1136","latest":"1145"}}]}},{"toponym":"Grenesby","citations":[{"label":"1207 OblR","year":1207},{"label":"1225 Cur","year":1225},{"label":"1251 Ch","year":1251}],"when":{"timespans":[{"start":{"in":"1207"},"end":{"in":"1207"}},{"start":{"in":"1225"},"end":{"in":"1225"}},{"start":{"in":"1251"},"end":{"in":"1251"}}]}},{"toponym":"Grenebi","citations":[{"label":"1178 P","year":1178},{"label":"1197 P","year":1197},{"label":"1193 P","year":1193},{"label":"1198 P","year":1198}],"when":{"timespans":[{"start":{"in":"1178"},"end":{"in":"1178"}},{"start":{"in":"1197"},"end":{"in":"1197"}},{"start":{"in":"1193"},"end":{"in":"1193"}},{"start":{"in":"1198"},"end":{"in":"1198"}}]}},{"toponym":"Greinesbi","citations":[{"label":"c.1115 DB","year":1105},{"label":"1150-60 Dane","year":1150},{"label":"p1150 HarlCh","year":1150},{"label":"1156-58 HarlCh","year":1156},{"label":"1170-98 Revesby","year":1170},{"label":"l12 Dane","year":1175},{"label":"1202 Ass","year":1202},{"label":"1205 P","year":1205},{"label":"1218 Ass","year":1218}],"when":{"timespans":[{"start":{"earliest":"1105","latest":"1125"},"end":{"earliest":"1105","latest":"1125"}},{"start":{"earliest":"1150","latest":"1160"},"end":{"earliest":"1150","latest":"1160"}},{"start":{"earliest":"1150","latest":"1200"},"end":{"earliest":"1150","latest":"1200"}},{"start":{"earliest":"1156","latest":"1158"},"end":{"earliest":"1156","latest":"1158"}},{"start":{"earliest":"1170","latest":"1198"},"end":{"earliest":"1170","latest":"1198"}},{"start":{"earliest":"1175","latest":"1200"},"end":{"earliest":"1175","latest":"1200"}},{"start":{"in":"1202"},"end":{"in":"1202"}},{"start":{"in":"1205"},"end":{"in":"1205"}},{"start":{"in":"1210"},"end":{"in":"1210"}},{"start":{"in":"1218"},"end":{"in":"1218"}}]}},{"toponym":"Greinesby","citations":[{"label":"1235-47 RA","year":1235},{"label":"Hy2 Gilb","year":1154},{"label":"1202 Ass","year":1202}],"when":{"timespans":[{"start":{"earliest":"1235","latest":"1247"},"end":{"earliest":"1235","latest":"1247"}},{"start":{"earliest":"1154","latest":"1189"},"end":{"earliest":"1154","latest":"1189"}},{"start":{"in":"1202"},"end":{"in":"1202"}}]}},{"toponym":"Greynesby","citations":[{"label":"1242-43 Fees","year":1242},{"label":"1254 ValNor","year":1254},{"label":"1281 Ipm","year":1281},{"label":"1290 RSu","year":1290},{"label":"1297 CoramR","year":1297},{"label":"1303 FA","year":1303},{"label":"1315 Orig","year":1315},{"label":"1316 Pat","year":1316},{"label":"1332 SR","year":1332},{"label":"1352 Ipm","year":1352},{"label":"1428 FA","year":1428},{"label":"1483 Pat","year":1483},{"label":"1503 Ipm","year":1503}],"when":{"timespans":[{"start":{"earliest":"1242","latest":"1243"},"end":{"earliest":"1242","latest":"1243"}},{"start":{"in":"1254"},"end":{"in":"1254"}},{"start":{"in":"1281"},"end":{"in":"1281"}},{"start":{"in":"1290"},"end":{"in":"1290"}},{"start":{"in":"1296"},"end":{"in":"1296"}},{"start":{"in":"1297"},"end":{"in":"1297"}},{"start":{"in":"1303"},"end":{"in":"1303"}},{"start":{"in":"1315"},"end":{"in":"1315"}},{"start":{"in":"1316"},"end":{"in":"1316"}},{"start":{"in":"1332"},"end":{"in":"1332"}},{"start":{"in":"1352"},"end":{"in":"1352"}},{"start":{"in":"1428"},"end":{"in":"1428"}},{"start":{"in":"1483"},"end":{"in":"1483"}},{"start":{"in":"1503"},"end":{"in":"1503"}}]}},{"toponym":"Grainesbi","citations":[{"label":"1147-53 Dane","year":1147},{"label":"c.1156 Kirkst","year":1146},{"label":"1166 RBE","year":1166},{"label":"Hy2 LN","year":1154},{"label":"l12 Gilb","year":1175}],"when":{"timespans":[{"start":{"earliest":"1147","latest":"1153"},"end":{"earliest":"1147","latest":"1153"}},{"start":{"earliest":"1146","latest":"1166"},"end":{"earliest":"1146","latest":"1166"}},{"start":{"in":"1166"},"end":{"in":"1166"}},{"start":{"earliest":"1154","latest":"1189"},"end":{"earliest":"1154","latest":"1189"}},{"start":{"earliest":"1175","latest":"1200"},"end":{"earliest":"1175","latest":"1200"}}]}},{"toponym":"Grainesbia","citations":[{"label":"1212 Fees","year":1212}],"when":{"timespans":[{"start":{"in":"1212"},"end":{"in":"1212"}}]}},{"toponym":"Grainesb'","citations":[{"label":"1238-41 Fees","year":1238}],"when":{"timespans":[{"start":{"earliest":"1238","latest":"1241"},"end":{"earliest":"1238","latest":"1241"}}]}},{"toponym":"Grainesbie","citations":[{"label":"a1567 LNQ","year":1517},{"label":"1576 LER","year":1576},{"label":"1589 NCWills","year":1589}],"when":{"timespans":[{"start":{"earliest":"1517","latest":"1567"},"end":{"earliest":"1517","latest":"1567"}},{"start":{"in":"1576"},"end":{"in":"1576"}},{"start":{"in":"1589"},"end":{"in":"1589"}}]}},{"toponym":"Grainesbye","citations":[{"label":"1613 BT","year":1613}],"when":{"timespans":[{"start":{"in":"1613"},"end":{"in":"1613"}}]}},{"toponym":"Grainesby","citations":[{"label":"1672 BT","year":1672}],"when":{"timespans":[{"start":{"in":"1672"},"end":{"in":"1672"}}]}},{"toponym":"Graynesby","citations":[{"label":"a1155 NCot","year":1105},{"label":"1245 FF","year":1245},{"label":"1276 RH","year":1276},{"label":"1295 RSu","year":1295},{"label":"1297 Pat","year":1297},{"label":"1315 Ipm","year":1315},{"label":"1315 Cl","year":1315},{"label":"1316 FA","year":1316},{"label":"1316–1588, recurring Pat","year":1316},{"label":"1316–1588, recurring BT"},{"label":"1316 Pat","year":1316},{"label":"1588 BT","year":1588}],"when":{"timespans":[{"start":{"earliest":"1105","latest":"1155"},"end":{"earliest":"1105","latest":"1155"}},{"start":{"in":"1245"},"end":{"in":"1245"}},{"start":{"in":"1276"},"end":{"in":"1276"}},{"start":{"in":"1295"},"end":{"in":"1295"}},{"start":{"in":"1297"},"end":{"in":"1297"}},{"start":{"in":"1315"},"end":{"in":"1315"}},{"start":{"in":"1315"},"end":{"in":"1315"}},{"start":{"in":"1316"},"end":{"in":"1316"}},{"start":{"in":"1316"},"end":{"in":"1588"}},{"start":{"in":"1316"},"end":{"in":"1316"}},{"start":{"in":"1588"},"end":{"in":"1588"}}]}},{"toponym":"Graynesbi","citations":[{"label":"1333 Pap","year":1333}],"when":{"timespans":[{"start":{"in":"1333"},"end":{"in":"1333"}}]}},{"toponym":"Graynesbie","citations":[{"label":"c.1577 Terrier","year":1567},{"label":"1586 BT","year":1586}],"when":{"timespans":[{"start":{"earliest":"1567","latest":"1587"},"end":{"earliest":"1567","latest":"1587"}},{"start":{"in":"1586"},"end":{"in":"1586"}},{"start":{"in":"1591"},"end":{"in":"1591"}},{"start":{"in":"1597"},"end":{"in":"1597"}}]}},{"toponym":"Graynesbye","citations":[{"label":"1623 Hill","year":1623}],"when":{"timespans":[{"start":{"in":"1623"},"end":{"in":"1623"}}]}},{"toponym":"Graynysby","citations":[{"label":"1475 Pat","year":1475}],"when":{"timespans":[{"start":{"in":"1475"},"end":{"in":"1475"}}]}},{"toponym":"Granesby","citations":[{"label":"1390 Pap","year":1390},{"label":"1427 Pat","year":1427},{"label":"1526 Sub","year":1526},{"label":"1530 Wills","year":1530},{"label":"1535 VE","year":1535},{"label":"1554 Pat","year":1554}],"when":{"timespans":[{"start":{"in":"1390"},"end":{"in":"1390"}},{"start":{"in":"1393"},"end":{"in":"1393"}},{"start":{"in":"1427"},"end":{"in":"1427"}},{"start":{"in":"1461"},"end":{"in":"1461"}},{"start":{"in":"1526"},"end":{"in":"1526"}},{"start":{"in":"1530"},"end":{"in":"1530"}},{"start":{"in":"1535"},"end":{"in":"1535"}},{"start":{"in":"1554"},"end":{"in":"1554"}}]}},{"toponym":"Granesbye","citations":[{"label":"1576 Saxton","year":1576},{"label":"1610 Speed","year":1610}],"when":{"timespans":[{"start":{"in":"1576"},"end":{"in":"1576"}},{"start":{"in":"1610"},"end":{"in":"1610"}}]}},{"toponym":"Granysby","citations":[{"label":"1428 FA","year":1428},{"label":"1509 Ipm","year":1509}],"when":{"timespans":[{"start":{"in":"1428"},"end":{"in":"1428"}},{"start":{"in":"1509"},"end":{"in":"1509"}}]}},{"toponym":"Granysbe","citations":[{"label":"1562 BT","year":1562}],"when":{"timespans":[{"start":{"in":"1562"},"end":{"in":"1562"}}]}},{"toponym":"Cranesbi","citations":[{"label":"1165 RBE","year":1165}],"when":{"timespans":[{"start":{"in":"1165"},"end":{"in":"1165"}}]}},{"toponym":"Graynsby","citations":[{"label":"1556 Mad","year":1556},{"label":"1591 BT","year":1591},{"label":"1668 Terrier","year":1668}],"when":{"timespans":[{"start":{"in":"1556"},"end":{"in":"1556"}},{"start":{"in":"1591"},"end":{"in":"1591"}},{"start":{"in":"1665"},"end":{"in":"1665"}},{"start":{"in":"1668"},"end":{"in":"1668"}}]}},{"toponym":"Graynsbye","citations":[{"label":"1563 BT","year":1563},{"label":"1662 BT","year":1662}],"when":{"timespans":[{"start":{"in":"1563"},"end":{"in":"1563"}},{"start":{"in":"1662"},"end":{"in":"1662"}}]}},{"toponym":"Grainsbye","citations":[{"label":"1562 BT","year":1562},{"label":"1601 LCS","year":1601}],"when":{"timespans":[{"start":{"in":"1562"},"end":{"in":"1562"}},{"start":{"in":"1601"},"end":{"in":"1601"}}]}},{"toponym":"Grainsbe","citations":[{"label":"1570 BT","year":1570}],"when":{"timespans":[{"start":{"in":"1570"},"end":{"in":"1570"}},{"start":{"in":"1597"},"end":{"in":"1597"}},{"start":{"in":"1601"},"end":{"in":"1601"}},{"start":{"in":"1608"},"end":{"in":"1608"}}]}},{"toponym":"Grainsbie","citations":[{"label":"1594 BT","year":1594},{"label":"1601 Terrier","year":1601},{"label":"1632 BT","year":1632}],"when":{"timespans":[{"start":{"in":"1594"},"end":{"in":"1594"}},{"start":{"in":"1597"},"end":{"in":"1597"}},{"start":{"in":"1601"},"end":{"in":"1601"}},{"start":{"in":"1611"},"end":{"in":"1611"}},{"start":{"in":"1628"},"end":{"in":"1628"}},{"start":{"in":"1632"},"end":{"in":"1632"}}]}},{"toponym":"Grainsby","citations":[{"label":"1633 BT","year":1633},{"label":"1638 Terrier","year":1638},{"label":"1682 BT","year":1682},{"label":"1690 Haigh","year":1690},{"label":"1692–1692, recurring BT","year":1692},{"label":"1692 BT","year":1692}],"when":{"timespans":[{"start":{"in":"1633"},"end":{"in":"1633"}},{"start":{"in":"1638"},"end":{"in":"1638"}},{"start":{"in":"1679"},"end":{"in":"1679"}},{"start":{"in":"1682"},"end":{"in":"1682"}},{"start":{"in":"1690"},"end":{"in":"1690"}},{"start":{"in":"1692"},"end":{"in":"1692"}},{"start":{"in":"1692"},"end":{"in":"1692"}}]}}],"types":[{"identifier":"http://vocab.getty.edu/aat/300232418","label":"administrative division","sourceLabels":[{"label":"township","lang":"en"}]}],"geometry":{"type":"GeometryCollection","geometries":[{"type":"Point","coordinates":[-0.06639,53.47728],"citations":[{"label":"GeoNames, gazetteer record geonames:2648233"}]},{"type":"Point","coordinates":[-0.07863669059870818,53.47651236379448],"citations":[{"label":"Unlock (EDINA) gazetteer, gazetteer record unlock:11157415"}]},{"type":"Point","coordinates":[-0.0803199,53.4768],"citations":[{"label":"Key to English Place-Names (KEPN), gazetteer record 10600"}]}]},"when":{"timespans":[{"start":{"in":"1086"},"end":{"in":"1692"}}]},"links":[{"type":"closeMatch","identifier":"https://sws.geonames.org/2648233/"}],"relations":[{"relationType":"gvp:broaderPartitive","relationTo":"https://w3id.org/whg-epns/71/004604","label":"within Grainsby"}]}]}