{"@context":"https://raw.githubusercontent.com/LinkedPasts/linked-places-format/main/linkedplaces-context-v1.1.jsonld","type":"FeatureCollection","license":"Digitisation of English Placenames MADS data is licensed to Jisc by the English Place Names Society and released under a Creative Commons Attribution-NonCommercial 4.0 International License.","note":"LPF v1.3, lossy; derived from the PLATO record; plato_commit=fa0d247ccc0263f8f19c8d7cdcd163df96935d1e","features":[{"@id":"https://w3id.org/whg-epns/71/006271","type":"Feature","properties":{"title":"Wold Newton","ccodes":["GB"],"fclasses":["A","P"]},"names":[{"toponym":"Wold Newton","lang":"en","citations":[{"label":"English Place-Name Society survey, volume 71: Lincolnshire"}]}],"types":[{"identifier":"http://vocab.getty.edu/aat/300232418","label":"administrative division","sourceLabels":[{"label":"parish","lang":"en"}]}],"geometry":{"type":"GeometryCollection","geometries":[{"type":"Point","coordinates":[-0.13333,53.45],"citations":[{"label":"GeoNames, gazetteer record geonames:2633706"}]},{"type":"Point","coordinates":[-0.1250067588571393,53.45027635454838],"citations":[{"label":"Unlock (EDINA) gazetteer, gazetteer record unlock:11324836"}]},{"type":"Point","coordinates":[-0.126683,53.4506],"citations":[{"label":"Key to English Place-Names (KEPN), gazetteer record 10611"}]}]},"links":[{"type":"closeMatch","identifier":"https://sws.geonames.org/2633706/"}],"relations":[{"relationType":"gvp:broaderPartitive","relationTo":"https://w3id.org/whg-epns/71/002285","label":"within Haverstoe Wapentake"}]}]}