{"@context":"https://raw.githubusercontent.com/LinkedPasts/linked-places-format/main/linkedplaces-context-v1.1.jsonld","type":"FeatureCollection","license":"Digitisation of English Placenames MADS data is licensed to Jisc by the English Place Names Society and released under a Creative Commons Attribution-NonCommercial 4.0 International License.","note":"LPF v1.3, lossy; derived from the PLATO record; plato_commit=ca0afadabec1e23a145c0b03df77e8f151f79832","features":[{"@id":"https://w3id.org/whg-epns/71/006272","type":"Feature","properties":{"title":"Wold Newton","ccodes":["GB"],"fclasses":["A","P"]},"names":[{"toponym":"Wold Newton","lang":"en","citations":[{"label":"English Place-Name Society survey, volume 71: Lincolnshire"}]},{"toponym":"Neutone","citations":[{"label":"1086 DB","year":1086}],"when":{"timespans":[{"start":{"in":"1086"},"end":{"in":"1086"}}]}},{"toponym":"Neutun","citations":[{"label":"1170-85 Holywell","year":1170}],"when":{"timespans":[{"start":{"earliest":"1170","latest":"1185"},"end":{"earliest":"1170","latest":"1185"}}]}},{"toponym":"Neutona","citations":[{"label":"1175 Alv","year":1175}],"when":{"timespans":[{"start":{"in":"1175"},"end":{"in":"1175"}},{"start":{"in":"1182"},"end":{"in":"1182"}},{"start":{"in":"1245"},"end":{"in":"1245"}}]}},{"toponym":"Neuton(')","citations":[{"label":"1204 P","year":1204},{"label":"1213 Cur","year":1213},{"label":"1235 Dugd","year":1235},{"label":"1238-41 Fees","year":1238},{"label":"1252 Cl","year":1252},{"label":"1254 ValNor","year":1254},{"label":"1275 RH","year":1275},{"label":"1281–1431, recurring QW","year":1281},{"label":"1281–1431, recurring FA"},{"label":"1281 QW","year":1281},{"label":"1431 FA","year":1431}],"when":{"timespans":[{"start":{"in":"1204"},"end":{"in":"1204"}},{"start":{"in":"1213"},"end":{"in":"1213"}},{"start":{"in":"1235"},"end":{"in":"1235"}},{"start":{"earliest":"1238","latest":"1241"},"end":{"earliest":"1238","latest":"1241"}},{"start":{"earliest":"1242","latest":"1243"},"end":{"earliest":"1242","latest":"1243"}},{"start":{"in":"1252"},"end":{"in":"1252"}},{"start":{"in":"1254"},"end":{"in":"1254"}},{"start":{"in":"1275"},"end":{"in":"1275"}},{"start":{"in":"1281"},"end":{"in":"1431"}},{"start":{"in":"1281"},"end":{"in":"1281"}},{"start":{"in":"1431"},"end":{"in":"1431"}}]}},{"toponym":"Newtuna","citations":[{"label":"c.1115 DB","year":1105}],"when":{"timespans":[{"start":{"earliest":"1105","latest":"1125"},"end":{"earliest":"1105","latest":"1125"}}]}},{"toponym":"Newton(')","citations":[{"label":"1176 P","year":1176},{"label":"1196 ChancR","year":1196},{"label":"1220 Cur","year":1220},{"label":"1303 FA","year":1303},{"label":"1314 Ch","year":1314}],"when":{"timespans":[{"start":{"in":"1176"},"end":{"in":"1176"}},{"start":{"in":"1196"},"end":{"in":"1196"}},{"start":{"in":"1220"},"end":{"in":"1220"}},{"start":{"in":"1303"},"end":{"in":"1303"}},{"start":{"in":"1314"},"end":{"in":"1314"}}]}},{"toponym":"Niwetuna","citations":[{"label":"c.1150 DuDCCh","year":1140}],"when":{"timespans":[{"start":{"earliest":"1140","latest":"1160"},"end":{"earliest":"1140","latest":"1160"}}]}},{"toponym":"Niweton(')","citations":[{"label":"1193 P","year":1193}],"when":{"timespans":[{"start":{"in":"1193"},"end":{"in":"1193"}}]}},{"toponym":"Newenton'","citations":[{"label":"1220 Cur","year":1220}],"when":{"timespans":[{"start":{"in":"1220"},"end":{"in":"1220"}}]}},{"toponym":"Neuuton","citations":[{"label":"1303 FA","year":1303}],"when":{"timespans":[{"start":{"in":"1303"},"end":{"in":"1303"}}]}},{"toponym":"Nuton","citations":[{"label":"1428 FA","year":1428}],"when":{"timespans":[{"start":{"in":"1428"},"end":{"in":"1428"}}]}},{"toponym":"Newtona","citations":[{"label":"l12 Gilb","year":1175}],"when":{"timespans":[{"start":{"earliest":"1175","latest":"1200"},"end":{"earliest":"1175","latest":"1200"}}]}},{"toponym":"Newton","citations":[{"label":"1428 FA","year":1428},{"label":"1526 Sub","year":1526},{"label":"1535 VE","year":1535},{"label":"1557 Pat","year":1557},{"label":"1566 BT","year":1566}],"when":{"timespans":[{"start":{"in":"1428"},"end":{"in":"1428"}},{"start":{"in":"1526"},"end":{"in":"1526"}},{"start":{"in":"1535"},"end":{"in":"1535"}},{"start":{"in":"1557"},"end":{"in":"1557"}},{"start":{"in":"1566"},"end":{"in":"1566"}}]}},{"toponym":"Newtonne","citations":[{"label":"a1567 LNQ","year":1517}],"when":{"timespans":[{"start":{"earliest":"1517","latest":"1567"},"end":{"earliest":"1517","latest":"1567"}}]}},{"toponym":"Wald neuton","citations":[{"label":"eHy2 Alv","year":1154}],"when":{"timespans":[{"start":{"earliest":"1154","latest":"1189"},"end":{"earliest":"1154","latest":"1189"}}]}},{"toponym":"Wald Neutone","citations":[{"label":"1278 RRGr","year":1278}],"when":{"timespans":[{"start":{"in":"1278"},"end":{"in":"1278"}}]}},{"toponym":"Wald Neuton","citations":[{"label":"1308 Cl","year":1308},{"label":"1308 Pat","year":1308},{"label":"1375 Peace","year":1375}],"when":{"timespans":[{"start":{"in":"1308"},"end":{"in":"1308"}},{"start":{"in":"1308"},"end":{"in":"1308"}},{"start":{"in":"1367"},"end":{"in":"1367"}},{"start":{"in":"1375"},"end":{"in":"1375"}},{"start":{"in":"1376"},"end":{"in":"1376"}}]}},{"toponym":"Waldneuton(')","citations":[{"label":"1238 RRG","year":1238},{"label":"1307 Pap","year":1307},{"label":"1317 Ipm","year":1317},{"label":"1320 Pap","year":1320},{"label":"1327 Banco","year":1327},{"label":"1332 SR","year":1332},{"label":"1361 Cl","year":1361},{"label":"1361 Ipm","year":1361},{"label":"1373 Peace","year":1373},{"label":"1431 FA","year":1431}],"when":{"timespans":[{"start":{"in":"1238"},"end":{"in":"1238"}},{"start":{"in":"1307"},"end":{"in":"1307"}},{"start":{"in":"1311"},"end":{"in":"1311"}},{"start":{"in":"1317"},"end":{"in":"1317"}},{"start":{"in":"1320"},"end":{"in":"1320"}},{"start":{"in":"1327"},"end":{"in":"1327"}},{"start":{"in":"1332"},"end":{"in":"1332"}},{"start":{"in":"1361"},"end":{"in":"1361"}},{"start":{"in":"1361"},"end":{"in":"1361"}},{"start":{"in":"1373"},"end":{"in":"1373"}},{"start":{"in":"1431"},"end":{"in":"1431"}}]}},{"toponym":"Waldeneuton(')","citations":[{"label":"1277 DuDCCh","year":1277},{"label":"1298 RSu","year":1298},{"label":"1310 FF","year":1310},{"label":"1311 Pat","year":1311},{"label":"1311 Ipm","year":1311},{"label":"1318 Pap","year":1318},{"label":"1319 ChancW","year":1319},{"label":"1329–1445, recurring Ass","year":1329},{"label":"1329–1445, recurring MiD"},{"label":"1329 Ass","year":1329},{"label":"1445 MiD","year":1445}],"when":{"timespans":[{"start":{"in":"1277"},"end":{"in":"1277"}},{"start":{"in":"1298"},"end":{"in":"1298"}},{"start":{"in":"1310"},"end":{"in":"1310"}},{"start":{"in":"1311"},"end":{"in":"1311"}},{"start":{"in":"1311"},"end":{"in":"1311"}},{"start":{"in":"1318"},"end":{"in":"1318"}},{"start":{"in":"1319"},"end":{"in":"1319"}},{"start":{"in":"1329"},"end":{"in":"1445"}},{"start":{"in":"1329"},"end":{"in":"1329"}},{"start":{"in":"1445"},"end":{"in":"1445"}}]}},{"toponym":"Walde Neuton(')","citations":[{"label":"1305 Ass","year":1305},{"label":"1316 FA","year":1316},{"label":"1327 SR","year":1327},{"label":"1368 Cl","year":1368},{"label":"1370 Pat","year":1370}],"when":{"timespans":[{"start":{"in":"1305"},"end":{"in":"1305"}},{"start":{"in":"1316"},"end":{"in":"1316"}},{"start":{"in":"1327"},"end":{"in":"1327"}},{"start":{"in":"1368"},"end":{"in":"1368"}},{"start":{"in":"1370"},"end":{"in":"1370"}}]}},{"toponym":"Woldneuton","citations":[{"label":"1248 RRG","year":1248},{"label":"1297 HarlCh","year":1297}],"when":{"timespans":[{"start":{"in":"1248"},"end":{"in":"1248"}},{"start":{"in":"1297"},"end":{"in":"1297"}}]}},{"toponym":"Wold Neuton","citations":[{"label":"1295 Ipm","year":1295}],"when":{"timespans":[{"start":{"in":"1295"},"end":{"in":"1295"}}]}},{"toponym":"Wolde Neuton","citations":[{"label":"1299 Pat","year":1299},{"label":"1300 Orig","year":1300},{"label":"1406 RRep","year":1406}],"when":{"timespans":[{"start":{"in":"1299"},"end":{"in":"1299"}},{"start":{"in":"1300"},"end":{"in":"1300"}},{"start":{"in":"1406"},"end":{"in":"1406"}}]}},{"toponym":"Waldeneweton(')","citations":[{"label":"1202 Ass","year":1202},{"label":"1214 FF","year":1214},{"label":"1236 RRG","year":1236},{"label":"1272 Ass","year":1272},{"label":"1272 FF","year":1272},{"label":"1388 Pat","year":1388}],"when":{"timespans":[{"start":{"in":"1202"},"end":{"in":"1202"}},{"start":{"in":"1206"},"end":{"in":"1206"}},{"start":{"in":"1214"},"end":{"in":"1214"}},{"start":{"in":"1236"},"end":{"in":"1236"}},{"start":{"in":"1272"},"end":{"in":"1272"}},{"start":{"in":"1272"},"end":{"in":"1272"}},{"start":{"in":"1388"},"end":{"in":"1388"}},{"start":{"in":"1392"},"end":{"in":"1392"}}]}},{"toponym":"Walde Neweton","citations":[{"label":"1235 FF","year":1235}],"when":{"timespans":[{"start":{"in":"1235"},"end":{"in":"1235"}}]}},{"toponym":"Waldeneweton","citations":[{"label":"1318 Pat","year":1318},{"label":"1319 ChancW","year":1319},{"label":"1323 Pat","year":1323}],"when":{"timespans":[{"start":{"in":"1318"},"end":{"in":"1318"}},{"start":{"in":"1319"},"end":{"in":"1319"}},{"start":{"in":"1323"},"end":{"in":"1323"}},{"start":{"in":"1411"},"end":{"in":"1411"}}]}},{"toponym":"Waldnewton","citations":[{"label":"1329 Pap","year":1329},{"label":"1387 Peace","year":1387},{"label":"1510 Anc","year":1510},{"label":"1510 LP","year":1510}],"when":{"timespans":[{"start":{"in":"1329"},"end":{"in":"1329"}},{"start":{"in":"1387"},"end":{"in":"1387"}},{"start":{"in":"1510"},"end":{"in":"1510"}},{"start":{"in":"1510"},"end":{"in":"1510"}}]}},{"toponym":"Wald newton","citations":[{"label":"1297 HarlCh","year":1297}],"when":{"timespans":[{"start":{"in":"1297"},"end":{"in":"1297"}}]}},{"toponym":"Waldenewton","citations":[{"label":"1417 Fine","year":1417},{"label":"1476 LAAS","year":1476}],"when":{"timespans":[{"start":{"in":"1417"},"end":{"in":"1417"}},{"start":{"in":"1476"},"end":{"in":"1476"}}]}},{"toponym":"Wand Niuueton'","citations":[{"label":"1213 Cur","year":1213}],"when":{"timespans":[{"start":{"in":"1213"},"end":{"in":"1213"}}]}},{"toponym":"Wandniweton","citations":[{"label":"1213 Abbr","year":1213}],"when":{"timespans":[{"start":{"in":"1213"},"end":{"in":"1213"}}]}},{"toponym":"Walde Newenton'","citations":[{"label":"1281 FF","year":1281}],"when":{"timespans":[{"start":{"in":"1281"},"end":{"in":"1281"}}]}},{"toponym":"Wald Nieuton","citations":[{"label":"1372 Ipm","year":1372}],"when":{"timespans":[{"start":{"in":"1372"},"end":{"in":"1372"}}]}},{"toponym":"Woldnewton(')","citations":[{"label":"1466 LCCA","year":1466},{"label":"1483 AD","year":1483},{"label":"1530 Wills","year":1530},{"label":"1553 Pat","year":1553},{"label":"1614 BT","year":1614},{"label":"1671 Terrier","year":1671},{"label":"1688 BT","year":1688},{"label":"1703 Terrier","year":1703}],"when":{"timespans":[{"start":{"in":"1466"},"end":{"in":"1466"}},{"start":{"in":"1483"},"end":{"in":"1483"}},{"start":{"in":"1530"},"end":{"in":"1530"}},{"start":{"in":"1553"},"end":{"in":"1553"}},{"start":{"in":"1614"},"end":{"in":"1614"}},{"start":{"in":"1618"},"end":{"in":"1618"}},{"start":{"in":"1671"},"end":{"in":"1671"}},{"start":{"in":"1688"},"end":{"in":"1688"}},{"start":{"in":"1701"},"end":{"in":"1701"}},{"start":{"in":"1703"},"end":{"in":"1703"}}]}},{"toponym":"Wold Newton","citations":[{"label":"1557 InstBen","year":1557},{"label":"1570 BT","year":1570},{"label":"1603 Foster","year":1603},{"label":"1608 Anc","year":1608},{"label":"1622 BT","year":1622},{"label":"1736–1736, recurring Yarb","year":1736},{"label":"1736 Yarb","year":1736}],"when":{"timespans":[{"start":{"in":"1557"},"end":{"in":"1557"}},{"start":{"in":"1570"},"end":{"in":"1570"}},{"start":{"in":"1589"},"end":{"in":"1589"}},{"start":{"in":"1603"},"end":{"in":"1603"}},{"start":{"in":"1608"},"end":{"in":"1608"}},{"start":{"in":"1622"},"end":{"in":"1622"}},{"start":{"in":"1674"},"end":{"in":"1674"}},{"start":{"in":"1736"},"end":{"in":"1736"}},{"start":{"in":"1736"},"end":{"in":"1736"}}]}},{"toponym":"Wolde Newton","citations":[{"label":"1500 MiD","year":1500},{"label":"1602 Foster","year":1602}],"when":{"timespans":[{"start":{"in":"1500"},"end":{"in":"1500"}},{"start":{"in":"1602"},"end":{"in":"1602"}}]}},{"toponym":"Woldenewton","citations":[{"label":"1510 LP","year":1510}],"when":{"timespans":[{"start":{"in":"1510"},"end":{"in":"1510"}}]}},{"toponym":"Would Newton","citations":[{"label":"1591 BT","year":1591},{"label":"1599 MiD","year":1599},{"label":"1603 BT","year":1603},{"label":"1620 LCS","year":1620},{"label":"1630 BT","year":1630},{"label":"1631 VisitN","year":1631},{"label":"1638 LCS","year":1638},{"label":"1648–1734, recurring MiD","year":1648},{"label":"1648–1734, recurring Yarb"},{"label":"1648 MiD","year":1648},{"label":"1734 Yarb","year":1734}],"when":{"timespans":[{"start":{"in":"1591"},"end":{"in":"1591"}},{"start":{"in":"1593"},"end":{"in":"1593"}},{"start":{"in":"1599"},"end":{"in":"1599"}},{"start":{"in":"1603"},"end":{"in":"1603"}},{"start":{"in":"1605"},"end":{"in":"1605"}},{"start":{"in":"1607"},"end":{"in":"1607"}},{"start":{"in":"1620"},"end":{"in":"1620"}},{"start":{"in":"1630"},"end":{"in":"1630"}},{"start":{"in":"1631"},"end":{"in":"1631"}},{"start":{"in":"1638"},"end":{"in":"1638"}},{"start":{"in":"1648"},"end":{"in":"1734"}},{"start":{"in":"1648"},"end":{"in":"1648"}},{"start":{"in":"1734"},"end":{"in":"1734"}}]}},{"toponym":"Wouldnewton","citations":[{"label":"1610 Speed","year":1610},{"label":"1687 Yarb","year":1687}],"when":{"timespans":[{"start":{"in":"1610"},"end":{"in":"1610"}},{"start":{"in":"1687"},"end":{"in":"1687"}}]}},{"toponym":"Wholdnewton","citations":[{"label":"1574 Foster","year":1574}],"when":{"timespans":[{"start":{"in":"1574"},"end":{"in":"1574"}}]}},{"toponym":"Wowldnewton","citations":[{"label":"1576 Saxton","year":1576}],"when":{"timespans":[{"start":{"in":"1576"},"end":{"in":"1576"}}]}},{"toponym":"Wooldnewton","citations":[{"label":"1580 Terrier","year":1580},{"label":"1586 BT","year":1586}],"when":{"timespans":[{"start":{"in":"1580"},"end":{"in":"1580"}},{"start":{"in":"1586"},"end":{"in":"1586"}}]}},{"toponym":"Woold Newton","citations":[{"label":"1724 Terrier","year":1724}],"when":{"timespans":[{"start":{"in":"1724"},"end":{"in":"1724"}}]}},{"toponym":"Oldenewton","citations":[{"label":"1507 Pat","year":1507}],"when":{"timespans":[{"start":{"in":"1507"},"end":{"in":"1507"}}]}},{"toponym":"Oldenewtonne","citations":[{"label":"1558 Admin","year":1558}],"when":{"timespans":[{"start":{"in":"1558"},"end":{"in":"1558"}}]}},{"toponym":"Vetera Neuton'","citations":[{"label":"1386 Peace","year":1386}],"when":{"timespans":[{"start":{"in":"1386"},"end":{"in":"1386"}}]}}],"types":[{"identifier":"http://vocab.getty.edu/aat/300232418","label":"administrative division","sourceLabels":[{"label":"township","lang":"en"}]}],"geometry":{"type":"GeometryCollection","geometries":[{"type":"Point","coordinates":[-0.13333,53.45],"citations":[{"label":"GeoNames, gazetteer record geonames:2633706"}]},{"type":"Point","coordinates":[-0.1250067588571393,53.45027635454838],"citations":[{"label":"Unlock (EDINA) gazetteer, gazetteer record unlock:11324836"}]},{"type":"Point","coordinates":[-0.126683,53.4506],"citations":[{"label":"Key to English Place-Names (KEPN), gazetteer record 10611"}]}]},"when":{"timespans":[{"start":{"in":"1086"},"end":{"in":"1736"}}]},"links":[{"type":"closeMatch","identifier":"https://sws.geonames.org/2633706/"}],"relations":[{"relationType":"gvp:broaderPartitive","relationTo":"https://w3id.org/whg-epns/71/006271","label":"within Wold Newton"}]}]}