{"@context":"https://raw.githubusercontent.com/LinkedPasts/linked-places-format/main/linkedplaces-context-v1.1.jsonld","type":"FeatureCollection","license":"Digitisation of English Placenames MADS data is licensed to Jisc by the English Place Names Society and released under a Creative Commons Attribution-NonCommercial 4.0 International License.","note":"LPF v1.3, lossy; derived from the PLATO record; plato_commit=fa0d247ccc0263f8f19c8d7cdcd163df96935d1e","features":[{"@id":"https://w3id.org/whg-epns/29/000454","type":"Feature","properties":{"title":"Ashleyhay","ccodes":["GB"],"fclasses":["A","P"]},"names":[{"toponym":"Ashleyhay","lang":"en","citations":[{"label":"English Place-Name Society survey, volume 29: Derbyshire"}]}],"types":[{"identifier":"http://vocab.getty.edu/aat/300232418","label":"administrative division","sourceLabels":[{"label":"parish","lang":"en"}]}],"geometry":{"type":"GeometryCollection","geometries":[{"type":"Point","coordinates":[-1.55008,53.05984],"citations":[{"label":"GeoNames, gazetteer record geonames:7298899"}]},{"type":"Point","coordinates":[-1.559775169656451,53.05963362788017],"citations":[{"label":"Unlock (EDINA) gazetteer, gazetteer record unlock:11064610"}]},{"type":"Point","coordinates":[-1.53133,53.0688],"citations":[{"label":"Key to English Place-Names (KEPN), gazetteer record 3422"}]}]},"links":[{"type":"closeMatch","identifier":"https://sws.geonames.org/7298899/"}],"relations":[{"relationType":"gvp:broaderPartitive","relationTo":"https://w3id.org/whg-epns/29/000002","label":"within Appletree Hundred"}]}]}