{"@context":"https://raw.githubusercontent.com/LinkedPasts/linked-places-format/main/linkedplaces-context-v1.1.jsonld","type":"FeatureCollection","license":"Digitisation of English Placenames MADS data is licensed to Jisc by the English Place Names Society and released under a Creative Commons Attribution-NonCommercial 4.0 International License.","note":"LPF v1.3, lossy; derived from the PLATO record; plato_commit=fa0d247ccc0263f8f19c8d7cdcd163df96935d1e","features":[{"@id":"https://w3id.org/whg-epns/29/001438","type":"Feature","properties":{"title":"Biggin","ccodes":["GB"],"fclasses":["A","P"]},"names":[{"toponym":"Biggin","lang":"en","citations":[{"label":"English Place-Name Society survey, volume 29: Derbyshire"}]},{"toponym":"New(e)bigging","citations":[{"label":"1223-39 RegAnt","year":1223},{"label":"1251 Ch","year":1251},{"label":"1262 WollCh","year":1262}],"when":{"timespans":[{"start":{"earliest":"1223","latest":"1239"},"end":{"earliest":"1223","latest":"1239"}},{"start":{"in":"1251"},"end":{"in":"1251"}},{"start":{"in":"1262"},"end":{"in":"1262"}}]}},{"toponym":"New(e)biggingge","citations":[{"label":"1298 Cl","year":1298}],"when":{"timespans":[{"start":{"in":"1298"},"end":{"in":"1298"}}]}},{"toponym":"New(e)biggin","citations":[{"label":"1298 DbCh","year":1298}],"when":{"timespans":[{"start":{"in":"1298"},"end":{"in":"1298"}}]}},{"toponym":"New(e)biggynge","citations":[{"label":"1327 Cl","year":1327}],"when":{"timespans":[{"start":{"in":"1327"},"end":{"in":"1327"}}]}},{"toponym":"Neubyggyng","citations":[{"label":"1345 Cor","year":1345}],"when":{"timespans":[{"start":{"in":"1345"},"end":{"in":"1345"}}]}},{"toponym":"Nubiggyng","citations":[{"label":"1346 Cor","year":1346}],"when":{"timespans":[{"start":{"in":"1346"},"end":{"in":"1346"}}]}},{"toponym":"Neubugging","citations":[{"label":"1327 Ipm","year":1327}],"when":{"timespans":[{"start":{"in":"1327"},"end":{"in":"1327"}}]}},{"toponym":"Bugyng","citations":[{"label":"1329 Pat","year":1329}],"when":{"timespans":[{"start":{"in":"1329"},"end":{"in":"1329"}}]}},{"toponym":"Buggynt","citations":[{"label":"1346 Pat","year":1346}],"when":{"timespans":[{"start":{"in":"1346"},"end":{"in":"1346"}}]}},{"toponym":"Bigging(e), Bygging(e), Byggyng(e)","citations":[{"label":"1330 Ass","year":1330},{"label":"1360 Pat","year":1360},{"label":"Cor","year":1392},{"label":"DuLaSC"},{"label":"1392 Cor","year":1392},{"label":"1635 DuLaSC","year":1635}],"when":{"timespans":[{"start":{"in":"1330"},"end":{"in":"1330"}},{"start":{"in":"1360"},"end":{"in":"1360"}},{"start":{"in":"1373"},"end":{"in":"1373"}},{"start":{"in":"1392"},"end":{"in":"1635"}},{"start":{"in":"1392"},"end":{"in":"1392"}},{"start":{"in":"1635"},"end":{"in":"1635"}}]}},{"toponym":"Byggyn","citations":[{"label":"1556 Lanc","year":1556}],"when":{"timespans":[{"start":{"in":"1556"},"end":{"in":"1556"}}]}},{"toponym":"Biggin","citations":[{"label":"1668 StJ","year":1668}],"when":{"timespans":[{"start":{"in":"1668"},"end":{"in":"1668"}}]}}],"types":[{"identifier":"http://vocab.getty.edu/aat/300232418","label":"administrative division","sourceLabels":[{"label":"township","lang":"en"}]}],"geometry":{"type":"GeometryCollection","geometries":[{"type":"Point","coordinates":[-1.60963,53.02898],"citations":[{"label":"GeoNames, gazetteer record geonames:7298133"}]},{"type":"Point","coordinates":[-1.60478933329832,53.03282102427944],"citations":[{"label":"Unlock (EDINA) gazetteer, gazetteer record unlock:11076783"}]},{"type":"Point","coordinates":[-1.60627,53.0331],"citations":[{"label":"Key to English Place-Names (KEPN), gazetteer record 3428"}]}]},"when":{"timespans":[{"start":{"in":"1223"},"end":{"in":"1668"}}]},"links":[{"type":"closeMatch","identifier":"https://sws.geonames.org/7298133/"}],"relations":[{"relationType":"gvp:broaderPartitive","relationTo":"https://w3id.org/whg-epns/29/001437","label":"within Biggin"}]}]}