{"@context":"https://raw.githubusercontent.com/LinkedPasts/linked-places-format/main/linkedplaces-context-v1.1.jsonld","type":"FeatureCollection","license":"Digitisation of English Placenames MADS data is licensed to Jisc by the English Place Names Society and released under a Creative Commons Attribution-NonCommercial 4.0 International License.","note":"LPF v1.3, lossy; derived from the PLATO record; plato_commit=ca0afadabec1e23a145c0b03df77e8f151f79832","features":[{"@id":"https://w3id.org/whg-epns/29/002190","type":"Feature","properties":{"title":"Church Broughton","ccodes":["GB"],"fclasses":["A","P"]},"names":[{"toponym":"Church Broughton","lang":"en","citations":[{"label":"English Place-Name Society survey, volume 29: Derbyshire"}]},{"toponym":"Broctun(e)","citations":[{"label":"1086 DB","year":1086},{"label":"c. 1166 AddCh","year":1156}],"when":{"timespans":[{"start":{"in":"1086"},"end":{"in":"1086"}},{"start":{"earliest":"1156","latest":"1176"},"end":{"earliest":"1156","latest":"1176"}}]}},{"toponym":"Brocton(e)","citations":[{"label":"1211-3 Fees","year":1211},{"label":"1230 Darley","year":1230},{"label":"1230 Memo","year":1230}],"when":{"timespans":[{"start":{"earliest":"1211","latest":"1213"},"end":{"earliest":"1211","latest":"1213"}},{"start":{"in":"1230"},"end":{"in":"1230"}},{"start":{"in":"1230"},"end":{"in":"1230"}}]}},{"toponym":"Brocton(e) Sulleny","citations":[{"label":"1243–1369, recurring Fees","year":1243},{"label":"1243–1369, recurring Misc"},{"label":"1243 Fees","year":1243},{"label":"1369 Misc","year":1369}],"when":{"timespans":[{"start":{"in":"1243"},"end":{"in":"1369"}},{"start":{"in":"1243"},"end":{"in":"1243"}},{"start":{"in":"1369"},"end":{"in":"1369"}}]}},{"toponym":"Brochton","citations":[{"label":"1349 Cor","year":1349}],"when":{"timespans":[{"start":{"in":"1349"},"end":{"in":"1349"}}]}},{"toponym":"Parva(m) Broctona(m)","citations":[{"label":"late 11th Tutbury","year":1075}],"when":{"timespans":[{"start":{"earliest":"1075","latest":"1100"},"end":{"earliest":"1075","latest":"1100"}},{"start":{"earliest":"1131","latest":"1151"},"end":{"earliest":"1131","latest":"1151"}},{"start":{"in":"1162"},"end":{"in":"1162"}}]}},{"toponym":"Broghtone","citations":[{"label":"1330 Ass","year":1330}],"when":{"timespans":[{"start":{"in":"1330"},"end":{"in":"1330"}}]}},{"toponym":"Broughton","citations":[{"label":"1577 Saxton","year":1577},{"label":"1610 Speed","year":1610}],"when":{"timespans":[{"start":{"in":"1577"},"end":{"in":"1577"}},{"start":{"in":"1610"},"end":{"in":"1610"}}]}},{"toponym":"Chirchebroghton(e)","citations":[{"label":"1327 Banco","year":1327},{"label":"1330 Ass","year":1330}],"when":{"timespans":[{"start":{"in":"1327"},"end":{"in":"1327"}},{"start":{"in":"1330"},"end":{"in":"1330"}}]}},{"toponym":"Chirchbrouhton","citations":[{"label":"1626 Senior","year":1626}],"when":{"timespans":[{"start":{"in":"1626"},"end":{"in":"1626"}}]}},{"toponym":"Kyrk(e)bro(u)ghton, Kirk(e)bro(u)ghton","citations":[{"label":"1383 Pat","year":1383},{"label":"1403 Tutbury","year":1403},{"label":"1454–1610, recurring Cl","year":1454},{"label":"1454–1610, recurring Add"},{"label":"1454 Cl","year":1454},{"label":"c. 1600 Add","year":1590}],"when":{"timespans":[{"start":{"in":"1383"},"end":{"in":"1383"}},{"start":{"in":"1398"},"end":{"in":"1398"}},{"start":{"in":"1403"},"end":{"in":"1403"}},{"start":{"in":"1454"},"end":{"in":"1610"}},{"start":{"in":"1454"},"end":{"in":"1454"}},{"start":{"earliest":"1590","latest":"1610"},"end":{"earliest":"1590","latest":"1610"}}]}}],"types":[{"identifier":"http://vocab.getty.edu/aat/300232418","label":"administrative division","sourceLabels":[{"label":"township","lang":"en"}]}],"geometry":{"type":"GeometryCollection","geometries":[{"type":"Point","coordinates":[-1.69621,52.90041],"citations":[{"label":"GeoNames, gazetteer record geonames:2653045"}]},{"type":"Point","coordinates":[-1.695219325894807,52.89823248207888],"citations":[{"label":"Unlock (EDINA) gazetteer, gazetteer record unlock:11106912"}]},{"type":"Point","coordinates":[-1.69669,52.8986],"citations":[{"label":"Key to English Place-Names (KEPN), gazetteer record 3433"}]}]},"when":{"timespans":[{"start":{"in":"1075"},"end":{"in":"1626"}}]},"links":[{"type":"closeMatch","identifier":"https://sws.geonames.org/2653045/"}],"relations":[{"relationType":"gvp:broaderPartitive","relationTo":"https://w3id.org/whg-epns/29/002189","label":"within Church Broughton"}]}]}