{"@context":"https://raw.githubusercontent.com/LinkedPasts/linked-places-format/main/linkedplaces-context-v1.1.jsonld","type":"FeatureCollection","license":"Digitisation of English Placenames MADS data is licensed to Jisc by the English Place Names Society and released under a Creative Commons Attribution-NonCommercial 4.0 International License.","note":"LPF v1.3, lossy; derived from the PLATO record; plato_commit=ca0afadabec1e23a145c0b03df77e8f151f79832","features":[{"@id":"https://w3id.org/whg-epns/29/002908","type":"Feature","properties":{"title":"Doveridge","ccodes":["GB"],"fclasses":["A","P"]},"names":[{"toponym":"Doveridge","lang":"en","citations":[{"label":"English Place-Name Society survey, volume 29: Derbyshire"}]},{"toponym":"Dub(b)rig(e), Dub (b)rigge","citations":[{"label":"1086 DB","year":1086},{"label":"late 11th Tutbury","year":1075}],"when":{"timespans":[{"start":{"in":"1086"},"end":{"in":"1086"}},{"start":{"earliest":"1075","latest":"1100"},"end":{"earliest":"1075","latest":"1100"}}]}},{"toponym":"Dubbrigia","citations":[{"label":"c. 1141 Tutbury","year":1131},{"label":"1208 FF","year":1208},{"label":"1218 Tutbury","year":1218},{"label":"1269–1454, recurring Ass","year":1269},{"label":"1269–1454, recurring DbA"},{"label":"1269 Ass","year":1269},{"label":"1454 DbA","year":1454}],"when":{"timespans":[{"start":{"earliest":"1131","latest":"1151"},"end":{"earliest":"1131","latest":"1151"}},{"start":{"in":"1162"},"end":{"in":"1162"}},{"start":{"in":"1208"},"end":{"in":"1208"}},{"start":{"in":"1218"},"end":{"in":"1218"}},{"start":{"in":"1269"},"end":{"in":"1454"}},{"start":{"in":"1269"},"end":{"in":"1269"}},{"start":{"in":"1454"},"end":{"in":"1454"}}]}},{"toponym":"Dub(b)rug(e), Dub(b)rugg(e)","citations":[{"label":"1275 RH","year":1275},{"label":"1276 Darley","year":1276},{"label":"1291–1562, recurring Tax","year":1291},{"label":"1291–1562, recurring WollCh"},{"label":"1291 Tax","year":1291},{"label":"1562 WollCh","year":1562}],"when":{"timespans":[{"start":{"in":"1275"},"end":{"in":"1275"}},{"start":{"in":"1276"},"end":{"in":"1276"}},{"start":{"in":"1289"},"end":{"in":"1289"}},{"start":{"in":"1291"},"end":{"in":"1562"}},{"start":{"in":"1291"},"end":{"in":"1291"}},{"start":{"in":"1562"},"end":{"in":"1562"}}]}},{"toponym":"Dubbreg(g)e","citations":[{"label":"1328 Banco","year":1328}],"when":{"timespans":[{"start":{"in":"1328"},"end":{"in":"1328"}}]}},{"toponym":"Dunebrug","citations":[{"label":"1229 Ch","year":1229}],"when":{"timespans":[{"start":{"in":"1229"},"end":{"in":"1229"}}]}},{"toponym":"Duuebrug, Duvebrug(e)","citations":[{"label":"1252 Pat","year":1252},{"label":"1275 Ch","year":1275}],"when":{"timespans":[{"start":{"in":"1252"},"end":{"in":"1252"}},{"start":{"in":"1275"},"end":{"in":"1275"}}]}},{"toponym":"Duvebrigg","citations":[{"label":"1305 Pat","year":1305}],"when":{"timespans":[{"start":{"in":"1305"},"end":{"in":"1305"}}]}},{"toponym":"Duebrigg","citations":[{"label":"1252 Ch","year":1252}],"when":{"timespans":[{"start":{"in":"1252"},"end":{"in":"1252"}}]}},{"toponym":"Dubrig","citations":[{"label":"1306 Pat","year":1306}],"when":{"timespans":[{"start":{"in":"1306"},"end":{"in":"1306"}}]}},{"toponym":"Duf(f)brigge","citations":[{"label":"1262 HardCh","year":1262}],"when":{"timespans":[{"start":{"in":"1262"},"end":{"in":"1262"}}]}},{"toponym":"Duf(f)brugg(e)","citations":[{"label":"1330 Ass","year":1330},{"label":"1382 Burton","year":1382}],"when":{"timespans":[{"start":{"in":"1330"},"end":{"in":"1330"}},{"start":{"in":"1382"},"end":{"in":"1382"}}]}},{"toponym":"Douuebrig, Douvebrig, Douvebrigg(e)","citations":[{"label":"1271 Ass","year":1271},{"label":"1392 Pat","year":1392},{"label":"1507 WollCh","year":1507}],"when":{"timespans":[{"start":{"in":"1271"},"end":{"in":"1271"}},{"start":{"in":"1306"},"end":{"in":"1306"}},{"start":{"in":"1392"},"end":{"in":"1392"}},{"start":{"in":"1507"},"end":{"in":"1507"}}]}},{"toponym":"Douvebrugg(e), Douvebrug(e)","citations":[{"label":"1291 Pap","year":1291},{"label":"1330 Ass","year":1330},{"label":"1348–1392, recurring WollCh","year":1348},{"label":"1348–1392, recurring Pat"},{"label":"1348 WollCh","year":1348},{"label":"1392 Pat","year":1392}],"when":{"timespans":[{"start":{"in":"1291"},"end":{"in":"1291"}},{"start":{"in":"1330"},"end":{"in":"1330"}},{"start":{"in":"1348"},"end":{"in":"1392"}},{"start":{"in":"1348"},"end":{"in":"1348"}},{"start":{"in":"1392"},"end":{"in":"1392"}}]}},{"toponym":"Doubrigg(e), Doubrig","citations":[{"label":"1291 Tax","year":1291},{"label":"1302 Cl","year":1302},{"label":"1354 Pat","year":1354},{"label":"1382 Gaunt","year":1382}],"when":{"timespans":[{"start":{"in":"1291"},"end":{"in":"1291"}},{"start":{"in":"1302"},"end":{"in":"1302"}},{"start":{"in":"1354"},"end":{"in":"1354"}},{"start":{"in":"1382"},"end":{"in":"1382"}}]}},{"toponym":"Doubrugg(e), Doubrug'","citations":[{"label":"1275 RH","year":1275},{"label":"1294 Pat","year":1294},{"label":"1334 DbCh","year":1334},{"label":"1342 Pat","year":1342}],"when":{"timespans":[{"start":{"in":"1275"},"end":{"in":"1275"}},{"start":{"in":"1294"},"end":{"in":"1294"}},{"start":{"in":"1334"},"end":{"in":"1334"}},{"start":{"in":"1342"},"end":{"in":"1342"}},{"start":{"in":"1359"},"end":{"in":"1359"}}]}},{"toponym":"Doubregge","citations":[{"label":"1325 DbA","year":1325}],"when":{"timespans":[{"start":{"in":"1325"},"end":{"in":"1325"}}]}},{"toponym":"Doubryg","citations":[{"label":"1330 Ass","year":1330}],"when":{"timespans":[{"start":{"in":"1330"},"end":{"in":"1330"}}]}},{"toponym":"Doveridge","citations":[{"label":"1306 FF","year":1306},{"label":"1558–1603, recurring ChancP","year":1558},{"label":"Eliz ChancP","year":1558}],"when":{"timespans":[{"start":{"in":"1306"},"end":{"in":"1306"}},{"start":{"in":"1558"},"end":{"in":"1603"}},{"start":{"earliest":"1558","latest":"1603"},"end":{"earliest":"1558","latest":"1603"}}]}},{"toponym":"Douebrigg(e), Dovebrigg(e)","citations":[{"label":"1307 FF","year":1307},{"label":"1314 Abbr","year":1314},{"label":"1392–1392, recurring Pat","year":1392},{"label":"1392 Pat","year":1392}],"when":{"timespans":[{"start":{"in":"1307"},"end":{"in":"1307"}},{"start":{"in":"1314"},"end":{"in":"1314"}},{"start":{"in":"1392"},"end":{"in":"1392"}},{"start":{"in":"1392"},"end":{"in":"1392"}}]}},{"toponym":"Dovebridge","citations":[{"label":"1676 DbA","year":1676}],"when":{"timespans":[{"start":{"in":"1676"},"end":{"in":"1676"}}]}},{"toponym":"Dovebrugge","citations":[{"label":"1318 FF","year":1318},{"label":"1349 Pat","year":1349},{"label":"14th AD","year":1300}],"when":{"timespans":[{"start":{"in":"1318"},"end":{"in":"1318"}},{"start":{"in":"1349"},"end":{"in":"1349"}},{"start":{"earliest":"1300","latest":"1400"},"end":{"earliest":"1300","latest":"1400"}}]}},{"toponym":"Dourygge","citations":[{"label":"1330 Ass","year":1330}],"when":{"timespans":[{"start":{"in":"1330"},"end":{"in":"1330"}}]}},{"toponym":"Douridg","citations":[{"label":"1577 Saxton","year":1577}],"when":{"timespans":[{"start":{"in":"1577"},"end":{"in":"1577"}}]}},{"toponym":"Dow(e)brigg","citations":[{"label":"1363 RadCh","year":1363}],"when":{"timespans":[{"start":{"in":"1363"},"end":{"in":"1363"}}]}},{"toponym":"Dow(e)bryge","citations":[{"label":"1513 DbCh","year":1513}],"when":{"timespans":[{"start":{"in":"1513"},"end":{"in":"1513"}}]}},{"toponym":"Dow(e)bridge","citations":[{"label":"1550 DbA","year":1550}],"when":{"timespans":[{"start":{"in":"1550"},"end":{"in":"1550"}}]}},{"toponym":"Duberuge","citations":[{"label":"14th AD","year":1300}],"when":{"timespans":[{"start":{"earliest":"1300","latest":"1400"},"end":{"earliest":"1300","latest":"1400"}}]}},{"toponym":"Duvvrige","citations":[{"label":"1428 FA","year":1428}],"when":{"timespans":[{"start":{"in":"1428"},"end":{"in":"1428"}}]}}],"types":[{"identifier":"http://vocab.getty.edu/aat/300232418","label":"administrative division","sourceLabels":[{"label":"township","lang":"en"}]}],"geometry":{"type":"GeometryCollection","geometries":[{"type":"Point","coordinates":[-1.8248,52.90526],"citations":[{"label":"GeoNames, gazetteer record geonames:2651045"}]},{"type":"Point","coordinates":[-1.82898917692872,52.90749073699197],"citations":[{"label":"Unlock (EDINA) gazetteer, gazetteer record unlock:11131098"}]},{"type":"Point","coordinates":[-1.83044,52.9078],"citations":[{"label":"Key to English Place-Names (KEPN), gazetteer record 3438"}]}]},"when":{"timespans":[{"start":{"in":"1075"},"end":{"in":"1676"}}]},"links":[{"type":"closeMatch","identifier":"https://sws.geonames.org/2651045/"}],"relations":[{"relationType":"gvp:broaderPartitive","relationTo":"https://w3id.org/whg-epns/29/002907","label":"within Doveridge"}]}]}