{"@context":"https://raw.githubusercontent.com/LinkedPasts/linked-places-format/main/linkedplaces-context-v1.1.jsonld","type":"FeatureCollection","license":"Digitisation of English Placenames MADS data is licensed to Jisc by the English Place Names Society and released under a Creative Commons Attribution-NonCommercial 4.0 International License.","note":"LPF v1.3, lossy; derived from the PLATO record; plato_commit=ca0afadabec1e23a145c0b03df77e8f151f79832","features":[{"@id":"http://placenames.org.uk/id/placename/29/003552","type":"Feature","properties":{"title":"Wyaston","ccodes":["GB"],"fclasses":["A","P"]},"names":[{"toponym":"Wyaston","lang":"en","citations":[{"label":"English Place-Name Society survey, volume 29: Derbyshire"}]},{"toponym":"Widerdestune","citations":[{"label":"1086 DB","year":1086}],"when":{"timespans":[{"start":{"in":"1086"},"end":{"in":"1086"}}]}},{"toponym":"Wyardeston(e), Wyardiston(e), -ton(e), Wyardestoun","citations":[{"label":"1244 FF","year":1244},{"label":"1269 Ass","year":1269},{"label":"Hy 3 WollCh","year":1216},{"label":"1281 Ass","year":1281},{"label":"1288–1403, recurring Cl","year":1288},{"label":"1288–1403, recurring Shir"},{"label":"1288 Cl","year":1288},{"label":"1403 Shir","year":1403}],"when":{"timespans":[{"start":{"in":"1244"},"end":{"in":"1244"}},{"start":{"in":"1269"},"end":{"in":"1269"}},{"start":{"earliest":"1216","latest":"1272"},"end":{"earliest":"1216","latest":"1272"}},{"start":{"in":"1281"},"end":{"in":"1281"}},{"start":{"in":"1288"},"end":{"in":"1403"}},{"start":{"in":"1288"},"end":{"in":"1288"}},{"start":{"in":"1403"},"end":{"in":"1403"}}]}},{"toponym":"Wyerdeston(e)","citations":[{"label":"1265 Cl","year":1265},{"label":"1269 Ass","year":1269},{"label":"1280 Cl","year":1280}],"when":{"timespans":[{"start":{"in":"1265"},"end":{"in":"1265"}},{"start":{"in":"1269"},"end":{"in":"1269"}},{"start":{"in":"1280"},"end":{"in":"1280"}}]}},{"toponym":"Wiaston, Wyaston","citations":[{"label":"1363 Ipm","year":1363},{"label":"1364 Cl","year":1364},{"label":"1415 Woll","year":1415},{"label":"1452–1452, recurring Cl","year":1452},{"label":"1452 Cl","year":1452}],"when":{"timespans":[{"start":{"in":"1363"},"end":{"in":"1363"}},{"start":{"in":"1364"},"end":{"in":"1364"}},{"start":{"in":"1415"},"end":{"in":"1415"}},{"start":{"in":"1452"},"end":{"in":"1452"}},{"start":{"in":"1452"},"end":{"in":"1452"}}]}},{"toponym":"Wireson, Wierson","citations":[{"label":"1734 Poll","year":1734}],"when":{"timespans":[{"start":{"in":"1734"},"end":{"in":"1734"}}]}}],"types":[{"identifier":"http://vocab.getty.edu/aat/300232418","label":"administrative division","sourceLabels":[{"label":"township","lang":"en"}]}],"geometry":{"type":"GeometryCollection","geometries":[{"type":"Point","coordinates":[-1.724440101054285,52.97921692582225],"citations":[{"label":"Unlock (EDINA) gazetteer, gazetteer record unlock:11327726"}]},{"type":"Point","coordinates":[-1.7408,52.9796],"citations":[{"label":"Key to English Place-Names (KEPN), gazetteer record 3440"}]}]},"when":{"timespans":[{"start":{"in":"1086"},"end":{"in":"1734"}}]},"relations":[{"relationType":"gvp:broaderPartitive","relationTo":"http://placenames.org.uk/id/placename/29/003537","label":"within Edlaston and Wyaston"}]}]}