{"@context":"https://raw.githubusercontent.com/LinkedPasts/linked-places-format/main/linkedplaces-context-v1.1.jsonld","type":"FeatureCollection","license":"Digitisation of English Placenames MADS data is licensed to Jisc by the English Place Names Society and released under a Creative Commons Attribution-NonCommercial 4.0 International License.","note":"LPF v1.3, lossy; derived from the PLATO record; plato_commit=fa0d247ccc0263f8f19c8d7cdcd163df96935d1e","features":[{"@id":"https://w3id.org/whg-epns/29/003708","type":"Feature","properties":{"title":"Etwall","ccodes":["GB"],"fclasses":["A","P"]},"names":[{"toponym":"Etwall","lang":"en","citations":[{"label":"English Place-Name Society survey, volume 29: Derbyshire"}]}],"types":[{"identifier":"http://vocab.getty.edu/aat/300232418","label":"administrative division","sourceLabels":[{"label":"parish","lang":"en"}]}],"geometry":{"type":"GeometryCollection","geometries":[{"type":"Point","coordinates":[-1.60023,52.88353],"citations":[{"label":"GeoNames, gazetteer record geonames:2649863"}]},{"type":"Point","coordinates":[-1.606180251178865,52.87998978777478],"citations":[{"label":"Unlock (EDINA) gazetteer, gazetteer record unlock:11140827"}]},{"type":"Point","coordinates":[-1.60766,52.8803],"citations":[{"label":"Key to English Place-Names (KEPN), gazetteer record 3441"}]}]},"links":[{"type":"closeMatch","identifier":"https://sws.geonames.org/2649863/"}],"relations":[{"relationType":"gvp:broaderPartitive","relationTo":"https://w3id.org/whg-epns/29/000002","label":"within Appletree Hundred"}]}]}