{"@context":"https://raw.githubusercontent.com/LinkedPasts/linked-places-format/main/linkedplaces-context-v1.1.jsonld","type":"FeatureCollection","license":"Digitisation of English Placenames MADS data is licensed to Jisc by the English Place Names Society and released under a Creative Commons Attribution-NonCommercial 4.0 International License.","note":"LPF v1.3, lossy; derived from the PLATO record; plato_commit=ca0afadabec1e23a145c0b03df77e8f151f79832","features":[{"@id":"https://w3id.org/whg-epns/29/003799","type":"Feature","properties":{"title":"Foston","ccodes":["GB"],"fclasses":["A","P"]},"names":[{"toponym":"Foston","lang":"en","citations":[{"label":"English Place-Name Society survey, volume 29: Derbyshire"}]},{"toponym":"Farulvestun","citations":[{"label":"1086 DB","year":1086}],"when":{"timespans":[{"start":{"in":"1086"},"end":{"in":"1086"}}]}},{"toponym":"Farleston'","citations":[{"label":"1331 AddCh","year":1331}],"when":{"timespans":[{"start":{"in":"1331"},"end":{"in":"1331"}}]}},{"toponym":"Fostun, Fostona, Foston(e)","citations":[{"label":"a. 1138 Okeover","year":1088},{"label":"1162 Tutbury","year":1162},{"label":"1232 FF","year":1232},{"label":"1272 AddCh","year":1272},{"label":"1281 Ass","year":1281},{"label":"1283–1283, recurring FF","year":1283},{"label":"1283 FF","year":1283}],"when":{"timespans":[{"start":{"earliest":"1088","latest":"1138"},"end":{"earliest":"1088","latest":"1138"}},{"start":{"in":"1162"},"end":{"in":"1162"}},{"start":{"in":"1232"},"end":{"in":"1232"}},{"start":{"in":"1272"},"end":{"in":"1272"}},{"start":{"in":"1281"},"end":{"in":"1281"}},{"start":{"in":"1283"},"end":{"in":"1283"}},{"start":{"in":"1283"},"end":{"in":"1283"}}]}},{"toponym":"Foteston'","citations":[{"label":"e. 14th SaltCh","year":1300}],"when":{"timespans":[{"start":{"earliest":"1300","latest":"1325"},"end":{"earliest":"1300","latest":"1325"}}]}}],"types":[{"identifier":"http://vocab.getty.edu/aat/300232418","label":"administrative division","sourceLabels":[{"label":"township","lang":"en"}]}],"geometry":{"type":"GeometryCollection","geometries":[{"type":"Point","coordinates":[-1.725067415585444,52.88032447727362],"citations":[{"label":"Unlock (EDINA) gazetteer, gazetteer record unlock:11147123"}]},{"type":"Point","coordinates":[-1.72653,52.8807],"citations":[{"label":"Key to English Place-Names (KEPN), gazetteer record 3442"}]}]},"when":{"timespans":[{"start":{"in":"1086"},"end":{"in":"1331"}}]},"relations":[{"relationType":"gvp:broaderPartitive","relationTo":"https://w3id.org/whg-epns/29/003798","label":"within Foston and Scropton"}]}]}