{"@context":"https://raw.githubusercontent.com/LinkedPasts/linked-places-format/main/linkedplaces-context-v1.1.jsonld","type":"FeatureCollection","license":"Digitisation of English Placenames MADS data is licensed to Jisc by the English Place Names Society and released under a Creative Commons Attribution-NonCommercial 4.0 International License.","note":"LPF v1.3, lossy; derived from the PLATO record; plato_commit=ca0afadabec1e23a145c0b03df77e8f151f79832","features":[{"@id":"http://placenames.org.uk/id/placename/29/004423","type":"Feature","properties":{"title":"Hilton","ccodes":["GB"],"fclasses":["A","P"]},"names":[{"toponym":"Hilton","lang":"en","citations":[{"label":"English Place-Name Society survey, volume 29: Derbyshire"}]},{"toponym":"Hiltune","citations":[{"label":"1086 DB","year":1086}],"when":{"timespans":[{"start":{"in":"1086"},"end":{"in":"1086"}}]}},{"toponym":"Hilton(e)","citations":[{"label":"1208 Cur","year":1208},{"label":"1222 Cur","year":1222},{"label":"1230 P","year":1230},{"label":"1243 Fees","year":1243},{"label":"1250–1270, recurring Dale","year":1250},{"label":"c. 1260 Dale","year":1250}],"when":{"timespans":[{"start":{"in":"1208"},"end":{"in":"1208"}},{"start":{"in":"1222"},"end":{"in":"1222"}},{"start":{"in":"1230"},"end":{"in":"1230"}},{"start":{"in":"1243"},"end":{"in":"1243"}},{"start":{"in":"1250"},"end":{"in":"1270"}},{"start":{"earliest":"1250","latest":"1270"},"end":{"earliest":"1250","latest":"1270"}}]}},{"toponym":"Hulton(e)","citations":[{"label":"1208 FF","year":1208},{"label":"1230 ChancR","year":1230},{"label":"1258 Ass","year":1258},{"label":"1259 DbA","year":1259},{"label":"1272–1466, recurring Ass","year":1272},{"label":"1272–1466, recurring EveryCh"},{"label":"1272 Ass","year":1272},{"label":"1466 EveryCh","year":1466}],"when":{"timespans":[{"start":{"in":"1208"},"end":{"in":"1208"}},{"start":{"in":"1230"},"end":{"in":"1230"}},{"start":{"in":"1258"},"end":{"in":"1258"}},{"start":{"in":"1259"},"end":{"in":"1259"}},{"start":{"in":"1272"},"end":{"in":"1466"}},{"start":{"in":"1272"},"end":{"in":"1272"}},{"start":{"in":"1466"},"end":{"in":"1466"}}]}},{"toponym":"Hylton(e)","citations":[{"label":"1250 FF","year":1250},{"label":"Hy 3 Dale","year":1216},{"label":"1281 Ass","year":1281},{"label":"1431 FA","year":1431},{"label":"1436 EveryCh","year":1436},{"label":"1447 WollCh","year":1447}],"when":{"timespans":[{"start":{"in":"1250"},"end":{"in":"1250"}},{"start":{"earliest":"1216","latest":"1272"},"end":{"earliest":"1216","latest":"1272"}},{"start":{"in":"1281"},"end":{"in":"1281"}},{"start":{"in":"1330"},"end":{"in":"1330"}},{"start":{"in":"1431"},"end":{"in":"1431"}},{"start":{"in":"1436"},"end":{"in":"1436"}},{"start":{"in":"1447"},"end":{"in":"1447"}},{"start":{"in":"1495"},"end":{"in":"1495"}}]}}],"types":[{"identifier":"http://vocab.getty.edu/aat/300232418","label":"administrative division","sourceLabels":[{"label":"township","lang":"en"}]}],"geometry":{"type":"GeometryCollection","geometries":[{"type":"Point","coordinates":[-1.62814,52.87619],"citations":[{"label":"GeoNames, gazetteer record geonames:7300219"}]},{"type":"Point","coordinates":[-1.635977096839786,52.87109438898823],"citations":[{"label":"Unlock (EDINA) gazetteer, gazetteer record unlock:11175600"}]},{"type":"Point","coordinates":[-1.63745,52.8714],"citations":[{"label":"Key to English Place-Names (KEPN), gazetteer record 3446"}]}]},"when":{"timespans":[{"start":{"in":"1086"},"end":{"in":"1495"}}]},"links":[{"type":"closeMatch","identifier":"https://sws.geonames.org/7300219/"}],"relations":[{"relationType":"gvp:broaderPartitive","relationTo":"http://placenames.org.uk/id/placename/29/004422","label":"within Hilton"}]}]}