{"@context":"https://raw.githubusercontent.com/LinkedPasts/linked-places-format/main/linkedplaces-context-v1.1.jsonld","type":"FeatureCollection","license":"Digitisation of English Placenames MADS data is licensed to Jisc by the English Place Names Society and released under a Creative Commons Attribution-NonCommercial 4.0 International License.","note":"LPF v1.3, lossy; derived from the PLATO record; plato_commit=ca0afadabec1e23a145c0b03df77e8f151f79832","features":[{"@id":"https://w3id.org/whg-epns/29/004745","type":"Feature","properties":{"title":"Hoon","ccodes":["GB"],"fclasses":["A","P"]},"names":[{"toponym":"Hoon","lang":"en","citations":[{"label":"English Place-Name Society survey, volume 29: Derbyshire"}]},{"toponym":"Hougen","citations":[{"label":"1086 DB","year":1086}],"when":{"timespans":[{"start":{"in":"1086"},"end":{"in":"1086"}}]}},{"toponym":"Hogam","citations":[{"label":"Hy 3 EveryCh","year":1216},{"label":"1296 Ipm","year":1296}],"when":{"timespans":[{"start":{"earliest":"1216","latest":"1272"},"end":{"earliest":"1216","latest":"1272"}},{"start":{"in":"1296"},"end":{"in":"1296"}}]}},{"toponym":"Howen(e)","citations":[{"label":"1275 RH","year":1275},{"label":"1306 Ass","year":1306},{"label":"1309 FF","year":1309},{"label":"1317 AddCh","year":1317},{"label":"1323 FF","year":1323},{"label":"1328 SR","year":1328},{"label":"1330 Ass","year":1330},{"label":"1610 Speed","year":1610}],"when":{"timespans":[{"start":{"in":"1275"},"end":{"in":"1275"}},{"start":{"in":"1306"},"end":{"in":"1306"}},{"start":{"in":"1309"},"end":{"in":"1309"}},{"start":{"in":"1317"},"end":{"in":"1317"}},{"start":{"in":"1320"},"end":{"in":"1320"}},{"start":{"in":"1323"},"end":{"in":"1323"}},{"start":{"in":"1328"},"end":{"in":"1328"}},{"start":{"in":"1330"},"end":{"in":"1330"}},{"start":{"in":"1610"},"end":{"in":"1610"}}]}},{"toponym":"Howon","citations":[{"label":"1330 Ass","year":1330},{"label":"14th AddCh","year":1300}],"when":{"timespans":[{"start":{"in":"1330"},"end":{"in":"1330"}},{"start":{"earliest":"1300","latest":"1400"},"end":{"earliest":"1300","latest":"1400"}}]}},{"toponym":"Houn(e)","citations":[{"label":"1330 Ass","year":1330},{"label":"1350 Ch","year":1350}],"when":{"timespans":[{"start":{"in":"1330"},"end":{"in":"1330"}},{"start":{"in":"1350"},"end":{"in":"1350"}}]}},{"toponym":"Hown(e)","citations":[{"label":"1384 Shir","year":1384},{"label":"1467 IpmR","year":1467},{"label":"1510 Lanc","year":1510},{"label":"1577 Saxton","year":1577},{"label":"1587 DbA","year":1587}],"when":{"timespans":[{"start":{"in":"1384"},"end":{"in":"1384"}},{"start":{"in":"1467"},"end":{"in":"1467"}},{"start":{"in":"1510"},"end":{"in":"1510"}},{"start":{"in":"1515"},"end":{"in":"1515"}},{"start":{"in":"1577"},"end":{"in":"1577"}},{"start":{"in":"1587"},"end":{"in":"1587"}}]}},{"toponym":"Hone","citations":[{"label":"1349 Cor","year":1349},{"label":"1403 Shir","year":1403},{"label":"1465 AD","year":1465},{"label":"1486 Ipm","year":1486},{"label":"1652 DuLa","year":1652}],"when":{"timespans":[{"start":{"in":"1349"},"end":{"in":"1349"}},{"start":{"in":"1403"},"end":{"in":"1403"}},{"start":{"in":"1465"},"end":{"in":"1465"}},{"start":{"in":"1486"},"end":{"in":"1486"}},{"start":{"in":"1652"},"end":{"in":"1652"}}]}},{"toponym":"Hoon(e)","citations":[{"label":"1431 FA","year":1431},{"label":"1485 Shir","year":1485},{"label":"1514–1514, recurring DuLaMB","year":1514},{"label":"1514 DuLaMB","year":1514}],"when":{"timespans":[{"start":{"in":"1431"},"end":{"in":"1431"}},{"start":{"in":"1485"},"end":{"in":"1485"}},{"start":{"in":"1514"},"end":{"in":"1514"}},{"start":{"in":"1514"},"end":{"in":"1514"}}]}}],"types":[{"identifier":"http://vocab.getty.edu/aat/300232418","label":"administrative division","sourceLabels":[{"label":"township","lang":"en"}]}],"geometry":{"type":"GeometryCollection","geometries":[{"type":"Point","coordinates":[-1.66093,52.8761],"citations":[{"label":"GeoNames, gazetteer record geonames:7296225"}]},{"type":"Point","coordinates":[-1.65223,52.8805],"citations":[{"label":"Key to English Place-Names (KEPN), gazetteer record 3449"}]}]},"when":{"timespans":[{"start":{"in":"1086"},"end":{"in":"1652"}}]},"links":[{"type":"closeMatch","identifier":"https://sws.geonames.org/7296225/"}],"relations":[{"relationType":"gvp:broaderPartitive","relationTo":"https://w3id.org/whg-epns/29/004744","label":"within Hoon"}]}]}