{"@context":"https://raw.githubusercontent.com/LinkedPasts/linked-places-format/main/linkedplaces-context-v1.1.jsonld","type":"FeatureCollection","license":"Digitisation of English Placenames MADS data is licensed to Jisc by the English Place Names Society and released under a Creative Commons Attribution-NonCommercial 4.0 International License.","note":"LPF v1.3, lossy; derived from the PLATO record; plato_commit=fa0d247ccc0263f8f19c8d7cdcd163df96935d1e","features":[{"@id":"https://w3id.org/whg-epns/29/005653","type":"Feature","properties":{"title":"Marston Montgomery","ccodes":["GB"],"fclasses":["A","P"]},"names":[{"toponym":"Marston Montgomery","lang":"en","citations":[{"label":"English Place-Name Society survey, volume 29: Derbyshire"}]},{"toponym":"Merston(e)","citations":[{"label":"1243 Fees","year":1243},{"label":"1252 FF","year":1252},{"label":"1324 Misc","year":1324}],"when":{"timespans":[{"start":{"in":"1243"},"end":{"in":"1243"}},{"start":{"in":"1252"},"end":{"in":"1252"}},{"start":{"in":"1324"},"end":{"in":"1324"}}]}},{"toponym":"Merston(e) Mountgomery","citations":[{"label":"1428 AddCh","year":1428}],"when":{"timespans":[{"start":{"in":"1428"},"end":{"in":"1428"}}]}},{"toponym":"Merston(e) Montgomere","citations":[{"label":"1472 WollCh","year":1472}],"when":{"timespans":[{"start":{"in":"1472"},"end":{"in":"1472"}}]}},{"toponym":"Marston (Mountegomery)","citations":[{"label":"c. 1350 DbCh","year":1340}],"when":{"timespans":[{"start":{"earliest":"1340","latest":"1360"},"end":{"earliest":"1340","latest":"1360"}}]}},{"toponym":"Marston Mungomerie","citations":[{"label":"1415 Woll","year":1415}],"when":{"timespans":[{"start":{"in":"1415"},"end":{"in":"1415"}}]}},{"toponym":"Marston Mountgomery","citations":[{"label":"1577 DbA","year":1577}],"when":{"timespans":[{"start":{"in":"1577"},"end":{"in":"1577"}}]}}],"types":[{"identifier":"http://vocab.getty.edu/aat/300232418","label":"administrative division","sourceLabels":[{"label":"township","lang":"en"}]}],"geometry":{"type":"GeometryCollection","geometries":[{"type":"Point","coordinates":[-1.8011,52.93819],"citations":[{"label":"GeoNames, gazetteer record geonames:2642965"}]},{"type":"Point","coordinates":[-1.799123567796372,52.93441506009996],"citations":[{"label":"Unlock (EDINA) gazetteer, gazetteer record unlock:11214285"}]},{"type":"Point","coordinates":[-1.80058,52.9347],"citations":[{"label":"Key to English Place-Names (KEPN), gazetteer record 3456"}]}]},"when":{"timespans":[{"start":{"in":"1243"},"end":{"in":"1577"}}]},"links":[{"type":"closeMatch","identifier":"https://sws.geonames.org/2642965/"}],"relations":[{"relationType":"gvp:broaderPartitive","relationTo":"https://w3id.org/whg-epns/29/005652","label":"within Marston Montgomery"}]}]}