{"@context":"https://raw.githubusercontent.com/LinkedPasts/linked-places-format/main/linkedplaces-context-v1.1.jsonld","type":"FeatureCollection","license":"Digitisation of English Placenames MADS data is licensed to Jisc by the English Place Names Society and released under a Creative Commons Attribution-NonCommercial 4.0 International License.","note":"LPF v1.3, lossy; derived from the PLATO record; plato_commit=fa0d247ccc0263f8f19c8d7cdcd163df96935d1e","features":[{"@id":"https://w3id.org/whg-epns/29/007971","type":"Feature","properties":{"title":"Sutton on the Hill","ccodes":["GB"],"fclasses":["A","P"]},"names":[{"toponym":"Sutton on the Hill","lang":"en","citations":[{"label":"English Place-Name Society survey, volume 29: Derbyshire"}]},{"toponym":"(in) Suþtone","citations":[{"label":"949 Peniarth","year":949}],"when":{"timespans":[{"start":{"in":"0949"},"end":{"in":"0949"}}]}},{"toponym":"(æt) Suðtune","citations":[{"label":"c. 1002 ASWills","year":992},{"label":"1004 Peniarth","year":1004}],"when":{"timespans":[{"start":{"earliest":"0992","latest":"1012"},"end":{"earliest":"0992","latest":"1012"}},{"start":{"in":"1004"},"end":{"in":"1004"}}]}},{"toponym":"Suttun","citations":[{"label":"c. 1002 ASWills","year":992}],"when":{"timespans":[{"start":{"earliest":"0992","latest":"1012"},"end":{"earliest":"0992","latest":"1012"}}]}},{"toponym":"Sutton(e)","citations":[{"label":"1243 Fees","year":1243},{"label":"1248-61 Darley","year":1248},{"label":"1275 RH","year":1275},{"label":"1291 Tax","year":1291},{"label":"Ipm","year":1298},{"label":"1298 Ipm","year":1298}],"when":{"timespans":[{"start":{"in":"1243"},"end":{"in":"1243"}},{"start":{"earliest":"1248","latest":"1261"},"end":{"earliest":"1248","latest":"1261"}},{"start":{"in":"1275"},"end":{"in":"1275"}},{"start":{"in":"1291"},"end":{"in":"1291"}},{"start":{"in":"1298"},"end":{"in":"1298"}},{"start":{"in":"1298"},"end":{"in":"1298"}}]}},{"toponym":"Sutton by Tottebury","citations":[{"label":"1371 Pap","year":1371}],"when":{"timespans":[{"start":{"in":"1371"},"end":{"in":"1371"}}]}},{"toponym":"Sutton super montem","citations":[{"label":"1560 FF","year":1560}],"when":{"timespans":[{"start":{"in":"1560"},"end":{"in":"1560"}}]}},{"toponym":"Sudtun(e)","citations":[{"label":"1086 DB","year":1086}],"when":{"timespans":[{"start":{"in":"1086"},"end":{"in":"1086"}}]}}],"types":[{"identifier":"http://vocab.getty.edu/aat/300232418","label":"administrative division","sourceLabels":[{"label":"township","lang":"en"}]}],"geometry":{"type":"GeometryCollection","geometries":[{"type":"Point","coordinates":[-1.65267,52.89953],"citations":[{"label":"GeoNames, gazetteer record geonames:2636475"}]},{"type":"Point","coordinates":[-1.650618123236987,52.89810968284343],"citations":[{"label":"Unlock (EDINA) gazetteer, gazetteer record unlock:11295928"}]},{"type":"Point","coordinates":[-1.65209,52.8984],"citations":[{"label":"Key to English Place-Names (KEPN), gazetteer record 3474"}]}]},"when":{"timespans":[{"start":{"in":"0949"},"end":{"in":"1560"}}]},"links":[{"type":"closeMatch","identifier":"https://sws.geonames.org/2636475/"}],"relations":[{"relationType":"gvp:broaderPartitive","relationTo":"https://w3id.org/whg-epns/29/007970","label":"within Sutton on the Hill"}]}]}