{"@context":"https://raw.githubusercontent.com/LinkedPasts/linked-places-format/main/linkedplaces-context-v1.1.jsonld","type":"FeatureCollection","license":"Digitisation of English Placenames MADS data is licensed to Jisc by the English Place Names Society and released under a Creative Commons Attribution-NonCommercial 4.0 International License.","note":"LPF v1.3, lossy; derived from the PLATO record; plato_commit=fa0d247ccc0263f8f19c8d7cdcd163df96935d1e","features":[{"@id":"https://w3id.org/whg-epns/29/009908","type":"Feature","properties":{"title":"Ingleby","ccodes":["GB"],"fclasses":["A","P"]},"names":[{"toponym":"Ingleby","lang":"en","citations":[{"label":"English Place-Name Society survey, volume 29: Derbyshire"}]},{"toponym":"Englabý","citations":[{"label":"1009 SaltCh","year":1009}],"when":{"timespans":[{"start":{"in":"1009"},"end":{"in":"1009"}}]}},{"toponym":"Englebi","citations":[{"label":"1086 DB","year":1086}],"when":{"timespans":[{"start":{"in":"1086"},"end":{"in":"1086"}}]}},{"toponym":"Engleb'","citations":[{"label":"1129-53 Burton","year":1129}],"when":{"timespans":[{"start":{"earliest":"1129","latest":"1153"},"end":{"earliest":"1129","latest":"1153"}}]}},{"toponym":"Engleby","citations":[{"label":"1216 PatR","year":1216},{"label":"1220 Cur","year":1220},{"label":"1228 StoweCh","year":1228},{"label":"FF","year":1236},{"label":"Burdett"},{"label":"1236 FF","year":1236},{"label":"1648 Burdett","year":1648}],"when":{"timespans":[{"start":{"in":"1216"},"end":{"in":"1216"}},{"start":{"in":"1220"},"end":{"in":"1220"}},{"start":{"in":"1228"},"end":{"in":"1228"}},{"start":{"in":"1236"},"end":{"in":"1648"}},{"start":{"in":"1236"},"end":{"in":"1236"}},{"start":{"in":"1648"},"end":{"in":"1648"}}]}},{"toponym":"Engelby","citations":[{"label":"1219 FF","year":1219},{"label":"1287 Cl","year":1287},{"label":"1290 Pat","year":1290},{"label":"1297 Ch","year":1297},{"label":"Ass","year":1306},{"label":"Fine"},{"label":"1306 Ass","year":1306},{"label":"1440 Fine","year":1440}],"when":{"timespans":[{"start":{"in":"1219"},"end":{"in":"1219"}},{"start":{"in":"1287"},"end":{"in":"1287"}},{"start":{"in":"1290"},"end":{"in":"1290"}},{"start":{"in":"1297"},"end":{"in":"1297"}},{"start":{"in":"1306"},"end":{"in":"1440"}},{"start":{"in":"1306"},"end":{"in":"1306"}},{"start":{"in":"1440"},"end":{"in":"1440"}}]}},{"toponym":"Engilby","citations":[{"label":"1284-6 FA","year":1284},{"label":"1330 Ass","year":1330}],"when":{"timespans":[{"start":{"earliest":"1284","latest":"1286"},"end":{"earliest":"1284","latest":"1286"}},{"start":{"in":"1330"},"end":{"in":"1330"}}]}},{"toponym":"Engulby","citations":[{"label":"1330 Selden","year":1330},{"label":"1404 DbA","year":1404},{"label":"1514 Lanc","year":1514}],"when":{"timespans":[{"start":{"in":"1330"},"end":{"in":"1330"}},{"start":{"in":"1404"},"end":{"in":"1404"}},{"start":{"in":"1514"},"end":{"in":"1514"}}]}},{"toponym":"Ingleby","citations":[{"label":"1275 DbA","year":1275},{"label":"DKR","year":1546},{"label":"1546 DKR","year":1546}],"when":{"timespans":[{"start":{"in":"1275"},"end":{"in":"1275"}},{"start":{"in":"1396"},"end":{"in":"1396"}},{"start":{"in":"1546"},"end":{"in":"1546"}},{"start":{"in":"1546"},"end":{"in":"1546"}}]}},{"toponym":"Ingelby","citations":[{"label":"1348 Cor","year":1348},{"label":"1372 CottCh","year":1372}],"when":{"timespans":[{"start":{"in":"1348"},"end":{"in":"1348"}},{"start":{"in":"1372"},"end":{"in":"1372"}}]}}],"types":[{"identifier":"http://vocab.getty.edu/aat/300232418","label":"administrative division","sourceLabels":[{"label":"township","lang":"en"}]}],"geometry":{"type":"GeometryCollection","geometries":[{"type":"Point","coordinates":[-1.48187,52.83541],"citations":[{"label":"GeoNames, gazetteer record geonames:7294874"}]},{"type":"Point","coordinates":[-1.487719545254421,52.84357582578293],"citations":[{"label":"Unlock (EDINA) gazetteer, gazetteer record unlock:11182522"}]},{"type":"Point","coordinates":[-1.48921,52.8439],"citations":[{"label":"Key to English Place-Names (KEPN), gazetteer record 3496"}]}]},"when":{"timespans":[{"start":{"in":"1009"},"end":{"in":"1648"}}]},"links":[{"type":"closeMatch","identifier":"https://sws.geonames.org/7294874/"}],"relations":[{"relationType":"gvp:broaderPartitive","relationTo":"https://w3id.org/whg-epns/29/009907","label":"within Ingleby"}]}]}