{"@context":"https://raw.githubusercontent.com/LinkedPasts/linked-places-format/main/linkedplaces-context-v1.1.jsonld","type":"FeatureCollection","license":"Digitisation of English Placenames MADS data is licensed to Jisc by the English Place Names Society and released under a Creative Commons Attribution-NonCommercial 4.0 International License.","note":"LPF v1.3, lossy; derived from the PLATO record; plato_commit=fa0d247ccc0263f8f19c8d7cdcd163df96935d1e","features":[{"@id":"https://w3id.org/whg-epns/29/010258","type":"Feature","properties":{"title":"Netherseal","ccodes":["GB"],"fclasses":["A","P"]},"names":[{"toponym":"Netherseal","lang":"en","citations":[{"label":"English Place-Name Society survey, volume 29: Derbyshire"}]}],"types":[{"identifier":"http://vocab.getty.edu/aat/300232418","label":"administrative division","sourceLabels":[{"label":"parish","lang":"en"}]}],"geometry":{"type":"GeometryCollection","geometries":[{"type":"Point","coordinates":[-1.57722,52.7154],"citations":[{"label":"GeoNames, gazetteer record geonames:7732704"}]},{"type":"Point","coordinates":[-1.578028050001536,52.71806248266891],"citations":[{"label":"Unlock (EDINA) gazetteer, gazetteer record unlock:11228086"}]},{"type":"Point","coordinates":[-1.576722,52.716103],"citations":[{"label":"Key to English Place-Names (KEPN), gazetteer record 278"}]}]},"links":[{"type":"closeMatch","identifier":"https://sws.geonames.org/7732704/"}],"relations":[{"relationType":"gvp:broaderPartitive","relationTo":"https://w3id.org/whg-epns/29/008895","label":"within Repton and Gresley Hundred"}]}]}