{"@context":"https://raw.githubusercontent.com/LinkedPasts/linked-places-format/main/linkedplaces-context-v1.1.jsonld","type":"FeatureCollection","license":"Digitisation of English Placenames MADS data is licensed to Jisc by the English Place Names Society and released under a Creative Commons Attribution-NonCommercial 4.0 International License.","note":"LPF v1.3, lossy; derived from the PLATO record; plato_commit=ca0afadabec1e23a145c0b03df77e8f151f79832","features":[{"@id":"http://placenames.org.uk/id/placename/05/000067","type":"Feature","properties":{"title":"Stockton on the Forest","ccodes":["GB"],"fclasses":["A","P"]},"names":[{"toponym":"Stockton on the Forest","lang":"en","citations":[{"label":"English Place-Name Society survey, volume 5: North Riding of Yorkshire"}]},{"toponym":"Stocthun, Stochetun","citations":[{"label":"1086 DB","year":1086}],"when":{"timespans":[{"start":{"in":"1086"},"end":{"in":"1086"}}]}},{"toponym":"Stocatuna","citations":[{"label":"1145-53 Leon","year":1145}],"when":{"timespans":[{"start":{"earliest":"1145","latest":"1153"},"end":{"earliest":"1145","latest":"1153"}}]}},{"toponym":"Stoketon', Stoceton'","citations":[{"label":"1170–1316, recurring Leon","year":1170},{"label":"1170–1316, recurring Vill"},{"label":"1170-88 Leon","year":1170},{"label":"1316 Vill","year":1316}],"when":{"timespans":[{"start":{"in":"1170"},"end":{"in":"1316"}},{"start":{"earliest":"1170","latest":"1188"},"end":{"earliest":"1170","latest":"1188"}},{"start":{"in":"1316"},"end":{"in":"1316"}}]}},{"toponym":"Stoc(k)ton","citations":[{"label":"1218 Pat","year":1218},{"label":"1316 KF","year":1316}],"when":{"timespans":[{"start":{"in":"1218"},"end":{"in":"1218"}},{"start":{"in":"1316"},"end":{"in":"1316"}}]}},{"toponym":"Stoc(k)ton on the more","citations":[{"label":"1577 Saxton","year":1577}],"when":{"timespans":[{"start":{"in":"1577"},"end":{"in":"1577"}}]}}],"types":[{"identifier":"http://vocab.getty.edu/aat/300232418","label":"administrative division","sourceLabels":[{"label":"township","lang":"en"}]}],"geometry":{"type":"GeometryCollection","geometries":[{"type":"Point","coordinates":[-1.00182,53.99637],"citations":[{"label":"GeoNames, gazetteer record geonames:6692306"}]},{"type":"Point","coordinates":[-1.000854347196742,53.99119508906239],"citations":[{"label":"Unlock (EDINA) gazetteer, gazetteer record unlock:11292611"}]},{"type":"Point","coordinates":[-1.00245,53.9914],"citations":[{"label":"Key to English Place-Names (KEPN), gazetteer record 5659"}]}]},"when":{"timespans":[{"start":{"in":"1086"},"end":{"in":"1577"}}]},"links":[{"type":"closeMatch","identifier":"https://sws.geonames.org/6692306/"}],"relations":[{"relationType":"gvp:broaderPartitive","relationTo":"http://placenames.org.uk/id/placename/05/000066","label":"within Stockton on the Forest"}]}]}