{"@context":"https://raw.githubusercontent.com/LinkedPasts/linked-places-format/main/linkedplaces-context-v1.1.jsonld","type":"FeatureCollection","license":"Digitisation of English Placenames MADS data is licensed to Jisc by the English Place Names Society and released under a Creative Commons Attribution-NonCommercial 4.0 International License.","note":"LPF v1.3, lossy; derived from the PLATO record; plato_commit=ca0afadabec1e23a145c0b03df77e8f151f79832","features":[{"@id":"https://w3id.org/whg-epns/05/000080","type":"Feature","properties":{"title":"Earswick","ccodes":["GB"],"fclasses":["A","P"]},"names":[{"toponym":"Earswick","lang":"en","citations":[{"label":"English Place-Name Society survey, volume 5: North Riding of Yorkshire"}]},{"toponym":"Edresuuic, Edrezuic","citations":[{"label":"1086 DB","year":1086}],"when":{"timespans":[{"start":{"in":"1086"},"end":{"in":"1086"}}]}},{"toponym":"Ethericewyk","citations":[{"label":"e. 13 RegAlb","year":1200}],"when":{"timespans":[{"start":{"earliest":"1200","latest":"1225"},"end":{"earliest":"1200","latest":"1225"}}]}},{"toponym":"(H)everswyk'","citations":[{"label":"1292 For","year":1292},{"label":"1301 LS","year":1301}],"when":{"timespans":[{"start":{"in":"1292"},"end":{"in":"1292"}},{"start":{"in":"1295"},"end":{"in":"1295"}},{"start":{"in":"1301"},"end":{"in":"1301"}}]}},{"toponym":"Herswyk","citations":[{"label":"1295 For","year":1295}],"when":{"timespans":[{"start":{"in":"1295"},"end":{"in":"1295"}}]}},{"toponym":"Etheirwike","citations":[{"label":"1316 KF","year":1316}],"when":{"timespans":[{"start":{"in":"1316"},"end":{"in":"1316"}}]}},{"toponym":"Etherswik","citations":[{"label":"1322 Abbr","year":1322}],"when":{"timespans":[{"start":{"in":"1322"},"end":{"in":"1322"}}]}},{"toponym":"Ereswick","citations":[{"label":"1577 Saxton","year":1577}],"when":{"timespans":[{"start":{"in":"1577"},"end":{"in":"1577"}}]}},{"toponym":"Erswick","citations":[{"label":"1665 Visit","year":1665}],"when":{"timespans":[{"start":{"in":"1665"},"end":{"in":"1665"}}]}}],"types":[{"identifier":"http://vocab.getty.edu/aat/300232418","label":"administrative division","sourceLabels":[{"label":"township","lang":"en"}]}],"geometry":{"type":"GeometryCollection","geometries":[{"type":"Point","coordinates":[-1.05482,54.00727],"citations":[{"label":"GeoNames, gazetteer record geonames:2650529"}]},{"type":"Point","coordinates":[-1.046198728277949,54.00954168793644],"citations":[{"label":"Unlock (EDINA) gazetteer, gazetteer record unlock:11135375"}]},{"type":"Point","coordinates":[-1.04779,54.0097],"citations":[{"label":"Key to English Place-Names (KEPN), gazetteer record 5661"}]}]},"when":{"timespans":[{"start":{"in":"1086"},"end":{"in":"1665"}}]},"links":[{"type":"closeMatch","identifier":"https://sws.geonames.org/2650529/"}],"relations":[{"relationType":"gvp:broaderPartitive","relationTo":"https://w3id.org/whg-epns/05/000079","label":"within Huntington"}]}]}