{"@context":"https://raw.githubusercontent.com/LinkedPasts/linked-places-format/main/linkedplaces-context-v1.1.jsonld","type":"FeatureCollection","license":"Digitisation of English Placenames MADS data is licensed to Jisc by the English Place Names Society and released under a Creative Commons Attribution-NonCommercial 4.0 International License.","note":"LPF v1.3, lossy; derived from the PLATO record; plato_commit=ca0afadabec1e23a145c0b03df77e8f151f79832","features":[{"@id":"http://placenames.org.uk/id/placename/05/000297","type":"Feature","properties":{"title":"Easingwold","ccodes":["GB"],"fclasses":["A","P"]},"names":[{"toponym":"Easingwold","lang":"en","citations":[{"label":"English Place-Name Society survey, volume 5: North Riding of Yorkshire"}]},{"toponym":"Eisicewalt, Eisincewald","citations":[{"label":"1086 DB","year":1086}],"when":{"timespans":[{"start":{"in":"1086"},"end":{"in":"1086"}}]}},{"toponym":"Esingwald, Esyngwald","citations":[{"label":"1167 P","year":1167},{"label":"1187–1451, recurring Leon","year":1187},{"label":"1187–1451, recurring Test"},{"label":"1187 Leon","year":1187},{"label":"1451 Test","year":1451}],"when":{"timespans":[{"start":{"in":"1167"},"end":{"in":"1167"}},{"start":{"in":"1177"},"end":{"in":"1177"}},{"start":{"in":"1187"},"end":{"in":"1451"}},{"start":{"in":"1187"},"end":{"in":"1187"}},{"start":{"in":"1451"},"end":{"in":"1451"}}]}},{"toponym":"Esingewald(e)","citations":[{"label":"1169 P","year":1169},{"label":"1218 FF","year":1218},{"label":"1230 Cl","year":1230},{"label":"1247 YI","year":1247}],"when":{"timespans":[{"start":{"in":"1169"},"end":{"in":"1169"}},{"start":{"in":"1218"},"end":{"in":"1218"}},{"start":{"in":"1230"},"end":{"in":"1230"}},{"start":{"in":"1247"},"end":{"in":"1247"}}]}},{"toponym":"Hesiwald'","citations":[{"label":"1179 P","year":1179}],"when":{"timespans":[{"start":{"in":"1179"},"end":{"in":"1179"}}]}},{"toponym":"Hesingewald'","citations":[{"label":"1187 P","year":1187}],"when":{"timespans":[{"start":{"in":"1187"},"end":{"in":"1187"}}]}},{"toponym":"Esingaud","citations":[{"label":"1208 FF","year":1208}],"when":{"timespans":[{"start":{"in":"1208"},"end":{"in":"1208"}}]}},{"toponym":"Esingwaud","citations":[{"label":"1219 Ass","year":1219},{"label":"1221 ClR","year":1221},{"label":"1232 Cl","year":1232},{"label":"1236 Lib","year":1236},{"label":"1269 Ebor","year":1269}],"when":{"timespans":[{"start":{"in":"1219"},"end":{"in":"1219"}},{"start":{"in":"1231"},"end":{"in":"1231"}},{"start":{"in":"1221"},"end":{"in":"1221"}},{"start":{"in":"1232"},"end":{"in":"1232"}},{"start":{"in":"1236"},"end":{"in":"1236"}},{"start":{"in":"1236"},"end":{"in":"1236"}},{"start":{"in":"1269"},"end":{"in":"1269"}}]}},{"toponym":"Esingewaud","citations":[{"label":"1220 ClR","year":1220},{"label":"1247 Cl","year":1247},{"label":"1250 Pat","year":1250}],"when":{"timespans":[{"start":{"in":"1220"},"end":{"in":"1220"}},{"start":{"in":"1222"},"end":{"in":"1222"}},{"start":{"in":"1247"},"end":{"in":"1247"}},{"start":{"in":"1250"},"end":{"in":"1250"}}]}},{"toponym":"Hesingwaud', Hesingwoud'","citations":[{"label":"1236 Cl","year":1236}],"when":{"timespans":[{"start":{"in":"1236"},"end":{"in":"1236"}}]}},{"toponym":"Easingwould","citations":[{"label":"1666 Visit","year":1666}],"when":{"timespans":[{"start":{"in":"1666"},"end":{"in":"1666"}}]}}],"types":[{"identifier":"http://vocab.getty.edu/aat/300232418","label":"administrative division","sourceLabels":[{"label":"township","lang":"en"}]}],"geometry":{"type":"GeometryCollection","geometries":[{"type":"Point","coordinates":[-1.19225,54.1191],"citations":[{"label":"GeoNames, gazetteer record geonames:2650517"}]},{"type":"Point","coordinates":[-1.181411044901037,54.11840525282757],"citations":[{"label":"Unlock (EDINA) gazetteer, gazetteer record unlock:11135547"}]},{"type":"Point","coordinates":[-1.18299,54.1186],"citations":[{"label":"Key to English Place-Names (KEPN), gazetteer record 5686"}]}]},"when":{"timespans":[{"start":{"in":"1086"},"end":{"in":"1666"}}]},"links":[{"type":"closeMatch","identifier":"https://sws.geonames.org/2650517/"}],"relations":[{"relationType":"gvp:broaderPartitive","relationTo":"http://placenames.org.uk/id/placename/05/000296","label":"within Easingwold"}]}]}