{"@context":"https://raw.githubusercontent.com/LinkedPasts/linked-places-format/main/linkedplaces-context-v1.1.jsonld","type":"FeatureCollection","license":"Digitisation of English Placenames MADS data is licensed to Jisc by the English Place Names Society and released under a Creative Commons Attribution-NonCommercial 4.0 International License.","note":"LPF v1.3, lossy; derived from the PLATO record; plato_commit=ca0afadabec1e23a145c0b03df77e8f151f79832","features":[{"@id":"http://placenames.org.uk/id/placename/05/000275","type":"Feature","properties":{"title":"Brafferton","ccodes":["GB"],"fclasses":["A","P"]},"names":[{"toponym":"Brafferton","lang":"en","citations":[{"label":"English Place-Name Society survey, volume 5: North Riding of Yorkshire"}]}],"types":[{"identifier":"http://vocab.getty.edu/aat/300232418","label":"administrative division","sourceLabels":[{"label":"parish","lang":"en"}]}],"geometry":{"type":"GeometryCollection","geometries":[{"type":"Point","coordinates":[-1.35,54.11667],"citations":[{"label":"GeoNames, gazetteer record geonames:2654954"}]},{"type":"Point","coordinates":[-1.33426155427162,54.12833641382856],"citations":[{"label":"Unlock (EDINA) gazetteer, gazetteer record unlock:11085252"}]},{"type":"Point","coordinates":[-1.33582,54.1285],"citations":[{"label":"Key to English Place-Names (KEPN), gazetteer record 5683"}]}]},"links":[{"type":"closeMatch","identifier":"https://sws.geonames.org/2654954/"}],"relations":[{"relationType":"gvp:broaderPartitive","relationTo":"http://placenames.org.uk/id/placename/05/000002","label":"within Bulmer Wapentake"}]}]}