{"@context":"https://raw.githubusercontent.com/LinkedPasts/linked-places-format/main/linkedplaces-context-v1.1.jsonld","type":"FeatureCollection","license":"Digitisation of English Placenames MADS data is licensed to Jisc by the English Place Names Society and released under a Creative Commons Attribution-NonCommercial 4.0 International License.","note":"LPF v1.3, lossy; derived from the PLATO record; plato_commit=fa0d247ccc0263f8f19c8d7cdcd163df96935d1e","features":[{"@id":"https://w3id.org/whg-epns/05/000421","type":"Feature","properties":{"title":"Farlington","ccodes":["GB"],"fclasses":["A","P"]},"names":[{"toponym":"Farlington","lang":"en","citations":[{"label":"English Place-Name Society survey, volume 5: North Riding of Yorkshire"}]},{"toponym":"Ferlintun, Farlintun","citations":[{"label":"1086 DB","year":1086}],"when":{"timespans":[{"start":{"in":"1086"},"end":{"in":"1086"}}]}},{"toponym":"Ferlinton(a)","citations":[{"label":"1167 P","year":1167},{"label":"1170-85 YCh","year":1170},{"label":"1310 Ch","year":1310}],"when":{"timespans":[{"start":{"in":"1167"},"end":{"in":"1167"}},{"start":{"earliest":"1170","latest":"1185"},"end":{"earliest":"1170","latest":"1185"}},{"start":{"in":"1310"},"end":{"in":"1310"}}]}},{"toponym":"Ferlington","citations":[{"label":"1249 Heal","year":1249},{"label":"1285 KI","year":1285},{"label":"1286 For","year":1286},{"label":"1295 YI","year":1295},{"label":"1301 LS","year":1301},{"label":"1316 KF","year":1316}],"when":{"timespans":[{"start":{"in":"1249"},"end":{"in":"1249"}},{"start":{"in":"1285"},"end":{"in":"1285"}},{"start":{"in":"1286"},"end":{"in":"1286"}},{"start":{"in":"1295"},"end":{"in":"1295"}},{"start":{"in":"1295"},"end":{"in":"1295"}},{"start":{"in":"1301"},"end":{"in":"1301"}},{"start":{"in":"1316"},"end":{"in":"1316"}}]}},{"toponym":"Farlington, Farlyngton","citations":[{"label":"1316 KF","year":1316},{"label":"1400 YI","year":1400}],"when":{"timespans":[{"start":{"in":"1316"},"end":{"in":"1316"}},{"start":{"in":"1400"},"end":{"in":"1400"}}]}},{"toponym":"Farrelyngton","citations":[{"label":"1536 YChant","year":1536}],"when":{"timespans":[{"start":{"in":"1536"},"end":{"in":"1536"}}]}}],"types":[{"identifier":"http://vocab.getty.edu/aat/300232418","label":"administrative division","sourceLabels":[{"label":"township","lang":"en"}]}],"geometry":{"type":"GeometryCollection","geometries":[{"type":"Point","coordinates":[-1.06667,54.1],"citations":[{"label":"GeoNames, gazetteer record geonames:2649676"}]},{"type":"Point","coordinates":[-1.059429212917826,54.09953599498078],"citations":[{"label":"Unlock (EDINA) gazetteer, gazetteer record unlock:11142179"}]},{"type":"Point","coordinates":[-1.06102,54.0997],"citations":[{"label":"Key to English Place-Names (KEPN), gazetteer record 5714"}]}]},"when":{"timespans":[{"start":{"in":"1086"},"end":{"in":"1536"}}]},"links":[{"type":"closeMatch","identifier":"https://sws.geonames.org/2649676/"}],"relations":[{"relationType":"gvp:broaderPartitive","relationTo":"https://w3id.org/whg-epns/05/000420","label":"within Sheriff Hutton"}]}]}