{"@context":"https://raw.githubusercontent.com/LinkedPasts/linked-places-format/main/linkedplaces-context-v1.1.jsonld","type":"FeatureCollection","license":"Digitisation of English Placenames MADS data is licensed to Jisc by the English Place Names Society and released under a Creative Commons Attribution-NonCommercial 4.0 International License.","note":"LPF v1.3, lossy; derived from the PLATO record; plato_commit=fa0d247ccc0263f8f19c8d7cdcd163df96935d1e","features":[{"@id":"https://w3id.org/whg-epns/05/001193","type":"Feature","properties":{"title":"Sinnington","ccodes":["GB"],"fclasses":["A","P"]},"names":[{"toponym":"Sinnington","lang":"en","citations":[{"label":"English Place-Name Society survey, volume 5: North Riding of Yorkshire"}]}],"types":[{"identifier":"http://vocab.getty.edu/aat/300232418","label":"administrative division","sourceLabels":[{"label":"parish","lang":"en"}]}],"geometry":{"type":"GeometryCollection","geometries":[{"type":"Point","coordinates":[-0.85838,54.26219],"citations":[{"label":"GeoNames, gazetteer record geonames:2637812"}]},{"type":"Point","coordinates":[-0.8561934236408129,54.25957793195337],"citations":[{"label":"Unlock (EDINA) gazetteer, gazetteer record unlock:11284253"}]},{"type":"Point","coordinates":[-0.857819,54.2598],"citations":[{"label":"Key to English Place-Names (KEPN), gazetteer record 5772"}]}]},"links":[{"type":"closeMatch","identifier":"https://sws.geonames.org/2637812/"}],"relations":[{"relationType":"gvp:broaderPartitive","relationTo":"https://w3id.org/whg-epns/05/001151","label":"within Pickering Lythe Wapentake"}]}]}