{"@context":"https://raw.githubusercontent.com/LinkedPasts/linked-places-format/main/linkedplaces-context-v1.1.jsonld","type":"FeatureCollection","license":"Digitisation of English Placenames MADS data is licensed to Jisc by the English Place Names Society and released under a Creative Commons Attribution-NonCommercial 4.0 International License.","note":"LPF v1.3, lossy; derived from the PLATO record; plato_commit=ca0afadabec1e23a145c0b03df77e8f151f79832","features":[{"@id":"https://w3id.org/whg-epns/05/001459","type":"Feature","properties":{"title":"Wilton","ccodes":["GB"],"fclasses":["A","P"]},"names":[{"toponym":"Wilton","lang":"en","citations":[{"label":"English Place-Name Society survey, volume 5: North Riding of Yorkshire"}]},{"toponym":"Wiltun(e)","citations":[{"label":"1086 DB","year":1086},{"label":"1247 Dugd","year":1247},{"label":"1247 Ch","year":1247}],"when":{"timespans":[{"start":{"in":"1086"},"end":{"in":"1086"}},{"start":{"in":"1247"},"end":{"in":"1247"}},{"start":{"in":"1247"},"end":{"in":"1247"}}]}},{"toponym":"Wilton(am), Wylton(am)","citations":[{"label":"1167 P","year":1167},{"label":"1180–1180, recurring YCh","year":1180},{"label":"1180 YCh","year":1180}],"when":{"timespans":[{"start":{"in":"1167"},"end":{"in":"1167"}},{"start":{"in":"1180"},"end":{"in":"1180"}},{"start":{"in":"1180"},"end":{"in":"1180"}}]}},{"toponym":"Willeton","citations":[{"label":"1301 LS","year":1301}],"when":{"timespans":[{"start":{"in":"1301"},"end":{"in":"1301"}}]}}],"types":[{"identifier":"http://vocab.getty.edu/aat/300232418","label":"administrative division","sourceLabels":[{"label":"township","lang":"en"}]}],"geometry":{"type":"GeometryCollection","geometries":[{"type":"Point","coordinates":[-0.67566,54.22745],"citations":[{"label":"GeoNames, gazetteer record geonames:7291097"}]},{"type":"Point","coordinates":[-0.6728727140455328,54.23073187196681],"citations":[{"label":"Unlock (EDINA) gazetteer, gazetteer record unlock:11323474"}]},{"type":"Point","coordinates":[-0.674519,54.2309],"citations":[{"label":"Key to English Place-Names (KEPN), gazetteer record 5789"}]}]},"when":{"timespans":[{"start":{"in":"1086"},"end":{"in":"1301"}}]},"links":[{"type":"closeMatch","identifier":"https://sws.geonames.org/7291097/"}],"relations":[{"relationType":"gvp:broaderPartitive","relationTo":"https://w3id.org/whg-epns/05/001410","label":"within Thornton Dale"}]}]}