{"@context":"https://raw.githubusercontent.com/LinkedPasts/linked-places-format/main/linkedplaces-context-v1.1.jsonld","type":"FeatureCollection","license":"Digitisation of English Placenames MADS data is licensed to Jisc by the English Place Names Society and released under a Creative Commons Attribution-NonCommercial 4.0 International License.","note":"LPF v1.3, lossy; derived from the PLATO record; plato_commit=ca0afadabec1e23a145c0b03df77e8f151f79832","features":[{"@id":"https://w3id.org/whg-epns/05/001508","type":"Feature","properties":{"title":"Allerston","ccodes":["GB"],"fclasses":["A","P"]},"names":[{"toponym":"Allerston","lang":"en","citations":[{"label":"English Place-Name Society survey, volume 5: North Riding of Yorkshire"}]},{"toponym":"Alurestan, Alurestain, Aluristan","citations":[{"label":"1086 DB","year":1086}],"when":{"timespans":[{"start":{"in":"1086"},"end":{"in":"1086"}}]}},{"toponym":"Alvestain, Alvestein","citations":[{"label":"1154-74 YCh","year":1154},{"label":"1160 Riev","year":1160},{"label":"1167 P","year":1167},{"label":"1227 FF","year":1227},{"label":"1233 Cl","year":1233}],"when":{"timespans":[{"start":{"earliest":"1154","latest":"1174"},"end":{"earliest":"1154","latest":"1174"}},{"start":{"in":"1160"},"end":{"in":"1160"}},{"start":{"in":"1167"},"end":{"in":"1167"}},{"start":{"in":"1227"},"end":{"in":"1227"}},{"start":{"in":"1233"},"end":{"in":"1233"}}]}},{"toponym":"Al(l)verstain, Al(l)verstayn, Al(l)versteyn, Al(l)verstein","citations":[{"label":"1086 DB","year":1086},{"label":"c. 1190-1214 YCh","year":1190},{"label":"1335 ForP","year":1335}],"when":{"timespans":[{"start":{"in":"1086"},"end":{"in":"1086"}},{"start":{"earliest":"1190","latest":"1214"},"end":{"earliest":"1190","latest":"1214"}},{"start":{"in":"1335"},"end":{"in":"1335"}}]}},{"toponym":"Alverstan(e)","citations":[{"label":"1219 Ass","year":1219},{"label":"1335 ForP","year":1335}],"when":{"timespans":[{"start":{"in":"1219"},"end":{"in":"1219"}},{"start":{"in":"1335"},"end":{"in":"1335"}}]}},{"toponym":"Auverstan","citations":[{"label":"1259 Ass","year":1259}],"when":{"timespans":[{"start":{"in":"1259"},"end":{"in":"1259"}}]}},{"toponym":"Alvestane","citations":[{"label":"1322 NRS","year":1322}],"when":{"timespans":[{"start":{"in":"1322"},"end":{"in":"1322"}}]}},{"toponym":"Aluestune","citations":[{"label":"1086 DB","year":1086}],"when":{"timespans":[{"start":{"in":"1086"},"end":{"in":"1086"}}]}},{"toponym":"Alveston, Alvestun","citations":[{"label":"1160 Riev","year":1160},{"label":"1218 FF","year":1218}],"when":{"timespans":[{"start":{"in":"1160"},"end":{"in":"1160"}},{"start":{"in":"1218"},"end":{"in":"1218"}}]}},{"toponym":"Allerstane","citations":[{"label":"1285 KI","year":1285},{"label":"1408 For","year":1408}],"when":{"timespans":[{"start":{"in":"1285"},"end":{"in":"1285"}},{"start":{"in":"1408"},"end":{"in":"1408"}}]}},{"toponym":"Alistan","citations":[{"label":"1316 Vill","year":1316}],"when":{"timespans":[{"start":{"in":"1316"},"end":{"in":"1316"}}]}},{"toponym":"Allestan","citations":[{"label":"1329 Ch","year":1329}],"when":{"timespans":[{"start":{"in":"1329"},"end":{"in":"1329"}}]}},{"toponym":"Allerston, Allarston","citations":[{"label":"1518 FF","year":1518},{"label":"1577 NRS","year":1577},{"label":"1665 Visit","year":1665}],"when":{"timespans":[{"start":{"in":"1518"},"end":{"in":"1518"}},{"start":{"in":"1577"},"end":{"in":"1577"}},{"start":{"in":"1665"},"end":{"in":"1665"}}]}},{"toponym":"Ollerston","citations":[{"label":"1577 Saxton","year":1577}],"when":{"timespans":[{"start":{"in":"1577"},"end":{"in":"1577"}}]}}],"types":[{"identifier":"http://vocab.getty.edu/aat/300232418","label":"administrative division","sourceLabels":[{"label":"township","lang":"en"}]}],"geometry":{"type":"GeometryCollection","geometries":[{"type":"Point","coordinates":[-0.65662,54.2355],"citations":[{"label":"GeoNames, gazetteer record geonames:2657482"}]},{"type":"Point","coordinates":[-0.6575348334070619,54.23056198642796],"citations":[{"label":"Unlock (EDINA) gazetteer, gazetteer record unlock:11058436"}]},{"type":"Point","coordinates":[-0.659183,54.2307],"citations":[{"label":"Key to English Place-Names (KEPN), gazetteer record 5792"}]}]},"when":{"timespans":[{"start":{"in":"1086"},"end":{"in":"1665"}}]},"links":[{"type":"closeMatch","identifier":"https://sws.geonames.org/2657482/"}],"relations":[{"relationType":"gvp:broaderPartitive","relationTo":"https://w3id.org/whg-epns/05/001507","label":"within Allerston"}]}]}