{"@context":"https://raw.githubusercontent.com/LinkedPasts/linked-places-format/main/linkedplaces-context-v1.1.jsonld","type":"FeatureCollection","license":"Digitisation of English Placenames MADS data is licensed to Jisc by the English Place Names Society and released under a Creative Commons Attribution-NonCommercial 4.0 International License.","note":"LPF v1.3, lossy; derived from the PLATO record; plato_commit=ca0afadabec1e23a145c0b03df77e8f151f79832","features":[{"@id":"http://placenames.org.uk/id/placename/05/001680","type":"Feature","properties":{"title":"Irton","ccodes":["GB"],"fclasses":["A","P"]},"names":[{"toponym":"Irton","lang":"en","citations":[{"label":"English Place-Name Society survey, volume 5: North Riding of Yorkshire"}]},{"toponym":"Iretun(e)","citations":[{"label":"1086 DB","year":1086},{"label":"1170 P","year":1170}],"when":{"timespans":[{"start":{"in":"1086"},"end":{"in":"1086"}},{"start":{"in":"1170"},"end":{"in":"1170"}}]}},{"toponym":"Irton(a), Yrton(a)","citations":[{"label":"1213–1233, recurring Whitby","year":1213},{"label":"c. 1223 Whitby","year":1213}],"when":{"timespans":[{"start":{"in":"1213"},"end":{"in":"1233"}},{"start":{"earliest":"1213","latest":"1233"},"end":{"earliest":"1213","latest":"1233"}}]}},{"toponym":"Hirton(a), Hyrton(a)","citations":[{"label":"c. 1223 Whitby","year":1213},{"label":"1244 Percy","year":1244},{"label":"1301 LS","year":1301}],"when":{"timespans":[{"start":{"earliest":"1213","latest":"1233"},"end":{"earliest":"1213","latest":"1233"}},{"start":{"in":"1244"},"end":{"in":"1244"}},{"start":{"in":"1301"},"end":{"in":"1301"}}]}},{"toponym":"Urton","citations":[{"label":"1572 FF","year":1572}],"when":{"timespans":[{"start":{"in":"1572"},"end":{"in":"1572"}}]}}],"types":[{"identifier":"http://vocab.getty.edu/aat/300232418","label":"administrative division","sourceLabels":[{"label":"township","lang":"en"}]}],"geometry":{"type":"GeometryCollection","geometries":[{"type":"Point","coordinates":[-0.45806,54.24927],"citations":[{"label":"GeoNames, gazetteer record geonames:7299289"}]},{"type":"Point","coordinates":[-0.4421452437457965,54.24594878237685],"citations":[{"label":"Unlock (EDINA) gazetteer, gazetteer record unlock:11183341"}]},{"type":"Point","coordinates":[-0.459161,54.2463],"citations":[{"label":"Key to English Place-Names (KEPN), gazetteer record 5802"}]}]},"when":{"timespans":[{"start":{"in":"1086"},"end":{"in":"1572"}}]},"links":[{"type":"closeMatch","identifier":"https://sws.geonames.org/7299289/"}],"relations":[{"relationType":"gvp:broaderPartitive","relationTo":"http://placenames.org.uk/id/placename/05/001673","label":"within Seamer"}]}]}