{"@context":"https://raw.githubusercontent.com/LinkedPasts/linked-places-format/main/linkedplaces-context-v1.1.jsonld","type":"FeatureCollection","license":"Digitisation of English Placenames MADS data is licensed to Jisc by the English Place Names Society and released under a Creative Commons Attribution-NonCommercial 4.0 International License.","note":"LPF v1.3, lossy; derived from the PLATO record; plato_commit=ca0afadabec1e23a145c0b03df77e8f151f79832","features":[{"@id":"http://placenames.org.uk/id/placename/05/001613","type":"Feature","properties":{"title":"Trouts Dale","ccodes":["GB"],"fclasses":["A","P"]},"names":[{"toponym":"Trouts Dale","lang":"en","citations":[{"label":"English Place-Name Society survey, volume 5: North Riding of Yorkshire"}]},{"toponym":"Truzstal","citations":[{"label":"1086 DB","year":1086}],"when":{"timespans":[{"start":{"in":"1086"},"end":{"in":"1086"}}]}},{"toponym":"Trucedal(e)","citations":[{"label":"1314 Percy","year":1314},{"label":"1335 ForP","year":1335},{"label":"1619 NRS","year":1619}],"when":{"timespans":[{"start":{"in":"1314"},"end":{"in":"1314"}},{"start":{"in":"1335"},"end":{"in":"1335"}},{"start":{"in":"1619"},"end":{"in":"1619"}}]}},{"toponym":"Trowt(t)esdale, Troutesdale","citations":[{"label":"1497 NRS","year":1497},{"label":"1562 FF","year":1562},{"label":"1619 NRS","year":1619},{"label":"1665 Visit","year":1665}],"when":{"timespans":[{"start":{"in":"1497"},"end":{"in":"1497"}},{"start":{"in":"1562"},"end":{"in":"1562"}},{"start":{"in":"1619"},"end":{"in":"1619"}},{"start":{"in":"1665"},"end":{"in":"1665"}}]}}],"types":[{"identifier":"http://vocab.getty.edu/aat/300232418","label":"administrative division","sourceLabels":[{"label":"township","lang":"en"}]}],"geometry":{"type":"GeometryCollection","geometries":[{"type":"Point","coordinates":[-0.56667,54.28333],"citations":[{"label":"GeoNames, gazetteer record geonames:2635428"}]},{"type":"Point","coordinates":[-0.578995109211343,54.28359668014826],"citations":[{"label":"Unlock (EDINA) gazetteer, gazetteer record unlock:11306435"}]},{"type":"Point","coordinates":[-0.580964,54.2748],"citations":[{"label":"Key to English Place-Names (KEPN), gazetteer record 5796"}]}]},"when":{"timespans":[{"start":{"in":"1086"},"end":{"in":"1665"}}]},"links":[{"type":"closeMatch","identifier":"https://sws.geonames.org/2635428/"}],"relations":[{"relationType":"gvp:broaderPartitive","relationTo":"http://placenames.org.uk/id/placename/05/001580","label":"within Brompton"}]}]}