{"@context":"https://raw.githubusercontent.com/LinkedPasts/linked-places-format/main/linkedplaces-context-v1.1.jsonld","type":"FeatureCollection","license":"Digitisation of English Placenames MADS data is licensed to Jisc by the English Place Names Society and released under a Creative Commons Attribution-NonCommercial 4.0 International License.","note":"LPF v1.3, lossy; derived from the PLATO record; plato_commit=ca0afadabec1e23a145c0b03df77e8f151f79832","features":[{"@id":"http://placenames.org.uk/id/placename/05/001799","type":"Feature","properties":{"title":"Cloughton","ccodes":["GB"],"fclasses":["A","P"]},"names":[{"toponym":"Cloughton","lang":"en","citations":[{"label":"English Place-Name Society survey, volume 5: North Riding of Yorkshire"}]},{"toponym":"Cloctune, Clocton(a)","citations":[{"label":"1086 DB","year":1086},{"label":"1195-1225 Dods","year":1195},{"label":"1230 Whitby","year":1230},{"label":"1235 Ch","year":1235}],"when":{"timespans":[{"start":{"in":"1086"},"end":{"in":"1086"}},{"start":{"earliest":"1195","latest":"1225"},"end":{"earliest":"1195","latest":"1225"}},{"start":{"in":"1230"},"end":{"in":"1230"}},{"start":{"in":"1235"},"end":{"in":"1235"}}]}},{"toponym":"Clochton","citations":[{"label":"1231 Ass","year":1231}],"when":{"timespans":[{"start":{"in":"1231"},"end":{"in":"1231"}}]}},{"toponym":"Cloghton","citations":[{"label":"1368 FF","year":1368},{"label":"1408 For","year":1408}],"when":{"timespans":[{"start":{"in":"1368"},"end":{"in":"1368"}},{"start":{"in":"1408"},"end":{"in":"1408"}}]}},{"toponym":"Clouchetone","citations":[{"label":"1322 NRS","year":1322}],"when":{"timespans":[{"start":{"in":"1322"},"end":{"in":"1322"}}]}},{"toponym":"Cloughton","citations":[{"label":"1577 NRS","year":1577}],"when":{"timespans":[{"start":{"in":"1577"},"end":{"in":"1577"}}]}},{"toponym":"Clawghton","citations":[{"label":"1619 NRS","year":1619}],"when":{"timespans":[{"start":{"in":"1619"},"end":{"in":"1619"}}]}}],"types":[{"identifier":"http://vocab.getty.edu/aat/300232418","label":"administrative division","sourceLabels":[{"label":"township","lang":"en"}]}],"geometry":{"type":"GeometryCollection","geometries":[{"type":"Point","coordinates":[-0.44862,54.33833],"citations":[{"label":"GeoNames, gazetteer record geonames:2652781"}]},{"type":"Point","coordinates":[-0.4541253875204679,54.33599621056969],"citations":[{"label":"Unlock (EDINA) gazetteer, gazetteer record unlock:11109755"}]},{"type":"Point","coordinates":[-0.455803,54.3362],"citations":[{"label":"Key to English Place-Names (KEPN), gazetteer record 5809"}]}]},"when":{"timespans":[{"start":{"in":"1086"},"end":{"in":"1619"}}]},"links":[{"type":"closeMatch","identifier":"https://sws.geonames.org/2652781/"}],"relations":[{"relationType":"gvp:broaderPartitive","relationTo":"http://placenames.org.uk/id/placename/05/001783","label":"within Scalby"}]}]}