{"@context":"https://raw.githubusercontent.com/LinkedPasts/linked-places-format/main/linkedplaces-context-v1.1.jsonld","type":"FeatureCollection","license":"Digitisation of English Placenames MADS data is licensed to Jisc by the English Place Names Society and released under a Creative Commons Attribution-NonCommercial 4.0 International License.","note":"LPF v1.3, lossy; derived from the PLATO record; plato_commit=ca0afadabec1e23a145c0b03df77e8f151f79832","features":[{"@id":"http://placenames.org.uk/id/placename/05/001809","type":"Feature","properties":{"title":"Scalby","ccodes":["GB"],"fclasses":["A","P"]},"names":[{"toponym":"Scalby","lang":"en","citations":[{"label":"English Place-Name Society survey, volume 5: North Riding of Yorkshire"}]},{"toponym":"Scallebi, Skallebi, Skalleby","citations":[{"label":"1086 DB","year":1086}],"when":{"timespans":[{"start":{"in":"1086"},"end":{"in":"1086"}},{"start":{"in":"1400"},"end":{"in":"1400"}}]}},{"toponym":"Scalebi, Skalebi, Skaleby","citations":[{"label":"1086 DB","year":1086},{"label":"1169–1280, recurring P","year":1169},{"label":"1169–1280, recurring Ch"},{"label":"1169 P","year":1169},{"label":"1280 Ch","year":1280}],"when":{"timespans":[{"start":{"in":"1086"},"end":{"in":"1086"}},{"start":{"in":"1169"},"end":{"in":"1280"}},{"start":{"in":"1169"},"end":{"in":"1169"}},{"start":{"in":"1280"},"end":{"in":"1280"}}]}},{"toponym":"Escaleby","citations":[{"label":"1251 Cl","year":1251}],"when":{"timespans":[{"start":{"in":"1251"},"end":{"in":"1251"}}]}},{"toponym":"Scalby","citations":[{"label":"1322 NRS","year":1322},{"label":"1376 FF","year":1376},{"label":"1408 For","year":1408},{"label":"1508 Test","year":1508},{"label":"1665 Visit","year":1665}],"when":{"timespans":[{"start":{"in":"1322"},"end":{"in":"1322"}},{"start":{"in":"1376"},"end":{"in":"1376"}},{"start":{"in":"1408"},"end":{"in":"1408"}},{"start":{"in":"1508"},"end":{"in":"1508"}},{"start":{"in":"1665"},"end":{"in":"1665"}}]}},{"toponym":"Scawby(e), Skawby(e)","citations":[{"label":"1570 FF","year":1570},{"label":"1577 NRS","year":1577}],"when":{"timespans":[{"start":{"in":"1570"},"end":{"in":"1570"}},{"start":{"in":"1575"},"end":{"in":"1575"}},{"start":{"in":"1577"},"end":{"in":"1577"}}]}}],"types":[{"identifier":"http://vocab.getty.edu/aat/300232418","label":"administrative division","sourceLabels":[{"label":"township","lang":"en"}]}],"geometry":{"type":"GeometryCollection","geometries":[{"type":"Point","coordinates":[-0.44838,54.2999],"citations":[{"label":"GeoNames, gazetteer record geonames:2638447"}]},{"type":"Point","coordinates":[-0.4401102362554821,54.29985862948356],"citations":[{"label":"Unlock (EDINA) gazetteer, gazetteer record unlock:11278567"}]},{"type":"Point","coordinates":[-0.441788,54.3],"citations":[{"label":"Key to English Place-Names (KEPN), gazetteer record 5807"}]}]},"when":{"timespans":[{"start":{"in":"1086"},"end":{"in":"1665"}}]},"links":[{"type":"closeMatch","identifier":"https://sws.geonames.org/2638447/"}],"relations":[{"relationType":"gvp:broaderPartitive","relationTo":"http://placenames.org.uk/id/placename/05/001783","label":"within Scalby"}]}]}