{"@context":"https://raw.githubusercontent.com/LinkedPasts/linked-places-format/main/linkedplaces-context-v1.1.jsonld","type":"FeatureCollection","license":"Digitisation of English Placenames MADS data is licensed to Jisc by the English Place Names Society and released under a Creative Commons Attribution-NonCommercial 4.0 International License.","note":"LPF v1.3, lossy; derived from the PLATO record; plato_commit=ca0afadabec1e23a145c0b03df77e8f151f79832","features":[{"@id":"https://w3id.org/whg-epns/05/001923","type":"Feature","properties":{"title":"Silpho","ccodes":["GB"],"fclasses":["A","P"]},"names":[{"toponym":"Silpho","lang":"en","citations":[{"label":"English Place-Name Society survey, volume 5: North Riding of Yorkshire"}]},{"toponym":"Sifthou","citations":[{"label":"1145-8 Whitby","year":1145}],"when":{"timespans":[{"start":{"earliest":"1145","latest":"1148"},"end":{"earliest":"1145","latest":"1148"}}]}},{"toponym":"Silfhou, Silfhow","citations":[{"label":"1155-65 Whitby","year":1155}],"when":{"timespans":[{"start":{"earliest":"1155","latest":"1165"},"end":{"earliest":"1155","latest":"1165"}},{"start":{"in":"1230"},"end":{"in":"1230"}},{"start":{"earliest":"1265","latest":"1278"},"end":{"earliest":"1265","latest":"1278"}},{"start":{"earliest":"1300","latest":"1325"},"end":{"earliest":"1300","latest":"1325"}}]}},{"toponym":"Silfho","citations":[{"label":"1231 Ass","year":1231}],"when":{"timespans":[{"start":{"in":"1231"},"end":{"in":"1231"}}]}},{"toponym":"Silfow(e)","citations":[{"label":"1301 LS","year":1301},{"label":"1395 Whitby","year":1395}],"when":{"timespans":[{"start":{"in":"1301"},"end":{"in":"1301"}},{"start":{"in":"1395"},"end":{"in":"1395"}}]}},{"toponym":"Silfey","citations":[{"label":"1577 Saxton","year":1577}],"when":{"timespans":[{"start":{"in":"1577"},"end":{"in":"1577"}}]}}],"types":[{"identifier":"http://vocab.getty.edu/aat/300232418","label":"administrative division","sourceLabels":[{"label":"township","lang":"en"}]}],"geometry":{"type":"GeometryCollection","geometries":[{"type":"Point","coordinates":[-0.51677,54.32139],"citations":[{"label":"GeoNames, gazetteer record geonames:7292103"}]},{"type":"Point","coordinates":[-0.5162764887100896,54.3187981381727],"citations":[{"label":"Unlock (EDINA) gazetteer, gazetteer record unlock:11283958"}]},{"type":"Point","coordinates":[-0.517946,54.319],"citations":[{"label":"Key to English Place-Names (KEPN), gazetteer record 5815"}]}]},"when":{"timespans":[{"start":{"in":"1145"},"end":{"in":"1577"}}]},"links":[{"type":"closeMatch","identifier":"https://sws.geonames.org/7292103/"}],"relations":[{"relationType":"gvp:broaderPartitive","relationTo":"https://w3id.org/whg-epns/05/001858","label":"within Hackness"}]}]}