{"@context":"https://raw.githubusercontent.com/LinkedPasts/linked-places-format/main/linkedplaces-context-v1.1.jsonld","type":"FeatureCollection","license":"Digitisation of English Placenames MADS data is licensed to Jisc by the English Place Names Society and released under a Creative Commons Attribution-NonCommercial 4.0 International License.","note":"LPF v1.3, lossy; derived from the PLATO record; plato_commit=fa0d247ccc0263f8f19c8d7cdcd163df96935d1e","features":[{"@id":"https://w3id.org/whg-epns/05/002065","type":"Feature","properties":{"title":"Hawsker","ccodes":["GB"],"fclasses":["A","P"]},"names":[{"toponym":"Hawsker","lang":"en","citations":[{"label":"English Place-Name Society survey, volume 5: North Riding of Yorkshire"}]},{"toponym":"Houkesgart(h)","citations":[{"label":"c. 1100-c. 1125 Whitby","year":1100},{"label":"1181 P","year":1181},{"label":"1226 FF","year":1226}],"when":{"timespans":[{"start":{"earliest":"1100","latest":"1125"},"end":{"earliest":"1100","latest":"1125"}},{"start":{"earliest":"1100","latest":"1120"},"end":{"earliest":"1100","latest":"1120"}},{"start":{"in":"1181"},"end":{"in":"1181"}},{"start":{"in":"1226"},"end":{"in":"1226"}}]}},{"toponym":"Haukesgard","citations":[{"label":"c. 1115-35 YCh","year":1115},{"label":"a. 1133 Whitby","year":1083}],"when":{"timespans":[{"start":{"earliest":"1115","latest":"1135"},"end":{"earliest":"1115","latest":"1135"}},{"start":{"earliest":"1083","latest":"1133"},"end":{"earliest":"1083","latest":"1133"}},{"start":{"earliest":"1230","latest":"1240"},"end":{"earliest":"1230","latest":"1240"}}]}},{"toponym":"Houkesgard","citations":[{"label":"1145-8 YCh","year":1145},{"label":"1222-7 Whitby","year":1222}],"when":{"timespans":[{"start":{"earliest":"1145","latest":"1148"},"end":{"earliest":"1145","latest":"1148"}},{"start":{"earliest":"1222","latest":"1227"},"end":{"earliest":"1222","latest":"1227"}}]}},{"toponym":"Hochesgard, Hokesgard","citations":[{"label":"1163 P","year":1163}],"when":{"timespans":[{"start":{"in":"1163"},"end":{"in":"1163"}},{"start":{"in":"1167"},"end":{"in":"1167"}}]}},{"toponym":"Haukesgarð, Haukesgarth(e)","citations":[{"label":"1176 P","year":1176},{"label":"1284 YI","year":1284},{"label":"1298 YI","year":1298},{"label":"1308 Whitby","year":1308}],"when":{"timespans":[{"start":{"in":"1176"},"end":{"in":"1176"}},{"start":{"in":"1284"},"end":{"in":"1284"}},{"start":{"in":"1298"},"end":{"in":"1298"}},{"start":{"in":"1308"},"end":{"in":"1308"}},{"start":{"in":"1351"},"end":{"in":"1351"}}]}},{"toponym":"Hakisgarth","citations":[{"label":"1330 Whitby","year":1330}],"when":{"timespans":[{"start":{"in":"1330"},"end":{"in":"1330"}}]}},{"toponym":"Housegarth","citations":[{"label":"1577 Saxton","year":1577}],"when":{"timespans":[{"start":{"in":"1577"},"end":{"in":"1577"}}]}},{"toponym":"Harrsker, Horskarse, Haskerth","citations":[{"label":"1611 NR","year":1611}],"when":{"timespans":[{"start":{"in":"1611"},"end":{"in":"1611"}},{"start":{"in":"1613"},"end":{"in":"1613"}}]}}],"types":[{"identifier":"http://vocab.getty.edu/aat/300232418","label":"administrative division","sourceLabels":[{"label":"township","lang":"en"}]}],"geometry":{"type":"GeometryCollection","geometries":[{"type":"Point","coordinates":[-0.57518,54.45601],"citations":[{"label":"GeoNames, gazetteer record geonames:2647276"}]},{"type":"Point","coordinates":[-0.5730876760204241,54.45431894589797],"citations":[{"label":"Unlock (EDINA) gazetteer, gazetteer record unlock:11171822"}]},{"type":"Point","coordinates":[-0.574757,54.4545],"citations":[{"label":"Key to English Place-Names (KEPN), gazetteer record 5822"}]}]},"when":{"timespans":[{"start":{"in":"1083"},"end":{"in":"1613"}}]},"links":[{"type":"closeMatch","identifier":"https://sws.geonames.org/2647276/"}],"relations":[{"relationType":"gvp:broaderPartitive","relationTo":"https://w3id.org/whg-epns/05/002018","label":"within Whitby"}]}]}