{"@context":"https://raw.githubusercontent.com/LinkedPasts/linked-places-format/main/linkedplaces-context-v1.1.jsonld","type":"FeatureCollection","license":"Digitisation of English Placenames MADS data is licensed to Jisc by the English Place Names Society and released under a Creative Commons Attribution-NonCommercial 4.0 International License.","note":"LPF v1.3, lossy; derived from the PLATO record; plato_commit=ca0afadabec1e23a145c0b03df77e8f151f79832","features":[{"@id":"http://placenames.org.uk/id/placename/05/002225","type":"Feature","properties":{"title":"Danby","ccodes":["GB"],"fclasses":["A","P"]},"names":[{"toponym":"Danby","lang":"en","citations":[{"label":"English Place-Name Society survey, volume 5: North Riding of Yorkshire"}]}],"types":[{"identifier":"http://vocab.getty.edu/aat/300232418","label":"administrative division","sourceLabels":[{"label":"parish","lang":"en"}]}],"geometry":{"type":"GeometryCollection","geometries":[{"type":"Point","coordinates":[-0.91073,54.46606],"citations":[{"label":"GeoNames, gazetteer record geonames:6620428"}]},{"type":"Point","coordinates":[-0.9121447341315643,54.46683560325161],"citations":[{"label":"Unlock (EDINA) gazetteer, gazetteer record unlock:11127027"}]},{"type":"Point","coordinates":[-0.913773,54.467],"citations":[{"label":"Key to English Place-Names (KEPN), gazetteer record 5827"}]}]},"links":[{"type":"closeMatch","identifier":"https://sws.geonames.org/6620428/"}],"relations":[{"relationType":"gvp:broaderPartitive","relationTo":"http://placenames.org.uk/id/placename/05/002181","label":"within Langbargh East Wapentake"}]}]}