{"@context":"https://raw.githubusercontent.com/LinkedPasts/linked-places-format/main/linkedplaces-context-v1.1.jsonld","type":"FeatureCollection","license":"Digitisation of English Placenames MADS data is licensed to Jisc by the English Place Names Society and released under a Creative Commons Attribution-NonCommercial 4.0 International License.","note":"LPF v1.3, lossy; derived from the PLATO record; plato_commit=ca0afadabec1e23a145c0b03df77e8f151f79832","features":[{"@id":"https://w3id.org/whg-epns/05/002455","type":"Feature","properties":{"title":"Brotton","ccodes":["GB"],"fclasses":["A","P"]},"names":[{"toponym":"Brotton","lang":"en","citations":[{"label":"English Place-Name Society survey, volume 5: North Riding of Yorkshire"}]}],"types":[{"identifier":"http://vocab.getty.edu/aat/300232418","label":"administrative division","sourceLabels":[{"label":"parish","lang":"en"}]}],"geometry":{"type":"GeometryCollection","geometries":[{"type":"Point","coordinates":[-0.93929,54.56661],"citations":[{"label":"GeoNames, gazetteer record geonames:2654533"}]},{"type":"Point","coordinates":[-0.9404442039625097,54.56595985911679],"citations":[{"label":"Unlock (EDINA) gazetteer, gazetteer record unlock:11089632"}]},{"type":"Point","coordinates":[-0.942073,54.5661],"citations":[{"label":"Key to English Place-Names (KEPN), gazetteer record 5843"}]}]},"links":[{"type":"closeMatch","identifier":"https://sws.geonames.org/2654533/"}],"relations":[{"relationType":"gvp:broaderPartitive","relationTo":"https://w3id.org/whg-epns/05/002181","label":"within Langbargh East Wapentake"}]}]}