{"@context":"https://raw.githubusercontent.com/LinkedPasts/linked-places-format/main/linkedplaces-context-v1.1.jsonld","type":"FeatureCollection","license":"Digitisation of English Placenames MADS data is licensed to Jisc by the English Place Names Society and released under a Creative Commons Attribution-NonCommercial 4.0 International License.","note":"LPF v1.3, lossy; derived from the PLATO record; plato_commit=fa0d247ccc0263f8f19c8d7cdcd163df96935d1e","features":[{"@id":"https://w3id.org/whg-epns/05/002468","type":"Feature","properties":{"title":"Saltburn","ccodes":["GB"],"fclasses":["A","P"]},"names":[{"toponym":"Saltburn","lang":"en","citations":[{"label":"English Place-Name Society survey, volume 5: North Riding of Yorkshire"}]},{"toponym":"Salteburnam","citations":[{"label":"1180-90 YCh","year":1180},{"label":"1293 QW","year":1293}],"when":{"timespans":[{"start":{"earliest":"1180","latest":"1190"},"end":{"earliest":"1180","latest":"1190"}},{"start":{"in":"1293"},"end":{"in":"1293"}}]}}],"types":[{"identifier":"http://vocab.getty.edu/aat/300232418","label":"administrative division","sourceLabels":[{"label":"township","lang":"en"}]}],"geometry":{"type":"GeometryCollection","geometries":[{"type":"Point","coordinates":[-0.97367,54.58237],"citations":[{"label":"GeoNames, gazetteer record geonames:2638650"}]},{"type":"Point","coordinates":[-0.9709217801072423,54.58419954726423],"citations":[{"label":"Unlock (EDINA) gazetteer, gazetteer record unlock:11277205"}]},{"type":"Point","coordinates":[-0.972548,54.5843],"citations":[{"label":"Key to English Place-Names (KEPN), gazetteer record 5844"}]}]},"when":{"timespans":[{"start":{"in":"1180"},"end":{"in":"1293"}}]},"links":[{"type":"closeMatch","identifier":"https://sws.geonames.org/2638650/"}],"relations":[{"relationType":"gvp:broaderPartitive","relationTo":"https://w3id.org/whg-epns/05/002455","label":"within Brotton"}]}]}