{"@context":"https://raw.githubusercontent.com/LinkedPasts/linked-places-format/main/linkedplaces-context-v1.1.jsonld","type":"FeatureCollection","license":"Digitisation of English Placenames MADS data is licensed to Jisc by the English Place Names Society and released under a Creative Commons Attribution-NonCommercial 4.0 International License.","note":"LPF v1.3, lossy; derived from the PLATO record; plato_commit=fa0d247ccc0263f8f19c8d7cdcd163df96935d1e","features":[{"@id":"https://w3id.org/whg-epns/05/002950","type":"Feature","properties":{"title":"Ingleby Greenhow","ccodes":["GB"],"fclasses":["A","P"]},"names":[{"toponym":"Ingleby Greenhow","lang":"en","citations":[{"label":"English Place-Name Society survey, volume 5: North Riding of Yorkshire"}]},{"toponym":"Englebi, Engleby","citations":[{"label":"1086 DB","year":1086},{"label":"1203-7 Whitby","year":1203}],"when":{"timespans":[{"start":{"in":"1086"},"end":{"in":"1086"}},{"start":{"earliest":"1203","latest":"1207"},"end":{"earliest":"1203","latest":"1207"}}]}},{"toponym":"(H)engelby","citations":[{"label":"1140-54 Whitby","year":1140},{"label":"1235 Cl","year":1235}],"when":{"timespans":[{"start":{"earliest":"1140","latest":"1154"},"end":{"earliest":"1140","latest":"1154"}},{"start":{"earliest":"1222","latest":"1227"},"end":{"earliest":"1222","latest":"1227"}},{"start":{"in":"1235"},"end":{"in":"1235"}}]}},{"toponym":"Aengelby","citations":[{"label":"1153-4 YCh","year":1153}],"when":{"timespans":[{"start":{"earliest":"1153","latest":"1154"},"end":{"earliest":"1153","latest":"1154"}}]}},{"toponym":"Engilby juxta Grenehoue","citations":[{"label":"1285 KI","year":1285}],"when":{"timespans":[{"start":{"in":"1285"},"end":{"in":"1285"}}]}},{"toponym":"Ingolby","citations":[{"label":"1291 Ch","year":1291}],"when":{"timespans":[{"start":{"in":"1291"},"end":{"in":"1291"}}]}},{"toponym":"Ingleby juxta Grenhou","citations":[{"label":"1301 LS","year":1301}],"when":{"timespans":[{"start":{"in":"1301"},"end":{"in":"1301"}}]}},{"toponym":"Ingelby-Grenhowe","citations":[{"label":"1369 FF","year":1369}],"when":{"timespans":[{"start":{"in":"1369"},"end":{"in":"1369"}}]}}],"types":[{"identifier":"http://vocab.getty.edu/aat/300232418","label":"administrative division","sourceLabels":[{"label":"township","lang":"en"}]}],"geometry":{"type":"GeometryCollection","geometries":[{"type":"Point","coordinates":[-1.10687,54.44983],"citations":[{"label":"GeoNames, gazetteer record geonames:2646208"}]},{"type":"Point","coordinates":[-1.09767895944728,54.45038639724031],"citations":[{"label":"Unlock (EDINA) gazetteer, gazetteer record unlock:11182531"}]},{"type":"Point","coordinates":[-1.09928,54.4505],"citations":[{"label":"Key to English Place-Names (KEPN), gazetteer record 5873"}]}]},"when":{"timespans":[{"start":{"in":"1086"},"end":{"in":"1369"}}]},"links":[{"type":"closeMatch","identifier":"https://sws.geonames.org/2646208/"}],"relations":[{"relationType":"gvp:broaderPartitive","relationTo":"https://w3id.org/whg-epns/05/002946","label":"within Ingleby Greenhow"}]}]}