{"@context":"https://raw.githubusercontent.com/LinkedPasts/linked-places-format/main/linkedplaces-context-v1.1.jsonld","type":"FeatureCollection","license":"Digitisation of English Placenames MADS data is licensed to Jisc by the English Place Names Society and released under a Creative Commons Attribution-NonCommercial 4.0 International License.","note":"LPF v1.3, lossy; derived from the PLATO record; plato_commit=ca0afadabec1e23a145c0b03df77e8f151f79832","features":[{"@id":"http://placenames.org.uk/id/placename/05/003264","type":"Feature","properties":{"title":"Cundall","ccodes":["GB"],"fclasses":["A","P"]},"names":[{"toponym":"Cundall","lang":"en","citations":[{"label":"English Place-Name Society survey, volume 5: North Riding of Yorkshire"}]}],"types":[{"identifier":"http://vocab.getty.edu/aat/300232418","label":"administrative division","sourceLabels":[{"label":"parish","lang":"en"}]}],"geometry":{"type":"GeometryCollection","geometries":[{"type":"Point","coordinates":[-1.35208,54.14703],"citations":[{"label":"GeoNames, gazetteer record geonames:2651701"}]},{"type":"Point","coordinates":[-1.349283065747455,54.14639592376861],"citations":[{"label":"Unlock (EDINA) gazetteer, gazetteer record unlock:11124890"}]},{"type":"Point","coordinates":[-1.35084,54.1466],"citations":[{"label":"Key to English Place-Names (KEPN), gazetteer record 5911"}]}]},"links":[{"type":"closeMatch","identifier":"https://sws.geonames.org/2651701/"}],"relations":[{"relationType":"gvp:broaderPartitive","relationTo":"http://placenames.org.uk/id/placename/05/003218","label":"within Birdforth Wapentake"}]}]}