{"@context":"https://raw.githubusercontent.com/LinkedPasts/linked-places-format/main/linkedplaces-context-v1.1.jsonld","type":"FeatureCollection","license":"Digitisation of English Placenames MADS data is licensed to Jisc by the English Place Names Society and released under a Creative Commons Attribution-NonCommercial 4.0 International License.","note":"LPF v1.3, lossy; derived from the PLATO record; plato_commit=ca0afadabec1e23a145c0b03df77e8f151f79832","features":[{"@id":"http://placenames.org.uk/id/placename/05/003274","type":"Feature","properties":{"title":"Norton le Clay","ccodes":["GB"],"fclasses":["A","P"]},"names":[{"toponym":"Norton le Clay","lang":"en","citations":[{"label":"English Place-Name Society survey, volume 5: North Riding of Yorkshire"}]},{"toponym":"Norton(e)","citations":[{"label":"1086 DB","year":1086}],"when":{"timespans":[{"start":{"in":"1086"},"end":{"in":"1086"}}]}},{"toponym":"Norton(e) in le Drit","citations":[{"label":"1301 LS","year":1301}],"when":{"timespans":[{"start":{"in":"1301"},"end":{"in":"1301"}}]}},{"toponym":"Norton(e) in the Cley","citations":[{"label":"1536 YChant","year":1536}],"when":{"timespans":[{"start":{"in":"1536"},"end":{"in":"1536"}}]}},{"toponym":"Norton(e) in luto","citations":[{"label":"1578 FF","year":1578}],"when":{"timespans":[{"start":{"in":"1578"},"end":{"in":"1578"}}]}}],"types":[{"identifier":"http://vocab.getty.edu/aat/300232418","label":"administrative division","sourceLabels":[{"label":"township","lang":"en"}]}],"geometry":{"type":"Point","coordinates":[-1.38159,54.1378],"citations":[{"label":"Key to English Place-Names (KEPN), gazetteer record 5912"}]},"when":{"timespans":[{"start":{"in":"1086"},"end":{"in":"1578"}}]},"relations":[{"relationType":"gvp:broaderPartitive","relationTo":"http://placenames.org.uk/id/placename/05/003264","label":"within Cundall"}]}]}