{"@context":"https://raw.githubusercontent.com/LinkedPasts/linked-places-format/main/linkedplaces-context-v1.1.jsonld","type":"FeatureCollection","license":"Digitisation of English Placenames MADS data is licensed to Jisc by the English Place Names Society and released under a Creative Commons Attribution-NonCommercial 4.0 International License.","note":"LPF v1.3, lossy; derived from the PLATO record; plato_commit=ca0afadabec1e23a145c0b03df77e8f151f79832","features":[{"@id":"https://w3id.org/whg-epns/05/003316","type":"Feature","properties":{"title":"Dishforth","ccodes":["GB"],"fclasses":["A","P"]},"names":[{"toponym":"Dishforth","lang":"en","citations":[{"label":"English Place-Name Society survey, volume 5: North Riding of Yorkshire"}]},{"toponym":"Disford(e), Dysford(e)","citations":[{"label":"1086 DB","year":1086},{"label":"1276 YI","year":1276},{"label":"1285 KI","year":1285},{"label":"1314 Ch","year":1314},{"label":"1327 Fount","year":1327},{"label":"1403 YI","year":1403}],"when":{"timespans":[{"start":{"in":"1086"},"end":{"in":"1086"}},{"start":{"in":"1276"},"end":{"in":"1276"}},{"start":{"in":"1285"},"end":{"in":"1285"}},{"start":{"in":"1314"},"end":{"in":"1314"}},{"start":{"in":"1327"},"end":{"in":"1327"}},{"start":{"in":"1403"},"end":{"in":"1403"}}]}},{"toponym":"Dysforthe","citations":[{"label":"1541 RichWills","year":1541},{"label":"1577 Saxton","year":1577},{"label":"1578 FF","year":1578},{"label":"1612 NR","year":1612}],"when":{"timespans":[{"start":{"in":"1541"},"end":{"in":"1541"}},{"start":{"in":"1577"},"end":{"in":"1577"}},{"start":{"in":"1578"},"end":{"in":"1578"}},{"start":{"in":"1612"},"end":{"in":"1612"}}]}},{"toponym":"Disseford","citations":[{"label":"1157 RichReg","year":1157},{"label":"1198 Fount","year":1198}],"when":{"timespans":[{"start":{"in":"1157"},"end":{"in":"1157"}},{"start":{"in":"1198"},"end":{"in":"1198"}}]}},{"toponym":"Disceford, Dysceford","citations":[{"label":"1208 FF","year":1208},{"label":"1298 Abbr","year":1298},{"label":"1301 LS","year":1301},{"label":"1316 Vill","year":1316},{"label":"1328 Banco","year":1328},{"label":"1333 Percy","year":1333},{"label":"1350 FF","year":1350}],"when":{"timespans":[{"start":{"in":"1208"},"end":{"in":"1208"}},{"start":{"in":"1298"},"end":{"in":"1298"}},{"start":{"in":"1301"},"end":{"in":"1301"}},{"start":{"in":"1316"},"end":{"in":"1316"}},{"start":{"in":"1328"},"end":{"in":"1328"}},{"start":{"in":"1333"},"end":{"in":"1333"}},{"start":{"in":"1350"},"end":{"in":"1350"}}]}},{"toponym":"Diceford","citations":[{"label":"1202 FF","year":1202}],"when":{"timespans":[{"start":{"in":"1202"},"end":{"in":"1202"}},{"start":{"in":"1208"},"end":{"in":"1208"}}]}},{"toponym":"Dichefurthe","citations":[{"label":"1535 Fount","year":1535}],"when":{"timespans":[{"start":{"in":"1535"},"end":{"in":"1535"}}]}},{"toponym":"Dishford","citations":[{"label":"1665 Visit","year":1665}],"when":{"timespans":[{"start":{"in":"1665"},"end":{"in":"1665"}}]}}],"types":[{"identifier":"http://vocab.getty.edu/aat/300232418","label":"administrative division","sourceLabels":[{"label":"township","lang":"en"}]}],"geometry":{"type":"GeometryCollection","geometries":[{"type":"Point","coordinates":[-1.41664,54.15236],"citations":[{"label":"GeoNames, gazetteer record geonames:2651216"}]},{"type":"Point","coordinates":[-1.410395535142647,54.15569931602208],"citations":[{"label":"Unlock (EDINA) gazetteer, gazetteer record unlock:11129776"}]},{"type":"Point","coordinates":[-1.41195,54.1559],"citations":[{"label":"Key to English Place-Names (KEPN), gazetteer record 5918"}]}]},"when":{"timespans":[{"start":{"in":"1086"},"end":{"in":"1665"}}]},"links":[{"type":"closeMatch","identifier":"https://sws.geonames.org/2651216/"}],"relations":[{"relationType":"gvp:broaderPartitive","relationTo":"https://w3id.org/whg-epns/05/003279","label":"within Topcliffe"}]}]}