{"@context":"https://raw.githubusercontent.com/LinkedPasts/linked-places-format/main/linkedplaces-context-v1.1.jsonld","type":"FeatureCollection","license":"Digitisation of English Placenames MADS data is licensed to Jisc by the English Place Names Society and released under a Creative Commons Attribution-NonCommercial 4.0 International License.","note":"LPF v1.3, lossy; derived from the PLATO record; plato_commit=ca0afadabec1e23a145c0b03df77e8f151f79832","features":[{"@id":"http://placenames.org.uk/id/placename/05/003686","type":"Feature","properties":{"title":"Arden","ccodes":["GB"],"fclasses":["A","P"]},"names":[{"toponym":"Arden","lang":"en","citations":[{"label":"English Place-Name Society survey, volume 5: North Riding of Yorkshire"}]},{"toponym":"Ardene","citations":[{"label":"1086 DB","year":1086},{"label":"1327 Banco","year":1327}],"when":{"timespans":[{"start":{"in":"1086"},"end":{"in":"1086"}},{"start":{"in":"1327"},"end":{"in":"1327"}}]}},{"toponym":"Erdene, Erden(a)","citations":[{"label":"1160 Riev","year":1160},{"label":"1286–1436, recurring Ebor","year":1286},{"label":"1286–1436, recurring Baildon"},{"label":"1286 Ebor","year":1286},{"label":"1436 Baildon","year":1436}],"when":{"timespans":[{"start":{"in":"1160"},"end":{"in":"1160"}},{"start":{"in":"1286"},"end":{"in":"1436"}},{"start":{"in":"1286"},"end":{"in":"1286"}},{"start":{"in":"1436"},"end":{"in":"1436"}}]}},{"toponym":"Arden","citations":[{"label":"1201–1201, recurring ChR","year":1201},{"label":"1201 ChR","year":1201}],"when":{"timespans":[{"start":{"in":"1201"},"end":{"in":"1201"}},{"start":{"in":"1201"},"end":{"in":"1201"}}]}}],"types":[{"identifier":"http://vocab.getty.edu/aat/300232418","label":"administrative division","sourceLabels":[{"label":"township","lang":"en"}]}],"geometry":{"type":"GeometryCollection","geometries":[{"type":"Point","coordinates":[-1.223438992169324,54.32542246707268],"citations":[{"label":"Unlock (EDINA) gazetteer, gazetteer record unlock:11063206"}]},{"type":"Point","coordinates":[-1.22502,54.3256],"citations":[{"label":"Key to English Place-Names (KEPN), gazetteer record 5959"}]}]},"when":{"timespans":[{"start":{"in":"1086"},"end":{"in":"1436"}}]},"relations":[{"relationType":"gvp:broaderPartitive","relationTo":"http://placenames.org.uk/id/placename/05/003685","label":"within Hawnby"}]}]}