{"@context":"https://raw.githubusercontent.com/LinkedPasts/linked-places-format/main/linkedplaces-context-v1.1.jsonld","type":"FeatureCollection","license":"Digitisation of English Placenames MADS data is licensed to Jisc by the English Place Names Society and released under a Creative Commons Attribution-NonCommercial 4.0 International License.","note":"LPF v1.3, lossy; derived from the PLATO record; plato_commit=ca0afadabec1e23a145c0b03df77e8f151f79832","features":[{"@id":"https://w3id.org/whg-epns/05/003722","type":"Feature","properties":{"title":"Snilesworth","ccodes":["GB"],"fclasses":["A","P"]},"names":[{"toponym":"Snilesworth","lang":"en","citations":[{"label":"English Place-Name Society survey, volume 5: North Riding of Yorkshire"}]},{"toponym":"Snigleswath","citations":[{"label":"1150-70 YCh","year":1150},{"label":"1243 BylE","year":1243}],"when":{"timespans":[{"start":{"earliest":"1150","latest":"1170"},"end":{"earliest":"1150","latest":"1170"}},{"start":{"in":"1243"},"end":{"in":"1243"}}]}},{"toponym":"Snygheleswath","citations":[{"label":"1186-9 Dods","year":1186}],"when":{"timespans":[{"start":{"earliest":"1186","latest":"1189"},"end":{"earliest":"1186","latest":"1189"}}]}},{"toponym":"Snileswath, Snyleswath","citations":[{"label":"1230 FF","year":1230},{"label":"1247 Ch","year":1247},{"label":"1290 Dugd","year":1290},{"label":"1376 Dugd","year":1376}],"when":{"timespans":[{"start":{"in":"1230"},"end":{"in":"1230"}},{"start":{"in":"1247"},"end":{"in":"1247"}},{"start":{"in":"1290"},"end":{"in":"1290"}},{"start":{"in":"1376"},"end":{"in":"1376"}}]}},{"toponym":"Snailesworthe","citations":[{"label":"1575 FF","year":1575}],"when":{"timespans":[{"start":{"in":"1575"},"end":{"in":"1575"}}]}}],"types":[{"identifier":"http://vocab.getty.edu/aat/300232418","label":"administrative division","sourceLabels":[{"label":"township","lang":"en"}]}],"geometry":{"type":"GeometryCollection","geometries":[{"type":"Point","coordinates":[-1.191982630280854,54.36116985186833],"citations":[{"label":"Unlock (EDINA) gazetteer, gazetteer record unlock:11286355"}]},{"type":"Point","coordinates":[-1.19357,54.3613],"citations":[{"label":"Key to English Place-Names (KEPN), gazetteer record 5963"}]}]},"when":{"timespans":[{"start":{"in":"1150"},"end":{"in":"1575"}}]},"relations":[{"relationType":"gvp:broaderPartitive","relationTo":"https://w3id.org/whg-epns/05/003685","label":"within Hawnby"}]}]}