{"@context":"https://raw.githubusercontent.com/LinkedPasts/linked-places-format/main/linkedplaces-context-v1.1.jsonld","type":"FeatureCollection","license":"Digitisation of English Placenames MADS data is licensed to Jisc by the English Place Names Society and released under a Creative Commons Attribution-NonCommercial 4.0 International License.","note":"LPF v1.3, lossy; derived from the PLATO record; plato_commit=ca0afadabec1e23a145c0b03df77e8f151f79832","features":[{"@id":"https://w3id.org/whg-epns/05/003772","type":"Feature","properties":{"title":"Landmoth","ccodes":["GB"],"fclasses":["A","P"]},"names":[{"toponym":"Landmoth","lang":"en","citations":[{"label":"English Place-Name Society survey, volume 5: North Riding of Yorkshire"}]},{"toponym":"Landemot(e)","citations":[{"label":"1086 DB","year":1086},{"label":"1088 LVD","year":1088},{"label":"a. 1157 Percy","year":1107},{"label":"1208 FF","year":1208},{"label":"1208 Fees","year":1208},{"label":"1285 KI","year":1285},{"label":"1313 Whitby","year":1313}],"when":{"timespans":[{"start":{"in":"1086"},"end":{"in":"1086"}},{"start":{"in":"1088"},"end":{"in":"1088"}},{"start":{"earliest":"1107","latest":"1157"},"end":{"earliest":"1107","latest":"1157"}},{"start":{"in":"1208"},"end":{"in":"1208"}},{"start":{"in":"1208"},"end":{"in":"1208"}},{"start":{"in":"1285"},"end":{"in":"1285"}},{"start":{"in":"1313"},"end":{"in":"1313"}}]}},{"toponym":"Landmot","citations":[{"label":"1231 Ass","year":1231},{"label":"1359 FF","year":1359}],"when":{"timespans":[{"start":{"in":"1231"},"end":{"in":"1231"}},{"start":{"in":"1359"},"end":{"in":"1359"}}]}},{"toponym":"Landemoth","citations":[{"label":"1291 Riev","year":1291}],"when":{"timespans":[{"start":{"in":"1291"},"end":{"in":"1291"}}]}},{"toponym":"Lamouth","citations":[{"label":"1506 Sanct","year":1506}],"when":{"timespans":[{"start":{"in":"1506"},"end":{"in":"1506"}}]}},{"toponym":"Lanmouth","citations":[{"label":"1577 Saxton","year":1577},{"label":"1616 NR","year":1616}],"when":{"timespans":[{"start":{"in":"1577"},"end":{"in":"1577"}},{"start":{"in":"1616"},"end":{"in":"1616"}}]}},{"toponym":"Lamoth","citations":[{"label":"1614 NR","year":1614}],"when":{"timespans":[{"start":{"in":"1614"},"end":{"in":"1614"}}]}}],"types":[{"identifier":"http://vocab.getty.edu/aat/300232418","label":"administrative division","sourceLabels":[{"label":"township","lang":"en"}]}],"geometry":{"type":"GeometryCollection","geometries":[{"type":"Point","coordinates":[-1.346448863632046,54.32615144001157],"citations":[{"label":"Unlock (EDINA) gazetteer, gazetteer record unlock:11190996"}]},{"type":"Point","coordinates":[-1.34802,54.3263],"citations":[{"label":"Key to English Place-Names (KEPN), gazetteer record 5973"}]}]},"when":{"timespans":[{"start":{"in":"1086"},"end":{"in":"1616"}}]},"relations":[{"relationType":"gvp:broaderPartitive","relationTo":"https://w3id.org/whg-epns/05/003751","label":"within Leake"}]}]}