{"@context":"https://raw.githubusercontent.com/LinkedPasts/linked-places-format/main/linkedplaces-context-v1.1.jsonld","type":"FeatureCollection","license":"Digitisation of English Placenames MADS data is licensed to Jisc by the English Place Names Society and released under a Creative Commons Attribution-NonCommercial 4.0 International License.","note":"LPF v1.3, lossy; derived from the PLATO record; plato_commit=ca0afadabec1e23a145c0b03df77e8f151f79832","features":[{"@id":"https://w3id.org/whg-epns/05/003877","type":"Feature","properties":{"title":"Winton","ccodes":["GB"],"fclasses":["A","P"]},"names":[{"toponym":"Winton","lang":"en","citations":[{"label":"English Place-Name Society survey, volume 5: North Riding of Yorkshire"}]},{"toponym":"Winetun(e)","citations":[{"label":"1086 DB","year":1086}],"when":{"timespans":[{"start":{"in":"1086"},"end":{"in":"1086"}}]}},{"toponym":"Winton","citations":[{"label":"1578 FF","year":1578}],"when":{"timespans":[{"start":{"in":"1578"},"end":{"in":"1578"}}]}}],"types":[{"identifier":"http://vocab.getty.edu/aat/300232418","label":"administrative division","sourceLabels":[{"label":"township","lang":"en"}]}],"geometry":{"type":"GeometryCollection","geometries":[{"type":"Point","coordinates":[-1.361268312866042,54.36218429967143],"citations":[{"label":"Unlock (EDINA) gazetteer, gazetteer record unlock:11324379"}]},{"type":"Point","coordinates":[-1.36284,54.3623],"citations":[{"label":"Key to English Place-Names (KEPN), gazetteer record 5989"}]}]},"when":{"timespans":[{"start":{"in":"1086"},"end":{"in":"1578"}}]},"relations":[{"relationType":"gvp:broaderPartitive","relationTo":"https://w3id.org/whg-epns/05/003862","label":"within Kirby Sigston"}]}]}