{"@context":"https://raw.githubusercontent.com/LinkedPasts/linked-places-format/main/linkedplaces-context-v1.1.jsonld","type":"FeatureCollection","license":"Digitisation of English Placenames MADS data is licensed to Jisc by the English Place Names Society and released under a Creative Commons Attribution-NonCommercial 4.0 International License.","note":"LPF v1.3, lossy; derived from the PLATO record; plato_commit=ca0afadabec1e23a145c0b03df77e8f151f79832","features":[{"@id":"https://w3id.org/whg-epns/05/003863","type":"Feature","properties":{"title":"Kirby Sigston","ccodes":["GB"],"fclasses":["A","P"]},"names":[{"toponym":"Kirby Sigston","lang":"en","citations":[{"label":"English Place-Name Society survey, volume 5: North Riding of Yorkshire"}]},{"toponym":"Kirchebi","citations":[{"label":"1088 LVD","year":1088}],"when":{"timespans":[{"start":{"in":"1088"},"end":{"in":"1088"}}]}},{"toponym":"Kirkeb', Kirkeby","citations":[{"label":"1208-10 Fees","year":1208}],"when":{"timespans":[{"start":{"earliest":"1208","latest":"1210"},"end":{"earliest":"1208","latest":"1210"}}]}},{"toponym":"Kirkebi Sigeston, Kirkeby Sygeston","citations":[{"label":"1244 Ebor","year":1244}],"when":{"timespans":[{"start":{"in":"1244"},"end":{"in":"1244"}}]}}],"types":[{"identifier":"http://vocab.getty.edu/aat/300232418","label":"administrative division","sourceLabels":[{"label":"township","lang":"en"}]}],"geometry":{"type":"GeometryCollection","geometries":[{"type":"Point","coordinates":[-1.36339,54.34742],"citations":[{"label":"GeoNames, gazetteer record geonames:2645334"}]},{"type":"Point","coordinates":[-1.361547043655059,54.34420904962011],"citations":[{"label":"Unlock (EDINA) gazetteer, gazetteer record unlock:11187675"}]},{"type":"Point","coordinates":[-1.36311,54.3444],"citations":[{"label":"Key to English Place-Names (KEPN), gazetteer record 5987"}]}]},"when":{"timespans":[{"start":{"in":"1088"},"end":{"in":"1244"}}]},"links":[{"type":"closeMatch","identifier":"https://sws.geonames.org/2645334/"}],"relations":[{"relationType":"gvp:broaderPartitive","relationTo":"https://w3id.org/whg-epns/05/003862","label":"within Kirby Sigston"}]}]}