{"@context":"https://raw.githubusercontent.com/LinkedPasts/linked-places-format/main/linkedplaces-context-v1.1.jsonld","type":"FeatureCollection","license":"Digitisation of English Placenames MADS data is licensed to Jisc by the English Place Names Society and released under a Creative Commons Attribution-NonCommercial 4.0 International License.","note":"LPF v1.3, lossy; derived from the PLATO record; plato_commit=ca0afadabec1e23a145c0b03df77e8f151f79832","features":[{"@id":"https://w3id.org/whg-epns/05/003824","type":"Feature","properties":{"title":"Lazenby","ccodes":["GB"],"fclasses":["A","P"]},"names":[{"toponym":"Lazenby","lang":"en","citations":[{"label":"English Place-Name Society survey, volume 5: North Riding of Yorkshire"}]},{"toponym":"Leisenchi, Leisinghi","citations":[{"label":"1086 DB","year":1086}],"when":{"timespans":[{"start":{"in":"1086"},"end":{"in":"1086"}}]}},{"toponym":"Laisingbi, Laysingbi, Laysingby","citations":[{"label":"1088 LVD","year":1088}],"when":{"timespans":[{"start":{"in":"1088"},"end":{"in":"1088"}}]}},{"toponym":"Laysingby by Northalverton","citations":[{"label":"1301 Ch","year":1301}],"when":{"timespans":[{"start":{"in":"1301"},"end":{"in":"1301"}}]}},{"toponym":"Leisingebi, Leysingebi, Leysingeby","citations":[{"label":"1203 FF","year":1203},{"label":"1204 Ass","year":1204},{"label":"1219 FF","year":1219}],"when":{"timespans":[{"start":{"in":"1203"},"end":{"in":"1203"}},{"start":{"in":"1204"},"end":{"in":"1204"}},{"start":{"in":"1219"},"end":{"in":"1219"}}]}}],"types":[{"identifier":"http://vocab.getty.edu/aat/300232418","label":"administrative division","sourceLabels":[{"label":"township","lang":"en"}]}],"geometry":{"type":"GeometryCollection","geometries":[{"type":"Point","coordinates":[-1.468652479692646,54.38966954649968],"citations":[{"label":"Unlock (EDINA) gazetteer, gazetteer record unlock:11192754"}]},{"type":"Point","coordinates":[-1.47021,54.3898],"citations":[{"label":"Key to English Place-Names (KEPN), gazetteer record 5982"}]}]},"when":{"timespans":[{"start":{"in":"1086"},"end":{"in":"1301"}}]},"relations":[{"relationType":"gvp:broaderPartitive","relationTo":"https://w3id.org/whg-epns/05/003816","label":"within Northallerton"}]}]}