{"@context":"https://raw.githubusercontent.com/LinkedPasts/linked-places-format/main/linkedplaces-context-v1.1.jsonld","type":"FeatureCollection","license":"Digitisation of English Placenames MADS data is licensed to Jisc by the English Place Names Society and released under a Creative Commons Attribution-NonCommercial 4.0 International License.","note":"LPF v1.3, lossy; derived from the PLATO record; plato_commit=ca0afadabec1e23a145c0b03df77e8f151f79832","features":[{"@id":"https://w3id.org/whg-epns/05/003953","type":"Feature","properties":{"title":"Welbury","ccodes":["GB"],"fclasses":["A","P"]},"names":[{"toponym":"Welbury","lang":"en","citations":[{"label":"English Place-Name Society survey, volume 5: North Riding of Yorkshire"}]},{"toponym":"Welberga","citations":[{"label":"1086 DB","year":1086}],"when":{"timespans":[{"start":{"in":"1086"},"end":{"in":"1086"}}]}},{"toponym":"Welleberg(e), Welleberga","citations":[{"label":"1086–1301, recurring DB","year":1086},{"label":"1086–1301, recurring Tax"},{"label":"1086 DB","year":1086},{"label":"c. 1291 Tax","year":1281}],"when":{"timespans":[{"start":{"in":"1086"},"end":{"in":"1301"}},{"start":{"in":"1086"},"end":{"in":"1086"}},{"start":{"earliest":"1281","latest":"1301"},"end":{"earliest":"1281","latest":"1301"}}]}},{"toponym":"Welleberc, Welleberh","citations":[{"label":"1198 Guis","year":1198},{"label":"13 YD","year":1200}],"when":{"timespans":[{"start":{"in":"1198"},"end":{"in":"1198"}},{"start":{"earliest":"1200","latest":"1300"},"end":{"earliest":"1200","latest":"1300"}}]}},{"toponym":"Welleberyg","citations":[{"label":"1301 LS","year":1301}],"when":{"timespans":[{"start":{"in":"1301"},"end":{"in":"1301"}}]}},{"toponym":"Wel(le)byry","citations":[{"label":"1310 Ch","year":1310},{"label":"1344 FF","year":1344}],"when":{"timespans":[{"start":{"in":"1310"},"end":{"in":"1310"}},{"start":{"in":"1344"},"end":{"in":"1344"}}]}},{"toponym":"Welbery","citations":[{"label":"1400 Pap","year":1400},{"label":"1403 YI","year":1403},{"label":"1508 Guis","year":1508}],"when":{"timespans":[{"start":{"in":"1400"},"end":{"in":"1400"}},{"start":{"in":"1403"},"end":{"in":"1403"}},{"start":{"in":"1508"},"end":{"in":"1508"}}]}}],"types":[{"identifier":"http://vocab.getty.edu/aat/300232418","label":"administrative division","sourceLabels":[{"label":"township","lang":"en"}]}],"geometry":{"type":"GeometryCollection","geometries":[{"type":"Point","coordinates":[-1.38853,54.41568],"citations":[{"label":"GeoNames, gazetteer record geonames:2634594"}]},{"type":"Point","coordinates":[-1.39125094167405,54.41626897726655],"citations":[{"label":"Unlock (EDINA) gazetteer, gazetteer record unlock:11315470"}]},{"type":"Point","coordinates":[-1.39282,54.4164],"citations":[{"label":"Key to English Place-Names (KEPN), gazetteer record 5965"}]}]},"when":{"timespans":[{"start":{"in":"1086"},"end":{"in":"1508"}}]},"links":[{"type":"closeMatch","identifier":"https://sws.geonames.org/2634594/"}],"relations":[{"relationType":"gvp:broaderPartitive","relationTo":"https://w3id.org/whg-epns/05/003938","label":"within East Harlsey"}]}]}