{"@context":"https://raw.githubusercontent.com/LinkedPasts/linked-places-format/main/linkedplaces-context-v1.1.jsonld","type":"FeatureCollection","license":"Digitisation of English Placenames MADS data is licensed to Jisc by the English Place Names Society and released under a Creative Commons Attribution-NonCommercial 4.0 International License.","note":"LPF v1.3, lossy; derived from the PLATO record; plato_commit=ca0afadabec1e23a145c0b03df77e8f151f79832","features":[{"@id":"http://placenames.org.uk/id/placename/05/004080","type":"Feature","properties":{"title":"Ainderby Quernhow","ccodes":["GB"],"fclasses":["A","P"]},"names":[{"toponym":"Ainderby Quernhow","lang":"en","citations":[{"label":"English Place-Name Society survey, volume 5: North Riding of Yorkshire"}]},{"toponym":"Aiendrebi, Andrebi","citations":[{"label":"1086 DB","year":1086}],"when":{"timespans":[{"start":{"in":"1086"},"end":{"in":"1086"}}]}},{"toponym":"Endreby, Enderby","citations":[{"label":"1207 Abbr","year":1207},{"label":"1208 FF","year":1208}],"when":{"timespans":[{"start":{"in":"1207"},"end":{"in":"1207"}},{"start":{"in":"1208"},"end":{"in":"1208"}}]}},{"toponym":"Ainderby, Aynderby","citations":[{"label":"1208 FF","year":1208}],"when":{"timespans":[{"start":{"in":"1208"},"end":{"in":"1208"}}]}},{"toponym":"Aynderby juxta Querenhou","citations":[{"label":"1301 LS","year":1301}],"when":{"timespans":[{"start":{"in":"1301"},"end":{"in":"1301"}}]}},{"toponym":"AynderbyVis-compt","citations":[{"label":"14 RichReg","year":1300}],"when":{"timespans":[{"start":{"earliest":"1300","latest":"1400"},"end":{"earliest":"1300","latest":"1400"}}]}},{"toponym":"Einderby","citations":[{"label":"1231 Ass","year":1231}],"when":{"timespans":[{"start":{"in":"1231"},"end":{"in":"1231"}}]}},{"toponym":"Anderby vesconte","citations":[{"label":"1280 YI","year":1280}],"when":{"timespans":[{"start":{"in":"1280"},"end":{"in":"1280"}}]}},{"toponym":"Anderby Whernhowe","citations":[{"label":"1578 FF","year":1578}],"when":{"timespans":[{"start":{"in":"1578"},"end":{"in":"1578"}}]}}],"types":[{"identifier":"http://vocab.getty.edu/aat/300232418","label":"administrative division","sourceLabels":[{"label":"township","lang":"en"}]}],"geometry":{"type":"GeometryCollection","geometries":[{"type":"Point","coordinates":[-1.46325,54.22107],"citations":[{"label":"GeoNames, gazetteer record geonames:7299243"}]},{"type":"Point","coordinates":[-1.470847241107127,54.21889998615109],"citations":[{"label":"Unlock (EDINA) gazetteer, gazetteer record unlock:11057389"}]},{"type":"Point","coordinates":[-1.47228,54.2281],"citations":[{"label":"Key to English Place-Names (KEPN), gazetteer record 6009"}]}]},"when":{"timespans":[{"start":{"in":"1086"},"end":{"in":"1578"}}]},"links":[{"type":"closeMatch","identifier":"https://sws.geonames.org/7299243/"}],"relations":[{"relationType":"gvp:broaderPartitive","relationTo":"http://placenames.org.uk/id/placename/05/004079","label":"within Pickhill"}]}]}