{"@context":"https://raw.githubusercontent.com/LinkedPasts/linked-places-format/main/linkedplaces-context-v1.1.jsonld","type":"FeatureCollection","license":"Digitisation of English Placenames MADS data is licensed to Jisc by the English Place Names Society and released under a Creative Commons Attribution-NonCommercial 4.0 International License.","note":"LPF v1.3, lossy; derived from the PLATO record; plato_commit=fa0d247ccc0263f8f19c8d7cdcd163df96935d1e","features":[{"@id":"https://w3id.org/whg-epns/05/004181","type":"Feature","properties":{"title":"Theakston","ccodes":["GB"],"fclasses":["A","P"]},"names":[{"toponym":"Theakston","lang":"en","citations":[{"label":"English Place-Name Society survey, volume 5: North Riding of Yorkshire"}]},{"toponym":"Eston","citations":[{"label":"1086 DB","year":1086}],"when":{"timespans":[{"start":{"in":"1086"},"end":{"in":"1086"}}]}},{"toponym":"Texton(e)","citations":[{"label":"H 2 Leon","year":1154},{"label":"Hy 3 Dugd","year":1216},{"label":"1158-66 YCh","year":1158},{"label":"1208 FF","year":1208},{"label":"1270 YI","year":1270}],"when":{"timespans":[{"start":{"earliest":"1154","latest":"1189"},"end":{"earliest":"1154","latest":"1189"}},{"start":{"earliest":"1216","latest":"1272"},"end":{"earliest":"1216","latest":"1272"}},{"start":{"earliest":"1158","latest":"1166"},"end":{"earliest":"1158","latest":"1166"}},{"start":{"in":"1208"},"end":{"in":"1208"}},{"start":{"in":"1270"},"end":{"in":"1270"}}]}},{"toponym":"Thekeston","citations":[{"label":"1157 RichReg","year":1157},{"label":"13 RichReg","year":1200},{"label":"1285 KI","year":1285}],"when":{"timespans":[{"start":{"in":"1157"},"end":{"in":"1157"}},{"start":{"earliest":"1200","latest":"1300"},"end":{"earliest":"1200","latest":"1300"}},{"start":{"in":"1285"},"end":{"in":"1285"}}]}},{"toponym":"Thexton","citations":[{"label":"1184 RichReg","year":1184},{"label":"1298 YI","year":1298},{"label":"1301 LS","year":1301},{"label":"1307 Dugd","year":1307},{"label":"1409 YI","year":1409}],"when":{"timespans":[{"start":{"in":"1184"},"end":{"in":"1184"}},{"start":{"in":"1298"},"end":{"in":"1298"}},{"start":{"in":"1301"},"end":{"in":"1301"}},{"start":{"in":"1307"},"end":{"in":"1307"}},{"start":{"in":"1409"},"end":{"in":"1409"}}]}}],"types":[{"identifier":"http://vocab.getty.edu/aat/300232418","label":"administrative division","sourceLabels":[{"label":"township","lang":"en"}]}],"geometry":{"type":"GeometryCollection","geometries":[{"type":"Point","coordinates":[-1.53428,54.27378],"citations":[{"label":"GeoNames, gazetteer record geonames:7296822"}]},{"type":"Point","coordinates":[-1.531687220397819,54.26409399515672],"citations":[{"label":"Unlock (EDINA) gazetteer, gazetteer record unlock:11299233"}]},{"type":"Point","coordinates":[-1.53323,54.2643],"citations":[{"label":"Key to English Place-Names (KEPN), gazetteer record 6018"}]}]},"when":{"timespans":[{"start":{"in":"1086"},"end":{"in":"1409"}}]},"links":[{"type":"closeMatch","identifier":"https://sws.geonames.org/7296822/"}],"relations":[{"relationType":"gvp:broaderPartitive","relationTo":"https://w3id.org/whg-epns/05/004139","label":"within Burneston"}]}]}