{"@context":"https://raw.githubusercontent.com/LinkedPasts/linked-places-format/main/linkedplaces-context-v1.1.jsonld","type":"FeatureCollection","license":"Digitisation of English Placenames MADS data is licensed to Jisc by the English Place Names Society and released under a Creative Commons Attribution-NonCommercial 4.0 International License.","note":"LPF v1.3, lossy; derived from the PLATO record; plato_commit=ca0afadabec1e23a145c0b03df77e8f151f79832","features":[{"@id":"http://placenames.org.uk/id/placename/05/004127","type":"Feature","properties":{"title":"Swainby","ccodes":["GB"],"fclasses":["A","P"]},"names":[{"toponym":"Swainby","lang":"en","citations":[{"label":"English Place-Name Society survey, volume 5: North Riding of Yorkshire"}]},{"toponym":"Suanebi","citations":[{"label":"1086 DB","year":1086}],"when":{"timespans":[{"start":{"in":"1086"},"end":{"in":"1086"}}]}},{"toponym":"Suenebi","citations":[{"label":"1111-22 Mary Y","year":1111}],"when":{"timespans":[{"start":{"earliest":"1111","latest":"1122"},"end":{"earliest":"1111","latest":"1122"}}]}},{"toponym":"Swayneby","citations":[{"label":"1184–1560, recurring RichReg","year":1184},{"label":"1184–1560, recurring RichWills"},{"label":"1184 RichReg","year":1184},{"label":"1560 RichWills","year":1560}],"when":{"timespans":[{"start":{"in":"1184"},"end":{"in":"1560"}},{"start":{"in":"1184"},"end":{"in":"1184"}},{"start":{"in":"1560"},"end":{"in":"1560"}}]}},{"toponym":"Suanesby, Suanisby","citations":[{"label":"1196 Guis","year":1196},{"label":"1313 Pat","year":1313}],"when":{"timespans":[{"start":{"in":"1196"},"end":{"in":"1196"}},{"start":{"in":"1313"},"end":{"in":"1313"}}]}},{"toponym":"Sweinesby","citations":[{"label":"1349 Dugd","year":1349}],"when":{"timespans":[{"start":{"in":"1349"},"end":{"in":"1349"}}]}}],"types":[{"identifier":"http://vocab.getty.edu/aat/300232418","label":"administrative division","sourceLabels":[{"label":"township","lang":"en"}]}],"geometry":{"type":"GeometryCollection","geometries":[{"type":"Point","coordinates":[-1.485625630191109,54.26390629635881],"citations":[{"label":"Unlock (EDINA) gazetteer, gazetteer record unlock:11207592"}]},{"type":"Point","coordinates":[-1.48717,54.2641],"citations":[{"label":"Key to English Place-Names (KEPN), gazetteer record 6013"}]}]},"when":{"timespans":[{"start":{"in":"1086"},"end":{"in":"1560"}}]},"relations":[{"relationType":"gvp:broaderPartitive","relationTo":"http://placenames.org.uk/id/placename/05/004079","label":"within Pickhill"}]}]}