{"@context":"https://raw.githubusercontent.com/LinkedPasts/linked-places-format/main/linkedplaces-context-v1.1.jsonld","type":"FeatureCollection","license":"Digitisation of English Placenames MADS data is licensed to Jisc by the English Place Names Society and released under a Creative Commons Attribution-NonCommercial 4.0 International License.","note":"LPF v1.3, lossy; derived from the PLATO record; plato_commit=ca0afadabec1e23a145c0b03df77e8f151f79832","features":[{"@id":"https://w3id.org/whg-epns/05/004390","type":"Feature","properties":{"title":"Rand Grange","ccodes":["GB"],"fclasses":["A","P"]},"names":[{"toponym":"Rand Grange","lang":"en","citations":[{"label":"English Place-Name Society survey, volume 5: North Riding of Yorkshire"}]},{"toponym":"Randes","citations":[{"label":"12 Easby","year":1100}],"when":{"timespans":[{"start":{"earliest":"1100","latest":"1200"},"end":{"earliest":"1100","latest":"1200"}}]}},{"toponym":"Rand(e)","citations":[{"label":"1285 KI","year":1285},{"label":"1319 RichReg","year":1319},{"label":"1328 Banco","year":1328}],"when":{"timespans":[{"start":{"in":"1285"},"end":{"in":"1285"}},{"start":{"in":"1319"},"end":{"in":"1319"}},{"start":{"in":"1328"},"end":{"in":"1328"}}]}}],"types":[{"identifier":"http://vocab.getty.edu/aat/300232418","label":"administrative division","sourceLabels":[{"label":"township","lang":"en"}]}],"geometry":{"type":"GeometryCollection","geometries":[{"type":"Point","coordinates":[-1.60386,54.29747],"citations":[{"label":"GeoNames, gazetteer record geonames:7302008"}]},{"type":"Point","coordinates":[-1.608201903223167,54.29133198374877],"citations":[{"label":"Unlock (EDINA) gazetteer, gazetteer record unlock:11252537"}]},{"type":"Point","coordinates":[-1.60974,54.2915],"citations":[{"label":"Key to English Place-Names (KEPN), gazetteer record 6040"}]}]},"when":{"timespans":[{"start":{"in":"1100"},"end":{"in":"1328"}}]},"links":[{"type":"closeMatch","identifier":"https://sws.geonames.org/7302008/"}],"relations":[{"relationType":"gvp:broaderPartitive","relationTo":"https://w3id.org/whg-epns/05/004337","label":"within Bedale"}]}]}