{"@context":"https://raw.githubusercontent.com/LinkedPasts/linked-places-format/main/linkedplaces-context-v1.1.jsonld","type":"FeatureCollection","license":"Digitisation of English Placenames MADS data is licensed to Jisc by the English Place Names Society and released under a Creative Commons Attribution-NonCommercial 4.0 International License.","note":"LPF v1.3, lossy; derived from the PLATO record; plato_commit=ca0afadabec1e23a145c0b03df77e8f151f79832","features":[{"@id":"https://w3id.org/whg-epns/05/004338","type":"Feature","properties":{"title":"Aiskew","ccodes":["GB"],"fclasses":["A","P"]},"names":[{"toponym":"Aiskew","lang":"en","citations":[{"label":"English Place-Name Society survey, volume 5: North Riding of Yorkshire"}]},{"toponym":"Echescol","citations":[{"label":"1086 DB","year":1086}],"when":{"timespans":[{"start":{"in":"1086"},"end":{"in":"1086"}}]}},{"toponym":"Aikescogh, Aykescogh","citations":[{"label":"12 RichReg","year":1100},{"label":"1318 RichReg","year":1318}],"when":{"timespans":[{"start":{"earliest":"1100","latest":"1200"},"end":{"earliest":"1100","latest":"1200"}},{"start":{"in":"1318"},"end":{"in":"1318"}}]}},{"toponym":"Aykescouk","citations":[{"label":"1279-81 QW","year":1279}],"when":{"timespans":[{"start":{"earliest":"1279","latest":"1281"},"end":{"earliest":"1279","latest":"1281"}}]}},{"toponym":"Aykescoch'","citations":[{"label":"1283 Rich","year":1283}],"when":{"timespans":[{"start":{"in":"1283"},"end":{"in":"1283"}}]}},{"toponym":"Aykeschogh","citations":[{"label":"1352 FF","year":1352}],"when":{"timespans":[{"start":{"in":"1352"},"end":{"in":"1352"}}]}},{"toponym":"Ayscough, Aiscogh","citations":[{"label":"1285 KI","year":1285},{"label":"1400 YI","year":1400}],"when":{"timespans":[{"start":{"in":"1285"},"end":{"in":"1285"}},{"start":{"in":"1400"},"end":{"in":"1400"}}]}},{"toponym":"Askew(e)","citations":[{"label":"1516 FF","year":1516},{"label":"1665 Visit","year":1665}],"when":{"timespans":[{"start":{"in":"1516"},"end":{"in":"1516"}},{"start":{"in":"1665"},"end":{"in":"1665"}}]}},{"toponym":"Ascugh","citations":[{"label":"1576 FF","year":1576}],"when":{"timespans":[{"start":{"in":"1576"},"end":{"in":"1576"}}]}}],"types":[{"identifier":"http://vocab.getty.edu/aat/300232418","label":"administrative division","sourceLabels":[{"label":"township","lang":"en"}]}],"geometry":{"type":"GeometryCollection","geometries":[{"type":"Point","coordinates":[-1.58152,54.29319],"citations":[{"label":"GeoNames, gazetteer record geonames:8224205"}]},{"type":"Point","coordinates":[-1.577473531865855,54.29122825458474],"citations":[{"label":"Unlock (EDINA) gazetteer, gazetteer record unlock:11057778"}]},{"type":"Point","coordinates":[-1.57901,54.2914],"citations":[{"label":"Key to English Place-Names (KEPN), gazetteer record 6035"}]}]},"when":{"timespans":[{"start":{"in":"1086"},"end":{"in":"1665"}}]},"links":[{"type":"closeMatch","identifier":"https://sws.geonames.org/8224205/"}],"relations":[{"relationType":"gvp:broaderPartitive","relationTo":"https://w3id.org/whg-epns/05/004337","label":"within Bedale"}]}]}