{"@context":"https://raw.githubusercontent.com/LinkedPasts/linked-places-format/main/linkedplaces-context-v1.1.jsonld","type":"FeatureCollection","license":"Digitisation of English Placenames MADS data is licensed to Jisc by the English Place Names Society and released under a Creative Commons Attribution-NonCommercial 4.0 International License.","note":"LPF v1.3, lossy; derived from the PLATO record; plato_commit=fa0d247ccc0263f8f19c8d7cdcd163df96935d1e","features":[{"@id":"https://w3id.org/whg-epns/05/004555","type":"Feature","properties":{"title":"Aikber","ccodes":["GB"],"fclasses":["A","P"]},"names":[{"toponym":"Aikber","lang":"en","citations":[{"label":"English Place-Name Society survey, volume 5: North Riding of Yorkshire"}]},{"toponym":"Akeberga","citations":[{"label":"1160 YCh","year":1160}],"when":{"timespans":[{"start":{"in":"1160"},"end":{"in":"1160"}}]}},{"toponym":"Aykebergh","citations":[{"label":"1279-81 QW","year":1279},{"label":"1289 ChR","year":1289}],"when":{"timespans":[{"start":{"earliest":"1279","latest":"1281"},"end":{"earliest":"1279","latest":"1281"}},{"start":{"in":"1289"},"end":{"in":"1289"}}]}},{"toponym":"Aykbergh","citations":[{"label":"1342 IpmR","year":1342}],"when":{"timespans":[{"start":{"in":"1342"},"end":{"in":"1342"}}]}},{"toponym":"Aykebargh","citations":[{"label":"1539 Dugd","year":1539}],"when":{"timespans":[{"start":{"in":"1539"},"end":{"in":"1539"}}]}}],"types":[{"identifier":"http://vocab.getty.edu/aat/300232418","label":"administrative division","sourceLabels":[{"label":"township","lang":"en"}]}],"geometry":{"type":"Point","coordinates":[-1.70172,54.3187],"citations":[{"label":"Key to English Place-Names (KEPN), gazetteer record 6059"}]},"when":{"timespans":[{"start":{"in":"1160"},"end":{"in":"1539"}}]},"relations":[{"relationType":"gvp:broaderPartitive","relationTo":"https://w3id.org/whg-epns/05/004554","label":"within Finghall"}]}]}