{"@context":"https://raw.githubusercontent.com/LinkedPasts/linked-places-format/main/linkedplaces-context-v1.1.jsonld","type":"FeatureCollection","license":"Digitisation of English Placenames MADS data is licensed to Jisc by the English Place Names Society and released under a Creative Commons Attribution-NonCommercial 4.0 International License.","note":"LPF v1.3, lossy; derived from the PLATO record; plato_commit=ca0afadabec1e23a145c0b03df77e8f151f79832","features":[{"@id":"http://placenames.org.uk/id/placename/05/004609","type":"Feature","properties":{"title":"East Witton","ccodes":["GB"],"fclasses":["A","P"]},"names":[{"toponym":"East Witton","lang":"en","citations":[{"label":"English Place-Name Society survey, volume 5: North Riding of Yorkshire"}]},{"toponym":"Witun(e), Witone","citations":[{"label":"1086 DB","year":1086}],"when":{"timespans":[{"start":{"in":"1086"},"end":{"in":"1086"}}]}},{"toponym":"Estwitone","citations":[{"label":"1204 ClR","year":1204},{"label":"1396 Pap","year":1396}],"when":{"timespans":[{"start":{"in":"1204"},"end":{"in":"1204"}},{"start":{"in":"1396"},"end":{"in":"1396"}}]}},{"toponym":"Wittun, Witton","citations":[{"label":"c. 1150 Dugd","year":1140},{"label":"1201 FF","year":1201},{"label":"1268 Abbr","year":1268},{"label":"1298 YI","year":1298}],"when":{"timespans":[{"start":{"earliest":"1140","latest":"1160"},"end":{"earliest":"1140","latest":"1160"}},{"start":{"in":"1201"},"end":{"in":"1201"}},{"start":{"in":"1268"},"end":{"in":"1268"}},{"start":{"in":"1298"},"end":{"in":"1298"}}]}},{"toponym":"E(a)stwitton","citations":[{"label":"1156 Dugd","year":1156}],"when":{"timespans":[{"start":{"in":"1156"},"end":{"in":"1156"}}]}},{"toponym":"Est Wotton","citations":[{"label":"1316 FA","year":1316}],"when":{"timespans":[{"start":{"in":"1316"},"end":{"in":"1316"}}]}}],"types":[{"identifier":"http://vocab.getty.edu/aat/300232418","label":"administrative division","sourceLabels":[{"label":"township","lang":"en"}]}],"geometry":{"type":"GeometryCollection","geometries":[{"type":"Point","coordinates":[-1.77929,54.26937],"citations":[{"label":"GeoNames, gazetteer record geonames:2650310"}]},{"type":"Point","coordinates":[-1.777307867864934,54.27378612089627],"citations":[{"label":"Unlock (EDINA) gazetteer, gazetteer record unlock:11136734"}]},{"type":"Point","coordinates":[-1.77882,54.2739],"citations":[{"label":"Key to English Place-Names (KEPN), gazetteer record 6064"}]}]},"when":{"timespans":[{"start":{"in":"1086"},"end":{"in":"1396"}}]},"links":[{"type":"closeMatch","identifier":"https://sws.geonames.org/2650310/"}],"relations":[{"relationType":"gvp:broaderPartitive","relationTo":"http://placenames.org.uk/id/placename/05/004608","label":"within East Witton"}]}]}