{"@context":"https://raw.githubusercontent.com/LinkedPasts/linked-places-format/main/linkedplaces-context-v1.1.jsonld","type":"FeatureCollection","license":"Digitisation of English Placenames MADS data is licensed to Jisc by the English Place Names Society and released under a Creative Commons Attribution-NonCommercial 4.0 International License.","note":"LPF v1.3, lossy; derived from the PLATO record; plato_commit=fa0d247ccc0263f8f19c8d7cdcd163df96935d1e","features":[{"@id":"https://w3id.org/whg-epns/05/004783","type":"Feature","properties":{"title":"High Abbotside","ccodes":["GB"],"fclasses":["A","P"]},"names":[{"toponym":"High Abbotside","lang":"en","citations":[{"label":"English Place-Name Society survey, volume 5: North Riding of Yorkshire"}]}],"types":[{"identifier":"http://vocab.getty.edu/aat/300232418","label":"administrative division","sourceLabels":[{"label":"township","lang":"en"}]}],"geometry":{"type":"GeometryCollection","geometries":[{"type":"Point","coordinates":[-2.23202,54.34456],"citations":[{"label":"GeoNames, gazetteer record geonames:7293915"}]},{"type":"Point","coordinates":[-2.23987,54.3368],"citations":[{"label":"Key to English Place-Names (KEPN), gazetteer record 6082"}]}]},"links":[{"type":"closeMatch","identifier":"https://sws.geonames.org/7293915/"}],"relations":[{"relationType":"gvp:broaderPartitive","relationTo":"https://w3id.org/whg-epns/05/004782","label":"within Aysgarth"}]}]}