{"@context":"https://raw.githubusercontent.com/LinkedPasts/linked-places-format/main/linkedplaces-context-v1.1.jsonld","type":"FeatureCollection","license":"Digitisation of English Placenames MADS data is licensed to Jisc by the English Place Names Society and released under a Creative Commons Attribution-NonCommercial 4.0 International License.","note":"LPF v1.3, lossy; derived from the PLATO record; plato_commit=ca0afadabec1e23a145c0b03df77e8f151f79832","features":[{"@id":"http://placenames.org.uk/id/placename/05/005025","type":"Feature","properties":{"title":"Walburn","ccodes":["GB"],"fclasses":["A","P"]},"names":[{"toponym":"Walburn","lang":"en","citations":[{"label":"English Place-Name Society survey, volume 5: North Riding of Yorkshire"}]},{"toponym":"Walebrun(e), Waleburne","citations":[{"label":"12 Easby","year":1100},{"label":"1222 FF","year":1222},{"label":"1295 YI","year":1295},{"label":"1301 LS","year":1301}],"when":{"timespans":[{"start":{"earliest":"1100","latest":"1200"},"end":{"earliest":"1100","latest":"1200"}},{"start":{"in":"1222"},"end":{"in":"1222"}},{"start":{"in":"1295"},"end":{"in":"1295"}},{"start":{"in":"1301"},"end":{"in":"1301"}}]}},{"toponym":"Walbro(u)n","citations":[{"label":"1270 YI","year":1270},{"label":"1314 Ch","year":1314}],"when":{"timespans":[{"start":{"in":"1270"},"end":{"in":"1270"}},{"start":{"in":"1314"},"end":{"in":"1314"}}]}},{"toponym":"Walburn","citations":[{"label":"1285–1285, recurring KI","year":1285},{"label":"1285 KI","year":1285}],"when":{"timespans":[{"start":{"in":"1285"},"end":{"in":"1285"}},{"start":{"in":"1285"},"end":{"in":"1285"}}]}}],"types":[{"identifier":"http://vocab.getty.edu/aat/300232418","label":"administrative division","sourceLabels":[{"label":"township","lang":"en"}]}],"geometry":{"type":"GeometryCollection","geometries":[{"type":"Point","coordinates":[-1.81571,54.36045],"citations":[{"label":"GeoNames, gazetteer record geonames:7302023"}]},{"type":"Point","coordinates":[-1.823035073623918,54.35475619238729],"citations":[{"label":"Unlock (EDINA) gazetteer, gazetteer record unlock:11312263"}]},{"type":"Point","coordinates":[-1.82455,54.3549],"citations":[{"label":"Key to English Place-Names (KEPN), gazetteer record 6099"}]}]},"when":{"timespans":[{"start":{"in":"1100"},"end":{"in":"1314"}}]},"links":[{"type":"closeMatch","identifier":"https://sws.geonames.org/7302023/"}],"relations":[{"relationType":"gvp:broaderPartitive","relationTo":"http://placenames.org.uk/id/placename/05/005014","label":"within Downholme"}]}]}