{"@context":"https://raw.githubusercontent.com/LinkedPasts/linked-places-format/main/linkedplaces-context-v1.1.jsonld","type":"FeatureCollection","license":"Digitisation of English Placenames MADS data is licensed to Jisc by the English Place Names Society and released under a Creative Commons Attribution-NonCommercial 4.0 International License.","note":"LPF v1.3, lossy; derived from the PLATO record; plato_commit=ca0afadabec1e23a145c0b03df77e8f151f79832","features":[{"@id":"https://w3id.org/whg-epns/05/005015","type":"Feature","properties":{"title":"Downholme","ccodes":["GB"],"fclasses":["A","P"]},"names":[{"toponym":"Downholme","lang":"en","citations":[{"label":"English Place-Name Society survey, volume 5: North Riding of Yorkshire"}]},{"toponym":"Dune","citations":[{"label":"1086 DB","year":1086}],"when":{"timespans":[{"start":{"in":"1086"},"end":{"in":"1086"}}]}},{"toponym":"Dunum","citations":[{"label":"12 Marrick","year":1100},{"label":"1184 RichReg","year":1184},{"label":"1231 Ass","year":1231},{"label":"1292 Ch","year":1292}],"when":{"timespans":[{"start":{"earliest":"1100","latest":"1200"},"end":{"earliest":"1100","latest":"1200"}},{"start":{"in":"1184"},"end":{"in":"1184"}},{"start":{"in":"1231"},"end":{"in":"1231"}},{"start":{"in":"1292"},"end":{"in":"1292"}}]}},{"toponym":"Dounoum","citations":[{"label":"1314 Ch","year":1314}],"when":{"timespans":[{"start":{"in":"1314"},"end":{"in":"1314"}}]}},{"toponym":"Downhum","citations":[{"label":"1535 FF","year":1535}],"when":{"timespans":[{"start":{"in":"1535"},"end":{"in":"1535"}}]}}],"types":[{"identifier":"http://vocab.getty.edu/aat/300232418","label":"administrative division","sourceLabels":[{"label":"township","lang":"en"}]}],"geometry":{"type":"GeometryCollection","geometries":[{"type":"Point","coordinates":[-1.82648,54.37656],"citations":[{"label":"GeoNames, gazetteer record geonames:2651026"}]},{"type":"Point","coordinates":[-1.82295778418832,54.37273244248443],"citations":[{"label":"Unlock (EDINA) gazetteer, gazetteer record unlock:11131381"}]},{"type":"Point","coordinates":[-1.82447,54.3729],"citations":[{"label":"Key to English Place-Names (KEPN), gazetteer record 6096"}]}]},"when":{"timespans":[{"start":{"in":"1086"},"end":{"in":"1535"}}]},"links":[{"type":"closeMatch","identifier":"https://sws.geonames.org/2651026/"}],"relations":[{"relationType":"gvp:broaderPartitive","relationTo":"https://w3id.org/whg-epns/05/005014","label":"within Downholme"}]}]}