{"@context":"https://raw.githubusercontent.com/LinkedPasts/linked-places-format/main/linkedplaces-context-v1.1.jsonld","type":"FeatureCollection","license":"Digitisation of English Placenames MADS data is licensed to Jisc by the English Place Names Society and released under a Creative Commons Attribution-NonCommercial 4.0 International License.","note":"LPF v1.3, lossy; derived from the PLATO record; plato_commit=fa0d247ccc0263f8f19c8d7cdcd163df96935d1e","features":[{"@id":"https://w3id.org/whg-epns/05/005020","type":"Feature","properties":{"title":"Ellerton Abbey","ccodes":["GB"],"fclasses":["A","P"]},"names":[{"toponym":"Ellerton Abbey","lang":"en","citations":[{"label":"English Place-Name Society survey, volume 5: North Riding of Yorkshire"}]},{"toponym":"Elreton","citations":[{"label":"1086 DB","year":1086},{"label":"1228 Pat","year":1228},{"label":"1230 Ebor","year":1230},{"label":"1268 Abbr","year":1268}],"when":{"timespans":[{"start":{"in":"1086"},"end":{"in":"1086"}},{"start":{"in":"1228"},"end":{"in":"1228"}},{"start":{"in":"1230"},"end":{"in":"1230"}},{"start":{"in":"1268"},"end":{"in":"1268"}}]}},{"toponym":"Ellerton(a), Ellertun","citations":[{"label":"RichReg","year":1184},{"label":"1184 RichReg","year":1184}],"when":{"timespans":[{"start":{"in":"1184"},"end":{"in":"1184"}},{"start":{"in":"1184"},"end":{"in":"1184"}}]}}],"types":[{"identifier":"http://vocab.getty.edu/aat/300232418","label":"administrative division","sourceLabels":[{"label":"township","lang":"en"}]}],"geometry":{"type":"Point","coordinates":[-1.9784,54.373],"citations":[{"label":"Key to English Place-Names (KEPN), gazetteer record 6097"}]},"when":{"timespans":[{"start":{"in":"1086"},"end":{"in":"1268"}}]},"relations":[{"relationType":"gvp:broaderPartitive","relationTo":"https://w3id.org/whg-epns/05/005014","label":"within Downholme"}]}]}