{"@context":"https://raw.githubusercontent.com/LinkedPasts/linked-places-format/main/linkedplaces-context-v1.1.jsonld","type":"FeatureCollection","license":"Digitisation of English Placenames MADS data is licensed to Jisc by the English Place Names Society and released under a Creative Commons Attribution-NonCommercial 4.0 International License.","note":"LPF v1.3, lossy; derived from the PLATO record; plato_commit=fa0d247ccc0263f8f19c8d7cdcd163df96935d1e","features":[{"@id":"https://w3id.org/whg-epns/05/005124","type":"Feature","properties":{"title":"Newby Wiske","ccodes":["GB"],"fclasses":["A","P"]},"names":[{"toponym":"Newby Wiske","lang":"en","citations":[{"label":"English Place-Name Society survey, volume 5: North Riding of Yorkshire"}]},{"toponym":"Neuby","citations":[{"label":"1157 RichReg","year":1157}],"when":{"timespans":[{"start":{"in":"1157"},"end":{"in":"1157"}}]}},{"toponym":"Neuby super Wisk","citations":[{"label":"1285 KI","year":1285}],"when":{"timespans":[{"start":{"in":"1285"},"end":{"in":"1285"}}]}}],"types":[{"identifier":"http://vocab.getty.edu/aat/300232418","label":"administrative division","sourceLabels":[{"label":"township","lang":"en"}]}],"geometry":{"type":"GeometryCollection","geometries":[{"type":"Point","coordinates":[-1.43687,54.28389],"citations":[{"label":"GeoNames, gazetteer record geonames:2641681"}]},{"type":"Point","coordinates":[-1.439320643657585,54.28167674960532],"citations":[{"label":"Unlock (EDINA) gazetteer, gazetteer record unlock:11229877"}]},{"type":"Point","coordinates":[-1.44088,54.2818],"citations":[{"label":"Key to English Place-Names (KEPN), gazetteer record 6106"}]}]},"when":{"timespans":[{"start":{"in":"1157"},"end":{"in":"1285"}}]},"links":[{"type":"closeMatch","identifier":"https://sws.geonames.org/2641681/"}],"relations":[{"relationType":"gvp:broaderPartitive","relationTo":"https://w3id.org/whg-epns/05/005112","label":"within Kirby Wiske"}]}]}