{"@context":"https://raw.githubusercontent.com/LinkedPasts/linked-places-format/main/linkedplaces-context-v1.1.jsonld","type":"FeatureCollection","license":"Digitisation of English Placenames MADS data is licensed to Jisc by the English Place Names Society and released under a Creative Commons Attribution-NonCommercial 4.0 International License.","note":"LPF v1.3, lossy; derived from the PLATO record; plato_commit=ca0afadabec1e23a145c0b03df77e8f151f79832","features":[{"@id":"http://placenames.org.uk/id/placename/05/005208","type":"Feature","properties":{"title":"Scorton","ccodes":["GB"],"fclasses":["A","P"]},"names":[{"toponym":"Scorton","lang":"en","citations":[{"label":"English Place-Name Society survey, volume 5: North Riding of Yorkshire"}]},{"toponym":"Scorton(e), Scortona","citations":[{"label":"1086 DB","year":1086},{"label":"1100–1665, recurring FountA","year":1100},{"label":"1100–1665, recurring Visit"},{"label":"12 FountA","year":1100},{"label":"1665 Visit","year":1665}],"when":{"timespans":[{"start":{"in":"1086"},"end":{"in":"1086"}},{"start":{"in":"1100"},"end":{"in":"1665"}},{"start":{"earliest":"1100","latest":"1200"},"end":{"earliest":"1100","latest":"1200"}},{"start":{"in":"1665"},"end":{"in":"1665"}}]}},{"toponym":"Schorton","citations":[{"label":"1184 RichReg","year":1184}],"when":{"timespans":[{"start":{"in":"1184"},"end":{"in":"1184"}}]}}],"types":[{"identifier":"http://vocab.getty.edu/aat/300232418","label":"administrative division","sourceLabels":[{"label":"township","lang":"en"}]}],"geometry":{"type":"GeometryCollection","geometries":[{"type":"Point","coordinates":[-1.61276,54.39785],"citations":[{"label":"GeoNames, gazetteer record geonames:2638366"}]},{"type":"Point","coordinates":[-1.60717477988794,54.39918780042513],"citations":[{"label":"Unlock (EDINA) gazetteer, gazetteer record unlock:11279219"}]},{"type":"Point","coordinates":[-1.60871,54.3993],"citations":[{"label":"Key to English Place-Names (KEPN), gazetteer record 6119"}]}]},"when":{"timespans":[{"start":{"in":"1086"},"end":{"in":"1665"}}]},"links":[{"type":"closeMatch","identifier":"https://sws.geonames.org/2638366/"}],"relations":[{"relationType":"gvp:broaderPartitive","relationTo":"http://placenames.org.uk/id/placename/05/005186","label":"within Bolton on Swale"}]}]}