{"@context":"https://raw.githubusercontent.com/LinkedPasts/linked-places-format/main/linkedplaces-context-v1.1.jsonld","type":"FeatureCollection","license":"Digitisation of English Placenames MADS data is licensed to Jisc by the English Place Names Society and released under a Creative Commons Attribution-NonCommercial 4.0 International License.","note":"LPF v1.3, lossy; derived from the PLATO record; plato_commit=ca0afadabec1e23a145c0b03df77e8f151f79832","features":[{"@id":"https://w3id.org/whg-epns/05/005211","type":"Feature","properties":{"title":"Uckerby","ccodes":["GB"],"fclasses":["A","P"]},"names":[{"toponym":"Uckerby","lang":"en","citations":[{"label":"English Place-Name Society survey, volume 5: North Riding of Yorkshire"}]},{"toponym":"Ukerby","citations":[{"label":"1198 Fount","year":1198}],"when":{"timespans":[{"start":{"in":"1198"},"end":{"in":"1198"}}]}},{"toponym":"Huckerby","citations":[{"label":"c. 1250 Easby","year":1240}],"when":{"timespans":[{"start":{"earliest":"1240","latest":"1260"},"end":{"earliest":"1240","latest":"1260"}}]}},{"toponym":"Ukkerby","citations":[{"label":"1285 KI","year":1285},{"label":"c. 1300 RichReg","year":1290},{"label":"1400–1400, recurring YI","year":1400},{"label":"1400 YI","year":1400}],"when":{"timespans":[{"start":{"in":"1285"},"end":{"in":"1285"}},{"start":{"earliest":"1290","latest":"1310"},"end":{"earliest":"1290","latest":"1310"}},{"start":{"in":"1400"},"end":{"in":"1400"}},{"start":{"in":"1400"},"end":{"in":"1400"}}]}}],"types":[{"identifier":"http://vocab.getty.edu/aat/300232418","label":"administrative division","sourceLabels":[{"label":"township","lang":"en"}]}],"geometry":{"type":"GeometryCollection","geometries":[{"type":"Point","coordinates":[-1.61281,54.41634],"citations":[{"label":"GeoNames, gazetteer record geonames:7297842"}]},{"type":"Point","coordinates":[-1.622414204875406,54.41721273579647],"citations":[{"label":"Unlock (EDINA) gazetteer, gazetteer record unlock:11309014"}]},{"type":"Point","coordinates":[-1.62379,54.4353],"citations":[{"label":"Key to English Place-Names (KEPN), gazetteer record 6120"}]}]},"when":{"timespans":[{"start":{"in":"1198"},"end":{"in":"1400"}}]},"links":[{"type":"closeMatch","identifier":"https://sws.geonames.org/7297842/"}],"relations":[{"relationType":"gvp:broaderPartitive","relationTo":"https://w3id.org/whg-epns/05/005186","label":"within Bolton on Swale"}]}]}