{"@context":"https://raw.githubusercontent.com/LinkedPasts/linked-places-format/main/linkedplaces-context-v1.1.jsonld","type":"FeatureCollection","license":"Digitisation of English Placenames MADS data is licensed to Jisc by the English Place Names Society and released under a Creative Commons Attribution-NonCommercial 4.0 International License.","note":"LPF v1.3, lossy; derived from the PLATO record; plato_commit=ca0afadabec1e23a145c0b03df77e8f151f79832","features":[{"@id":"http://placenames.org.uk/id/placename/05/005383","type":"Feature","properties":{"title":"Easby","ccodes":["GB"],"fclasses":["A","P"]},"names":[{"toponym":"Easby","lang":"en","citations":[{"label":"English Place-Name Society survey, volume 5: North Riding of Yorkshire"}]},{"toponym":"Asebi, Aseby","citations":[{"label":"1086 DB","year":1086},{"label":"1276 RegAlb","year":1276}],"when":{"timespans":[{"start":{"in":"1086"},"end":{"in":"1086"}},{"start":{"in":"1276"},"end":{"in":"1276"}}]}},{"toponym":"Esebi, Eseby","citations":[{"label":"1151–1400, recurring Easby","year":1151},{"label":"1151–1400, recurring Pap"},{"label":"1151 Easby","year":1151},{"label":"1400 Pap","year":1400}],"when":{"timespans":[{"start":{"in":"1151"},"end":{"in":"1400"}},{"start":{"in":"1151"},"end":{"in":"1151"}},{"start":{"in":"1400"},"end":{"in":"1400"}}]}},{"toponym":"Esseby","citations":[{"label":"1231 FF","year":1231}],"when":{"timespans":[{"start":{"in":"1231"},"end":{"in":"1231"}}]}},{"toponym":"Easby","citations":[{"label":"1557 RichWills","year":1557}],"when":{"timespans":[{"start":{"in":"1557"},"end":{"in":"1557"}}]}}],"types":[{"identifier":"http://vocab.getty.edu/aat/300232418","label":"administrative division","sourceLabels":[{"label":"township","lang":"en"}]}],"geometry":{"type":"GeometryCollection","geometries":[{"type":"Point","coordinates":[-1.71301,54.3988],"citations":[{"label":"GeoNames, gazetteer record geonames:2650522"}]},{"type":"Point","coordinates":[-1.715007396479576,54.39949039797876],"citations":[{"label":"Unlock (EDINA) gazetteer, gazetteer record unlock:11135500"}]},{"type":"Point","coordinates":[-1.71653,54.3996],"citations":[{"label":"Key to English Place-Names (KEPN), gazetteer record 6141"}]}]},"when":{"timespans":[{"start":{"in":"1086"},"end":{"in":"1557"}}]},"links":[{"type":"closeMatch","identifier":"https://sws.geonames.org/2650522/"}],"relations":[{"relationType":"gvp:broaderPartitive","relationTo":"http://placenames.org.uk/id/placename/05/005372","label":"within Easby"}]}]}