{"@context":"https://raw.githubusercontent.com/LinkedPasts/linked-places-format/main/linkedplaces-context-v1.1.jsonld","type":"FeatureCollection","license":"Digitisation of English Placenames MADS data is licensed to Jisc by the English Place Names Society and released under a Creative Commons Attribution-NonCommercial 4.0 International License.","note":"LPF v1.3, lossy; derived from the PLATO record; plato_commit=fa0d247ccc0263f8f19c8d7cdcd163df96935d1e","features":[{"@id":"https://w3id.org/whg-epns/05/005376","type":"Feature","properties":{"title":"Brompton on Swale","ccodes":["GB"],"fclasses":["A","P"]},"names":[{"toponym":"Brompton on Swale","lang":"en","citations":[{"label":"English Place-Name Society survey, volume 5: North Riding of Yorkshire"}]},{"toponym":"Brunton","citations":[{"label":"1086 DB","year":1086},{"label":"1231 FF","year":1231}],"when":{"timespans":[{"start":{"in":"1086"},"end":{"in":"1086"}},{"start":{"in":"1231"},"end":{"in":"1231"}}]}},{"toponym":"Brumton(a)","citations":[{"label":"1160 Easby","year":1160},{"label":"12 Easby","year":1100}],"when":{"timespans":[{"start":{"in":"1160"},"end":{"in":"1160"}},{"start":{"earliest":"1100","latest":"1200"},"end":{"earliest":"1100","latest":"1200"}}]}},{"toponym":"Brumpton on Swale","citations":[{"label":"RichReg","year":1184},{"label":"1184 RichReg","year":1184}],"when":{"timespans":[{"start":{"in":"1184"},"end":{"in":"1184"}},{"start":{"in":"1184"},"end":{"in":"1184"}}]}}],"types":[{"identifier":"http://vocab.getty.edu/aat/300232418","label":"administrative division","sourceLabels":[{"label":"township","lang":"en"}]}],"geometry":{"type":"Point","coordinates":[-1.6704,54.3905],"citations":[{"label":"Key to English Place-Names (KEPN), gazetteer record 6143"}]},"when":{"timespans":[{"start":{"in":"1086"},"end":{"in":"1231"}}]},"relations":[{"relationType":"gvp:broaderPartitive","relationTo":"https://w3id.org/whg-epns/05/005372","label":"within Easby"}]}]}