{"@context":"https://raw.githubusercontent.com/LinkedPasts/linked-places-format/main/linkedplaces-context-v1.1.jsonld","type":"FeatureCollection","license":"Digitisation of English Placenames MADS data is licensed to Jisc by the English Place Names Society and released under a Creative Commons Attribution-NonCommercial 4.0 International License.","note":"LPF v1.3, lossy; derived from the PLATO record; plato_commit=fa0d247ccc0263f8f19c8d7cdcd163df96935d1e","features":[{"@id":"https://w3id.org/whg-epns/05/005526","type":"Feature","properties":{"title":"Marrick","ccodes":["GB"],"fclasses":["A","P"]},"names":[{"toponym":"Marrick","lang":"en","citations":[{"label":"English Place-Name Society survey, volume 5: North Riding of Yorkshire"}]},{"toponym":"Marige","citations":[{"label":"1086 DB","year":1086},{"label":"1252 Riev","year":1252}],"when":{"timespans":[{"start":{"in":"1086"},"end":{"in":"1086"}},{"start":{"in":"1252"},"end":{"in":"1252"}}]}},{"toponym":"Marrich","citations":[{"label":"c. 1150 Godr","year":1140}],"when":{"timespans":[{"start":{"earliest":"1140","latest":"1160"},"end":{"earliest":"1140","latest":"1160"}}]}},{"toponym":"Marrig(g)","citations":[{"label":"RichReg","year":1157},{"label":"Test"},{"label":"1157 RichReg","year":1157},{"label":"1400 Test","year":1400}],"when":{"timespans":[{"start":{"in":"1157"},"end":{"in":"1400"}},{"start":{"in":"1157"},"end":{"in":"1157"}},{"start":{"in":"1400"},"end":{"in":"1400"}}]}},{"toponym":"Maryg'","citations":[{"label":"1283 Rich","year":1283}],"when":{"timespans":[{"start":{"in":"1283"},"end":{"in":"1283"}}]}},{"toponym":"Marrik(e), Marryk","citations":[{"label":"1301 LS","year":1301},{"label":"1328 Banco","year":1328},{"label":"1393 Test","year":1393}],"when":{"timespans":[{"start":{"in":"1301"},"end":{"in":"1301"}},{"start":{"in":"1328"},"end":{"in":"1328"}},{"start":{"in":"1393"},"end":{"in":"1393"}},{"start":{"in":"1483"},"end":{"in":"1483"}}]}}],"types":[{"identifier":"http://vocab.getty.edu/aat/300232418","label":"administrative division","sourceLabels":[{"label":"township","lang":"en"}]}],"geometry":{"type":"GeometryCollection","geometries":[{"type":"Point","coordinates":[-1.88467,54.37961],"citations":[{"label":"GeoNames, gazetteer record geonames:2642995"}]},{"type":"Point","coordinates":[-1.884512285933014,54.38179516645511],"citations":[{"label":"Unlock (EDINA) gazetteer, gazetteer record unlock:11213983"}]},{"type":"Point","coordinates":[-1.88602,54.3819],"citations":[{"label":"Key to English Place-Names (KEPN), gazetteer record 6156"}]}]},"when":{"timespans":[{"start":{"in":"1086"},"end":{"in":"1483"}}]},"links":[{"type":"closeMatch","identifier":"https://sws.geonames.org/2642995/"}],"relations":[{"relationType":"gvp:broaderPartitive","relationTo":"https://w3id.org/whg-epns/05/005525","label":"within Marrick"}]}]}