{"@context":"https://raw.githubusercontent.com/LinkedPasts/linked-places-format/main/linkedplaces-context-v1.1.jsonld","type":"FeatureCollection","license":"Digitisation of English Placenames MADS data is licensed to Jisc by the English Place Names Society and released under a Creative Commons Attribution-NonCommercial 4.0 International License.","note":"LPF v1.3, lossy; derived from the PLATO record; plato_commit=ca0afadabec1e23a145c0b03df77e8f151f79832","features":[{"@id":"https://w3id.org/whg-epns/05/005601","type":"Feature","properties":{"title":"Melsonby","ccodes":["GB"],"fclasses":["A","P"]},"names":[{"toponym":"Melsonby","lang":"en","citations":[{"label":"English Place-Name Society survey, volume 5: North Riding of Yorkshire"}]}],"types":[{"identifier":"http://vocab.getty.edu/aat/300232418","label":"administrative division","sourceLabels":[{"label":"parish","lang":"en"}]}],"geometry":{"type":"GeometryCollection","geometries":[{"type":"Point","coordinates":[-1.69481,54.47253],"citations":[{"label":"GeoNames, gazetteer record geonames:2642767"}]},{"type":"Point","coordinates":[-1.699076094097244,54.47135656172674],"citations":[{"label":"Unlock (EDINA) gazetteer, gazetteer record unlock:11217015"}]},{"type":"Point","coordinates":[-1.70061,54.4715],"citations":[{"label":"Key to English Place-Names (KEPN), gazetteer record 6160"}]}]},"links":[{"type":"closeMatch","identifier":"https://sws.geonames.org/2642767/"}],"relations":[{"relationType":"gvp:broaderPartitive","relationTo":"https://w3id.org/whg-epns/05/005371","label":"within Gilling West Wapentake"}]}]}