{"@context":"https://raw.githubusercontent.com/LinkedPasts/linked-places-format/main/linkedplaces-context-v1.1.jsonld","type":"FeatureCollection","license":"Digitisation of English Placenames MADS data is licensed to Jisc by the English Place Names Society and released under a Creative Commons Attribution-NonCommercial 4.0 International License.","note":"LPF v1.3, lossy; derived from the PLATO record; plato_commit=ca0afadabec1e23a145c0b03df77e8f151f79832","features":[{"@id":"http://placenames.org.uk/id/placename/05/005719","type":"Feature","properties":{"title":"Scargill","ccodes":["GB"],"fclasses":["A","P"]},"names":[{"toponym":"Scargill","lang":"en","citations":[{"label":"English Place-Name Society survey, volume 5: North Riding of Yorkshire"}]},{"toponym":"Seachregil, Scracreghil","citations":[{"label":"1086 DB","year":1086}],"when":{"timespans":[{"start":{"in":"1086"},"end":{"in":"1086"}}]}},{"toponym":"Schachelgilla","citations":[{"label":"1146-61 MaryY","year":1146}],"when":{"timespans":[{"start":{"earliest":"1146","latest":"1161"},"end":{"earliest":"1146","latest":"1161"}}]}},{"toponym":"Scakregill'","citations":[{"label":"1172 P","year":1172}],"when":{"timespans":[{"start":{"in":"1172"},"end":{"in":"1172"}}]}},{"toponym":"Sca(c)kergill'","citations":[{"label":"1173 P","year":1173},{"label":"1294 Ch","year":1294}],"when":{"timespans":[{"start":{"in":"1173"},"end":{"in":"1173"}},{"start":{"in":"1177"},"end":{"in":"1177"}},{"start":{"in":"1294"},"end":{"in":"1294"}}]}},{"toponym":"Scargell, Skargill","citations":[{"label":"1282 YI","year":1282},{"label":"13 RichReg","year":1200}],"when":{"timespans":[{"start":{"in":"1282"},"end":{"in":"1282"}},{"start":{"earliest":"1200","latest":"1300"},"end":{"earliest":"1200","latest":"1300"}}]}}],"types":[{"identifier":"http://vocab.getty.edu/aat/300232418","label":"administrative division","sourceLabels":[{"label":"township","lang":"en"}]}],"geometry":{"type":"GeometryCollection","geometries":[{"type":"Point","coordinates":[-1.915086199281095,54.48967730204286],"citations":[{"label":"Unlock (EDINA) gazetteer, gazetteer record unlock:11278850"}]},{"type":"Point","coordinates":[-1.91659,54.4898],"citations":[{"label":"Key to English Place-Names (KEPN), gazetteer record 6175"}]}]},"when":{"timespans":[{"start":{"in":"1086"},"end":{"in":"1300"}}]},"relations":[{"relationType":"gvp:broaderPartitive","relationTo":"http://placenames.org.uk/id/placename/05/005708","label":"within Barningham"}]}]}