{"@context":"https://raw.githubusercontent.com/LinkedPasts/linked-places-format/main/linkedplaces-context-v1.1.jsonld","type":"FeatureCollection","license":"Digitisation of English Placenames MADS data is licensed to Jisc by the English Place Names Society and released under a Creative Commons Attribution-NonCommercial 4.0 International License.","note":"LPF v1.3, lossy; derived from the PLATO record; plato_commit=fa0d247ccc0263f8f19c8d7cdcd163df96935d1e","features":[{"@id":"https://w3id.org/whg-epns/05/005842","type":"Feature","properties":{"title":"Mickleton","ccodes":["GB"],"fclasses":["A","P"]},"names":[{"toponym":"Mickleton","lang":"en","citations":[{"label":"English Place-Name Society survey, volume 5: North Riding of Yorkshire"}]},{"toponym":"Micleton","citations":[{"label":"1086 DB","year":1086}],"when":{"timespans":[{"start":{"in":"1086"},"end":{"in":"1086"}}]}}],"types":[{"identifier":"http://vocab.getty.edu/aat/300232418","label":"administrative division","sourceLabels":[{"label":"township","lang":"en"}]}],"geometry":{"type":"GeometryCollection","geometries":[{"type":"Point","coordinates":[-2.04998,54.60807],"citations":[{"label":"GeoNames, gazetteer record geonames:2642638"}]},{"type":"Point","coordinates":[-2.054190709331075,54.60653760187247],"citations":[{"label":"Unlock (EDINA) gazetteer, gazetteer record unlock:11217758"}]},{"type":"Point","coordinates":[-2.05568,54.6067],"citations":[{"label":"Key to English Place-Names (KEPN), gazetteer record 5821"}]}]},"when":{"timespans":[{"start":{"in":"1086"},"end":{"in":"1086"}}]},"links":[{"type":"closeMatch","identifier":"https://sws.geonames.org/2642638/"}],"relations":[{"relationType":"gvp:broaderPartitive","relationTo":"https://w3id.org/whg-epns/05/005785","label":"within Romaldkirk"}]}]}