{"@context":"https://raw.githubusercontent.com/LinkedPasts/linked-places-format/main/linkedplaces-context-v1.1.jsonld","type":"FeatureCollection","license":"Digitisation of English Placenames MADS data is licensed to Jisc by the English Place Names Society and released under a Creative Commons Attribution-NonCommercial 4.0 International License.","note":"LPF v1.3, lossy; derived from the PLATO record; plato_commit=ca0afadabec1e23a145c0b03df77e8f151f79832","features":[{"@id":"http://placenames.org.uk/id/placename/02/000052","type":"Feature","properties":{"title":"Hanslope","ccodes":["GB"],"fclasses":["A","P"]},"names":[{"toponym":"Hanslope","lang":"en","citations":[{"label":"English Place-Name Society survey, volume 2: Buckinghamshire"}]},{"toponym":"Hammescle","citations":[{"label":"1086 DB","year":1086}],"when":{"timespans":[{"start":{"in":"1086"},"end":{"in":"1086"}}]}},{"toponym":"(H)anslepe","citations":[{"label":"1086 DB","year":1086}],"when":{"timespans":[{"start":{"in":"1086"},"end":{"in":"1086"}}]}},{"toponym":"Hamslap(e)","citations":[{"label":"1086 DB","year":1086},{"label":"1189 P","year":1189},{"label":"1208 Fees","year":1208},{"label":"1211 Fines","year":1211},{"label":"1217 Pat","year":1217},{"label":"1227 Ass","year":1227},{"label":"1227 WellsR","year":1227},{"label":"1237 Fees","year":1237},{"label":"1241 Ass","year":1241},{"label":"1255 For","year":1255},{"label":"1262 Ass","year":1262},{"label":"1281 Ipm","year":1281},{"label":"1292 Ch","year":1292},{"label":"1292 Pat","year":1292},{"label":"1306 Cl","year":1306},{"label":"1316 FA","year":1316},{"label":"1317 Pat","year":1317},{"label":"1398 Ipm","year":1398}],"when":{"timespans":[{"start":{"in":"1086"},"end":{"in":"1086"}},{"start":{"in":"1189"},"end":{"in":"1189"}},{"start":{"in":"1208"},"end":{"in":"1208"}},{"start":{"in":"1211"},"end":{"in":"1211"}},{"start":{"in":"1212"},"end":{"in":"1212"}},{"start":{"in":"1217"},"end":{"in":"1217"}},{"start":{"in":"1227"},"end":{"in":"1227"}},{"start":{"in":"1227"},"end":{"in":"1227"}},{"start":{"in":"1237"},"end":{"in":"1237"}},{"start":{"in":"1241"},"end":{"in":"1241"}},{"start":{"in":"1247"},"end":{"in":"1247"}},{"start":{"in":"1255"},"end":{"in":"1255"}},{"start":{"in":"1262"},"end":{"in":"1262"}},{"start":{"in":"1281"},"end":{"in":"1281"}},{"start":{"in":"1292"},"end":{"in":"1292"}},{"start":{"in":"1292"},"end":{"in":"1292"}},{"start":{"in":"1306"},"end":{"in":"1306"}},{"start":{"in":"1316"},"end":{"in":"1316"}},{"start":{"in":"1317"},"end":{"in":"1317"}},{"start":{"in":"1398"},"end":{"in":"1398"}}]}},{"toponym":"Hamesclapa","citations":[{"label":"1159 P","year":1159}],"when":{"timespans":[{"start":{"in":"1159"},"end":{"in":"1159"}}]}},{"toponym":"Hamesclaye","citations":[{"label":"1201 Fines","year":1201}],"when":{"timespans":[{"start":{"in":"1201"},"end":{"in":"1201"}}]}},{"toponym":"Hameslap(e)","citations":[{"label":"1175 P","year":1175},{"label":"1217 Pat","year":1217},{"label":"1246 Gross","year":1246},{"label":"1304 Ipm","year":1304}],"when":{"timespans":[{"start":{"in":"1175"},"end":{"in":"1175"}},{"start":{"in":"1217"},"end":{"in":"1217"}},{"start":{"in":"1246"},"end":{"in":"1246"}},{"start":{"in":"1304"},"end":{"in":"1304"}}]}},{"toponym":"Haunslape","citations":[{"label":"1227 Ass","year":1227}],"when":{"timespans":[{"start":{"in":"1227"},"end":{"in":"1227"}}]}},{"toponym":"Hampslep","citations":[{"label":"1231 FF","year":1231}],"when":{"timespans":[{"start":{"in":"1231"},"end":{"in":"1231"}}]}},{"toponym":"Hamslepe","citations":[{"label":"1235 Fees","year":1235},{"label":"1241 Ass","year":1241}],"when":{"timespans":[{"start":{"in":"1235"},"end":{"in":"1235"}},{"start":{"in":"1241"},"end":{"in":"1241"}}]}},{"toponym":"Hamslop","citations":[{"label":"1247 Ass","year":1247}],"when":{"timespans":[{"start":{"in":"1247"},"end":{"in":"1247"}}]}},{"toponym":"Hamsesclap","citations":[{"label":"1250 Fees","year":1250}],"when":{"timespans":[{"start":{"in":"1250"},"end":{"in":"1250"}}]}},{"toponym":"Hampslap(e)","citations":[{"label":"1302 FA","year":1302},{"label":"1315 Cl","year":1315},{"label":"1326 Pat","year":1326},{"label":"1327 Fine","year":1327},{"label":"1344 Pat","year":1344},{"label":"1346 FA","year":1346},{"label":"1371 Cl","year":1371},{"label":"1423 AD","year":1423},{"label":"1434 Pat","year":1434}],"when":{"timespans":[{"start":{"in":"1302"},"end":{"in":"1302"}},{"start":{"in":"1315"},"end":{"in":"1315"}},{"start":{"in":"1326"},"end":{"in":"1326"}},{"start":{"in":"1327"},"end":{"in":"1327"}},{"start":{"in":"1344"},"end":{"in":"1344"}},{"start":{"in":"1346"},"end":{"in":"1346"}},{"start":{"in":"1371"},"end":{"in":"1371"}},{"start":{"in":"1423"},"end":{"in":"1423"}},{"start":{"in":"1434"},"end":{"in":"1434"}},{"start":{"in":"1447"},"end":{"in":"1447"}}]}},{"toponym":"Hamslapp","citations":[{"label":"1257 Ipm","year":1257}],"when":{"timespans":[{"start":{"in":"1257"},"end":{"in":"1257"}}]}},{"toponym":"Hameslappe","citations":[{"label":"1262 Ass","year":1262}],"when":{"timespans":[{"start":{"in":"1262"},"end":{"in":"1262"}}]}},{"toponym":"Haunslep","citations":[{"label":"1262 Ass","year":1262}],"when":{"timespans":[{"start":{"in":"1262"},"end":{"in":"1262"}}]}},{"toponym":"Hampeslape","citations":[{"label":"1333 Cl","year":1333}],"when":{"timespans":[{"start":{"in":"1333"},"end":{"in":"1333"}}]}},{"toponym":"Hampslak","citations":[{"label":"1370 Cl","year":1370}],"when":{"timespans":[{"start":{"in":"1370"},"end":{"in":"1370"}}]}},{"toponym":"Hanneslape","citations":[{"label":"1415 Pat","year":1415},{"label":"1535 VE","year":1535}],"when":{"timespans":[{"start":{"in":"1415"},"end":{"in":"1415"}},{"start":{"in":"1535"},"end":{"in":"1535"}}]}},{"toponym":"Hanslep","citations":[{"label":"1480 IpmR","year":1480},{"label":"1509 LP","year":1509}],"when":{"timespans":[{"start":{"in":"1480"},"end":{"in":"1480"}},{"start":{"in":"1509"},"end":{"in":"1509"}}]}},{"toponym":"Hanslope","citations":[{"label":"1488 AD","year":1488},{"label":"1509 LP","year":1509}],"when":{"timespans":[{"start":{"in":"1488"},"end":{"in":"1488"}},{"start":{"in":"1509"},"end":{"in":"1509"}}]}},{"toponym":"Hanslape","citations":[{"label":"1496 Pat","year":1496},{"label":"1509 LP","year":1509}],"when":{"timespans":[{"start":{"in":"1496"},"end":{"in":"1496"}},{"start":{"in":"1509"},"end":{"in":"1509"}}]}},{"toponym":"Auncelope, Anslope","citations":[{"label":"1532 LP","year":1532}],"when":{"timespans":[{"start":{"in":"1532"},"end":{"in":"1532"}}]}},{"toponym":"Hans(e)loppe","citations":[{"label":"1566 AD","year":1566},{"label":"Eliz ChancP","year":1558}],"when":{"timespans":[{"start":{"in":"1566"},"end":{"in":"1566"}},{"start":{"earliest":"1558","latest":"1603"},"end":{"earliest":"1558","latest":"1603"}}]}},{"toponym":"Hanslapp","citations":[{"label":"1626 Vern","year":1626}],"when":{"timespans":[{"start":{"in":"1626"},"end":{"in":"1626"}}]}}],"types":[{"identifier":"http://vocab.getty.edu/aat/300232418","label":"administrative division","sourceLabels":[{"label":"township","lang":"en"}]}],"geometry":{"type":"GeometryCollection","geometries":[{"type":"Point","coordinates":[-0.82672,52.11425],"citations":[{"label":"GeoNames, gazetteer record geonames:2647518"}]},{"type":"Point","coordinates":[-0.8243633013200353,52.11054828291794],"citations":[{"label":"Unlock (EDINA) gazetteer, gazetteer record unlock:11165467"}]},{"type":"Point","coordinates":[-0.8259,52.111],"citations":[{"label":"Key to English Place-Names (KEPN), gazetteer record 11196"}]}]},"when":{"timespans":[{"start":{"in":"1086"},"end":{"in":"1626"}}]},"links":[{"type":"closeMatch","identifier":"https://sws.geonames.org/2647518/"}],"relations":[{"relationType":"gvp:broaderPartitive","relationTo":"http://placenames.org.uk/id/placename/02/000051","label":"within Hanslope"}]}]}