{"@context":"https://raw.githubusercontent.com/LinkedPasts/linked-places-format/main/linkedplaces-context-v1.1.jsonld","type":"FeatureCollection","license":"Digitisation of English Placenames MADS data is licensed to Jisc by the English Place Names Society and released under a Creative Commons Attribution-NonCommercial 4.0 International License.","note":"LPF v1.3, lossy; derived from the PLATO record; plato_commit=ca0afadabec1e23a145c0b03df77e8f151f79832","features":[{"@id":"http://placenames.org.uk/id/placename/02/000022","type":"Feature","properties":{"title":"Gayhurst","ccodes":["GB"],"fclasses":["A","P"]},"names":[{"toponym":"Gayhurst","lang":"en","citations":[{"label":"English Place-Name Society survey, volume 2: Buckinghamshire"}]}],"types":[{"identifier":"http://vocab.getty.edu/aat/300232418","label":"administrative division","sourceLabels":[{"label":"parish","lang":"en"}]}],"geometry":{"type":"GeometryCollection","geometries":[{"type":"Point","coordinates":[-0.76278,52.11362],"citations":[{"label":"GeoNames, gazetteer record geonames:2648758"}]},{"type":"Point","coordinates":[-0.7659608909633835,52.10995144885737],"citations":[{"label":"Unlock (EDINA) gazetteer, gazetteer record unlock:11151286"}]},{"type":"Point","coordinates":[-0.767504,52.1104],"citations":[{"label":"Key to English Place-Names (KEPN), gazetteer record 11195"}]}]},"links":[{"type":"closeMatch","identifier":"https://sws.geonames.org/2648758/"}],"relations":[{"relationType":"gvp:broaderPartitive","relationTo":"http://placenames.org.uk/id/placename/02/000002","label":"within Bunsty Hundred"}]}]}