{"@context":"https://raw.githubusercontent.com/LinkedPasts/linked-places-format/main/linkedplaces-context-v1.1.jsonld","type":"FeatureCollection","license":"Digitisation of English Placenames MADS data is licensed to Jisc by the English Place Names Society and released under a Creative Commons Attribution-NonCommercial 4.0 International License.","note":"LPF v1.3, lossy; derived from the PLATO record; plato_commit=fa0d247ccc0263f8f19c8d7cdcd163df96935d1e","features":[{"@id":"https://w3id.org/whg-epns/02/000156","type":"Feature","properties":{"title":"Newton Blossomville","ccodes":["GB"],"fclasses":["A","P"]},"names":[{"toponym":"Newton Blossomville","lang":"en","citations":[{"label":"English Place-Name Society survey, volume 2: Buckinghamshire"}]}],"types":[{"identifier":"http://vocab.getty.edu/aat/300232418","label":"administrative division","sourceLabels":[{"label":"parish","lang":"en"}]}],"geometry":{"type":"GeometryCollection","geometries":[{"type":"Point","coordinates":[-0.65512,52.15034],"citations":[{"label":"GeoNames, gazetteer record geonames:7301828"}]},{"type":"Point","coordinates":[-0.6478022054854847,52.1536162152668],"citations":[{"label":"Unlock (EDINA) gazetteer, gazetteer record unlock:11230857"}]},{"type":"Point","coordinates":[-0.649361,52.154],"citations":[{"label":"Key to English Place-Names (KEPN), gazetteer record 11200"}]}]},"links":[{"type":"closeMatch","identifier":"https://sws.geonames.org/7301828/"}],"relations":[{"relationType":"gvp:broaderPartitive","relationTo":"https://w3id.org/whg-epns/02/000002","label":"within Bunsty Hundred"}]}]}