{"@context":"https://raw.githubusercontent.com/LinkedPasts/linked-places-format/main/linkedplaces-context-v1.1.jsonld","type":"FeatureCollection","license":"Digitisation of English Placenames MADS data is licensed to Jisc by the English Place Names Society and released under a Creative Commons Attribution-NonCommercial 4.0 International License.","note":"LPF v1.3, lossy; derived from the PLATO record; plato_commit=fa0d247ccc0263f8f19c8d7cdcd163df96935d1e","features":[{"@id":"https://w3id.org/whg-epns/02/000371","type":"Feature","properties":{"title":"Newton Longville","ccodes":["GB"],"fclasses":["A","P"]},"names":[{"toponym":"Newton Longville","lang":"en","citations":[{"label":"English Place-Name Society survey, volume 2: Buckinghamshire"}]}],"types":[{"identifier":"http://vocab.getty.edu/aat/300232418","label":"administrative division","sourceLabels":[{"label":"parish","lang":"en"}]}],"geometry":{"type":"GeometryCollection","geometries":[{"type":"Point","coordinates":[-0.76595,51.976],"citations":[{"label":"GeoNames, gazetteer record geonames:2641545"}]},{"type":"Point","coordinates":[-0.7696694471835148,51.97510749936342],"citations":[{"label":"Unlock (EDINA) gazetteer, gazetteer record unlock:11230977"}]},{"type":"Point","coordinates":[-0.771207,51.9756],"citations":[{"label":"Key to English Place-Names (KEPN), gazetteer record 11215"}]}]},"links":[{"type":"closeMatch","identifier":"https://sws.geonames.org/2641545/"}],"relations":[{"relationType":"gvp:broaderPartitive","relationTo":"https://w3id.org/whg-epns/02/000262","label":"within Seckloe Hundred"}]}]}