{"@context":"https://raw.githubusercontent.com/LinkedPasts/linked-places-format/main/linkedplaces-context-v1.1.jsonld","type":"FeatureCollection","license":"Digitisation of English Placenames MADS data is licensed to Jisc by the English Place Names Society and released under a Creative Commons Attribution-NonCommercial 4.0 International License.","note":"LPF v1.3, lossy; derived from the PLATO record; plato_commit=fa0d247ccc0263f8f19c8d7cdcd163df96935d1e","features":[{"@id":"https://w3id.org/whg-epns/02/000386","type":"Feature","properties":{"title":"Shenley (Brook End and Church End)","ccodes":["GB"],"fclasses":["A","P"]},"names":[{"toponym":"Shenley (Brook End and Church End)","lang":"en","citations":[{"label":"English Place-Name Society survey, volume 2: Buckinghamshire"}]},{"toponym":"Senelai","citations":[{"label":"1086 DB","year":1086}],"when":{"timespans":[{"start":{"in":"1086"},"end":{"in":"1086"}}]}},{"toponym":"Schenlega","citations":[{"label":"1182 P","year":1182}],"when":{"timespans":[{"start":{"in":"1182"},"end":{"in":"1182"}}]}},{"toponym":"Schenle","citations":[{"label":"1198 Fines","year":1198},{"label":"1229 WellsR","year":1229},{"label":"1242 Fees","year":1242},{"label":"1262 Ass","year":1262},{"label":"1302 FA","year":1302}],"when":{"timespans":[{"start":{"in":"1198"},"end":{"in":"1198"}},{"start":{"in":"1229"},"end":{"in":"1229"}},{"start":{"in":"1242"},"end":{"in":"1242"}},{"start":{"in":"1262"},"end":{"in":"1262"}},{"start":{"in":"1302"},"end":{"in":"1302"}}]}},{"toponym":"Sanle(ia)","citations":[{"label":"12th Ord","year":1100},{"label":"1189 P","year":1189},{"label":"1276 RH","year":1276}],"when":{"timespans":[{"start":{"earliest":"1100","latest":"1200"},"end":{"earliest":"1100","latest":"1200"}},{"start":{"in":"1189"},"end":{"in":"1189"}},{"start":{"in":"1276"},"end":{"in":"1276"}}]}},{"toponym":"Senle(a)","citations":[{"label":"1189 P","year":1189},{"label":"1223 WellsR","year":1223},{"label":"1284 FA","year":1284}],"when":{"timespans":[{"start":{"in":"1189"},"end":{"in":"1189"}},{"start":{"in":"1223"},"end":{"in":"1223"}},{"start":{"in":"1284"},"end":{"in":"1284"}}]}},{"toponym":"Ouer(e)schenle","citations":[{"label":"1262 Ass","year":1262}],"when":{"timespans":[{"start":{"in":"1262"},"end":{"in":"1262"}}]}},{"toponym":"Syndele","citations":[{"label":"1291 Tax","year":1291}],"when":{"timespans":[{"start":{"in":"1291"},"end":{"in":"1291"}}]}},{"toponym":"Sindele","citations":[{"label":"1337 Pat","year":1337}],"when":{"timespans":[{"start":{"in":"1337"},"end":{"in":"1337"}}]}},{"toponym":"Shenle Maunsel","citations":[{"label":"1303 Ch","year":1303}],"when":{"timespans":[{"start":{"in":"1303"},"end":{"in":"1303"}}]}},{"toponym":"Shenle al. Shendeley","citations":[{"label":"1435 Pat","year":1435}],"when":{"timespans":[{"start":{"in":"1435"},"end":{"in":"1435"}}]}},{"toponym":"Shendeley","citations":[{"label":"1535 VE","year":1535}],"when":{"timespans":[{"start":{"in":"1535"},"end":{"in":"1535"}}]}},{"toponym":"Shenley Mansell","citations":[{"label":"1826 B","year":1826}],"when":{"timespans":[{"start":{"in":"1826"},"end":{"in":"1826"}}]}}],"types":[{"identifier":"http://vocab.getty.edu/aat/300232418","label":"administrative division","sourceLabels":[{"label":"township","lang":"en"}]}],"geometry":{"type":"GeometryCollection","geometries":[{"type":"Point","coordinates":[-0.78994,52.02522],"citations":[{"label":"GeoNames, gazetteer record geonames:2638049"}]},{"type":"Point","coordinates":[-0.7975789023195333,52.0203569096024],"citations":[{"label":"Unlock (EDINA) gazetteer, gazetteer record unlock:11282317"}]},{"type":"Point","coordinates":[-0.799115,52.0208],"citations":[{"label":"Key to English Place-Names (KEPN), gazetteer record 11216"}]}]},"when":{"timespans":[{"start":{"in":"1086"},"end":{"in":"1826"}}]},"links":[{"type":"closeMatch","identifier":"https://sws.geonames.org/2638049/"}],"relations":[{"relationType":"gvp:broaderPartitive","relationTo":"https://w3id.org/whg-epns/02/000385","label":"within Shenley"}]}]}