{"@context":"https://raw.githubusercontent.com/LinkedPasts/linked-places-format/main/linkedplaces-context-v1.1.jsonld","type":"FeatureCollection","license":"Digitisation of English Placenames MADS data is licensed to Jisc by the English Place Names Society and released under a Creative Commons Attribution-NonCommercial 4.0 International License.","note":"LPF v1.3, lossy; derived from the PLATO record; plato_commit=ca0afadabec1e23a145c0b03df77e8f151f79832","features":[{"@id":"http://placenames.org.uk/id/placename/02/000334","type":"Feature","properties":{"title":"Loughton","ccodes":["GB"],"fclasses":["A","P"]},"names":[{"toponym":"Loughton","lang":"en","citations":[{"label":"English Place-Name Society survey, volume 2: Buckinghamshire"}]},{"toponym":"Lochintone","citations":[{"label":"1086 DB","year":1086}],"when":{"timespans":[{"start":{"in":"1086"},"end":{"in":"1086"}}]}},{"toponym":"Lufton","citations":[{"label":"1152-8 NLC","year":1152}],"when":{"timespans":[{"start":{"earliest":"1152","latest":"1158"},"end":{"earliest":"1152","latest":"1158"}}]}},{"toponym":"Lugton(a)","citations":[{"label":"1155 NLC","year":1155},{"label":"1186 P","year":1186}],"when":{"timespans":[{"start":{"in":"1155"},"end":{"in":"1155"}},{"start":{"in":"1186"},"end":{"in":"1186"}}]}},{"toponym":"Locoton","citations":[{"label":"1160-5 NLC","year":1160}],"when":{"timespans":[{"start":{"earliest":"1160","latest":"1165"},"end":{"earliest":"1160","latest":"1165"}}]}},{"toponym":"Luctune","citations":[{"label":"1199 NLC","year":1199}],"when":{"timespans":[{"start":{"in":"1199"},"end":{"in":"1199"}}]}},{"toponym":"Lughton(e)","citations":[{"label":"1219 WellsR","year":1219},{"label":"1237-40 Fees","year":1237},{"label":"1325 Cl","year":1325},{"label":"1367 Pat","year":1367},{"label":"1376 Cl","year":1376}],"when":{"timespans":[{"start":{"in":"1219"},"end":{"in":"1219"}},{"start":{"earliest":"1237","latest":"1240"},"end":{"earliest":"1237","latest":"1240"}},{"start":{"in":"1325"},"end":{"in":"1325"}},{"start":{"in":"1362"},"end":{"in":"1362"}},{"start":{"in":"1367"},"end":{"in":"1367"}},{"start":{"in":"1376"},"end":{"in":"1376"}}]}},{"toponym":"Luwetune","citations":[{"label":"1235 NLC","year":1235}],"when":{"timespans":[{"start":{"in":"1235"},"end":{"in":"1235"}}]}},{"toponym":"Luhtone","citations":[{"label":"1241 Ass","year":1241}],"when":{"timespans":[{"start":{"in":"1241"},"end":{"in":"1241"}}]}},{"toponym":"Luffton","citations":[{"label":"1242 Fees","year":1242}],"when":{"timespans":[{"start":{"in":"1242"},"end":{"in":"1242"}}]}},{"toponym":"Luchton","citations":[{"label":"1242 Fees","year":1242},{"label":"1245 Gross","year":1245},{"label":"1262 Ass","year":1262}],"when":{"timespans":[{"start":{"in":"1242"},"end":{"in":"1242"}},{"start":{"in":"1245"},"end":{"in":"1245"}},{"start":{"in":"1262"},"end":{"in":"1262"}}]}},{"toponym":"Lauton","citations":[{"label":"c. 1275 Bodl","year":1265}],"when":{"timespans":[{"start":{"earliest":"1265","latest":"1285"},"end":{"earliest":"1265","latest":"1285"}}]}},{"toponym":"Lucton","citations":[{"label":"1284 FA","year":1284}],"when":{"timespans":[{"start":{"in":"1284"},"end":{"in":"1284"}}]}},{"toponym":"Loghton","citations":[{"label":"1300 Ipm","year":1300},{"label":"1316 FA","year":1316}],"when":{"timespans":[{"start":{"in":"1300"},"end":{"in":"1300"}},{"start":{"in":"1316"},"end":{"in":"1316"}}]}},{"toponym":"Louton","citations":[{"label":"1284 FA","year":1284}],"when":{"timespans":[{"start":{"in":"1284"},"end":{"in":"1284"}},{"start":{"in":"1302"},"end":{"in":"1302"}}]}},{"toponym":"Loughton(e)","citations":[{"label":"1300-20 Linc","year":1300},{"label":"1345 FA","year":1345},{"label":"1352 Ipm","year":1352},{"label":"1378 Cl","year":1378},{"label":"1493 Ipm","year":1493}],"when":{"timespans":[{"start":{"earliest":"1300","latest":"1320"},"end":{"earliest":"1300","latest":"1320"}},{"start":{"in":"1345"},"end":{"in":"1345"}},{"start":{"in":"1352"},"end":{"in":"1352"}},{"start":{"in":"1378"},"end":{"in":"1378"}},{"start":{"in":"1493"},"end":{"in":"1493"}}]}},{"toponym":"Lowton","citations":[{"label":"1512 LP","year":1512}],"when":{"timespans":[{"start":{"in":"1512"},"end":{"in":"1512"}}]}}],"types":[{"identifier":"http://vocab.getty.edu/aat/300232418","label":"administrative division","sourceLabels":[{"label":"township","lang":"en"}]}],"geometry":{"type":"GeometryCollection","geometries":[{"type":"Point","coordinates":[-0.78642,52.03037],"citations":[{"label":"GeoNames, gazetteer record geonames:2643557"}]},{"type":"Point","coordinates":[-0.7827635783438046,52.02919695365543],"citations":[{"label":"Unlock (EDINA) gazetteer, gazetteer record unlock:11206671"}]},{"type":"Point","coordinates":[-0.784302,52.0296],"citations":[{"label":"Key to English Place-Names (KEPN), gazetteer record 11213"}]}]},"when":{"timespans":[{"start":{"in":"1086"},"end":{"in":"1512"}}]},"links":[{"type":"closeMatch","identifier":"https://sws.geonames.org/2643557/"}],"relations":[{"relationType":"gvp:broaderPartitive","relationTo":"http://placenames.org.uk/id/placename/02/000333","label":"within Loughton"}]}]}