{"@context":"https://raw.githubusercontent.com/LinkedPasts/linked-places-format/main/linkedplaces-context-v1.1.jsonld","type":"FeatureCollection","license":"Digitisation of English Placenames MADS data is licensed to Jisc by the English Place Names Society and released under a Creative Commons Attribution-NonCommercial 4.0 International License.","note":"LPF v1.3, lossy; derived from the PLATO record; plato_commit=fa0d247ccc0263f8f19c8d7cdcd163df96935d1e","features":[{"@id":"https://w3id.org/whg-epns/02/000432","type":"Feature","properties":{"title":"Fenny Stratford","ccodes":["GB"],"fclasses":["A","P"]},"names":[{"toponym":"Fenny Stratford","lang":"en","citations":[{"label":"English Place-Name Society survey, volume 2: Buckinghamshire"}]},{"toponym":"Fenni Stratford","citations":[{"label":"1252 Ch","year":1252}],"when":{"timespans":[{"start":{"in":"1252"},"end":{"in":"1252"}}]}},{"toponym":"Fenny Stretford","citations":[{"label":"1338 Pat","year":1338}],"when":{"timespans":[{"start":{"in":"1338"},"end":{"in":"1338"}}]}}],"types":[{"identifier":"http://vocab.getty.edu/aat/300232418","label":"administrative division","sourceLabels":[{"label":"township","lang":"en"}]}],"geometry":{"type":"GeometryCollection","geometries":[{"type":"Point","coordinates":[-0.71796,51.9968],"citations":[{"label":"GeoNames, gazetteer record geonames:2649552"}]},{"type":"Point","coordinates":[-0.7106701575339189,52.00145320700083],"citations":[{"label":"Unlock (EDINA) gazetteer, gazetteer record unlock:11143165"}]},{"type":"Point","coordinates":[-0.712216,52.0019],"citations":[{"label":"Key to English Place-Names (KEPN), gazetteer record 11220"}]}]},"when":{"timespans":[{"start":{"in":"1252"},"end":{"in":"1338"}}]},"links":[{"type":"closeMatch","identifier":"https://sws.geonames.org/2649552/"}],"relations":[{"relationType":"gvp:broaderPartitive","relationTo":"https://w3id.org/whg-epns/02/000431","label":"within Fenny Stratford"}]}]}