{"@context":"https://raw.githubusercontent.com/LinkedPasts/linked-places-format/main/linkedplaces-context-v1.1.jsonld","type":"FeatureCollection","license":"Digitisation of English Placenames MADS data is licensed to Jisc by the English Place Names Society and released under a Creative Commons Attribution-NonCommercial 4.0 International License.","note":"LPF v1.3, lossy; derived from the PLATO record; plato_commit=fa0d247ccc0263f8f19c8d7cdcd163df96935d1e","features":[{"@id":"https://w3id.org/whg-epns/02/000421","type":"Feature","properties":{"title":"Stoke Hammond","ccodes":["GB"],"fclasses":["A","P"]},"names":[{"toponym":"Stoke Hammond","lang":"en","citations":[{"label":"English Place-Name Society survey, volume 2: Buckinghamshire"}]},{"toponym":"Stoches","citations":[{"label":"1086 DB","year":1086}],"when":{"timespans":[{"start":{"in":"1086"},"end":{"in":"1086"}}]}},{"toponym":"Stokes","citations":[{"label":"1185 Rot Dom","year":1185},{"label":"1198 Fines","year":1198},{"label":"1235 Fees","year":1235}],"when":{"timespans":[{"start":{"in":"1185"},"end":{"in":"1185"}},{"start":{"in":"1198"},"end":{"in":"1198"}},{"start":{"in":"1235"},"end":{"in":"1235"}}]}},{"toponym":"Stokes Hamund","citations":[{"label":"1242 Fees","year":1242}],"when":{"timespans":[{"start":{"in":"1242"},"end":{"in":"1242"}}]}},{"toponym":"Stoke Hamund","citations":[{"label":"1247 Ass","year":1247}],"when":{"timespans":[{"start":{"in":"1247"},"end":{"in":"1247"}}]}},{"toponym":"Stoke Hamond","citations":[{"label":"1346 FA","year":1346}],"when":{"timespans":[{"start":{"in":"1346"},"end":{"in":"1346"}}]}},{"toponym":"Stokehamon","citations":[{"label":"1535 VE","year":1535},{"label":"Eliz ChancP","year":1558}],"when":{"timespans":[{"start":{"in":"1535"},"end":{"in":"1535"}},{"start":{"earliest":"1558","latest":"1603"},"end":{"earliest":"1558","latest":"1603"}}]}}],"types":[{"identifier":"http://vocab.getty.edu/aat/300232418","label":"administrative division","sourceLabels":[{"label":"township","lang":"en"}]}],"geometry":{"type":"GeometryCollection","geometries":[{"type":"Point","coordinates":[-0.719,51.95675],"citations":[{"label":"GeoNames, gazetteer record geonames:2636850"}]},{"type":"Point","coordinates":[-0.711960068556246,51.95650571414568],"citations":[{"label":"Unlock (EDINA) gazetteer, gazetteer record unlock:11292731"}]},{"type":"Point","coordinates":[-0.713504,51.957],"citations":[{"label":"Key to English Place-Names (KEPN), gazetteer record 11219"}]}]},"when":{"timespans":[{"start":{"in":"1086"},"end":{"in":"1603"}}]},"links":[{"type":"closeMatch","identifier":"https://sws.geonames.org/2636850/"}],"relations":[{"relationType":"gvp:broaderPartitive","relationTo":"https://w3id.org/whg-epns/02/000420","label":"within Stoke Hammond"}]}]}