{"@context":"https://raw.githubusercontent.com/LinkedPasts/linked-places-format/main/linkedplaces-context-v1.1.jsonld","type":"FeatureCollection","license":"Digitisation of English Placenames MADS data is licensed to Jisc by the English Place Names Society and released under a Creative Commons Attribution-NonCommercial 4.0 International License.","note":"LPF v1.3, lossy; derived from the PLATO record; plato_commit=ca0afadabec1e23a145c0b03df77e8f151f79832","features":[{"@id":"http://placenames.org.uk/id/placename/02/000718","type":"Feature","properties":{"title":"Akeley","ccodes":["GB"],"fclasses":["A","P"]},"names":[{"toponym":"Akeley","lang":"en","citations":[{"label":"English Place-Name Society survey, volume 2: Buckinghamshire"}]},{"toponym":"Achelei","citations":[{"label":"1086 DB","year":1086}],"when":{"timespans":[{"start":{"in":"1086"},"end":{"in":"1086"}}]}},{"toponym":"Akileia","citations":[{"label":"1152-8 NLC","year":1152}],"when":{"timespans":[{"start":{"earliest":"1152","latest":"1158"},"end":{"earliest":"1152","latest":"1158"}}]}},{"toponym":"Akeleia","citations":[{"label":"1155 NLC","year":1155},{"label":"1176 P","year":1176}],"when":{"timespans":[{"start":{"in":"1155"},"end":{"in":"1155"}},{"start":{"in":"1176"},"end":{"in":"1176"}}]}},{"toponym":"Akelay","citations":[{"label":"1179 P","year":1179}],"when":{"timespans":[{"start":{"in":"1179"},"end":{"in":"1179"}}]}},{"toponym":"Achelay","citations":[{"label":"1179 P","year":1179}],"when":{"timespans":[{"start":{"in":"1179"},"end":{"in":"1179"}}]}},{"toponym":"Acleya","citations":[{"label":"1217 Bract","year":1217}],"when":{"timespans":[{"start":{"in":"1217"},"end":{"in":"1217"}}]}},{"toponym":"Aklye","citations":[{"label":"1220 Fees","year":1220}],"when":{"timespans":[{"start":{"in":"1220"},"end":{"in":"1220"}}]}},{"toponym":"Acle","citations":[{"label":"1220 Pat","year":1220},{"label":"1221 Bract","year":1221},{"label":"1228 Ch","year":1228},{"label":"1235 Fees","year":1235},{"label":"1247 Ass","year":1247},{"label":"1302 FA","year":1302},{"label":"1396 Pat","year":1396},{"label":"1405-20 Linc","year":1405}],"when":{"timespans":[{"start":{"in":"1220"},"end":{"in":"1220"}},{"start":{"in":"1221"},"end":{"in":"1221"}},{"start":{"in":"1228"},"end":{"in":"1228"}},{"start":{"in":"1230"},"end":{"in":"1230"}},{"start":{"in":"1235"},"end":{"in":"1235"}},{"start":{"in":"1247"},"end":{"in":"1247"}},{"start":{"in":"1302"},"end":{"in":"1302"}},{"start":{"in":"1316"},"end":{"in":"1316"}},{"start":{"in":"1346"},"end":{"in":"1346"}},{"start":{"in":"1396"},"end":{"in":"1396"}},{"start":{"earliest":"1405","latest":"1420"},"end":{"earliest":"1405","latest":"1420"}}]}},{"toponym":"Ackle","citations":[{"label":"1228 Ch","year":1228}],"when":{"timespans":[{"start":{"in":"1228"},"end":{"in":"1228"}}]}},{"toponym":"Aklee","citations":[{"label":"1234-41 NLC","year":1234}],"when":{"timespans":[{"start":{"earliest":"1234","latest":"1241"},"end":{"earliest":"1234","latest":"1241"}}]}},{"toponym":"Akeleya","citations":[{"label":"1245-62 NLC","year":1245}],"when":{"timespans":[{"start":{"earliest":"1245","latest":"1262"},"end":{"earliest":"1245","latest":"1262"}}]}},{"toponym":"Akele","citations":[{"label":"1270 Pat","year":1270}],"when":{"timespans":[{"start":{"in":"1270"},"end":{"in":"1270"}}]}},{"toponym":"Acle by Bukyngham","citations":[{"label":"1375 Pat","year":1375}],"when":{"timespans":[{"start":{"in":"1375"},"end":{"in":"1375"}}]}},{"toponym":"subtus Whittilwod","citations":[{"label":"1399 IpmR","year":1399}],"when":{"timespans":[{"start":{"in":"1399"},"end":{"in":"1399"}}]}},{"toponym":"Okelee","citations":[{"label":"1411 Pat","year":1411}],"when":{"timespans":[{"start":{"in":"1411"},"end":{"in":"1411"}}]}},{"toponym":"Ekeley","citations":[{"label":"1577 AD","year":1577}],"when":{"timespans":[{"start":{"in":"1577"},"end":{"in":"1577"}}]}},{"toponym":"Akeley or Oakeley","citations":[{"label":"1755 BW","year":1755}],"when":{"timespans":[{"start":{"in":"1755"},"end":{"in":"1755"}}]}},{"toponym":"Aclee","citations":[{"label":"1300-20 Linc","year":1300}],"when":{"timespans":[{"start":{"earliest":"1300","latest":"1320"},"end":{"earliest":"1300","latest":"1320"}}]}},{"toponym":"Oclee","citations":[{"label":"1320-42 Linc","year":1320}],"when":{"timespans":[{"start":{"earliest":"1320","latest":"1342"},"end":{"earliest":"1320","latest":"1342"}}]}},{"toponym":"Okele","citations":[{"label":"1347-62 Linc","year":1347}],"when":{"timespans":[{"start":{"earliest":"1347","latest":"1362"},"end":{"earliest":"1347","latest":"1362"}}]}},{"toponym":"Occle","citations":[{"label":"1347-62 Linc","year":1347}],"when":{"timespans":[{"start":{"earliest":"1347","latest":"1362"},"end":{"earliest":"1347","latest":"1362"}}]}},{"toponym":"Ocle, Acle","citations":[{"label":"1363-98 Linc","year":1363}],"when":{"timespans":[{"start":{"earliest":"1363","latest":"1398"},"end":{"earliest":"1363","latest":"1398"}}]}},{"toponym":"Accle","citations":[{"label":"1431-6 Linc","year":1431}],"when":{"timespans":[{"start":{"earliest":"1431","latest":"1436"},"end":{"earliest":"1431","latest":"1436"}}]}}],"types":[{"identifier":"http://vocab.getty.edu/aat/300232418","label":"administrative division","sourceLabels":[{"label":"township","lang":"en"}]}],"geometry":{"type":"GeometryCollection","geometries":[{"type":"Point","coordinates":[-0.96954,52.03359],"citations":[{"label":"GeoNames, gazetteer record geonames:2657578"}]},{"type":"Point","coordinates":[-0.9722374239795344,52.03100217962963],"citations":[{"label":"Unlock (EDINA) gazetteer, gazetteer record unlock:11057835"}]},{"type":"Point","coordinates":[-0.973754,52.0314],"citations":[{"label":"Key to English Place-Names (KEPN), gazetteer record 11241"}]}]},"when":{"timespans":[{"start":{"in":"1086"},"end":{"in":"1755"}}]},"links":[{"type":"closeMatch","identifier":"https://sws.geonames.org/2657578/"}],"relations":[{"relationType":"gvp:broaderPartitive","relationTo":"http://placenames.org.uk/id/placename/02/000717","label":"within Akeley"}]}]}