{"@context":"https://raw.githubusercontent.com/LinkedPasts/linked-places-format/main/linkedplaces-context-v1.1.jsonld","type":"FeatureCollection","license":"Digitisation of English Placenames MADS data is licensed to Jisc by the English Place Names Society and released under a Creative Commons Attribution-NonCommercial 4.0 International License.","note":"LPF v1.3, lossy; derived from the PLATO record; plato_commit=ca0afadabec1e23a145c0b03df77e8f151f79832","features":[{"@id":"https://w3id.org/whg-epns/02/000865","type":"Feature","properties":{"title":"Shalstone","ccodes":["GB"],"fclasses":["A","P"]},"names":[{"toponym":"Shalstone","lang":"en","citations":[{"label":"English Place-Name Society survey, volume 2: Buckinghamshire"}]},{"toponym":"Celdestane, Celdestone","citations":[{"label":"1086 DB","year":1086}],"when":{"timespans":[{"start":{"in":"1086"},"end":{"in":"1086"}}]}},{"toponym":"Scaldestuna","citations":[{"label":"Hy i Ch","year":1100}],"when":{"timespans":[{"start":{"earliest":"1100","latest":"1135"},"end":{"earliest":"1100","latest":"1135"}}]}},{"toponym":"Shaldestun","citations":[{"label":"c. 1200 HarlCh","year":1190}],"when":{"timespans":[{"start":{"earliest":"1190","latest":"1210"},"end":{"earliest":"1190","latest":"1210"}}]}},{"toponym":"S(c)haldeston","citations":[{"label":"1227 Ass","year":1227},{"label":"1242 Fees","year":1242},{"label":"1255 For","year":1255},{"label":"1316 FA","year":1316},{"label":"1317 Cl","year":1317},{"label":"1391 Pat","year":1391}],"when":{"timespans":[{"start":{"in":"1227"},"end":{"in":"1227"}},{"start":{"in":"1242"},"end":{"in":"1242"}},{"start":{"in":"1255"},"end":{"in":"1255"}},{"start":{"in":"1316"},"end":{"in":"1316"}},{"start":{"in":"1317"},"end":{"in":"1317"}},{"start":{"in":"1377"},"end":{"in":"1377"}},{"start":{"in":"1391"},"end":{"in":"1391"}}]}},{"toponym":"Saldestone","citations":[{"label":"1199 HarlCh","year":1199},{"label":"1230 WellsR","year":1230},{"label":"1237 Fees","year":1237},{"label":"1284 FA","year":1284}],"when":{"timespans":[{"start":{"in":"1199"},"end":{"in":"1199"}},{"start":{"in":"1230"},"end":{"in":"1230"}},{"start":{"in":"1237"},"end":{"in":"1237"}},{"start":{"in":"1284"},"end":{"in":"1284"}}]}},{"toponym":"Chaldeston(e)","citations":[{"label":"1255 For","year":1255},{"label":"1373 Pat","year":1373},{"label":"1512 LP","year":1512}],"when":{"timespans":[{"start":{"in":"1255"},"end":{"in":"1255"}},{"start":{"in":"1373"},"end":{"in":"1373"}},{"start":{"in":"1512"},"end":{"in":"1512"}},{"start":{"in":"1542"},"end":{"in":"1542"}}]}},{"toponym":"Scheldestone, Scaldeston'","citations":[{"label":"1291 Tax","year":1291}],"when":{"timespans":[{"start":{"in":"1291"},"end":{"in":"1291"}}]}},{"toponym":"Saldistone","citations":[{"label":"1302 FA","year":1302}],"when":{"timespans":[{"start":{"in":"1302"},"end":{"in":"1302"}}]}},{"toponym":"S(c)halleston","citations":[{"label":"1422 AD","year":1422},{"label":"1766 J","year":1766}],"when":{"timespans":[{"start":{"in":"1422"},"end":{"in":"1422"}},{"start":{"in":"1766"},"end":{"in":"1766"}}]}},{"toponym":"Shaweston al. Shalston","citations":[{"label":"1522-47 Linc","year":1522}],"when":{"timespans":[{"start":{"earliest":"1522","latest":"1547"},"end":{"earliest":"1522","latest":"1547"}}]}},{"toponym":"Shalson","citations":[{"label":"1584 Archd","year":1584}],"when":{"timespans":[{"start":{"in":"1584"},"end":{"in":"1584"}}]}},{"toponym":"Shaulston","citations":[{"label":"1680 Terr","year":1680}],"when":{"timespans":[{"start":{"in":"1680"},"end":{"in":"1680"}}]}}],"types":[{"identifier":"http://vocab.getty.edu/aat/300232418","label":"administrative division","sourceLabels":[{"label":"township","lang":"en"}]}],"geometry":{"type":"GeometryCollection","geometries":[{"type":"Point","coordinates":[-1.06597,52.02329],"citations":[{"label":"GeoNames, gazetteer record geonames:2638146"}]},{"type":"Point","coordinates":[-1.059881801605159,52.0227421178063],"citations":[{"label":"Unlock (EDINA) gazetteer, gazetteer record unlock:11281418"}]},{"type":"Point","coordinates":[-1.06139,52.0232],"citations":[{"label":"Key to English Place-Names (KEPN), gazetteer record 11250"}]}]},"when":{"timespans":[{"start":{"in":"1086"},"end":{"in":"1766"}}]},"links":[{"type":"closeMatch","identifier":"https://sws.geonames.org/2638146/"}],"relations":[{"relationType":"gvp:broaderPartitive","relationTo":"https://w3id.org/whg-epns/02/000864","label":"within Shalstone"}]}]}