{"@context":"https://raw.githubusercontent.com/LinkedPasts/linked-places-format/main/linkedplaces-context-v1.1.jsonld","type":"FeatureCollection","license":"Digitisation of English Placenames MADS data is licensed to Jisc by the English Place Names Society and released under a Creative Commons Attribution-NonCommercial 4.0 International License.","note":"LPF v1.3, lossy; derived from the PLATO record; plato_commit=ca0afadabec1e23a145c0b03df77e8f151f79832","features":[{"@id":"https://w3id.org/whg-epns/02/000864","type":"Feature","properties":{"title":"Shalstone","ccodes":["GB"],"fclasses":["A","P"]},"names":[{"toponym":"Shalstone","lang":"en","citations":[{"label":"English Place-Name Society survey, volume 2: Buckinghamshire"}]}],"types":[{"identifier":"http://vocab.getty.edu/aat/300232418","label":"administrative division","sourceLabels":[{"label":"parish","lang":"en"}]}],"geometry":{"type":"GeometryCollection","geometries":[{"type":"Point","coordinates":[-1.06597,52.02329],"citations":[{"label":"GeoNames, gazetteer record geonames:2638146"}]},{"type":"Point","coordinates":[-1.059881801605159,52.0227421178063],"citations":[{"label":"Unlock (EDINA) gazetteer, gazetteer record unlock:11281418"}]},{"type":"Point","coordinates":[-1.06139,52.0232],"citations":[{"label":"Key to English Place-Names (KEPN), gazetteer record 11250"}]}]},"links":[{"type":"closeMatch","identifier":"https://sws.geonames.org/2638146/"}],"relations":[{"relationType":"gvp:broaderPartitive","relationTo":"https://w3id.org/whg-epns/02/000711","label":"within Stodfold Hundred"}]}]}