{"@context":"https://raw.githubusercontent.com/LinkedPasts/linked-places-format/main/linkedplaces-context-v1.1.jsonld","type":"FeatureCollection","license":"Digitisation of English Placenames MADS data is licensed to Jisc by the English Place Names Society and released under a Creative Commons Attribution-NonCommercial 4.0 International License.","note":"LPF v1.3, lossy; derived from the PLATO record; plato_commit=ca0afadabec1e23a145c0b03df77e8f151f79832","features":[{"@id":"http://placenames.org.uk/id/placename/02/000951","type":"Feature","properties":{"title":"Adstock","ccodes":["GB"],"fclasses":["A","P"]},"names":[{"toponym":"Adstock","lang":"en","citations":[{"label":"English Place-Name Society survey, volume 2: Buckinghamshire"}]},{"toponym":"Edestoche","citations":[{"label":"1086 DB","year":1086}],"when":{"timespans":[{"start":{"in":"1086"},"end":{"in":"1086"}}]}},{"toponym":"Adestoca","citations":[{"label":"Hy ii Rutland","year":1154}],"when":{"timespans":[{"start":{"earliest":"1154","latest":"1189"},"end":{"earliest":"1154","latest":"1189"}}]}},{"toponym":"Adestochia","citations":[{"label":"R i Rutland","year":1189}],"when":{"timespans":[{"start":{"earliest":"1189","latest":"1199"},"end":{"earliest":"1189","latest":"1199"}}]}},{"toponym":"Hadestoke","citations":[{"label":"R i P","year":1189},{"label":"1227 Ass","year":1227},{"label":"1284 FA","year":1284}],"when":{"timespans":[{"start":{"earliest":"1189","latest":"1199"},"end":{"earliest":"1189","latest":"1199"}},{"start":{"in":"1227"},"end":{"in":"1227"}},{"start":{"in":"1247"},"end":{"in":"1247"}},{"start":{"in":"1262"},"end":{"in":"1262"}},{"start":{"in":"1284"},"end":{"in":"1284"}}]}},{"toponym":"Hadestache","citations":[{"label":"c. 1198 Cur(P)","year":1188}],"when":{"timespans":[{"start":{"earliest":"1188","latest":"1208"},"end":{"earliest":"1188","latest":"1208"}}]}},{"toponym":"Addestok(e)","citations":[{"label":"1221 WellsR","year":1221},{"label":"1227 Ass","year":1227},{"label":"1252 Ch","year":1252},{"label":"1375 Pat","year":1375}],"when":{"timespans":[{"start":{"in":"1221"},"end":{"in":"1221"}},{"start":{"in":"1227"},"end":{"in":"1227"}},{"start":{"in":"1241"},"end":{"in":"1241"}},{"start":{"in":"1252"},"end":{"in":"1252"}},{"start":{"in":"1375"},"end":{"in":"1375"}}]}},{"toponym":"Adestoke","citations":[{"label":"1227 WellsR","year":1227},{"label":"1229 Ch","year":1229},{"label":"1242 Fees","year":1242},{"label":"1248 Gross","year":1248},{"label":"1249 Ipm","year":1249},{"label":"1262 Ass","year":1262},{"label":"1302 FA","year":1302},{"label":"1305 Ipm","year":1305}],"when":{"timespans":[{"start":{"in":"1227"},"end":{"in":"1227"}},{"start":{"in":"1229"},"end":{"in":"1229"}},{"start":{"in":"1242"},"end":{"in":"1242"}},{"start":{"in":"1248"},"end":{"in":"1248"}},{"start":{"in":"1249"},"end":{"in":"1249"}},{"start":{"in":"1262"},"end":{"in":"1262"}},{"start":{"in":"1302"},"end":{"in":"1302"}},{"start":{"in":"1316"},"end":{"in":"1316"}},{"start":{"in":"1346"},"end":{"in":"1346"}},{"start":{"in":"1305"},"end":{"in":"1305"}},{"start":{"in":"1337"},"end":{"in":"1337"}}]}},{"toponym":"Hedestok'","citations":[{"label":"1235 Fees","year":1235},{"label":"1262 Ass","year":1262}],"when":{"timespans":[{"start":{"in":"1235"},"end":{"in":"1235"}},{"start":{"in":"1262"},"end":{"in":"1262"}}]}},{"toponym":"Addestocke","citations":[{"label":"1241 Ass","year":1241}],"when":{"timespans":[{"start":{"in":"1241"},"end":{"in":"1241"}}]}},{"toponym":"Astocke","citations":[{"label":"1584 Archd","year":1584}],"when":{"timespans":[{"start":{"in":"1584"},"end":{"in":"1584"}}]}}],"types":[{"identifier":"http://vocab.getty.edu/aat/300232418","label":"administrative division","sourceLabels":[{"label":"township","lang":"en"}]}],"geometry":{"type":"GeometryCollection","geometries":[{"type":"Point","coordinates":[-0.93023,51.96521],"citations":[{"label":"GeoNames, gazetteer record geonames:2657663"}]},{"type":"Point","coordinates":[-0.9300125353902428,51.96768141979975],"citations":[{"label":"Unlock (EDINA) gazetteer, gazetteer record unlock:11056693"}]},{"type":"Point","coordinates":[-0.931531,51.9681],"citations":[{"label":"Key to English Place-Names (KEPN), gazetteer record 11256"}]}]},"when":{"timespans":[{"start":{"in":"1086"},"end":{"in":"1584"}}]},"links":[{"type":"closeMatch","identifier":"https://sws.geonames.org/2657663/"}],"relations":[{"relationType":"gvp:broaderPartitive","relationTo":"http://placenames.org.uk/id/placename/02/000950","label":"within Adstock"}]}]}