{"@context":"https://raw.githubusercontent.com/LinkedPasts/linked-places-format/main/linkedplaces-context-v1.1.jsonld","type":"FeatureCollection","license":"Digitisation of English Placenames MADS data is licensed to Jisc by the English Place Names Society and released under a Creative Commons Attribution-NonCommercial 4.0 International License.","note":"LPF v1.3, lossy; derived from the PLATO record; plato_commit=fa0d247ccc0263f8f19c8d7cdcd163df96935d1e","features":[{"@id":"https://w3id.org/whg-epns/02/001070","type":"Feature","properties":{"title":"Barton Hartshorn","ccodes":["GB"],"fclasses":["A","P"]},"names":[{"toponym":"Barton Hartshorn","lang":"en","citations":[{"label":"English Place-Name Society survey, volume 2: Buckinghamshire"}]},{"toponym":"Berton(e)","citations":[{"label":"1086 DB","year":1086},{"label":"1189 P","year":1189},{"label":"c. 1210 BM","year":1200},{"label":"c. 1200 Eyns","year":1190},{"label":"1241 Ass","year":1241}],"when":{"timespans":[{"start":{"in":"1086"},"end":{"in":"1086"}},{"start":{"in":"1189"},"end":{"in":"1189"}},{"start":{"earliest":"1200","latest":"1220"},"end":{"earliest":"1200","latest":"1220"}},{"start":{"earliest":"1190","latest":"1210"},"end":{"earliest":"1190","latest":"1210"}},{"start":{"in":"1241"},"end":{"in":"1241"}}]}},{"toponym":"Bertonia","citations":[{"label":"c. 1180 Oseney","year":1170}],"when":{"timespans":[{"start":{"earliest":"1170","latest":"1190"},"end":{"earliest":"1170","latest":"1190"}}]}},{"toponym":"Barton","citations":[{"label":"1237-40 Fees","year":1237},{"label":"1284 FA","year":1284}],"when":{"timespans":[{"start":{"earliest":"1237","latest":"1240"},"end":{"earliest":"1237","latest":"1240"}},{"start":{"in":"1284"},"end":{"in":"1284"}}]}},{"toponym":"Barton by Chetewode","citations":[{"label":"1392 Pat","year":1392}],"when":{"timespans":[{"start":{"in":"1392"},"end":{"in":"1392"}}]}},{"toponym":"Barton Hartshorn","citations":[{"label":"c. 1450 Linc","year":1440}],"when":{"timespans":[{"start":{"earliest":"1440","latest":"1460"},"end":{"earliest":"1440","latest":"1460"}}]}},{"toponym":"Barton and Herteshorne al. Beggars Barton","citations":[{"label":"1541 LP","year":1541}],"when":{"timespans":[{"start":{"in":"1541"},"end":{"in":"1541"}}]}}],"types":[{"identifier":"http://vocab.getty.edu/aat/300232418","label":"administrative division","sourceLabels":[{"label":"township","lang":"en"}]}],"geometry":{"type":"GeometryCollection","geometries":[{"type":"Point","coordinates":[-1.07608,51.9681],"citations":[{"label":"GeoNames, gazetteer record geonames:7300618"}]},{"type":"Point","coordinates":[-1.060823099577154,51.97778945708043],"citations":[{"label":"Unlock (EDINA) gazetteer, gazetteer record unlock:11071242"}]},{"type":"Point","coordinates":[-1.06233,51.9782],"citations":[{"label":"Key to English Place-Names (KEPN), gazetteer record 11265"}]}]},"when":{"timespans":[{"start":{"in":"1086"},"end":{"in":"1541"}}]},"links":[{"type":"closeMatch","identifier":"https://sws.geonames.org/7300618/"}],"relations":[{"relationType":"gvp:broaderPartitive","relationTo":"https://w3id.org/whg-epns/02/001069","label":"within Barton Hartshorn"}]}]}