{"@context":"https://raw.githubusercontent.com/LinkedPasts/linked-places-format/main/linkedplaces-context-v1.1.jsonld","type":"FeatureCollection","license":"Digitisation of English Placenames MADS data is licensed to Jisc by the English Place Names Society and released under a Creative Commons Attribution-NonCommercial 4.0 International License.","note":"LPF v1.3, lossy; derived from the PLATO record; plato_commit=ca0afadabec1e23a145c0b03df77e8f151f79832","features":[{"@id":"https://w3id.org/whg-epns/02/001032","type":"Feature","properties":{"title":"Poundon","ccodes":["GB"],"fclasses":["A","P"]},"names":[{"toponym":"Poundon","lang":"en","citations":[{"label":"English Place-Name Society survey, volume 2: Buckinghamshire"}]},{"toponym":"Paundon","citations":[{"label":"1255 For","year":1255}],"when":{"timespans":[{"start":{"in":"1255"},"end":{"in":"1255"}}]}},{"toponym":"Pondon","citations":[{"label":"1291 Tax","year":1291}],"when":{"timespans":[{"start":{"in":"1291"},"end":{"in":"1291"}}]}},{"toponym":"Powendone","citations":[{"label":"1316 FA","year":1316}],"when":{"timespans":[{"start":{"in":"1316"},"end":{"in":"1316"}}]}}],"types":[{"identifier":"http://vocab.getty.edu/aat/300232418","label":"administrative division","sourceLabels":[{"label":"township","lang":"en"}]}],"geometry":{"type":"GeometryCollection","geometries":[{"type":"Point","coordinates":[-1.06115,51.92355],"citations":[{"label":"GeoNames, gazetteer record geonames:2639955"}]},{"type":"Point","coordinates":[-1.061949412736533,51.92384579430754],"citations":[{"label":"Unlock (EDINA) gazetteer, gazetteer record unlock:11249566"}]},{"type":"Point","coordinates":[-1.06345,51.9243],"citations":[{"label":"Key to English Place-Names (KEPN), gazetteer record 11262"}]}]},"when":{"timespans":[{"start":{"in":"1255"},"end":{"in":"1316"}}]},"links":[{"type":"closeMatch","identifier":"https://sws.geonames.org/2639955/"}],"relations":[{"relationType":"gvp:broaderPartitive","relationTo":"https://w3id.org/whg-epns/02/001031","label":"within Poundon"}]}]}