{"@context":"https://raw.githubusercontent.com/LinkedPasts/linked-places-format/main/linkedplaces-context-v1.1.jsonld","type":"FeatureCollection","license":"Digitisation of English Placenames MADS data is licensed to Jisc by the English Place Names Society and released under a Creative Commons Attribution-NonCommercial 4.0 International License.","note":"LPF v1.3, lossy; derived from the PLATO record; plato_commit=ca0afadabec1e23a145c0b03df77e8f151f79832","features":[{"@id":"http://placenames.org.uk/id/placename/02/001036","type":"Feature","properties":{"title":"Thornborough","ccodes":["GB"],"fclasses":["A","P"]},"names":[{"toponym":"Thornborough","lang":"en","citations":[{"label":"English Place-Name Society survey, volume 2: Buckinghamshire"}]}],"types":[{"identifier":"http://vocab.getty.edu/aat/300232418","label":"administrative division","sourceLabels":[{"label":"parish","lang":"en"}]}],"geometry":{"type":"GeometryCollection","geometries":[{"type":"Point","coordinates":[-0.91783,51.99701],"citations":[{"label":"GeoNames, gazetteer record geonames:2636004"}]},{"type":"Point","coordinates":[-0.9148060786816326,51.99451873942174],"citations":[{"label":"Unlock (EDINA) gazetteer, gazetteer record unlock:11299641"}]},{"type":"Point","coordinates":[-0.916328,51.995],"citations":[{"label":"Key to English Place-Names (KEPN), gazetteer record 11263"}]}]},"links":[{"type":"closeMatch","identifier":"https://sws.geonames.org/2636004/"}],"relations":[{"relationType":"gvp:broaderPartitive","relationTo":"http://placenames.org.uk/id/placename/02/000932","label":"within Lamua Hundred"}]}]}