{"@context":"https://raw.githubusercontent.com/LinkedPasts/linked-places-format/main/linkedplaces-context-v1.1.jsonld","type":"FeatureCollection","license":"Digitisation of English Placenames MADS data is licensed to Jisc by the English Place Names Society and released under a Creative Commons Attribution-NonCommercial 4.0 International License.","note":"LPF v1.3, lossy; derived from the PLATO record; plato_commit=fa0d247ccc0263f8f19c8d7cdcd163df96935d1e","features":[{"@id":"https://w3id.org/whg-epns/02/001154","type":"Feature","properties":{"title":"Hillesden","ccodes":["GB"],"fclasses":["A","P"]},"names":[{"toponym":"Hillesden","lang":"en","citations":[{"label":"English Place-Name Society survey, volume 2: Buckinghamshire"}]},{"toponym":"Hildesdun","citations":[{"label":"949 BCS","year":949},{"label":"Hy ii Ch","year":1154}],"when":{"timespans":[{"start":{"in":"0949"},"end":{"in":"0949"}},{"start":{"earliest":"1154","latest":"1189"},"end":{"earliest":"1154","latest":"1189"}}]}},{"toponym":"Ulesdone, Ilesdone","citations":[{"label":"1086 DB","year":1086}],"when":{"timespans":[{"start":{"in":"1086"},"end":{"in":"1086"}}]}},{"toponym":"Hildesdon","citations":[{"label":"1184 P","year":1184},{"label":"R i BM","year":1189},{"label":"1189 P","year":1189},{"label":"1207 Fines","year":1207},{"label":"1241 Ass","year":1241},{"label":"1255 For","year":1255},{"label":"1274 Ipm","year":1274},{"label":"1284 FA","year":1284},{"label":"1315 Pat","year":1315}],"when":{"timespans":[{"start":{"in":"1184"},"end":{"in":"1184"}},{"start":{"earliest":"1189","latest":"1199"},"end":{"earliest":"1189","latest":"1199"}},{"start":{"in":"1189"},"end":{"in":"1189"}},{"start":{"in":"1207"},"end":{"in":"1207"}},{"start":{"in":"1241"},"end":{"in":"1241"}},{"start":{"in":"1247"},"end":{"in":"1247"}},{"start":{"in":"1255"},"end":{"in":"1255"}},{"start":{"in":"1274"},"end":{"in":"1274"}},{"start":{"in":"1280"},"end":{"in":"1280"}},{"start":{"in":"1284"},"end":{"in":"1284"}},{"start":{"in":"1302"},"end":{"in":"1302"}},{"start":{"in":"1315"},"end":{"in":"1315"}}]}},{"toponym":"Hildesden(e)","citations":[{"label":"1203 Fines","year":1203},{"label":"1267 Ch","year":1267}],"when":{"timespans":[{"start":{"in":"1203"},"end":{"in":"1203"}},{"start":{"in":"1267"},"end":{"in":"1267"}}]}},{"toponym":"Ildesdone","citations":[{"label":"1227 Ass","year":1227}],"when":{"timespans":[{"start":{"in":"1227"},"end":{"in":"1227"}}]}},{"toponym":"Hillesdon","citations":[{"label":"1242 Fees","year":1242},{"label":"1506 Pat","year":1506},{"label":"1826 B","year":1826}],"when":{"timespans":[{"start":{"in":"1242"},"end":{"in":"1242"}},{"start":{"in":"1506"},"end":{"in":"1506"}},{"start":{"in":"1826"},"end":{"in":"1826"}}]}},{"toponym":"Hyllesdon","citations":[{"label":"1490 Ipm","year":1490}],"when":{"timespans":[{"start":{"in":"1490"},"end":{"in":"1490"}}]}},{"toponym":"Hillersden","citations":[{"label":"1755 BW","year":1755}],"when":{"timespans":[{"start":{"in":"1755"},"end":{"in":"1755"}}]}}],"types":[{"identifier":"http://vocab.getty.edu/aat/300232418","label":"administrative division","sourceLabels":[{"label":"township","lang":"en"}]}],"geometry":{"type":"GeometryCollection","geometries":[{"type":"Point","coordinates":[-1.00992,51.95657],"citations":[{"label":"GeoNames, gazetteer record geonames:7292874"}]},{"type":"Point","coordinates":[-1.003187363181395,51.95033933500376],"citations":[{"label":"Unlock (EDINA) gazetteer, gazetteer record unlock:11175075"}]},{"type":"Point","coordinates":[-1.0047,51.9508],"citations":[{"label":"Key to English Place-Names (KEPN), gazetteer record 11269"}]}]},"when":{"timespans":[{"start":{"in":"0949"},"end":{"in":"1826"}}]},"links":[{"type":"closeMatch","identifier":"https://sws.geonames.org/7292874/"}],"relations":[{"relationType":"gvp:broaderPartitive","relationTo":"https://w3id.org/whg-epns/02/001153","label":"within Hillesden"}]}]}