{"@context":"https://raw.githubusercontent.com/LinkedPasts/linked-places-format/main/linkedplaces-context-v1.1.jsonld","type":"FeatureCollection","license":"Digitisation of English Placenames MADS data is licensed to Jisc by the English Place Names Society and released under a Creative Commons Attribution-NonCommercial 4.0 International License.","note":"LPF v1.3, lossy; derived from the PLATO record; plato_commit=ca0afadabec1e23a145c0b03df77e8f151f79832","features":[{"@id":"http://placenames.org.uk/id/placename/02/001376","type":"Feature","properties":{"title":"Swanbourne","ccodes":["GB"],"fclasses":["A","P"]},"names":[{"toponym":"Swanbourne","lang":"en","citations":[{"label":"English Place-Name Society survey, volume 2: Buckinghamshire"}]}],"types":[{"identifier":"http://vocab.getty.edu/aat/300232418","label":"administrative division","sourceLabels":[{"label":"parish","lang":"en"}]}],"geometry":{"type":"GeometryCollection","geometries":[{"type":"Point","coordinates":[-0.83625,51.93818],"citations":[{"label":"GeoNames, gazetteer record geonames:2636442"}]},{"type":"Point","coordinates":[-0.8288339435271287,51.93974175886178],"citations":[{"label":"Unlock (EDINA) gazetteer, gazetteer record unlock:11296132"}]},{"type":"Point","coordinates":[-0.830363,51.9402],"citations":[{"label":"Key to English Place-Names (KEPN), gazetteer record 11280"}]}]},"links":[{"type":"closeMatch","identifier":"https://sws.geonames.org/2636442/"}],"relations":[{"relationType":"gvp:broaderPartitive","relationTo":"http://placenames.org.uk/id/placename/02/001221","label":"within Mursley Hundred"}]}]}