{"@context":"https://raw.githubusercontent.com/LinkedPasts/linked-places-format/main/linkedplaces-context-v1.1.jsonld","type":"FeatureCollection","license":"Digitisation of English Placenames MADS data is licensed to Jisc by the English Place Names Society and released under a Creative Commons Attribution-NonCommercial 4.0 International License.","note":"LPF v1.3, lossy; derived from the PLATO record; plato_commit=ca0afadabec1e23a145c0b03df77e8f151f79832","features":[{"@id":"https://w3id.org/whg-epns/02/001489","type":"Feature","properties":{"title":"Grove","ccodes":["GB"],"fclasses":["A","P"]},"names":[{"toponym":"Grove","lang":"en","citations":[{"label":"English Place-Name Society survey, volume 2: Buckinghamshire"}]},{"toponym":"Langrave","citations":[{"label":"1086 DB","year":1086}],"when":{"timespans":[{"start":{"in":"1086"},"end":{"in":"1086"}}]}},{"toponym":"Grava","citations":[{"label":"1222 WellsR","year":1222},{"label":"1244 Gross","year":1244}],"when":{"timespans":[{"start":{"in":"1222"},"end":{"in":"1222"}},{"start":{"in":"1244"},"end":{"in":"1244"}}]}},{"toponym":"La Grave","citations":[{"label":"1227 FF","year":1227},{"label":"1247 Ass","year":1247},{"label":"1284 FA","year":1284},{"label":"1311 Cl","year":1311}],"when":{"timespans":[{"start":{"in":"1227"},"end":{"in":"1227"}},{"start":{"in":"1247"},"end":{"in":"1247"}},{"start":{"in":"1284"},"end":{"in":"1284"}},{"start":{"in":"1311"},"end":{"in":"1311"}}]}},{"toponym":"La Grave near Leycton","citations":[{"label":"Hy iii Ipm","year":1216}],"when":{"timespans":[{"start":{"earliest":"1216","latest":"1272"},"end":{"earliest":"1216","latest":"1272"}}]}},{"toponym":"La Grove by Mentemore","citations":[{"label":"1346 Misc","year":1346}],"when":{"timespans":[{"start":{"in":"1346"},"end":{"in":"1346"}}]}},{"toponym":"Grove Neyrnuyt","citations":[{"label":"1347 Ipm","year":1347}],"when":{"timespans":[{"start":{"in":"1347"},"end":{"in":"1347"}}]}},{"toponym":"Grave","citations":[{"label":"1366 Pat","year":1366}],"when":{"timespans":[{"start":{"in":"1366"},"end":{"in":"1366"}}]}},{"toponym":"Groove","citations":[{"label":"Eliz ChancP","year":1558}],"when":{"timespans":[{"start":{"earliest":"1558","latest":"1603"},"end":{"earliest":"1558","latest":"1603"}}]}}],"types":[{"identifier":"http://vocab.getty.edu/aat/300232418","label":"administrative division","sourceLabels":[{"label":"township","lang":"en"}]}],"geometry":{"type":"GeometryCollection","geometries":[{"type":"Point","coordinates":[-0.6701714198165768,51.89309406659176],"citations":[{"label":"Unlock (EDINA) gazetteer, gazetteer record unlock:11161693"}]},{"type":"Point","coordinates":[-0.671717,51.8936],"citations":[{"label":"Key to English Place-Names (KEPN), gazetteer record 11287"}]}]},"when":{"timespans":[{"start":{"in":"1086"},"end":{"in":"1603"}}]},"relations":[{"relationType":"gvp:broaderPartitive","relationTo":"https://w3id.org/whg-epns/02/001488","label":"within Grove"}]}]}