{"@context":"https://raw.githubusercontent.com/LinkedPasts/linked-places-format/main/linkedplaces-context-v1.1.jsonld","type":"FeatureCollection","license":"Digitisation of English Placenames MADS data is licensed to Jisc by the English Place Names Society and released under a Creative Commons Attribution-NonCommercial 4.0 International License.","note":"LPF v1.3, lossy; derived from the PLATO record; plato_commit=ca0afadabec1e23a145c0b03df77e8f151f79832","features":[{"@id":"http://placenames.org.uk/id/placename/02/001539","type":"Feature","properties":{"title":"Mentmore","ccodes":["GB"],"fclasses":["A","P"]},"names":[{"toponym":"Mentmore","lang":"en","citations":[{"label":"English Place-Name Society survey, volume 2: Buckinghamshire"}]},{"toponym":"Mentemore","citations":[{"label":"1086 DB","year":1086}],"when":{"timespans":[{"start":{"in":"1086"},"end":{"in":"1086"}}]}},{"toponym":"Mantemore","citations":[{"label":"1247 Ass","year":1247},{"label":"1276 RH","year":1276}],"when":{"timespans":[{"start":{"in":"1247"},"end":{"in":"1247"}},{"start":{"in":"1276"},"end":{"in":"1276"}}]}},{"toponym":"Mintemore","citations":[{"label":"1334 Cl","year":1334}],"when":{"timespans":[{"start":{"in":"1334"},"end":{"in":"1334"}}]}},{"toponym":"Mentymore","citations":[{"label":"1396 IpmR","year":1396}],"when":{"timespans":[{"start":{"in":"1396"},"end":{"in":"1396"}}]}}],"types":[{"identifier":"http://vocab.getty.edu/aat/300232418","label":"administrative division","sourceLabels":[{"label":"township","lang":"en"}]}],"geometry":{"type":"GeometryCollection","geometries":[{"type":"Point","coordinates":[-0.68485,51.86897],"citations":[{"label":"GeoNames, gazetteer record geonames:2642740"}]},{"type":"Point","coordinates":[-0.6854877906320972,51.86628870348704],"citations":[{"label":"Unlock (EDINA) gazetteer, gazetteer record unlock:11217147"}]},{"type":"Point","coordinates":[-0.687031,51.8667],"citations":[{"label":"Key to English Place-Names (KEPN), gazetteer record 11290"}]}]},"when":{"timespans":[{"start":{"in":"1086"},"end":{"in":"1396"}}]},"links":[{"type":"closeMatch","identifier":"https://sws.geonames.org/2642740/"}],"relations":[{"relationType":"gvp:broaderPartitive","relationTo":"http://placenames.org.uk/id/placename/02/001538","label":"within Mentmore"}]}]}