{"@context":"https://raw.githubusercontent.com/LinkedPasts/linked-places-format/main/linkedplaces-context-v1.1.jsonld","type":"FeatureCollection","license":"Digitisation of English Placenames MADS data is licensed to Jisc by the English Place Names Society and released under a Creative Commons Attribution-NonCommercial 4.0 International License.","note":"LPF v1.3, lossy; derived from the PLATO record; plato_commit=ca0afadabec1e23a145c0b03df77e8f151f79832","features":[{"@id":"https://w3id.org/whg-epns/02/001635","type":"Feature","properties":{"title":"Wing","ccodes":["GB"],"fclasses":["A","P"]},"names":[{"toponym":"Wing","lang":"en","citations":[{"label":"English Place-Name Society survey, volume 2: Buckinghamshire"}]},{"toponym":"æt Weowungum","citations":[{"label":"1012 Thorpe","year":1012}],"when":{"timespans":[{"start":{"in":"1012"},"end":{"in":"1012"}}]}},{"toponym":"Witehunge","citations":[{"label":"1086 DB","year":1086}],"when":{"timespans":[{"start":{"in":"1086"},"end":{"in":"1086"}}]}},{"toponym":"Wienge","citations":[{"label":"1181 NLC","year":1181}],"when":{"timespans":[{"start":{"in":"1181"},"end":{"in":"1181"}}]}},{"toponym":"Wengia","citations":[{"label":"1200 Fines","year":1200}],"when":{"timespans":[{"start":{"in":"1200"},"end":{"in":"1200"}}]}},{"toponym":"Wungia","citations":[{"label":"1200 Cur","year":1200}],"when":{"timespans":[{"start":{"in":"1200"},"end":{"in":"1200"}}]}},{"toponym":"Wongia","citations":[{"label":"1209 Abbr","year":1209}],"when":{"timespans":[{"start":{"in":"1209"},"end":{"in":"1209"}}]}},{"toponym":"Wiungua","citations":[{"label":"Hy ii BM","year":1154}],"when":{"timespans":[{"start":{"earliest":"1154","latest":"1189"},"end":{"earliest":"1154","latest":"1189"}}]}},{"toponym":"Wenghe","citations":[{"label":"1208 BM","year":1208}],"when":{"timespans":[{"start":{"in":"1208"},"end":{"in":"1208"}}]}},{"toponym":"Weng(e)","citations":[{"label":"c. 1215 WellsR","year":1205},{"label":"c. 1218 WellsL","year":1208},{"label":"1227 Ass","year":1227},{"label":"1235 Fees","year":1235},{"label":"1245 Gross","year":1245},{"label":"1247 Ass","year":1247},{"label":"1255 Ch","year":1255},{"label":"1262 Ass","year":1262},{"label":"1275 Pat","year":1275},{"label":"1284 FA","year":1284},{"label":"13th AD","year":1200},{"label":"1316 FA","year":1316},{"label":"1316 Pat","year":1316},{"label":"1324 Cl","year":1324},{"label":"1362 Pat","year":1362},{"label":"1367 Ipm","year":1367},{"label":"1382 Pat","year":1382},{"label":"1400 IpmR","year":1400}],"when":{"timespans":[{"start":{"earliest":"1205","latest":"1225"},"end":{"earliest":"1205","latest":"1225"}},{"start":{"earliest":"1208","latest":"1228"},"end":{"earliest":"1208","latest":"1228"}},{"start":{"in":"1227"},"end":{"in":"1227"}},{"start":{"in":"1235"},"end":{"in":"1235"}},{"start":{"in":"1245"},"end":{"in":"1245"}},{"start":{"in":"1247"},"end":{"in":"1247"}},{"start":{"in":"1255"},"end":{"in":"1255"}},{"start":{"in":"1262"},"end":{"in":"1262"}},{"start":{"in":"1275"},"end":{"in":"1275"}},{"start":{"in":"1284"},"end":{"in":"1284"}},{"start":{"earliest":"1200","latest":"1300"},"end":{"earliest":"1200","latest":"1300"}},{"start":{"in":"1316"},"end":{"in":"1316"}},{"start":{"in":"1316"},"end":{"in":"1316"}},{"start":{"in":"1324"},"end":{"in":"1324"}},{"start":{"in":"1362"},"end":{"in":"1362"}},{"start":{"in":"1367"},"end":{"in":"1367"}},{"start":{"in":"1382"},"end":{"in":"1382"}},{"start":{"in":"1400"},"end":{"in":"1400"}}]}},{"toponym":"Weynge","citations":[{"label":"1302 FA","year":1302}],"when":{"timespans":[{"start":{"in":"1302"},"end":{"in":"1302"}}]}},{"toponym":"Guionga","citations":[{"label":"1317 Pat","year":1317}],"when":{"timespans":[{"start":{"in":"1317"},"end":{"in":"1317"}}]}},{"toponym":"Wyeng(e)","citations":[{"label":"1325 Cl","year":1325},{"label":"1397 Pat","year":1397}],"when":{"timespans":[{"start":{"in":"1325"},"end":{"in":"1325"}},{"start":{"in":"1380"},"end":{"in":"1380"}},{"start":{"in":"1397"},"end":{"in":"1397"}}]}},{"toponym":"Wyng(e)","citations":[{"label":"1349 Pat","year":1349},{"label":"1512 LP","year":1512}],"when":{"timespans":[{"start":{"in":"1349"},"end":{"in":"1349"}},{"start":{"in":"1512"},"end":{"in":"1512"}}]}}],"types":[{"identifier":"http://vocab.getty.edu/aat/300232418","label":"administrative division","sourceLabels":[{"label":"township","lang":"en"}]}],"geometry":{"type":"GeometryCollection","geometries":[{"type":"Point","coordinates":[-0.71956,51.89524],"citations":[{"label":"GeoNames, gazetteer record geonames:2633830"}]},{"type":"Point","coordinates":[-0.7137602897192373,51.89357860827351],"citations":[{"label":"Unlock (EDINA) gazetteer, gazetteer record unlock:11324025"}]},{"type":"Point","coordinates":[-0.715301,51.894],"citations":[{"label":"Key to English Place-Names (KEPN), gazetteer record 11294"}]}]},"when":{"timespans":[{"start":{"in":"1012"},"end":{"in":"1512"}}]},"links":[{"type":"closeMatch","identifier":"https://sws.geonames.org/2633830/"}],"relations":[{"relationType":"gvp:broaderPartitive","relationTo":"https://w3id.org/whg-epns/02/001634","label":"within Wing"}]}]}