{"@context":"https://raw.githubusercontent.com/LinkedPasts/linked-places-format/main/linkedplaces-context-v1.1.jsonld","type":"FeatureCollection","license":"Digitisation of English Placenames MADS data is licensed to Jisc by the English Place Names Society and released under a Creative Commons Attribution-NonCommercial 4.0 International License.","note":"LPF v1.3, lossy; derived from the PLATO record; plato_commit=fa0d247ccc0263f8f19c8d7cdcd163df96935d1e","features":[{"@id":"https://w3id.org/whg-epns/02/001670","type":"Feature","properties":{"title":"Wingrave","ccodes":["GB"],"fclasses":["A","P"]},"names":[{"toponym":"Wingrave","lang":"en","citations":[{"label":"English Place-Name Society survey, volume 2: Buckinghamshire"}]},{"toponym":"Withungrave","citations":[{"label":"1086 DB","year":1086}],"when":{"timespans":[{"start":{"in":"1086"},"end":{"in":"1086"}}]}},{"toponym":"Witungrave","citations":[{"label":"1086 DB","year":1086}],"when":{"timespans":[{"start":{"in":"1086"},"end":{"in":"1086"}}]}},{"toponym":"Wiengraua","citations":[{"label":"1175 P","year":1175},{"label":"1198 Fines","year":1198},{"label":"1198 Cur","year":1198}],"when":{"timespans":[{"start":{"in":"1175"},"end":{"in":"1175"}},{"start":{"in":"1198"},"end":{"in":"1198"}},{"start":{"in":"1198"},"end":{"in":"1198"}}]}},{"toponym":"Wengrava","citations":[{"label":"R i P","year":1189},{"label":"1198 Fines","year":1198},{"label":"1201 Cur","year":1201},{"label":"1220 Fees","year":1220},{"label":"1223 WellsR","year":1223},{"label":"1241 Ass","year":1241},{"label":"1283 Ipm","year":1283},{"label":"1284 FA","year":1284},{"label":"1292 Ch","year":1292},{"label":"1328 Misc","year":1328},{"label":"1328 Cl","year":1328},{"label":"1346 AD","year":1346},{"label":"1364 Cl","year":1364},{"label":"1372 Pat","year":1372},{"label":"1375 Cl","year":1375},{"label":"1382 IpmR","year":1382},{"label":"1385 Pat","year":1385},{"label":"1399 AD","year":1399}],"when":{"timespans":[{"start":{"earliest":"1189","latest":"1199"},"end":{"earliest":"1189","latest":"1199"}},{"start":{"in":"1198"},"end":{"in":"1198"}},{"start":{"in":"1201"},"end":{"in":"1201"}},{"start":{"in":"1220"},"end":{"in":"1220"}},{"start":{"in":"1223"},"end":{"in":"1223"}},{"start":{"in":"1241"},"end":{"in":"1241"}},{"start":{"in":"1283"},"end":{"in":"1283"}},{"start":{"in":"1284"},"end":{"in":"1284"}},{"start":{"in":"1292"},"end":{"in":"1292"}},{"start":{"in":"1328"},"end":{"in":"1328"}},{"start":{"in":"1328"},"end":{"in":"1328"}},{"start":{"in":"1346"},"end":{"in":"1346"}},{"start":{"in":"1364"},"end":{"in":"1364"}},{"start":{"in":"1372"},"end":{"in":"1372"}},{"start":{"in":"1375"},"end":{"in":"1375"}},{"start":{"in":"1382"},"end":{"in":"1382"}},{"start":{"in":"1385"},"end":{"in":"1385"}},{"start":{"in":"1399"},"end":{"in":"1399"}}]}},{"toponym":"Wingrave","citations":[{"label":"1198 Cur","year":1198}],"when":{"timespans":[{"start":{"in":"1198"},"end":{"in":"1198"}}]}},{"toponym":"Wenggraue","citations":[{"label":"c. 1220 Bodl Berks","year":1210}],"when":{"timespans":[{"start":{"earliest":"1210","latest":"1230"},"end":{"earliest":"1210","latest":"1230"}}]}},{"toponym":"Wengraue","citations":[{"label":"1227 Ass","year":1227},{"label":"1227 FF","year":1227}],"when":{"timespans":[{"start":{"in":"1227"},"end":{"in":"1227"}},{"start":{"in":"1227"},"end":{"in":"1227"}}]}},{"toponym":"Weyngrave","citations":[{"label":"1241 Ass","year":1241},{"label":"1302 FA","year":1302}],"when":{"timespans":[{"start":{"in":"1241"},"end":{"in":"1241"}},{"start":{"in":"1302"},"end":{"in":"1302"}}]}},{"toponym":"Wingraue","citations":[{"label":"1262 Ass","year":1262}],"when":{"timespans":[{"start":{"in":"1262"},"end":{"in":"1262"}}]}},{"toponym":"Wyngrave","citations":[{"label":"1291 Ch","year":1291},{"label":"1301 Ipm","year":1301},{"label":"1355 Cl","year":1355},{"label":"1418 IpmR","year":1418},{"label":"1500 BM","year":1500},{"label":"1509 LP","year":1509}],"when":{"timespans":[{"start":{"in":"1291"},"end":{"in":"1291"}},{"start":{"in":"1301"},"end":{"in":"1301"}},{"start":{"in":"1355"},"end":{"in":"1355"}},{"start":{"in":"1379"},"end":{"in":"1379"}},{"start":{"in":"1418"},"end":{"in":"1418"}},{"start":{"in":"1500"},"end":{"in":"1500"}},{"start":{"in":"1509"},"end":{"in":"1509"}}]}},{"toponym":"Wayngrave","citations":[{"label":"1346 Cl","year":1346}],"when":{"timespans":[{"start":{"in":"1346"},"end":{"in":"1346"}}]}},{"toponym":"Wingrove","citations":[{"label":"1365 IpmR","year":1365}],"when":{"timespans":[{"start":{"in":"1365"},"end":{"in":"1365"}}]}}],"types":[{"identifier":"http://vocab.getty.edu/aat/300232418","label":"administrative division","sourceLabels":[{"label":"township","lang":"en"}]}],"geometry":{"type":"GeometryCollection","geometries":[{"type":"Point","coordinates":[-0.74244,51.86494],"citations":[{"label":"GeoNames, gazetteer record geonames:2633820"}]},{"type":"Point","coordinates":[-0.7438227963978425,51.85793359680019],"citations":[{"label":"Unlock (EDINA) gazetteer, gazetteer record unlock:11324067"}]},{"type":"Point","coordinates":[-0.745359,51.8584],"citations":[{"label":"Key to English Place-Names (KEPN), gazetteer record 11295"}]}]},"when":{"timespans":[{"start":{"in":"1086"},"end":{"in":"1509"}}]},"links":[{"type":"closeMatch","identifier":"https://sws.geonames.org/2633820/"}],"relations":[{"relationType":"gvp:broaderPartitive","relationTo":"https://w3id.org/whg-epns/02/001669","label":"within Wingrave"}]}]}