{"@context":"https://raw.githubusercontent.com/LinkedPasts/linked-places-format/main/linkedplaces-context-v1.1.jsonld","type":"FeatureCollection","license":"Digitisation of English Placenames MADS data is licensed to Jisc by the English Place Names Society and released under a Creative Commons Attribution-NonCommercial 4.0 International License.","note":"LPF v1.3, lossy; derived from the PLATO record; plato_commit=ca0afadabec1e23a145c0b03df77e8f151f79832","features":[{"@id":"https://w3id.org/whg-epns/02/001854","type":"Feature","properties":{"title":"Ivinghoe","ccodes":["GB"],"fclasses":["A","P"]},"names":[{"toponym":"Ivinghoe","lang":"en","citations":[{"label":"English Place-Name Society survey, volume 2: Buckinghamshire"}]},{"toponym":"Evinghehou","citations":[{"label":"1086 DB","year":1086}],"when":{"timespans":[{"start":{"in":"1086"},"end":{"in":"1086"}}]}},{"toponym":"Hiuingho","citations":[{"label":"1195 Cur(P)","year":1195}],"when":{"timespans":[{"start":{"in":"1195"},"end":{"in":"1195"}}]}},{"toponym":"Iuingeho","citations":[{"label":"1195 Cur(P)","year":1195},{"label":"1199 Fines","year":1199}],"when":{"timespans":[{"start":{"in":"1195"},"end":{"in":"1195"}},{"start":{"in":"1199"},"end":{"in":"1199"}}]}},{"toponym":"Ivingho","citations":[{"label":"1227 Ch","year":1227}],"when":{"timespans":[{"start":{"in":"1227"},"end":{"in":"1227"}}]}},{"toponym":"Ivengho","citations":[{"label":"1241 Ass","year":1241},{"label":"1255 For","year":1255}],"when":{"timespans":[{"start":{"in":"1241"},"end":{"in":"1241"}},{"start":{"in":"1255"},"end":{"in":"1255"}}]}},{"toponym":"Ivingo","citations":[{"label":"1303 Cl","year":1303}],"when":{"timespans":[{"start":{"in":"1303"},"end":{"in":"1303"}}]}},{"toponym":"Ivanhoe","citations":[{"label":"1665 Herts Sess","year":1665}],"when":{"timespans":[{"start":{"in":"1665"},"end":{"in":"1665"}}]}}],"types":[{"identifier":"http://vocab.getty.edu/aat/300232418","label":"administrative division","sourceLabels":[{"label":"township","lang":"en"}]}],"geometry":{"type":"GeometryCollection","geometries":[{"type":"Point","coordinates":[-0.62983,51.83602],"citations":[{"label":"GeoNames, gazetteer record geonames:2645989"}]},{"type":"Point","coordinates":[-0.6282257654910436,51.83865718889084],"citations":[{"label":"Unlock (EDINA) gazetteer, gazetteer record unlock:11183608"}]},{"type":"Point","coordinates":[-0.629774,51.8391],"citations":[{"label":"Key to English Place-Names (KEPN), gazetteer record 11301"}]}]},"when":{"timespans":[{"start":{"in":"1086"},"end":{"in":"1665"}}]},"links":[{"type":"closeMatch","identifier":"https://sws.geonames.org/2645989/"}],"relations":[{"relationType":"gvp:broaderPartitive","relationTo":"https://w3id.org/whg-epns/02/001853","label":"within Ivinghoe"}]}]}