{"@context":"https://raw.githubusercontent.com/LinkedPasts/linked-places-format/main/linkedplaces-context-v1.1.jsonld","type":"FeatureCollection","license":"Digitisation of English Placenames MADS data is licensed to Jisc by the English Place Names Society and released under a Creative Commons Attribution-NonCommercial 4.0 International License.","note":"LPF v1.3, lossy; derived from the PLATO record; plato_commit=ca0afadabec1e23a145c0b03df77e8f151f79832","features":[{"@id":"http://placenames.org.uk/id/placename/02/002447","type":"Feature","properties":{"title":"Shabbington","ccodes":["GB"],"fclasses":["A","P"]},"names":[{"toponym":"Shabbington","lang":"en","citations":[{"label":"English Place-Name Society survey, volume 2: Buckinghamshire"}]}],"types":[{"identifier":"http://vocab.getty.edu/aat/300232418","label":"administrative division","sourceLabels":[{"label":"parish","lang":"en"}]}],"geometry":{"type":"GeometryCollection","geometries":[{"type":"Point","coordinates":[-1.03623,51.7568],"citations":[{"label":"GeoNames, gazetteer record geonames:2638162"}]},{"type":"Point","coordinates":[-1.03632889213609,51.76177772941688],"citations":[{"label":"Unlock (EDINA) gazetteer, gazetteer record unlock:11281286"}]},{"type":"Point","coordinates":[-1.03783,51.7622],"citations":[{"label":"Key to English Place-Names (KEPN), gazetteer record 11324"}]}]},"links":[{"type":"closeMatch","identifier":"https://sws.geonames.org/2638162/"}],"relations":[{"relationType":"gvp:broaderPartitive","relationTo":"http://placenames.org.uk/id/placename/02/002181","label":"within Ixhill Hundred"}]}]}