{"@context":"https://raw.githubusercontent.com/LinkedPasts/linked-places-format/main/linkedplaces-context-v1.1.jsonld","type":"FeatureCollection","license":"Digitisation of English Placenames MADS data is licensed to Jisc by the English Place Names Society and released under a Creative Commons Attribution-NonCommercial 4.0 International License.","note":"LPF v1.3, lossy; derived from the PLATO record; plato_commit=ca0afadabec1e23a145c0b03df77e8f151f79832","features":[{"@id":"http://placenames.org.uk/id/placename/02/002654","type":"Feature","properties":{"title":"Waddesdon","ccodes":["GB"],"fclasses":["A","P"]},"names":[{"toponym":"Waddesdon","lang":"en","citations":[{"label":"English Place-Name Society survey, volume 2: Buckinghamshire"}]}],"types":[{"identifier":"http://vocab.getty.edu/aat/300232418","label":"administrative division","sourceLabels":[{"label":"parish","lang":"en"}]}],"geometry":{"type":"GeometryCollection","geometries":[{"type":"Point","coordinates":[-0.92105,51.84675],"citations":[{"label":"GeoNames, gazetteer record geonames:2634925"}]},{"type":"Point","coordinates":[-0.9184850316167154,51.84168433009503],"citations":[{"label":"Unlock (EDINA) gazetteer, gazetteer record unlock:11311975"}]},{"type":"Point","coordinates":[-0.92,51.8421],"citations":[{"label":"Key to English Place-Names (KEPN), gazetteer record 11335"}]}]},"links":[{"type":"closeMatch","identifier":"https://sws.geonames.org/2634925/"}],"relations":[{"relationType":"gvp:broaderPartitive","relationTo":"http://placenames.org.uk/id/placename/02/002519","label":"within Waddesdon Hundred"}]}]}