{"@context":"https://raw.githubusercontent.com/LinkedPasts/linked-places-format/main/linkedplaces-context-v1.1.jsonld","type":"FeatureCollection","license":"Digitisation of English Placenames MADS data is licensed to Jisc by the English Place Names Society and released under a Creative Commons Attribution-NonCommercial 4.0 International License.","note":"LPF v1.3, lossy; derived from the PLATO record; plato_commit=ca0afadabec1e23a145c0b03df77e8f151f79832","features":[{"@id":"https://w3id.org/whg-epns/02/002881","type":"Feature","properties":{"title":"Ellesborough","ccodes":["GB"],"fclasses":["A","P"]},"names":[{"toponym":"Ellesborough","lang":"en","citations":[{"label":"English Place-Name Society survey, volume 2: Buckinghamshire"}]},{"toponym":"Esenberge","citations":[{"label":"1086 DB","year":1086}],"when":{"timespans":[{"start":{"in":"1086"},"end":{"in":"1086"}}]}},{"toponym":"Esenbergh","citations":[{"label":"1241 Ass","year":1241}],"when":{"timespans":[{"start":{"in":"1241"},"end":{"in":"1241"}}]}},{"toponym":"Esberga","citations":[{"label":"1182 P","year":1182}],"when":{"timespans":[{"start":{"in":"1182"},"end":{"in":"1182"}}]}},{"toponym":"Eselbergh","citations":[{"label":"1195 Cur(P)","year":1195},{"label":"1196 FF(P)","year":1196},{"label":"R i Cur","year":1189},{"label":"1227 Ass","year":1227},{"label":"1251 AD","year":1251},{"label":"1275 Ipm","year":1275},{"label":"1315 Pat","year":1315},{"label":"1382 Cl","year":1382}],"when":{"timespans":[{"start":{"in":"1195"},"end":{"in":"1195"}},{"start":{"in":"1196"},"end":{"in":"1196"}},{"start":{"earliest":"1189","latest":"1199"},"end":{"earliest":"1189","latest":"1199"}},{"start":{"in":"1227"},"end":{"in":"1227"}},{"start":{"in":"1241"},"end":{"in":"1241"}},{"start":{"in":"1247"},"end":{"in":"1247"}},{"start":{"in":"1251"},"end":{"in":"1251"}},{"start":{"in":"1275"},"end":{"in":"1275"}},{"start":{"in":"1315"},"end":{"in":"1315"}},{"start":{"in":"1382"},"end":{"in":"1382"}}]}},{"toponym":"Hisilberga","citations":[{"label":"1195 Cur(P)","year":1195}],"when":{"timespans":[{"start":{"in":"1195"},"end":{"in":"1195"}}]}},{"toponym":"Heselberge","citations":[{"label":"1199 Cur","year":1199},{"label":"1227 FF","year":1227},{"label":"1371 Cl","year":1371}],"when":{"timespans":[{"start":{"in":"1199"},"end":{"in":"1199"}},{"start":{"in":"1227"},"end":{"in":"1227"}},{"start":{"in":"1371"},"end":{"in":"1371"}}]}},{"toponym":"Iselberg","citations":[{"label":"1199 Cur","year":1199}],"when":{"timespans":[{"start":{"in":"1199"},"end":{"in":"1199"}}]}},{"toponym":"Hesseberge","citations":[{"label":"1200 Cur","year":1200}],"when":{"timespans":[{"start":{"in":"1200"},"end":{"in":"1200"}}]}},{"toponym":"Yselberwe","citations":[{"label":"1227 FF","year":1227}],"when":{"timespans":[{"start":{"in":"1227"},"end":{"in":"1227"}}]}},{"toponym":"Eseburg'","citations":[{"label":"1227 Ass","year":1227}],"when":{"timespans":[{"start":{"in":"1227"},"end":{"in":"1227"}}]}},{"toponym":"Heselburuwe","citations":[{"label":"1235 Fees","year":1235}],"when":{"timespans":[{"start":{"in":"1235"},"end":{"in":"1235"}}]}},{"toponym":"Eselburgh","citations":[{"label":"1237-40 Fees","year":1237},{"label":"1241 Ass","year":1241},{"label":"1351 Cl","year":1351},{"label":"1470 IpmR","year":1470}],"when":{"timespans":[{"start":{"earliest":"1237","latest":"1240"},"end":{"earliest":"1237","latest":"1240"}},{"start":{"in":"1241"},"end":{"in":"1241"}},{"start":{"in":"1351"},"end":{"in":"1351"}},{"start":{"in":"1373"},"end":{"in":"1373"}},{"start":{"in":"1470"},"end":{"in":"1470"}}]}},{"toponym":"Heselburg","citations":[{"label":"1247 Ass","year":1247}],"when":{"timespans":[{"start":{"in":"1247"},"end":{"in":"1247"}}]}},{"toponym":"Esselburg","citations":[{"label":"1251 AD","year":1251}],"when":{"timespans":[{"start":{"in":"1251"},"end":{"in":"1251"}}]}},{"toponym":"Eselburwe","citations":[{"label":"1274 Ipm","year":1274},{"label":"1308 Cl","year":1308},{"label":"13th AD","year":1200}],"when":{"timespans":[{"start":{"in":"1274"},"end":{"in":"1274"}},{"start":{"in":"1308"},"end":{"in":"1308"}},{"start":{"earliest":"1200","latest":"1300"},"end":{"earliest":"1200","latest":"1300"}}]}},{"toponym":"Eselborne","citations":[{"label":"1283 Misc","year":1283}],"when":{"timespans":[{"start":{"in":"1283"},"end":{"in":"1283"}}]}},{"toponym":"Eseleberewe","citations":[{"label":"1323 Cl","year":1323}],"when":{"timespans":[{"start":{"in":"1323"},"end":{"in":"1323"}}]}},{"toponym":"Esulb(o)urgh","citations":[{"label":"1350 Ipm","year":1350}],"when":{"timespans":[{"start":{"in":"1350"},"end":{"in":"1350"}}]}},{"toponym":"Eselberugh","citations":[{"label":"1430 AD","year":1430}],"when":{"timespans":[{"start":{"in":"1430"},"end":{"in":"1430"}}]}},{"toponym":"Elisborough","citations":[{"label":"1491 AD","year":1491}],"when":{"timespans":[{"start":{"in":"1491"},"end":{"in":"1491"}}]}},{"toponym":"Ellysburgh, Ellesburgh","citations":[{"label":"1509 LP","year":1509}],"when":{"timespans":[{"start":{"in":"1509"},"end":{"in":"1509"}}]}},{"toponym":"Ellesborowghe","citations":[{"label":"1580 AD","year":1580}],"when":{"timespans":[{"start":{"in":"1580"},"end":{"in":"1580"}}]}}],"types":[{"identifier":"http://vocab.getty.edu/aat/300232418","label":"administrative division","sourceLabels":[{"label":"township","lang":"en"}]}],"geometry":{"type":"GeometryCollection","geometries":[{"type":"Point","coordinates":[-0.79011,51.7527],"citations":[{"label":"GeoNames, gazetteer record geonames:2650098"}]},{"type":"Point","coordinates":[-0.7902703621013861,51.75051027198343],"citations":[{"label":"Unlock (EDINA) gazetteer, gazetteer record unlock:11139351"}]},{"type":"Point","coordinates":[-0.791797,51.751],"citations":[{"label":"Key to English Place-Names (KEPN), gazetteer record 11342"}]}]},"when":{"timespans":[{"start":{"in":"1086"},"end":{"in":"1580"}}]},"links":[{"type":"closeMatch","identifier":"https://sws.geonames.org/2650098/"}],"relations":[{"relationType":"gvp:broaderPartitive","relationTo":"https://w3id.org/whg-epns/02/002880","label":"within Ellesborough"}]}]}