{"@context":"https://raw.githubusercontent.com/LinkedPasts/linked-places-format/main/linkedplaces-context-v1.1.jsonld","type":"FeatureCollection","license":"Digitisation of English Placenames MADS data is licensed to Jisc by the English Place Names Society and released under a Creative Commons Attribution-NonCommercial 4.0 International License.","note":"LPF v1.3, lossy; derived from the PLATO record; plato_commit=fa0d247ccc0263f8f19c8d7cdcd163df96935d1e","features":[{"@id":"https://w3id.org/whg-epns/02/003065","type":"Feature","properties":{"title":"Stone Hundred","ccodes":["GB"],"fclasses":["A"]},"names":[{"toponym":"Stone Hundred","lang":"en","citations":[{"label":"English Place-Name Society survey, volume 2: Buckinghamshire"}]},{"toponym":"Stanes","citations":[{"label":"1086 DB","year":1086},{"label":"1161 Reg Roff","year":1161},{"label":"1182 P","year":1182},{"label":"1195 Cur(P)","year":1195},{"label":"1232 Fees","year":1232},{"label":"1247 Ass","year":1247},{"label":"1284 FA","year":1284}],"when":{"timespans":[{"start":{"in":"1086"},"end":{"in":"1086"}},{"start":{"in":"1161"},"end":{"in":"1161"}},{"start":{"in":"1182"},"end":{"in":"1182"}},{"start":{"in":"1195"},"end":{"in":"1195"}},{"start":{"in":"1232"},"end":{"in":"1232"}},{"start":{"in":"1247"},"end":{"in":"1247"}},{"start":{"in":"1262"},"end":{"in":"1262"}},{"start":{"in":"1284"},"end":{"in":"1284"}}]}},{"toponym":"Stone","citations":[{"label":"1302 FA","year":1302}],"when":{"timespans":[{"start":{"in":"1302"},"end":{"in":"1302"}}]}}],"types":[{"identifier":"http://vocab.getty.edu/aat/300232418","label":"administrative division","sourceLabels":[{"label":"hundred / wapentake","lang":"en"}]}],"geometry":null,"when":{"timespans":[{"start":{"in":"1086"},"end":{"in":"1302"}}]},"relations":[{"relationType":"gvp:broaderPartitive","relationTo":"https://w3id.org/whg-epns/02/000001","label":"within Buckinghamshire"}]}]}