{"@context":"https://raw.githubusercontent.com/LinkedPasts/linked-places-format/main/linkedplaces-context-v1.1.jsonld","type":"FeatureCollection","license":"Digitisation of English Placenames MADS data is licensed to Jisc by the English Place Names Society and released under a Creative Commons Attribution-NonCommercial 4.0 International License.","note":"LPF v1.3, lossy; derived from the PLATO record; plato_commit=fa0d247ccc0263f8f19c8d7cdcd163df96935d1e","features":[{"@id":"https://w3id.org/whg-epns/02/003036","type":"Feature","properties":{"title":"Stoke Mandeville","ccodes":["GB"],"fclasses":["A","P"]},"names":[{"toponym":"Stoke Mandeville","lang":"en","citations":[{"label":"English Place-Name Society survey, volume 2: Buckinghamshire"}]},{"toponym":"Stoches","citations":[{"label":"1086 DB","year":1086}],"when":{"timespans":[{"start":{"in":"1086"},"end":{"in":"1086"}}]}},{"toponym":"Stokes","citations":[{"label":"1200 Cur","year":1200},{"label":"1237-40 Fees","year":1237},{"label":"1247 Ass","year":1247}],"when":{"timespans":[{"start":{"in":"1200"},"end":{"in":"1200"}},{"start":{"earliest":"1237","latest":"1240"},"end":{"earliest":"1237","latest":"1240"}},{"start":{"in":"1247"},"end":{"in":"1247"}}]}},{"toponym":"Stoke Mndeville","citations":[{"label":"1284 FA","year":1284}],"when":{"timespans":[{"start":{"in":"1284"},"end":{"in":"1284"}}]}},{"toponym":"Stok by Aylesbury","citations":[{"label":"1302 Fine","year":1302}],"when":{"timespans":[{"start":{"in":"1302"},"end":{"in":"1302"}}]}},{"toponym":"Middelstoke","citations":[{"label":"1378 Bodl Berks","year":1378}],"when":{"timespans":[{"start":{"in":"1378"},"end":{"in":"1378"}}]}},{"toponym":"Stoke Mandil","citations":[{"label":"1676 Rec.","year":1676}],"when":{"timespans":[{"start":{"in":"1676"},"end":{"in":"1676"}}]}}],"types":[{"identifier":"http://vocab.getty.edu/aat/300232418","label":"administrative division","sourceLabels":[{"label":"township","lang":"en"}]}],"geometry":{"type":"GeometryCollection","geometries":[{"type":"Point","coordinates":[-0.79157,51.78606],"citations":[{"label":"GeoNames, gazetteer record geonames:2636845"}]},{"type":"Point","coordinates":[-0.7893085541629883,51.78647063060312],"citations":[{"label":"Unlock (EDINA) gazetteer, gazetteer record unlock:11292756"}]},{"type":"Point","coordinates":[-0.790836,51.7869],"citations":[{"label":"Key to English Place-Names (KEPN), gazetteer record 11347"}]}]},"when":{"timespans":[{"start":{"in":"1086"},"end":{"in":"1676"}}]},"links":[{"type":"closeMatch","identifier":"https://sws.geonames.org/2636845/"}],"relations":[{"relationType":"gvp:broaderPartitive","relationTo":"https://w3id.org/whg-epns/02/003035","label":"within Stoke Mandeville"}]}]}