{"@context":"https://raw.githubusercontent.com/LinkedPasts/linked-places-format/main/linkedplaces-context-v1.1.jsonld","type":"FeatureCollection","license":"Digitisation of English Placenames MADS data is licensed to Jisc by the English Place Names Society and released under a Creative Commons Attribution-NonCommercial 4.0 International License.","note":"LPF v1.3, lossy; derived from the PLATO record; plato_commit=ca0afadabec1e23a145c0b03df77e8f151f79832","features":[{"@id":"https://w3id.org/whg-epns/02/003069","type":"Feature","properties":{"title":"Cuddington","ccodes":["GB"],"fclasses":["A","P"]},"names":[{"toponym":"Cuddington","lang":"en","citations":[{"label":"English Place-Name Society survey, volume 2: Buckinghamshire"}]},{"toponym":"Cudintuna","citations":[{"label":"1176 BM","year":1176}],"when":{"timespans":[{"start":{"in":"1176"},"end":{"in":"1176"}}]}},{"toponym":"Cudinton","citations":[{"label":"1186 P","year":1186},{"label":"c. 1218 WellsL","year":1208},{"label":"1247 Ass","year":1247},{"label":"1297 Pat","year":1297}],"when":{"timespans":[{"start":{"in":"1186"},"end":{"in":"1186"}},{"start":{"earliest":"1208","latest":"1228"},"end":{"earliest":"1208","latest":"1228"}},{"start":{"in":"1247"},"end":{"in":"1247"}},{"start":{"in":"1297"},"end":{"in":"1297"}}]}},{"toponym":"Cudington","citations":[{"label":"c. 1218 WellsL","year":1208}],"when":{"timespans":[{"start":{"earliest":"1208","latest":"1228"},"end":{"earliest":"1208","latest":"1228"}}]}},{"toponym":"Codington","citations":[{"label":"1231 Reg Roff","year":1231},{"label":"1536 LS","year":1536}],"when":{"timespans":[{"start":{"in":"1231"},"end":{"in":"1231"}},{"start":{"in":"1536"},"end":{"in":"1536"}}]}},{"toponym":"Cudyngton","citations":[{"label":"1295 Ch","year":1295}],"when":{"timespans":[{"start":{"in":"1295"},"end":{"in":"1295"}}]}},{"toponym":"Codintone","citations":[{"label":"1302 FA","year":1302}],"when":{"timespans":[{"start":{"in":"1302"},"end":{"in":"1302"}}]}},{"toponym":"Codyngton","citations":[{"label":"1339 Pat","year":1339},{"label":"1396 IpmR","year":1396},{"label":"1485 Ipm","year":1485},{"label":"1535 VE","year":1535},{"label":"1539 LP","year":1539}],"when":{"timespans":[{"start":{"in":"1339"},"end":{"in":"1339"}},{"start":{"in":"1377"},"end":{"in":"1377"}},{"start":{"in":"1396"},"end":{"in":"1396"}},{"start":{"in":"1398"},"end":{"in":"1398"}},{"start":{"in":"1485"},"end":{"in":"1485"}},{"start":{"in":"1535"},"end":{"in":"1535"}},{"start":{"in":"1539"},"end":{"in":"1539"}}]}}],"types":[{"identifier":"http://vocab.getty.edu/aat/300232418","label":"administrative division","sourceLabels":[{"label":"township","lang":"en"}]}],"geometry":{"type":"GeometryCollection","geometries":[{"type":"Point","coordinates":[-0.93126,51.79354],"citations":[{"label":"GeoNames, gazetteer record geonames:2651781"}]},{"type":"Point","coordinates":[-0.9340606899599636,51.79686458712809],"citations":[{"label":"Unlock (EDINA) gazetteer, gazetteer record unlock:11124322"}]},{"type":"Point","coordinates":[-0.935572,51.7973],"citations":[{"label":"Key to English Place-Names (KEPN), gazetteer record 11349"}]}]},"when":{"timespans":[{"start":{"in":"1176"},"end":{"in":"1539"}}]},"links":[{"type":"closeMatch","identifier":"https://sws.geonames.org/2651781/"}],"relations":[{"relationType":"gvp:broaderPartitive","relationTo":"https://w3id.org/whg-epns/02/003068","label":"within Cuddington"}]}]}