{"@context":"https://raw.githubusercontent.com/LinkedPasts/linked-places-format/main/linkedplaces-context-v1.1.jsonld","type":"FeatureCollection","license":"Digitisation of English Placenames MADS data is licensed to Jisc by the English Place Names Society and released under a Creative Commons Attribution-NonCommercial 4.0 International License.","note":"LPF v1.3, lossy; derived from the PLATO record; plato_commit=fa0d247ccc0263f8f19c8d7cdcd163df96935d1e","features":[{"@id":"https://w3id.org/whg-epns/02/003389","type":"Feature","properties":{"title":"Fawley","ccodes":["GB"],"fclasses":["A","P"]},"names":[{"toponym":"Fawley","lang":"en","citations":[{"label":"English Place-Name Society survey, volume 2: Buckinghamshire"}]}],"types":[{"identifier":"http://vocab.getty.edu/aat/300232418","label":"administrative division","sourceLabels":[{"label":"parish","lang":"en"}]}],"geometry":{"type":"GeometryCollection","geometries":[{"type":"Point","coordinates":[-0.91041,51.57643],"citations":[{"label":"GeoNames, gazetteer record geonames:2649616"}]},{"type":"Point","coordinates":[-0.910470193341966,51.57183332541239],"citations":[{"label":"Unlock (EDINA) gazetteer, gazetteer record unlock:11142521"}]},{"type":"Point","coordinates":[-0.911976,51.5723],"citations":[{"label":"Key to English Place-Names (KEPN), gazetteer record 11362"}]}]},"links":[{"type":"closeMatch","identifier":"https://sws.geonames.org/2649616/"}],"relations":[{"relationType":"gvp:broaderPartitive","relationTo":"https://w3id.org/whg-epns/02/003369","label":"within Desborough Hundred"}]}]}