{"@context":"https://raw.githubusercontent.com/LinkedPasts/linked-places-format/main/linkedplaces-context-v1.1.jsonld","type":"FeatureCollection","license":"Digitisation of English Placenames MADS data is licensed to Jisc by the English Place Names Society and released under a Creative Commons Attribution-NonCommercial 4.0 International License.","note":"LPF v1.3, lossy; derived from the PLATO record; plato_commit=ca0afadabec1e23a145c0b03df77e8f151f79832","features":[{"@id":"http://placenames.org.uk/id/placename/02/003390","type":"Feature","properties":{"title":"Fawley","ccodes":["GB"],"fclasses":["A","P"]},"names":[{"toponym":"Fawley","lang":"en","citations":[{"label":"English Place-Name Society survey, volume 2: Buckinghamshire"}]},{"toponym":"Falelie","citations":[{"label":"1086 DB","year":1086}],"when":{"timespans":[{"start":{"in":"1086"},"end":{"in":"1086"}}]}},{"toponym":"Falle","citations":[{"label":"1199 Fines","year":1199}],"when":{"timespans":[{"start":{"in":"1199"},"end":{"in":"1199"}}]}},{"toponym":"Faulega","citations":[{"label":"1219 Bract","year":1219}],"when":{"timespans":[{"start":{"in":"1219"},"end":{"in":"1219"}}]}},{"toponym":"Fauley","citations":[{"label":"c. 1225 Mert","year":1215}],"when":{"timespans":[{"start":{"earliest":"1215","latest":"1235"},"end":{"earliest":"1215","latest":"1235"}}]}},{"toponym":"Falele","citations":[{"label":"1234 Cl","year":1234}],"when":{"timespans":[{"start":{"in":"1234"},"end":{"in":"1234"}}]}},{"toponym":"ffawley","citations":[{"label":"1639 Terr","year":1639}],"when":{"timespans":[{"start":{"in":"1639"},"end":{"in":"1639"}}]}}],"types":[{"identifier":"http://vocab.getty.edu/aat/300232418","label":"administrative division","sourceLabels":[{"label":"township","lang":"en"}]}],"geometry":{"type":"GeometryCollection","geometries":[{"type":"Point","coordinates":[-0.91041,51.57643],"citations":[{"label":"GeoNames, gazetteer record geonames:2649616"}]},{"type":"Point","coordinates":[-0.9248982986770166,51.57196638877357],"citations":[{"label":"Unlock (EDINA) gazetteer, gazetteer record unlock:11142522"}]},{"type":"Point","coordinates":[-0.911976,51.5723],"citations":[{"label":"Key to English Place-Names (KEPN), gazetteer record 11362"}]}]},"when":{"timespans":[{"start":{"in":"1086"},"end":{"in":"1639"}}]},"links":[{"type":"closeMatch","identifier":"https://sws.geonames.org/2649616/"}],"relations":[{"relationType":"gvp:broaderPartitive","relationTo":"http://placenames.org.uk/id/placename/02/003389","label":"within Fawley"}]}]}