{"@context":"https://raw.githubusercontent.com/LinkedPasts/linked-places-format/main/linkedplaces-context-v1.1.jsonld","type":"FeatureCollection","license":"Digitisation of English Placenames MADS data is licensed to Jisc by the English Place Names Society and released under a Creative Commons Attribution-NonCommercial 4.0 International License.","note":"LPF v1.3, lossy; derived from the PLATO record; plato_commit=fa0d247ccc0263f8f19c8d7cdcd163df96935d1e","features":[{"@id":"https://w3id.org/whg-epns/38/000884","type":"Feature","properties":{"title":"Kempsford","ccodes":["GB"],"fclasses":["A","P"]},"names":[{"toponym":"Kempsford","lang":"en","citations":[{"label":"English Place-Name Society survey, volume 38: Gloucestershire"}]},{"toponym":"æt Cynemæres forda","citations":[{"label":"800 ASC","year":800}],"when":{"timespans":[{"start":{"in":"0800"},"end":{"in":"0800"}}]}},{"toponym":"Chenemeresforde","citations":[{"label":"1086 DB","year":1086}],"when":{"timespans":[{"start":{"in":"1086"},"end":{"in":"1086"}}]}},{"toponym":"Kinemereford(e), Kynemereford(e)","citations":[{"label":"Glouc","year":1086},{"label":"1086-1218 Glouc","year":1086},{"label":"1221 Ass","year":1221},{"label":"1283 Ipm","year":1283}],"when":{"timespans":[{"start":{"in":"1086"},"end":{"in":"1218"}},{"start":{"earliest":"1086","latest":"1218"},"end":{"earliest":"1086","latest":"1218"}},{"start":{"in":"1221"},"end":{"in":"1221"}},{"start":{"in":"1283"},"end":{"in":"1283"}}]}},{"toponym":"Kynemeresford(e)","citations":[{"label":"12 Glouc","year":1100},{"label":"1220 Fees","year":1220},{"label":"1221 Ass","year":1221},{"label":"1236 Ch","year":1236},{"label":"1303 FA","year":1303}],"when":{"timespans":[{"start":{"earliest":"1100","latest":"1200"},"end":{"earliest":"1100","latest":"1200"}},{"start":{"in":"1220"},"end":{"in":"1220"}},{"start":{"in":"1221"},"end":{"in":"1221"}},{"start":{"in":"1236"},"end":{"in":"1236"}},{"start":{"in":"1303"},"end":{"in":"1303"}}]}},{"toponym":"Kynemaresford(e)","citations":[{"label":"1191 Glouc","year":1191},{"label":"1291 Tax","year":1291}],"when":{"timespans":[{"start":{"in":"1191"},"end":{"in":"1191"}},{"start":{"in":"1291"},"end":{"in":"1291"}}]}},{"toponym":"Kynemerford(e)","citations":[{"label":"1221 Ass","year":1221},{"label":"1258 Ipm","year":1258},{"label":"1268 Ch","year":1268}],"when":{"timespans":[{"start":{"in":"1221"},"end":{"in":"1221"}},{"start":{"in":"1258"},"end":{"in":"1258"}},{"start":{"in":"1268"},"end":{"in":"1268"}}]}},{"toponym":"Kynemersford(e)","citations":[{"label":"1284 Episc","year":1284},{"label":"FA","year":1285},{"label":"Ipm"},{"label":"1285 FA","year":1285},{"label":"1354 Ipm","year":1354}],"when":{"timespans":[{"start":{"in":"1284"},"end":{"in":"1284"}},{"start":{"in":"1285"},"end":{"in":"1354"}},{"start":{"in":"1285"},"end":{"in":"1285"}},{"start":{"in":"1354"},"end":{"in":"1354"}}]}},{"toponym":"Kynemarsford(e)","citations":[{"label":"1303 FA","year":1303}],"when":{"timespans":[{"start":{"in":"1303"},"end":{"in":"1303"}}]}},{"toponym":"Kynmaresford","citations":[{"label":"1327 SR","year":1327}],"when":{"timespans":[{"start":{"in":"1327"},"end":{"in":"1327"}}]}},{"toponym":"Kynmersford","citations":[{"label":"1356 Ch","year":1356}],"when":{"timespans":[{"start":{"in":"1356"},"end":{"in":"1356"}}]}},{"toponym":"Kenemer(e)ford(e)","citations":[{"label":"1100-22 Glouc","year":1100},{"label":"1267 Ch","year":1267},{"label":"1287 Ass","year":1287}],"when":{"timespans":[{"start":{"earliest":"1100","latest":"1122"},"end":{"earliest":"1100","latest":"1122"}},{"start":{"in":"1267"},"end":{"in":"1267"}},{"start":{"in":"1287"},"end":{"in":"1287"}}]}},{"toponym":"Kenemersford(e)","citations":[{"label":"1293 Episc","year":1293},{"label":"1316 FA","year":1316}],"when":{"timespans":[{"start":{"in":"1293"},"end":{"in":"1293"}},{"start":{"in":"1316"},"end":{"in":"1316"}}]}},{"toponym":"Kenmeresforde","citations":[{"label":"1378 Ass","year":1378}],"when":{"timespans":[{"start":{"in":"1378"},"end":{"in":"1378"}}]}},{"toponym":"Kymmysford","citations":[{"label":"1455 Pat","year":1455}],"when":{"timespans":[{"start":{"in":"1455"},"end":{"in":"1455"}}]}},{"toponym":"Kemysford(e)","citations":[{"label":"1535 VE","year":1535},{"label":"1542 MinAcct","year":1542}],"when":{"timespans":[{"start":{"in":"1535"},"end":{"in":"1535"}},{"start":{"in":"1542"},"end":{"in":"1542"}}]}},{"toponym":"Kemmysford","citations":[{"label":"1549 Pat","year":1549}],"when":{"timespans":[{"start":{"in":"1549"},"end":{"in":"1549"}}]}},{"toponym":"Kemsford","citations":[{"label":"1577 M","year":1577},{"label":"1587 FF","year":1587},{"label":"1690 M","year":1690}],"when":{"timespans":[{"start":{"in":"1577"},"end":{"in":"1577"}},{"start":{"in":"1587"},"end":{"in":"1587"}},{"start":{"in":"1690"},"end":{"in":"1690"}}]}},{"toponym":"Kempsford","citations":[{"label":"1610 M","year":1610}],"when":{"timespans":[{"start":{"in":"1610"},"end":{"in":"1610"}},{"start":{"in":"1696"},"end":{"in":"1696"}}]}}],"types":[{"identifier":"http://vocab.getty.edu/aat/300232418","label":"administrative division","sourceLabels":[{"label":"township","lang":"en"}]}],"geometry":{"type":"GeometryCollection","geometries":[{"type":"Point","coordinates":[-1.77359,51.67135],"citations":[{"label":"GeoNames, gazetteer record geonames:2645832"}]},{"type":"Point","coordinates":[-1.768650897,51.66208905],"citations":[{"label":"English Place-Name Society survey (DEEP coordinates)"}]},{"type":"Point","coordinates":[-1.761397619277518,51.66657139861913],"citations":[{"label":"Unlock (EDINA) gazetteer, gazetteer record unlock:11184995"}]},{"type":"Point","coordinates":[-1.77722,51.6761],"citations":[{"label":"Key to English Place-Names (KEPN), gazetteer record 6200"}]}]},"when":{"timespans":[{"start":{"in":"0800"},"end":{"in":"1696"}}]},"links":[{"type":"closeMatch","identifier":"https://sws.geonames.org/2645832/"}],"relations":[{"relationType":"gvp:broaderPartitive","relationTo":"https://w3id.org/whg-epns/38/000883","label":"within Kempsford"}]}]}