{"@context":"https://raw.githubusercontent.com/LinkedPasts/linked-places-format/main/linkedplaces-context-v1.1.jsonld","type":"FeatureCollection","license":"Digitisation of English Placenames MADS data is licensed to Jisc by the English Place Names Society and released under a Creative Commons Attribution-NonCommercial 4.0 International License.","note":"LPF v1.3, lossy; derived from the PLATO record; plato_commit=ca0afadabec1e23a145c0b03df77e8f151f79832","features":[{"@id":"http://placenames.org.uk/id/placename/38/001014","type":"Feature","properties":{"title":"Lechlade","ccodes":["GB"],"fclasses":["A","P"]},"names":[{"toponym":"Lechlade","lang":"en","citations":[{"label":"English Place-Name Society survey, volume 38: Gloucestershire"}]},{"toponym":"Lecelade","citations":[{"label":"1086 DB","year":1086}],"when":{"timespans":[{"start":{"in":"1086"},"end":{"in":"1086"}}]}},{"toponym":"Lec(c)helad(e)","citations":[{"label":"12 Glouc","year":1100},{"label":"1111 Tewk","year":1111},{"label":"1204 P","year":1204},{"label":"1205 ClR","year":1205},{"label":"1211-13 Fees","year":1211},{"label":"1246 Ch","year":1246},{"label":"1248 Ass","year":1248},{"label":"1252 Ch","year":1252},{"label":"1255–1508, recurring Cl","year":1255},{"label":"1255–1508, recurring Pat"},{"label":"1255 Cl","year":1255},{"label":"1508 Pat","year":1508}],"when":{"timespans":[{"start":{"earliest":"1100","latest":"1200"},"end":{"earliest":"1100","latest":"1200"}},{"start":{"in":"1111"},"end":{"in":"1111"}},{"start":{"in":"1204"},"end":{"in":"1204"}},{"start":{"in":"1205"},"end":{"in":"1205"}},{"start":{"earliest":"1211","latest":"1213"},"end":{"earliest":"1211","latest":"1213"}},{"start":{"in":"1246"},"end":{"in":"1246"}},{"start":{"in":"1248"},"end":{"in":"1248"}},{"start":{"in":"1252"},"end":{"in":"1252"}},{"start":{"in":"1255"},"end":{"in":"1255"}},{"start":{"in":"1255"},"end":{"in":"1508"}},{"start":{"in":"1255"},"end":{"in":"1255"}},{"start":{"in":"1508"},"end":{"in":"1508"}}]}},{"toponym":"Lic(c)helad(e), Lyc(c)helad(e)","citations":[{"label":"1211 ClR","year":1211},{"label":"1221 Ass","year":1221},{"label":"1234 Cl","year":1234},{"label":"1238 FF","year":1238},{"label":"1270 Ch","year":1270},{"label":"1294 Episc","year":1294},{"label":"1320–1494, recurring Ass","year":1320},{"label":"1320–1494, recurring MinAcct"},{"label":"1320 Ass","year":1320},{"label":"1494 MinAcct","year":1494}],"when":{"timespans":[{"start":{"in":"1211"},"end":{"in":"1211"}},{"start":{"in":"1221"},"end":{"in":"1221"}},{"start":{"in":"1234"},"end":{"in":"1234"}},{"start":{"in":"1238"},"end":{"in":"1238"}},{"start":{"in":"1270"},"end":{"in":"1270"}},{"start":{"in":"1294"},"end":{"in":"1294"}},{"start":{"in":"1320"},"end":{"in":"1494"}},{"start":{"in":"1320"},"end":{"in":"1320"}},{"start":{"in":"1494"},"end":{"in":"1494"}}]}},{"toponym":"Lechlad(e)","citations":[{"label":"1213 Abbr","year":1213},{"label":"1220 Fees","year":1220},{"label":"1268 Episc","year":1268},{"label":"1275 Ipm","year":1275},{"label":"1314–1822, recurring Pat","year":1314},{"label":"1314–1822, recurring M"},{"label":"1314 Pat","year":1314},{"label":"1822 M","year":1822}],"when":{"timespans":[{"start":{"in":"1213"},"end":{"in":"1213"}},{"start":{"in":"1220"},"end":{"in":"1220"}},{"start":{"in":"1268"},"end":{"in":"1268"}},{"start":{"in":"1275"},"end":{"in":"1275"}},{"start":{"in":"1314"},"end":{"in":"1822"}},{"start":{"in":"1314"},"end":{"in":"1314"}},{"start":{"in":"1822"},"end":{"in":"1822"}}]}},{"toponym":"Lachelad(e)","citations":[{"label":"1259 Abbr","year":1259},{"label":"1549 Pat","year":1549},{"label":"1576 FF","year":1576}],"when":{"timespans":[{"start":{"in":"1259"},"end":{"in":"1259"}},{"start":{"in":"1549"},"end":{"in":"1549"}},{"start":{"in":"1576"},"end":{"in":"1576"}}]}},{"toponym":"Leggelade","citations":[{"label":"1274 RH","year":1274}],"when":{"timespans":[{"start":{"in":"1274"},"end":{"in":"1274"}}]}},{"toponym":"Legchelode","citations":[{"label":"1296 Episc","year":1296}],"when":{"timespans":[{"start":{"in":"1296"},"end":{"in":"1296"}}]}},{"toponym":"Letch(e)lade","citations":[{"label":"1405 Pat","year":1405},{"label":"1535 VE","year":1535},{"label":"c. 1560 Surv","year":1550},{"label":"1721 PR","year":1721}],"when":{"timespans":[{"start":{"in":"1405"},"end":{"in":"1405"}},{"start":{"in":"1461"},"end":{"in":"1461"}},{"start":{"in":"1535"},"end":{"in":"1535"}},{"start":{"earliest":"1550","latest":"1570"},"end":{"earliest":"1550","latest":"1570"}},{"start":{"in":"1721"},"end":{"in":"1721"}}]}},{"toponym":"Leychelade","citations":[{"label":"1429 Pat","year":1429}],"when":{"timespans":[{"start":{"in":"1429"},"end":{"in":"1429"}}]}},{"toponym":"Leachlade","citations":[{"label":"1564 FF","year":1564}],"when":{"timespans":[{"start":{"in":"1564"},"end":{"in":"1564"}}]}}],"types":[{"identifier":"http://vocab.getty.edu/aat/300232418","label":"administrative division","sourceLabels":[{"label":"township","lang":"en"}]}],"geometry":{"type":"GeometryCollection","geometries":[{"type":"Point","coordinates":[-1.69128,51.69403],"citations":[{"label":"GeoNames, gazetteer record geonames:2644719"}]},{"type":"Point","coordinates":[-1.696174812,51.68890074],"citations":[{"label":"English Place-Name Society survey (DEEP coordinates)"}]},{"type":"Point","coordinates":[-1.688910083371109,51.69337857761067],"citations":[{"label":"Unlock (EDINA) gazetteer, gazetteer record unlock:11193362"}]},{"type":"Point","coordinates":[-1.69033,51.6938],"citations":[{"label":"Key to English Place-Names (KEPN), gazetteer record 6201"}]}]},"when":{"timespans":[{"start":{"in":"1086"},"end":{"in":"1822"}}]},"links":[{"type":"closeMatch","identifier":"https://sws.geonames.org/2644719/"}],"relations":[{"relationType":"gvp:broaderPartitive","relationTo":"http://placenames.org.uk/id/placename/38/001013","label":"within Lechlade"}]}]}