{"@context":"https://raw.githubusercontent.com/LinkedPasts/linked-places-format/main/linkedplaces-context-v1.1.jsonld","type":"FeatureCollection","license":"Digitisation of English Placenames MADS data is licensed to Jisc by the English Place Names Society and released under a Creative Commons Attribution-NonCommercial 4.0 International License.","note":"LPF v1.3, lossy; derived from the PLATO record; plato_commit=ca0afadabec1e23a145c0b03df77e8f151f79832","features":[{"@id":"http://placenames.org.uk/id/placename/38/001013","type":"Feature","properties":{"title":"Lechlade","ccodes":["GB"],"fclasses":["A","P"]},"names":[{"toponym":"Lechlade","lang":"en","citations":[{"label":"English Place-Name Society survey, volume 38: Gloucestershire"}]}],"types":[{"identifier":"http://vocab.getty.edu/aat/300232418","label":"administrative division","sourceLabels":[{"label":"parish","lang":"en"}]}],"geometry":{"type":"GeometryCollection","geometries":[{"type":"Point","coordinates":[-1.69128,51.69403],"citations":[{"label":"GeoNames, gazetteer record geonames:2644719"}]},{"type":"Point","coordinates":[-1.696174812,51.68890074],"citations":[{"label":"English Place-Name Society survey (DEEP coordinates)"}]},{"type":"Point","coordinates":[-1.688910083371109,51.69337857761067],"citations":[{"label":"Unlock (EDINA) gazetteer, gazetteer record unlock:11193362"}]},{"type":"Point","coordinates":[-1.69033,51.6938],"citations":[{"label":"Key to English Place-Names (KEPN), gazetteer record 6201"}]}]},"links":[{"type":"closeMatch","identifier":"https://sws.geonames.org/2644719/"}],"relations":[{"relationType":"gvp:broaderPartitive","relationTo":"http://placenames.org.uk/id/placename/38/000002","label":"within Brightwells Barrow Hundred"}]}]}