{"@context":"https://raw.githubusercontent.com/LinkedPasts/linked-places-format/main/linkedplaces-context-v1.1.jsonld","type":"FeatureCollection","license":"Digitisation of English Placenames MADS data is licensed to Jisc by the English Place Names Society and released under a Creative Commons Attribution-NonCommercial 4.0 International License.","note":"LPF v1.3, lossy; derived from the PLATO record; plato_commit=ca0afadabec1e23a145c0b03df77e8f151f79832","features":[{"@id":"https://w3id.org/whg-epns/38/001697","type":"Feature","properties":{"title":"Bagendon","ccodes":["GB"],"fclasses":["A","P"]},"names":[{"toponym":"Bagendon","lang":"en","citations":[{"label":"English Place-Name Society survey, volume 38: Gloucestershire"}]},{"toponym":"Benwedene","citations":[{"label":"1086 DB","year":1086}],"when":{"timespans":[{"start":{"in":"1086"},"end":{"in":"1086"}}]}},{"toponym":"Bagindon', Bagyndon'","citations":[{"label":"1211-13 Fees","year":1211},{"label":"1279 Episc","year":1279}],"when":{"timespans":[{"start":{"earliest":"1211","latest":"1213"},"end":{"earliest":"1211","latest":"1213"}},{"start":{"in":"1279"},"end":{"in":"1279"}}]}},{"toponym":"Bagynden(e)","citations":[{"label":"1291 Tax","year":1291},{"label":"1327–1442, recurring SR","year":1327},{"label":"1327–1442, recurring FF"},{"label":"1327 SR","year":1327},{"label":"1442 FF","year":1442}],"when":{"timespans":[{"start":{"in":"1291"},"end":{"in":"1291"}},{"start":{"in":"1327"},"end":{"in":"1442"}},{"start":{"in":"1327"},"end":{"in":"1327"}},{"start":{"in":"1442"},"end":{"in":"1442"}}]}},{"toponym":"Bagenden(e)","citations":[{"label":"1303 FA","year":1303},{"label":"1334 Heref","year":1334},{"label":"1535 VE","year":1535}],"when":{"timespans":[{"start":{"in":"1303"},"end":{"in":"1303"}},{"start":{"in":"1334"},"end":{"in":"1334"}},{"start":{"in":"1535"},"end":{"in":"1535"}}]}},{"toponym":"Bagingedon(e)","citations":[{"label":"1216 ClR","year":1216},{"label":"1236 Fees","year":1236}],"when":{"timespans":[{"start":{"in":"1216"},"end":{"in":"1216"}},{"start":{"in":"1236"},"end":{"in":"1236"}}]}},{"toponym":"Bagingeden(a)","citations":[{"label":"1229 Bracton","year":1229},{"label":"1248 Ass","year":1248},{"label":"1291 Tax","year":1291}],"when":{"timespans":[{"start":{"in":"1229"},"end":{"in":"1229"}},{"start":{"in":"1248"},"end":{"in":"1248"}},{"start":{"in":"1291"},"end":{"in":"1291"}}]}},{"toponym":"Bagyngeden(a)","citations":[{"label":"1380 FF","year":1380}],"when":{"timespans":[{"start":{"in":"1380"},"end":{"in":"1380"}}]}},{"toponym":"Baggingeden'","citations":[{"label":"1220 Fees","year":1220},{"label":"1227 FF","year":1227}],"when":{"timespans":[{"start":{"in":"1220"},"end":{"in":"1220"}},{"start":{"in":"1227"},"end":{"in":"1227"}}]}},{"toponym":"Bachingedene","citations":[{"label":"1226 ClR","year":1226}],"when":{"timespans":[{"start":{"in":"1226"},"end":{"in":"1226"}}]}},{"toponym":"Bakyn(g)ton","citations":[{"label":"1316 Ipm","year":1316}],"when":{"timespans":[{"start":{"in":"1316"},"end":{"in":"1316"}},{"start":{"in":"1335"},"end":{"in":"1335"}}]}},{"toponym":"Bagginden(e)","citations":[{"label":"1277 Heref","year":1277}],"when":{"timespans":[{"start":{"in":"1277"},"end":{"in":"1277"}}]}},{"toponym":"Baggynden(e)","citations":[{"label":"1336 FF","year":1336}],"when":{"timespans":[{"start":{"in":"1336"},"end":{"in":"1336"}}]}},{"toponym":"Baggedene","citations":[{"label":"1287 Ass","year":1287}],"when":{"timespans":[{"start":{"in":"1287"},"end":{"in":"1287"}}]}},{"toponym":"Badgendon","citations":[{"label":"1577 M","year":1577},{"label":"1813 PR","year":1813}],"when":{"timespans":[{"start":{"in":"1577"},"end":{"in":"1577"}},{"start":{"in":"1610"},"end":{"in":"1610"}},{"start":{"in":"1648"},"end":{"in":"1648"}},{"start":{"in":"1813"},"end":{"in":"1813"}}]}},{"toponym":"Badginton als. Bagingdon","citations":[{"label":"1630 FF","year":1630}],"when":{"timespans":[{"start":{"in":"1630"},"end":{"in":"1630"}}]}}],"types":[{"identifier":"http://vocab.getty.edu/aat/300232418","label":"administrative division","sourceLabels":[{"label":"township","lang":"en"}]}],"geometry":{"type":"GeometryCollection","geometries":[{"type":"Point","coordinates":[-1.99151,51.76104],"citations":[{"label":"GeoNames, gazetteer record geonames:7293568"}]},{"type":"Point","coordinates":[-1.985511921,51.75223788],"citations":[{"label":"English Place-Name Society survey (DEEP coordinates)"}]},{"type":"Point","coordinates":[-1.978265718166202,51.75673357151327],"citations":[{"label":"Unlock (EDINA) gazetteer, gazetteer record unlock:11066997"}]},{"type":"Point","coordinates":[-1.97966,51.7572],"citations":[{"label":"Key to English Place-Names (KEPN), gazetteer record 6208"}]}]},"when":{"timespans":[{"start":{"in":"1086"},"end":{"in":"1813"}}]},"links":[{"type":"closeMatch","identifier":"https://sws.geonames.org/7293568/"}],"relations":[{"relationType":"gvp:broaderPartitive","relationTo":"https://w3id.org/whg-epns/38/001696","label":"within Bagendon"}]}]}