{"@context":"https://raw.githubusercontent.com/LinkedPasts/linked-places-format/main/linkedplaces-context-v1.1.jsonld","type":"FeatureCollection","license":"Digitisation of English Placenames MADS data is licensed to Jisc by the English Place Names Society and released under a Creative Commons Attribution-NonCommercial 4.0 International License.","note":"LPF v1.3, lossy; derived from the PLATO record; plato_commit=ca0afadabec1e23a145c0b03df77e8f151f79832","features":[{"@id":"https://w3id.org/whg-epns/38/001940","type":"Feature","properties":{"title":"Cirencester","ccodes":["GB"],"fclasses":["A","P"]},"names":[{"toponym":"Cirencester","lang":"en","citations":[{"label":"English Place-Name Society survey, volume 38: Gloucestershire"}]},{"toponym":"Kορίυιου","citations":[{"label":"c. 150 Ptol","year":140}],"when":{"timespans":[{"start":{"earliest":"0140","latest":"0160"},"end":{"earliest":"0140","latest":"0160"}}]}},{"toponym":"Cironium","citations":[{"label":"c. 650 RavGeog","year":640}],"when":{"timespans":[{"start":{"earliest":"0640","latest":"0660"},"end":{"earliest":"0640","latest":"0660"}}]}},{"toponym":"Durocornovio","citations":[{"label":"4 AntIt","year":300}],"when":{"timespans":[{"start":{"earliest":"0300","latest":"0400"},"end":{"earliest":"0300","latest":"0400"}}]}},{"toponym":"Cirenceaster, æt Cirenceastre, to Cirenceastre","citations":[{"label":"577 ASC","year":577},{"label":"879 ASC","year":879}],"when":{"timespans":[{"start":{"in":"0577"},"end":{"in":"0577"}},{"start":{"in":"0628"},"end":{"in":"0628"}},{"start":{"in":"0879"},"end":{"in":"0879"}},{"start":{"in":"1880"},"end":{"in":"1880"}},{"start":{"in":"0879"},"end":{"in":"0879"}},{"start":{"in":"0880"},"end":{"in":"0880"}}]}},{"toponym":"Cirrenceastre, Cairceri","citations":[{"label":"894 Asser","year":894}],"when":{"timespans":[{"start":{"in":"0894"},"end":{"in":"0894"}}]}},{"toponym":"Cair Ceri","citations":[{"label":"11 Nennius","year":1000}],"when":{"timespans":[{"start":{"earliest":"1000","latest":"1100"},"end":{"earliest":"1000","latest":"1100"}}]}},{"toponym":"Cirneceastre","citations":[{"label":"628 ASC","year":628},{"label":"999 KCD","year":999}],"when":{"timespans":[{"start":{"in":"0628"},"end":{"in":"0628"}},{"start":{"in":"0999"},"end":{"in":"0999"}}]}},{"toponym":"æt Cyrenceastre","citations":[{"label":"1020 ASC","year":1020}],"when":{"timespans":[{"start":{"in":"1020"},"end":{"in":"1020"}}]}},{"toponym":"Cyrneceaster","citations":[{"label":"c. 1000 KCD","year":990}],"when":{"timespans":[{"start":{"earliest":"0990","latest":"1010"},"end":{"earliest":"0990","latest":"1010"}}]}},{"toponym":"on Cyrnceastre","citations":[{"label":"1020 ASC","year":1020}],"when":{"timespans":[{"start":{"in":"1020"},"end":{"in":"1020"}}]}},{"toponym":"Cirecestr(a)', Cyrecestr(a)'","citations":[{"label":"1086 DB","year":1086},{"label":"1130–1165, recurring P","year":1130},{"label":"1130-65 P","year":1130},{"label":"1221 Ass","year":1221},{"label":"1315 Ipm","year":1315},{"label":"1332–1413, recurring Ch","year":1332},{"label":"1332-1413 Ch","year":1332}],"when":{"timespans":[{"start":{"in":"1086"},"end":{"in":"1086"}},{"start":{"in":"1130"},"end":{"in":"1165"}},{"start":{"earliest":"1130","latest":"1165"},"end":{"earliest":"1130","latest":"1165"}},{"start":{"in":"1221"},"end":{"in":"1221"}},{"start":{"in":"1315"},"end":{"in":"1315"}},{"start":{"in":"1332"},"end":{"in":"1413"}},{"start":{"earliest":"1332","latest":"1413"},"end":{"earliest":"1332","latest":"1413"}}]}},{"toponym":"Cirencestr(e)', Cyrencestr(e)'","citations":[{"label":"12 Tewk","year":1100},{"label":"1156 RBE","year":1156},{"label":"1174 Theok","year":1174},{"label":"1190 P","year":1190},{"label":"13 Misc","year":1200},{"label":"1211-13 Fees","year":1211},{"label":"Hy 3 Surv","year":1216},{"label":"1220 Bracton","year":1220},{"label":"1220 Cur","year":1220},{"label":"1221 Eyre","year":1221},{"label":"1223–1759, recurring Abbr","year":1223},{"label":"1223–1759, recurring PR"},{"label":"1223 Abbr","year":1223},{"label":"1759 PR","year":1759}],"when":{"timespans":[{"start":{"earliest":"1100","latest":"1200"},"end":{"earliest":"1100","latest":"1200"}},{"start":{"in":"1156"},"end":{"in":"1156"}},{"start":{"in":"1174"},"end":{"in":"1174"}},{"start":{"in":"1190"},"end":{"in":"1190"}},{"start":{"earliest":"1200","latest":"1300"},"end":{"earliest":"1200","latest":"1300"}},{"start":{"earliest":"1211","latest":"1213"},"end":{"earliest":"1211","latest":"1213"}},{"start":{"earliest":"1216","latest":"1272"},"end":{"earliest":"1216","latest":"1272"}},{"start":{"in":"1220"},"end":{"in":"1220"}},{"start":{"in":"1220"},"end":{"in":"1220"}},{"start":{"in":"1221"},"end":{"in":"1221"}},{"start":{"in":"1223"},"end":{"in":"1759"}},{"start":{"in":"1223"},"end":{"in":"1223"}},{"start":{"in":"1759"},"end":{"in":"1759"}}]}},{"toponym":"Cyrencestr(e)' als. Cicestr(e), Cycestr(e)","citations":[{"label":"1562 FF","year":1562}],"when":{"timespans":[{"start":{"in":"1562"},"end":{"in":"1562"}},{"start":{"in":"1566"},"end":{"in":"1566"}}]}},{"toponym":"Cycestr(e) als. Syssyter","citations":[{"label":"1571 FF","year":1571}],"when":{"timespans":[{"start":{"in":"1571"},"end":{"in":"1571"}}]}},{"toponym":"Cycestr(e) als. Ciciter","citations":[{"label":"1577 M","year":1577}],"when":{"timespans":[{"start":{"in":"1577"},"end":{"in":"1577"}},{"start":{"in":"1690"},"end":{"in":"1690"}}]}},{"toponym":"Cycestr(e) vulgo Cissiter","citations":[{"label":"1675 Ogilby","year":1675}],"when":{"timespans":[{"start":{"in":"1675"},"end":{"in":"1675"}}]}},{"toponym":"Chiringecestre","citations":[{"label":"c. 1270 Gerv","year":1260}],"when":{"timespans":[{"start":{"earliest":"1260","latest":"1280"},"end":{"earliest":"1260","latest":"1280"}}]}},{"toponym":"Cycestre","citations":[{"label":"1276 Misc","year":1276}],"when":{"timespans":[{"start":{"in":"1276"},"end":{"in":"1276"}}]}},{"toponym":"Cicestre","citations":[{"label":"1453 Pat","year":1453}],"when":{"timespans":[{"start":{"in":"1453"},"end":{"in":"1453"}}]}},{"toponym":"Cicestre als. Cycyter","citations":[{"label":"1570 FF","year":1570}],"when":{"timespans":[{"start":{"in":"1570"},"end":{"in":"1570"}}]}},{"toponym":"Cirncestre","citations":[{"label":"1290 Ipm","year":1290}],"when":{"timespans":[{"start":{"in":"1290"},"end":{"in":"1290"}}]}},{"toponym":"Circestre","citations":[{"label":"1317-46 Misc","year":1317},{"label":"1400–1464, recurring Pat","year":1400},{"label":"1400-64 Pat","year":1400}],"when":{"timespans":[{"start":{"earliest":"1317","latest":"1346"},"end":{"earliest":"1317","latest":"1346"}},{"start":{"in":"1400"},"end":{"in":"1464"}},{"start":{"earliest":"1400","latest":"1464"},"end":{"earliest":"1400","latest":"1464"}}]}},{"toponym":"Circetre","citations":[{"label":"1394 FF","year":1394},{"label":"1406 Pat","year":1406}],"when":{"timespans":[{"start":{"in":"1394"},"end":{"in":"1394"}},{"start":{"in":"1406"},"end":{"in":"1406"}}]}},{"toponym":"Sircestre","citations":[{"label":"1408 Pat","year":1408}],"when":{"timespans":[{"start":{"in":"1408"},"end":{"in":"1408"}}]}},{"toponym":"Surce(s)tre","citations":[{"label":"1412–1439, recurring Pat","year":1412},{"label":"1412-39 Pat","year":1412}],"when":{"timespans":[{"start":{"in":"1412"},"end":{"in":"1439"}},{"start":{"earliest":"1412","latest":"1439"},"end":{"earliest":"1412","latest":"1439"}}]}},{"toponym":"Circetur","citations":[{"label":"1494 FF","year":1494}],"when":{"timespans":[{"start":{"in":"1494"},"end":{"in":"1494"}}]}},{"toponym":"Surencestre","citations":[{"label":"1436 Pat","year":1436}],"when":{"timespans":[{"start":{"in":"1436"},"end":{"in":"1436"}}]}},{"toponym":"Sirencestre, Syrencestre","citations":[{"label":"1439 Pat","year":1439},{"label":"c. 1560 Surv","year":1550}],"when":{"timespans":[{"start":{"in":"1439"},"end":{"in":"1439"}},{"start":{"in":"1476"},"end":{"in":"1476"}},{"start":{"earliest":"1550","latest":"1570"},"end":{"earliest":"1550","latest":"1570"}}]}},{"toponym":"Sironcester","citations":[{"label":"1716 PR","year":1716}],"when":{"timespans":[{"start":{"in":"1716"},"end":{"in":"1716"}}]}},{"toponym":"Cisetur","citations":[{"label":"1453 Pat","year":1453}],"when":{"timespans":[{"start":{"in":"1453"},"end":{"in":"1453"}}]}},{"toponym":"Cicet(t)er","citations":[{"label":"c. 1490 ECP","year":1480},{"label":"1718 PR","year":1718}],"when":{"timespans":[{"start":{"earliest":"1480","latest":"1500"},"end":{"earliest":"1480","latest":"1500"}},{"start":{"in":"1718"},"end":{"in":"1718"}}]}},{"toponym":"Cyssetyr, Cyssetur","citations":[{"label":"1491 Pat","year":1491},{"label":"1563 FF","year":1563}],"when":{"timespans":[{"start":{"in":"1491"},"end":{"in":"1491"}},{"start":{"in":"1563"},"end":{"in":"1563"}}]}},{"toponym":"Cyciter","citations":[{"label":"1587 FF","year":1587}],"when":{"timespans":[{"start":{"in":"1587"},"end":{"in":"1587"}}]}},{"toponym":"Sissetur","citations":[{"label":"c. 1500 ECP","year":1490}],"when":{"timespans":[{"start":{"earliest":"1490","latest":"1510"},"end":{"earliest":"1490","latest":"1510"}}]}},{"toponym":"Sussetour","citations":[{"label":"c. 1515 ECP","year":1505}],"when":{"timespans":[{"start":{"earliest":"1505","latest":"1525"},"end":{"earliest":"1505","latest":"1525"}}]}},{"toponym":"Sisator","citations":[{"label":"1685 PR","year":1685}],"when":{"timespans":[{"start":{"in":"1685"},"end":{"in":"1685"}}]}}],"types":[{"identifier":"http://vocab.getty.edu/aat/300232418","label":"administrative division","sourceLabels":[{"label":"township","lang":"en"}]}],"geometry":{"type":"GeometryCollection","geometries":[{"type":"Point","coordinates":[-1.96825,51.71708],"citations":[{"label":"GeoNames, gazetteer record geonames:2652995"}]},{"type":"Point","coordinates":[-1.971052578,51.70727444],"citations":[{"label":"English Place-Name Society survey (DEEP coordinates)"}]},{"type":"Point","coordinates":[-1.96381212596781,51.711769258789],"citations":[{"label":"Unlock (EDINA) gazetteer, gazetteer record unlock:11107610"}]},{"type":"Point","coordinates":[-1.9652,51.7122],"citations":[{"label":"Key to English Place-Names (KEPN), gazetteer record 6211"}]}]},"when":{"timespans":[{"start":{"in":"0140"},"end":{"in":"1880"}}]},"links":[{"type":"closeMatch","identifier":"https://sws.geonames.org/2652995/"}],"relations":[{"relationType":"gvp:broaderPartitive","relationTo":"https://w3id.org/whg-epns/38/001939","label":"within Cirencester"}]}]}