{"@context":"https://raw.githubusercontent.com/LinkedPasts/linked-places-format/main/linkedplaces-context-v1.1.jsonld","type":"FeatureCollection","license":"Digitisation of English Placenames MADS data is licensed to Jisc by the English Place Names Society and released under a Creative Commons Attribution-NonCommercial 4.0 International License.","note":"LPF v1.3, lossy; derived from the PLATO record; plato_commit=ca0afadabec1e23a145c0b03df77e8f151f79832","features":[{"@id":"http://placenames.org.uk/id/placename/38/002889","type":"Feature","properties":{"title":"Poulton","ccodes":["GB"],"fclasses":["A","P"]},"names":[{"toponym":"Poulton","lang":"en","citations":[{"label":"English Place-Name Society survey, volume 38: Gloucestershire"}]},{"toponym":"æt Pultune","citations":[{"label":"855 BCS","year":855},{"label":"BCS"}],"when":{"timespans":[{"start":{"in":"0855"},"end":{"in":"0855"}}]}},{"toponym":"Pultun, Pulton(e)","citations":[{"label":"1100- 35 Tewk","year":1100},{"label":"1185 Templar","year":1185},{"label":"1242 Ipm","year":1242},{"label":"1248 Ass","year":1248},{"label":"1263–1577, recurring Ch","year":1263},{"label":"1263–1577, recurring M"},{"label":"1263 Ch","year":1263},{"label":"1577 M","year":1577}],"when":{"timespans":[{"start":{"earliest":"1100","latest":"1135"},"end":{"earliest":"1100","latest":"1135"}},{"start":{"earliest":"1125","latest":"1154"},"end":{"earliest":"1125","latest":"1154"}},{"start":{"in":"1185"},"end":{"in":"1185"}},{"start":{"in":"1242"},"end":{"in":"1242"}},{"start":{"in":"1248"},"end":{"in":"1248"}},{"start":{"in":"1263"},"end":{"in":"1577"}},{"start":{"in":"1263"},"end":{"in":"1263"}},{"start":{"in":"1577"},"end":{"in":"1577"}}]}},{"toponym":"Poulton","citations":[{"label":"1221 Eyre","year":1221},{"label":"1263–1654, recurring Ch","year":1263},{"label":"1263–1654, recurring PR"},{"label":"1263 Ch","year":1263},{"label":"1654 PR","year":1654}],"when":{"timespans":[{"start":{"in":"1221"},"end":{"in":"1221"}},{"start":{"in":"1263"},"end":{"in":"1654"}},{"start":{"in":"1263"},"end":{"in":"1263"}},{"start":{"in":"1654"},"end":{"in":"1654"}}]}},{"toponym":"Powlton","citations":[{"label":"1667 PR","year":1667}],"when":{"timespans":[{"start":{"in":"1667"},"end":{"in":"1667"}}]}},{"toponym":"Polton(e) by Creckelade, Polton(e) juxta Creckelade, Polton(e) Crekkelade","citations":[{"label":"1316 Ipm","year":1316},{"label":"1317 Fine","year":1317}],"when":{"timespans":[{"start":{"in":"1316"},"end":{"in":"1316"}},{"start":{"in":"1317"},"end":{"in":"1317"}}]}}],"types":[{"identifier":"http://vocab.getty.edu/aat/300232418","label":"administrative division","sourceLabels":[{"label":"township","lang":"en"}]}],"geometry":{"type":"Point","coordinates":[-1.84941,51.7121],"citations":[{"label":"Key to English Place-Names (KEPN), gazetteer record 6222"}]},"when":{"timespans":[{"start":{"in":"0855"},"end":{"in":"1667"}}]},"relations":[{"relationType":"gvp:broaderPartitive","relationTo":"http://placenames.org.uk/id/placename/38/002888","label":"within Poulton"}]}]}