{"@context":"https://raw.githubusercontent.com/LinkedPasts/linked-places-format/main/linkedplaces-context-v1.1.jsonld","type":"FeatureCollection","license":"Digitisation of English Placenames MADS data is licensed to Jisc by the English Place Names Society and released under a Creative Commons Attribution-NonCommercial 4.0 International License.","note":"LPF v1.3, lossy; derived from the PLATO record; plato_commit=ca0afadabec1e23a145c0b03df77e8f151f79832","features":[{"@id":"https://w3id.org/whg-epns/38/003945","type":"Feature","properties":{"title":"Nailsworth","ccodes":["GB"],"fclasses":["A","P"]},"names":[{"toponym":"Nailsworth","lang":"en","citations":[{"label":"English Place-Name Society survey, volume 38: Gloucestershire"}]}],"types":[{"identifier":"http://vocab.getty.edu/aat/300232418","label":"administrative division","sourceLabels":[{"label":"parish","lang":"en"}]}],"geometry":{"type":"GeometryCollection","geometries":[{"type":"Point","coordinates":[-2.2199,51.69382],"citations":[{"label":"GeoNames, gazetteer record geonames:2641912"}]},{"type":"Point","coordinates":[-2.217018797,51.68909316],"citations":[{"label":"English Place-Name Society survey (DEEP coordinates)"}]},{"type":"Point","coordinates":[-2.224274981553151,51.6935763749573],"citations":[{"label":"Unlock (EDINA) gazetteer, gazetteer record unlock:11226141"}]},{"type":"Point","coordinates":[-2.217579,51.699161],"citations":[{"label":"Key to English Place-Names (KEPN), gazetteer record 345"}]}]},"links":[{"type":"closeMatch","identifier":"https://sws.geonames.org/2641912/"}],"relations":[{"relationType":"gvp:broaderPartitive","relationTo":"https://w3id.org/whg-epns/38/003079","label":"within Longtree Hundred"}]}]}