{"@context":"https://raw.githubusercontent.com/LinkedPasts/linked-places-format/main/linkedplaces-context-v1.1.jsonld","type":"FeatureCollection","license":"Digitisation of English Placenames MADS data is licensed to Jisc by the English Place Names Society and released under a Creative Commons Attribution-NonCommercial 4.0 International License.","note":"LPF v1.3, lossy; derived from the PLATO record; plato_commit=ca0afadabec1e23a145c0b03df77e8f151f79832","features":[{"@id":"https://w3id.org/whg-epns/38/004671","type":"Feature","properties":{"title":"Woodchester","ccodes":["GB"],"fclasses":["A","P"]},"names":[{"toponym":"Woodchester","lang":"en","citations":[{"label":"English Place-Name Society survey, volume 38: Gloucestershire"}]},{"toponym":"Uuduceastir","citations":[{"label":"716-43 BCS","year":716}],"when":{"timespans":[{"start":{"earliest":"0716","latest":"0743"},"end":{"earliest":"0716","latest":"0743"}}]}},{"toponym":"Wuduceaster, ceaster setna","citations":[{"label":"896 BCS","year":896}],"when":{"timespans":[{"start":{"in":"0896"},"end":{"in":"0896"}}]}},{"toponym":"Widecestre","citations":[{"label":"1086 DB","year":1086}],"when":{"timespans":[{"start":{"in":"1086"},"end":{"in":"1086"}}]}},{"toponym":"Wydechestre","citations":[{"label":"1380 FF","year":1380},{"label":"1408 Ipm","year":1408}],"when":{"timespans":[{"start":{"in":"1380"},"end":{"in":"1380"}},{"start":{"in":"1408"},"end":{"in":"1408"}}]}},{"toponym":"Witchester","citations":[{"label":"1635 Will","year":1635}],"when":{"timespans":[{"start":{"in":"1635"},"end":{"in":"1635"}}]}},{"toponym":"Vdecestre","citations":[{"label":"1086 DB","year":1086}],"when":{"timespans":[{"start":{"in":"1086"},"end":{"in":"1086"}}]}},{"toponym":"Wdecestre","citations":[{"label":"1216 ClR","year":1216},{"label":"1221 Ass","year":1221}],"when":{"timespans":[{"start":{"in":"1216"},"end":{"in":"1216"}},{"start":{"in":"1221"},"end":{"in":"1221"}}]}},{"toponym":"Wudecestr'","citations":[{"label":"1221 Ass","year":1221}],"when":{"timespans":[{"start":{"in":"1221"},"end":{"in":"1221"}},{"start":{"in":"1248"},"end":{"in":"1248"}}]}},{"toponym":"Wodecestr(e)","citations":[{"label":"1220 Fees","year":1220},{"label":"1221–1376, recurring Ass","year":1221},{"label":"1221–1376, recurring Ipm"},{"label":"1221 Ass","year":1221},{"label":"1376 Ipm","year":1376}],"when":{"timespans":[{"start":{"in":"1220"},"end":{"in":"1220"}},{"start":{"in":"1221"},"end":{"in":"1376"}},{"start":{"in":"1221"},"end":{"in":"1221"}},{"start":{"in":"1248"},"end":{"in":"1248"}},{"start":{"in":"1376"},"end":{"in":"1376"}}]}},{"toponym":"Wodechestr(e)","citations":[{"label":"1297 Ipm","year":1297},{"label":"1313 FF","year":1313},{"label":"1421 Ipm","year":1421},{"label":"1436 Pat","year":1436}],"when":{"timespans":[{"start":{"in":"1297"},"end":{"in":"1297"}},{"start":{"in":"1313"},"end":{"in":"1313"}},{"start":{"in":"1338"},"end":{"in":"1338"}},{"start":{"in":"1421"},"end":{"in":"1421"}},{"start":{"in":"1435"},"end":{"in":"1435"}},{"start":{"in":"1436"},"end":{"in":"1436"}}]}},{"toponym":"Wodcestre","citations":[{"label":"1287 QW","year":1287}],"when":{"timespans":[{"start":{"in":"1287"},"end":{"in":"1287"}}]}},{"toponym":"Wodchestre, Wodchester","citations":[{"label":"1465 Pat","year":1465},{"label":"1535 VE","year":1535}],"when":{"timespans":[{"start":{"in":"1465"},"end":{"in":"1465"}},{"start":{"in":"1535"},"end":{"in":"1535"}}]}},{"toponym":"Wychestre, Wychester","citations":[{"label":"1416 Pat","year":1416},{"label":"1455 FF","year":1455},{"label":"1533-8 ECP","year":1533},{"label":"1553 FF","year":1553}],"when":{"timespans":[{"start":{"in":"1416"},"end":{"in":"1416"}},{"start":{"in":"1420"},"end":{"in":"1420"}},{"start":{"in":"1455"},"end":{"in":"1455"}},{"start":{"earliest":"1533","latest":"1538"},"end":{"earliest":"1533","latest":"1538"}},{"start":{"in":"1553"},"end":{"in":"1553"}}]}},{"toponym":"Woodchester","citations":[{"label":"1584 Comm","year":1584}],"when":{"timespans":[{"start":{"in":"1584"},"end":{"in":"1584"}}]}},{"toponym":"Woodchester als. Wychester","citations":[{"label":"1602 FF","year":1602},{"label":"1634 InqM","year":1634}],"when":{"timespans":[{"start":{"in":"1602"},"end":{"in":"1602"}},{"start":{"in":"1634"},"end":{"in":"1634"}}]}}],"types":[{"identifier":"http://vocab.getty.edu/aat/300232418","label":"administrative division","sourceLabels":[{"label":"township","lang":"en"}]}],"geometry":{"type":"GeometryCollection","geometries":[{"type":"Point","coordinates":[-2.23286,51.72155],"citations":[{"label":"GeoNames, gazetteer record geonames:2633667"}]},{"type":"Point","coordinates":[-2.231624298,51.71604191],"citations":[{"label":"English Place-Name Society survey (DEEP coordinates)"}]},{"type":"Point","coordinates":[-2.224408417773993,51.72055274287633],"citations":[{"label":"Unlock (EDINA) gazetteer, gazetteer record unlock:11325582"}]},{"type":"Point","coordinates":[-2.22577,51.721],"citations":[{"label":"Key to English Place-Names (KEPN), gazetteer record 6238"}]}]},"when":{"timespans":[{"start":{"in":"0716"},"end":{"in":"1635"}}]},"links":[{"type":"closeMatch","identifier":"https://sws.geonames.org/2633667/"}],"relations":[{"relationType":"gvp:broaderPartitive","relationTo":"https://w3id.org/whg-epns/38/004670","label":"within Woodchester"}]}]}