{"@context":"https://raw.githubusercontent.com/LinkedPasts/linked-places-format/main/linkedplaces-context-v1.1.jsonld","type":"FeatureCollection","license":"Digitisation of English Placenames MADS data is licensed to Jisc by the English Place Names Society and released under a Creative Commons Attribution-NonCommercial 4.0 International License.","note":"LPF v1.3, lossy; derived from the PLATO record; plato_commit=fa0d247ccc0263f8f19c8d7cdcd163df96935d1e","features":[{"@id":"https://w3id.org/whg-epns/38/006738","type":"Feature","properties":{"title":"Colesborne","ccodes":["GB"],"fclasses":["A","P"]},"names":[{"toponym":"Colesborne","lang":"en","citations":[{"label":"English Place-Name Society survey, volume 38: Gloucestershire"}]},{"toponym":"to Colesburnan forda","citations":[{"label":"800 BCS","year":800}],"when":{"timespans":[{"start":{"in":"0800"},"end":{"in":"0800"}}]}},{"toponym":"æt Collesburnan","citations":[{"label":"c. 802 BCS","year":792}],"when":{"timespans":[{"start":{"earliest":"0792","latest":"0812"},"end":{"earliest":"0792","latest":"0812"}}]}},{"toponym":"æt Colesburnan","citations":[{"label":"BCS"}]},{"toponym":"Colesborne","citations":[{"label":"1086 DB","year":1086},{"label":"c. 1430 GlR","year":1420}],"when":{"timespans":[{"start":{"in":"1086"},"end":{"in":"1086"}},{"start":{"earliest":"1420","latest":"1440"},"end":{"earliest":"1420","latest":"1440"}}]}},{"toponym":"Colesburn(e), Colesburn(i)a","citations":[{"label":"1086 DB","year":1086},{"label":"Hy 2 Madox","year":1154},{"label":"Hy 2 BM","year":1154},{"label":"1199 FF","year":1199},{"label":"WinchLB","year":1200},{"label":"Ch"},{"label":"13 WinchLB","year":1200},{"label":"1372 Ch","year":1372}],"when":{"timespans":[{"start":{"in":"1086"},"end":{"in":"1086"}},{"start":{"earliest":"1154","latest":"1189"},"end":{"earliest":"1154","latest":"1189"}},{"start":{"earliest":"1154","latest":"1189"},"end":{"earliest":"1154","latest":"1189"}},{"start":{"in":"1199"},"end":{"in":"1199"}},{"start":{"in":"1200"},"end":{"in":"1372"}},{"start":{"earliest":"1200","latest":"1300"},"end":{"earliest":"1200","latest":"1300"}},{"start":{"in":"1372"},"end":{"in":"1372"}}]}},{"toponym":"Colesbourn","citations":[{"label":"1291 Tax","year":1291},{"label":"1328 Banco","year":1328},{"label":"1331 FF","year":1331}],"when":{"timespans":[{"start":{"in":"1291"},"end":{"in":"1291"}},{"start":{"in":"1328"},"end":{"in":"1328"}},{"start":{"in":"1331"},"end":{"in":"1331"}}]}},{"toponym":"Colisburn'","citations":[{"label":"1260 FF","year":1260}],"when":{"timespans":[{"start":{"in":"1260"},"end":{"in":"1260"}}]}},{"toponym":"Collesburn(e)","citations":[{"label":"1171-83 AC","year":1171},{"label":"1221 Ass","year":1221},{"label":"GlR","year":1301},{"label":"GlR"},{"label":"1301 GlR","year":1301},{"label":"1529 GlR","year":1529}],"when":{"timespans":[{"start":{"earliest":"1171","latest":"1183"},"end":{"earliest":"1171","latest":"1183"}},{"start":{"in":"1221"},"end":{"in":"1221"}},{"start":{"in":"1301"},"end":{"in":"1529"}},{"start":{"in":"1301"},"end":{"in":"1301"}},{"start":{"in":"1529"},"end":{"in":"1529"}}]}},{"toponym":"Collesbourne","citations":[{"label":"1303 FA","year":1303},{"label":"Ass","year":1398},{"label":"VE"},{"label":"1398 Ass","year":1398},{"label":"1535 VE","year":1535}],"when":{"timespans":[{"start":{"in":"1303"},"end":{"in":"1303"}},{"start":{"in":"1398"},"end":{"in":"1535"}},{"start":{"in":"1398"},"end":{"in":"1398"}},{"start":{"in":"1535"},"end":{"in":"1535"}}]}},{"toponym":"Col(l)eburne","citations":[{"label":"1227 FF","year":1227},{"label":"1535 VE","year":1535}],"when":{"timespans":[{"start":{"in":"1227"},"end":{"in":"1227"}},{"start":{"in":"1535"},"end":{"in":"1535"}}]}},{"toponym":"Colnsbourne","citations":[{"label":"1366 Ch","year":1366}],"when":{"timespans":[{"start":{"in":"1366"},"end":{"in":"1366"}}]}},{"toponym":"Cowlesbo(u)rne","citations":[{"label":"1540 FF","year":1540},{"label":"1577 M","year":1577}],"when":{"timespans":[{"start":{"in":"1540"},"end":{"in":"1540"}},{"start":{"in":"1587"},"end":{"in":"1587"}},{"start":{"in":"1621"},"end":{"in":"1621"}},{"start":{"in":"1577"},"end":{"in":"1577"}},{"start":{"in":"1648"},"end":{"in":"1648"}}]}}],"types":[{"identifier":"http://vocab.getty.edu/aat/300232418","label":"administrative division","sourceLabels":[{"label":"township","lang":"en"}]}],"geometry":{"type":"GeometryCollection","geometries":[{"type":"Point","coordinates":[-2.0,51.81667],"citations":[{"label":"GeoNames, gazetteer record geonames:2652584"}]},{"type":"Point","coordinates":[-2.014508255,51.81518238],"citations":[{"label":"English Place-Name Society survey (DEEP coordinates)"}]},{"type":"Point","coordinates":[-2.00864,51.8201],"citations":[{"label":"Key to English Place-Names (KEPN), gazetteer record 6253"}]}]},"when":{"timespans":[{"start":{"in":"0792"},"end":{"in":"1648"}}]},"links":[{"type":"closeMatch","identifier":"https://sws.geonames.org/2652584/"}],"relations":[{"relationType":"gvp:broaderPartitive","relationTo":"https://w3id.org/whg-epns/38/006737","label":"within Colesborne"}]}]}