{"@context":"https://raw.githubusercontent.com/LinkedPasts/linked-places-format/main/linkedplaces-context-v1.1.jsonld","type":"FeatureCollection","license":"Digitisation of English Placenames MADS data is licensed to Jisc by the English Place Names Society and released under a Creative Commons Attribution-NonCommercial 4.0 International License.","note":"LPF v1.3, lossy; derived from the PLATO record; plato_commit=fa0d247ccc0263f8f19c8d7cdcd163df96935d1e","features":[{"@id":"https://w3id.org/whg-epns/38/007142","type":"Feature","properties":{"title":"Bradley Hundred","ccodes":["GB"],"fclasses":["A"]},"names":[{"toponym":"Bradley Hundred","lang":"en","citations":[{"label":"English Place-Name Society survey, volume 38: Gloucestershire"}]},{"toponym":"Bradeleg(e), Bradelei hd'","citations":[{"label":"1086 DB","year":1086}],"when":{"timespans":[{"start":{"in":"1086"},"end":{"in":"1086"}}]}},{"toponym":"Bradesleah, Bradeslawe","citations":[{"label":"1168 P","year":1168}],"when":{"timespans":[{"start":{"in":"1168"},"end":{"in":"1168"}},{"start":{"in":"1169"},"end":{"in":"1169"}}]}},{"toponym":"Bradeleg(e), Bradel', Bradelegh, Bradeley(e)","citations":[{"label":"1184 P","year":1184},{"label":"1220 Fees","year":1220},{"label":"1221 Ass","year":1221},{"label":"RH","year":1274},{"label":"Ass"},{"label":"1274 RH","year":1274},{"label":"1378 Ass","year":1378}],"when":{"timespans":[{"start":{"in":"1184"},"end":{"in":"1184"}},{"start":{"in":"1204"},"end":{"in":"1204"}},{"start":{"in":"1220"},"end":{"in":"1220"}},{"start":{"in":"1221"},"end":{"in":"1221"}},{"start":{"in":"1248"},"end":{"in":"1248"}},{"start":{"in":"1274"},"end":{"in":"1378"}},{"start":{"in":"1274"},"end":{"in":"1274"}},{"start":{"in":"1378"},"end":{"in":"1378"}}]}},{"toponym":"Bradley","citations":[{"label":"1535 VE","year":1535},{"label":"1540 AOMB","year":1540},{"label":"1587 FF","year":1587}],"when":{"timespans":[{"start":{"in":"1535"},"end":{"in":"1535"}},{"start":{"in":"1540"},"end":{"in":"1540"}},{"start":{"in":"1587"},"end":{"in":"1587"}}]}}],"types":[{"identifier":"http://vocab.getty.edu/aat/300232418","label":"administrative division","sourceLabels":[{"label":"hundred / wapentake","lang":"en"}]}],"geometry":null,"when":{"timespans":[{"start":{"in":"1086"},"end":{"in":"1587"}}]},"relations":[{"relationType":"gvp:broaderPartitive","relationTo":"https://w3id.org/whg-epns/38/000001","label":"within Gloucestershire"}]}]}