{"@context":"https://raw.githubusercontent.com/LinkedPasts/linked-places-format/main/linkedplaces-context-v1.1.jsonld","type":"FeatureCollection","license":"Digitisation of English Placenames MADS data is licensed to Jisc by the English Place Names Society and released under a Creative Commons Attribution-NonCommercial 4.0 International License.","note":"LPF v1.3, lossy; derived from the PLATO record; plato_commit=ca0afadabec1e23a145c0b03df77e8f151f79832","features":[{"@id":"http://placenames.org.uk/id/placename/38/007291","type":"Feature","properties":{"title":"Compton Abdale","ccodes":["GB"],"fclasses":["A","P"]},"names":[{"toponym":"Compton Abdale","lang":"en","citations":[{"label":"English Place-Name Society survey, volume 38: Gloucestershire"}]},{"toponym":"Contone","citations":[{"label":"1086 DB","year":1086}],"when":{"timespans":[{"start":{"in":"1086"},"end":{"in":"1086"}}]}},{"toponym":"Cumton'","citations":[{"label":"1221 Ass","year":1221},{"label":"1285 FA","year":1285}],"when":{"timespans":[{"start":{"in":"1221"},"end":{"in":"1221"}},{"start":{"in":"1285"},"end":{"in":"1285"}}]}},{"toponym":"Cumpton(a)","citations":[{"label":"1221-32 WinchLB","year":1221},{"label":"1248 Ass","year":1248},{"label":"1267 Pat","year":1267},{"label":"1283 Ch","year":1283}],"when":{"timespans":[{"start":{"earliest":"1221","latest":"1232"},"end":{"earliest":"1221","latest":"1232"}},{"start":{"in":"1248"},"end":{"in":"1248"}},{"start":{"in":"1267"},"end":{"in":"1267"}},{"start":{"in":"1283"},"end":{"in":"1283"}}]}},{"toponym":"Compton","citations":[{"label":"1291 Tax","year":1291},{"label":"1303–1303, recurring FA","year":1303},{"label":"1303 FA","year":1303}],"when":{"timespans":[{"start":{"in":"1291"},"end":{"in":"1291"}},{"start":{"in":"1303"},"end":{"in":"1303"}},{"start":{"in":"1303"},"end":{"in":"1303"}}]}},{"toponym":"parva Compton","citations":[{"label":"1291 Tax","year":1291}],"when":{"timespans":[{"start":{"in":"1291"},"end":{"in":"1291"}}]}},{"toponym":"Magna Compton","citations":[{"label":"1327 SR","year":1327}],"when":{"timespans":[{"start":{"in":"1327"},"end":{"in":"1327"}}]}},{"toponym":"Apdale Compton","citations":[{"label":"1504 FF","year":1504}],"when":{"timespans":[{"start":{"in":"1504"},"end":{"in":"1504"}}]}},{"toponym":"Compton Abdale","citations":[{"label":"1535 VE","year":1535},{"label":"1543–1783, recurring AOMB","year":1543},{"label":"1543–1783, recurring PR"},{"label":"1543 AOMB","year":1543},{"label":"1783 PR","year":1783}],"when":{"timespans":[{"start":{"in":"1535"},"end":{"in":"1535"}},{"start":{"in":"1543"},"end":{"in":"1783"}},{"start":{"in":"1543"},"end":{"in":"1543"}},{"start":{"in":"1783"},"end":{"in":"1783"}}]}}],"types":[{"identifier":"http://vocab.getty.edu/aat/300232418","label":"administrative division","sourceLabels":[{"label":"township","lang":"en"}]}],"geometry":{"type":"GeometryCollection","geometries":[{"type":"Point","coordinates":[-1.91127,51.84061],"citations":[{"label":"GeoNames, gazetteer record geonames:7300561"}]},{"type":"Point","coordinates":[-1.912898504,51.84212704],"citations":[{"label":"English Place-Name Society survey (DEEP coordinates)"}]},{"type":"Point","coordinates":[-1.905630627806485,51.84661819606018],"citations":[{"label":"Unlock (EDINA) gazetteer, gazetteer record unlock:11114955"}]},{"type":"Point","coordinates":[-1.90703,51.8471],"citations":[{"label":"Key to English Place-Names (KEPN), gazetteer record 6262"}]}]},"when":{"timespans":[{"start":{"in":"1086"},"end":{"in":"1783"}}]},"links":[{"type":"closeMatch","identifier":"https://sws.geonames.org/7300561/"}],"relations":[{"relationType":"gvp:broaderPartitive","relationTo":"http://placenames.org.uk/id/placename/38/007290","label":"within Compton Abdale"}]}]}