{"@context":"https://raw.githubusercontent.com/LinkedPasts/linked-places-format/main/linkedplaces-context-v1.1.jsonld","type":"FeatureCollection","license":"Digitisation of English Placenames MADS data is licensed to Jisc by the English Place Names Society and released under a Creative Commons Attribution-NonCommercial 4.0 International License.","note":"LPF v1.3, lossy; derived from the PLATO record; plato_commit=ca0afadabec1e23a145c0b03df77e8f151f79832","features":[{"@id":"https://w3id.org/whg-epns/38/007779","type":"Feature","properties":{"title":"Salperton","ccodes":["GB"],"fclasses":["A","P"]},"names":[{"toponym":"Salperton","lang":"en","citations":[{"label":"English Place-Name Society survey, volume 38: Gloucestershire"}]},{"toponym":"Salpretvne","citations":[{"label":"1086 DB","year":1086}],"when":{"timespans":[{"start":{"in":"1086"},"end":{"in":"1086"}}]}},{"toponym":"Salpretone","citations":[{"label":"1287 QW","year":1287}],"when":{"timespans":[{"start":{"in":"1287"},"end":{"in":"1287"}}]}},{"toponym":"Salpertune, Salperton(e)","citations":[{"label":"1169 P","year":1169},{"label":"1185 Templar","year":1185},{"label":"1195 P","year":1195},{"label":"c. 1210 Monast","year":1200},{"label":"1221 Ass","year":1221},{"label":"1236 Fees","year":1236},{"label":"1241–1535, recurring FF","year":1241},{"label":"1241–1535, recurring VE"},{"label":"1241 FF","year":1241},{"label":"1535 VE","year":1535}],"when":{"timespans":[{"start":{"in":"1169"},"end":{"in":"1169"}},{"start":{"in":"1185"},"end":{"in":"1185"}},{"start":{"in":"1195"},"end":{"in":"1195"}},{"start":{"earliest":"1200","latest":"1220"},"end":{"earliest":"1200","latest":"1220"}},{"start":{"in":"1221"},"end":{"in":"1221"}},{"start":{"in":"1236"},"end":{"in":"1236"}},{"start":{"in":"1241"},"end":{"in":"1535"}},{"start":{"in":"1241"},"end":{"in":"1241"}},{"start":{"in":"1535"},"end":{"in":"1535"}}]}},{"toponym":"Salpartona","citations":[{"label":"1220 Fees","year":1220}],"when":{"timespans":[{"start":{"in":"1220"},"end":{"in":"1220"}}]}},{"toponym":"Salportona","citations":[{"label":"1321 WinchLB","year":1321}],"when":{"timespans":[{"start":{"in":"1321"},"end":{"in":"1321"}}]}}],"types":[{"identifier":"http://vocab.getty.edu/aat/300232418","label":"administrative division","sourceLabels":[{"label":"township","lang":"en"}]}],"geometry":{"type":"GeometryCollection","geometries":[{"type":"Point","coordinates":[-1.88983,51.88265],"citations":[{"label":"GeoNames, gazetteer record geonames:2638654"}]},{"type":"Point","coordinates":[-1.898300546,51.87808315],"citations":[{"label":"English Place-Name Society survey (DEEP coordinates)"}]},{"type":"Point","coordinates":[-1.891025411603169,51.88257338966481],"citations":[{"label":"Unlock (EDINA) gazetteer, gazetteer record unlock:11277147"}]},{"type":"Point","coordinates":[-1.89243,51.883],"citations":[{"label":"Key to English Place-Names (KEPN), gazetteer record 6270"}]}]},"when":{"timespans":[{"start":{"in":"1086"},"end":{"in":"1535"}}]},"links":[{"type":"closeMatch","identifier":"https://sws.geonames.org/2638654/"}],"relations":[{"relationType":"gvp:broaderPartitive","relationTo":"https://w3id.org/whg-epns/38/007778","label":"within Salperton"}]}]}