{"@context":"https://raw.githubusercontent.com/LinkedPasts/linked-places-format/main/linkedplaces-context-v1.1.jsonld","type":"FeatureCollection","license":"Digitisation of English Placenames MADS data is licensed to Jisc by the English Place Names Society and released under a Creative Commons Attribution-NonCommercial 4.0 International License.","note":"LPF v1.3, lossy; derived from the PLATO record; plato_commit=fa0d247ccc0263f8f19c8d7cdcd163df96935d1e","features":[{"@id":"https://w3id.org/whg-epns/38/008207","type":"Feature","properties":{"title":"Withington","ccodes":["GB"],"fclasses":["A","P"]},"names":[{"toponym":"Withington","lang":"en","citations":[{"label":"English Place-Name Society survey, volume 38: Gloucestershire"}]}],"types":[{"identifier":"http://vocab.getty.edu/aat/300232418","label":"administrative division","sourceLabels":[{"label":"parish","lang":"en"}]}],"geometry":{"type":"GeometryCollection","geometries":[{"type":"Point","coordinates":[-1.95,51.83333],"citations":[{"label":"GeoNames, gazetteer record geonames:2633740"}]},{"type":"Point","coordinates":[-1.970971935,51.83316371],"citations":[{"label":"English Place-Name Society survey (DEEP coordinates)"}]},{"type":"Point","coordinates":[-1.949195818785026,51.83765309093121],"citations":[{"label":"Unlock (EDINA) gazetteer, gazetteer record unlock:11324631"}]},{"type":"Point","coordinates":[-1.95059,51.8381],"citations":[{"label":"Key to English Place-Names (KEPN), gazetteer record 6277"}]}]},"links":[{"type":"closeMatch","identifier":"https://sws.geonames.org/2633740/"}],"relations":[{"relationType":"gvp:broaderPartitive","relationTo":"https://w3id.org/whg-epns/38/007142","label":"within Bradley Hundred"}]}]}