{"@context":"https://raw.githubusercontent.com/LinkedPasts/linked-places-format/main/linkedplaces-context-v1.1.jsonld","type":"FeatureCollection","license":"Digitisation of English Placenames MADS data is licensed to Jisc by the English Place Names Society and released under a Creative Commons Attribution-NonCommercial 4.0 International License.","note":"LPF v1.3, lossy; derived from the PLATO record; plato_commit=fa0d247ccc0263f8f19c8d7cdcd163df96935d1e","features":[{"@id":"https://w3id.org/whg-epns/38/008414","type":"Feature","properties":{"title":"Yanworth","ccodes":["GB"],"fclasses":["A","P"]},"names":[{"toponym":"Yanworth","lang":"en","citations":[{"label":"English Place-Name Society survey, volume 38: Gloucestershire"}]},{"toponym":"Janew(o)rth(e), Janewurth'","citations":[{"label":"1043-66 WinchLB","year":1043},{"label":"1248 Ass","year":1248},{"label":"p. 1412 GloucHist","year":1412}],"when":{"timespans":[{"start":{"earliest":"1043","latest":"1066"},"end":{"earliest":"1043","latest":"1066"}},{"start":{"in":"1216"},"end":{"in":"1216"}},{"start":{"in":"1248"},"end":{"in":"1248"}},{"start":{"earliest":"1412","latest":"1462"},"end":{"earliest":"1412","latest":"1462"}}]}},{"toponym":"Tenevrde","citations":[{"label":"1086 DB","year":1086}],"when":{"timespans":[{"start":{"in":"1086"},"end":{"in":"1086"}}]}},{"toponym":"Ʒeneworþe","citations":[{"label":"1154-89 Glouc","year":1154}],"when":{"timespans":[{"start":{"earliest":"1154","latest":"1189"},"end":{"earliest":"1154","latest":"1189"}}]}},{"toponym":"Þaneword(i)am, Þaneworthe, Þaneworþe","citations":[{"label":"12 Glouc","year":1100}],"when":{"timespans":[{"start":{"earliest":"1100","latest":"1200"},"end":{"earliest":"1100","latest":"1200"}},{"start":{"earliest":"1135","latest":"1154"},"end":{"earliest":"1135","latest":"1154"}},{"start":{"earliest":"1139","latest":"1148"},"end":{"earliest":"1139","latest":"1148"}},{"start":{"earliest":"1154","latest":"1189"},"end":{"earliest":"1154","latest":"1189"}}]}},{"toponym":"Ianeword(am), Ianeworþia, Ianeorþe, Ianew(o)rth(e)","citations":[{"label":"WinchLB","year":1162},{"label":"c. 1162-1384 WinchLB","year":1162}],"when":{"timespans":[{"start":{"in":"1162"},"end":{"in":"1384"}},{"start":{"earliest":"1162","latest":"1384"},"end":{"earliest":"1162","latest":"1384"}}]}},{"toponym":"Ʒanew(o)rth(e), Ʒanewrþe","citations":[{"label":"WinchLB","year":1211},{"label":"1211-1428 WinchLB","year":1211}],"when":{"timespans":[{"start":{"in":"1211"},"end":{"in":"1428"}},{"start":{"earliest":"1211","latest":"1428"},"end":{"earliest":"1211","latest":"1428"}}]}},{"toponym":"Hanewurth'","citations":[{"label":"1220 Cur","year":1220},{"label":"1221 Ass","year":1221}],"when":{"timespans":[{"start":{"in":"1220"},"end":{"in":"1220"}},{"start":{"in":"1221"},"end":{"in":"1221"}}]}},{"toponym":"Ieanworth","citations":[{"label":"1221 WinchLB","year":1221}],"when":{"timespans":[{"start":{"in":"1221"},"end":{"in":"1221"}}]}},{"toponym":"Ianesworth","citations":[{"label":"1251 Ch","year":1251}],"when":{"timespans":[{"start":{"in":"1251"},"end":{"in":"1251"}}]}},{"toponym":"Yanew(o)rth(e)","citations":[{"label":"1251 Ch","year":1251},{"label":"1251 WinchLB","year":1251},{"label":"1268 FF","year":1268},{"label":"1282 Episc","year":1282},{"label":"Ass","year":1287},{"label":"Pat"},{"label":"1287 Ass","year":1287},{"label":"1413 Pat","year":1413}],"when":{"timespans":[{"start":{"in":"1251"},"end":{"in":"1251"}},{"start":{"in":"1251"},"end":{"in":"1251"}},{"start":{"in":"1268"},"end":{"in":"1268"}},{"start":{"in":"1282"},"end":{"in":"1282"}},{"start":{"in":"1287"},"end":{"in":"1413"}},{"start":{"in":"1287"},"end":{"in":"1287"}},{"start":{"in":"1413"},"end":{"in":"1413"}}]}},{"toponym":"Yaueneworth","citations":[{"label":"1287 Ass","year":1287}],"when":{"timespans":[{"start":{"in":"1287"},"end":{"in":"1287"}}]}},{"toponym":"Yanworth","citations":[{"label":"1316 FA","year":1316},{"label":"1540 MinAcct","year":1540},{"label":"1611 FF","year":1611}],"when":{"timespans":[{"start":{"in":"1316"},"end":{"in":"1316"}},{"start":{"in":"1540"},"end":{"in":"1540"}},{"start":{"in":"1611"},"end":{"in":"1611"}}]}},{"toponym":"Enworth","citations":[{"label":"1535 VE","year":1535}],"when":{"timespans":[{"start":{"in":"1535"},"end":{"in":"1535"}}]}},{"toponym":"Yeaneworth","citations":[{"label":"1632 PR","year":1632}],"when":{"timespans":[{"start":{"in":"1632"},"end":{"in":"1632"}}]}}],"types":[{"identifier":"http://vocab.getty.edu/aat/300232418","label":"administrative division","sourceLabels":[{"label":"township","lang":"en"}]}],"geometry":{"type":"GeometryCollection","geometries":[{"type":"Point","coordinates":[-1.89186,51.82196],"citations":[{"label":"GeoNames, gazetteer record geonames:2633423"}]},{"type":"Point","coordinates":[-1.898442298,51.81513943],"citations":[{"label":"English Place-Name Society survey (DEEP coordinates)"}]},{"type":"Point","coordinates":[-1.891177328617578,51.81962970752107],"citations":[{"label":"Unlock (EDINA) gazetteer, gazetteer record unlock:11328230"}]},{"type":"Point","coordinates":[-1.89258,51.8201],"citations":[{"label":"Key to English Place-Names (KEPN), gazetteer record 6278"}]}]},"when":{"timespans":[{"start":{"in":"1043"},"end":{"in":"1632"}}]},"links":[{"type":"closeMatch","identifier":"https://sws.geonames.org/2633423/"}],"relations":[{"relationType":"gvp:broaderPartitive","relationTo":"https://w3id.org/whg-epns/38/008413","label":"within Yanworth"}]}]}