{"@context":"https://raw.githubusercontent.com/LinkedPasts/linked-places-format/main/linkedplaces-context-v1.1.jsonld","type":"FeatureCollection","license":"Digitisation of English Placenames MADS data is licensed to Jisc by the English Place Names Society and released under a Creative Commons Attribution-NonCommercial 4.0 International License.","note":"LPF v1.3, lossy; derived from the PLATO record; plato_commit=ca0afadabec1e23a145c0b03df77e8f151f79832","features":[{"@id":"https://w3id.org/whg-epns/38/008512","type":"Feature","properties":{"title":"Great Barrington","ccodes":["GB"],"fclasses":["A","P"]},"names":[{"toponym":"Great Barrington","lang":"en","citations":[{"label":"English Place-Name Society survey, volume 38: Gloucestershire"}]}],"types":[{"identifier":"http://vocab.getty.edu/aat/300232418","label":"administrative division","sourceLabels":[{"label":"parish","lang":"en"}]}],"geometry":{"type":"GeometryCollection","geometries":[{"type":"Point","coordinates":[-1.69861,51.82136],"citations":[{"label":"GeoNames, gazetteer record geonames:2648166"}]},{"type":"Point","coordinates":[-1.69532896,51.81478865],"citations":[{"label":"English Place-Name Society survey (DEEP coordinates)"}]},{"type":"Point","coordinates":[-1.702553238344774,51.81930392995285],"citations":[{"label":"Unlock (EDINA) gazetteer, gazetteer record unlock:11158450"}]},{"type":"Point","coordinates":[-1.68947,51.8197],"citations":[{"label":"Key to English Place-Names (KEPN), gazetteer record 6279"}]}]},"links":[{"type":"closeMatch","identifier":"https://sws.geonames.org/2648166/"}],"relations":[{"relationType":"gvp:broaderPartitive","relationTo":"https://w3id.org/whg-epns/38/008478","label":"within Slaughter Hundred"}]}]}