{"@context":"https://raw.githubusercontent.com/LinkedPasts/linked-places-format/main/linkedplaces-context-v1.1.jsonld","type":"FeatureCollection","license":"Digitisation of English Placenames MADS data is licensed to Jisc by the English Place Names Society and released under a Creative Commons Attribution-NonCommercial 4.0 International License.","note":"LPF v1.3, lossy; derived from the PLATO record; plato_commit=ca0afadabec1e23a145c0b03df77e8f151f79832","features":[{"@id":"http://placenames.org.uk/id/placename/38/008797","type":"Feature","properties":{"title":"Naunton","ccodes":["GB"],"fclasses":["A","P"]},"names":[{"toponym":"Naunton","lang":"en","citations":[{"label":"English Place-Name Society survey, volume 38: Gloucestershire"}]},{"toponym":"Niwetone, Niwetune","citations":[{"label":"1086 DB","year":1086},{"label":"1185 Templar","year":1185}],"when":{"timespans":[{"start":{"in":"1086"},"end":{"in":"1086"}},{"start":{"in":"1185"},"end":{"in":"1185"}}]}},{"toponym":"Newynton, Newinton","citations":[{"label":"J Monast","year":1199},{"label":"13 Misc","year":1200},{"label":"1287 Ipm","year":1287},{"label":"1480 Pat","year":1480}],"when":{"timespans":[{"start":{"earliest":"1199","latest":"1216"},"end":{"earliest":"1199","latest":"1216"}},{"start":{"earliest":"1200","latest":"1300"},"end":{"earliest":"1200","latest":"1300"}},{"start":{"in":"1287"},"end":{"in":"1287"}},{"start":{"in":"1375"},"end":{"in":"1375"}},{"start":{"in":"1480"},"end":{"in":"1480"}}]}},{"toponym":"Newinton super Codeswold","citations":[{"label":"J Monast","year":1199}],"when":{"timespans":[{"start":{"earliest":"1199","latest":"1216"},"end":{"earliest":"1199","latest":"1216"}}]}},{"toponym":"Newinton on le Wolde","citations":[{"label":"1378 AD","year":1378}],"when":{"timespans":[{"start":{"in":"1378"},"end":{"in":"1378"}}]}},{"toponym":"Newinton de la Wolde","citations":[{"label":"1379 FF","year":1379},{"label":"1380 Ipm","year":1380}],"when":{"timespans":[{"start":{"in":"1379"},"end":{"in":"1379"}},{"start":{"in":"1380"},"end":{"in":"1380"}}]}},{"toponym":"Newenton(e)","citations":[{"label":"1235 Fees","year":1235},{"label":"1248 Ass","year":1248},{"label":"1284 Episc","year":1284},{"label":"1287–1501, recurring QW","year":1287},{"label":"1287–1501, recurring Ipm"},{"label":"1287 QW","year":1287},{"label":"1501 Ipm","year":1501}],"when":{"timespans":[{"start":{"in":"1235"},"end":{"in":"1235"}},{"start":{"in":"1248"},"end":{"in":"1248"}},{"start":{"in":"1284"},"end":{"in":"1284"}},{"start":{"in":"1287"},"end":{"in":"1501"}},{"start":{"in":"1287"},"end":{"in":"1287"}},{"start":{"in":"1501"},"end":{"in":"1501"}}]}},{"toponym":"Newenton(e) in Cotswold","citations":[{"label":"1289 Episc","year":1289}],"when":{"timespans":[{"start":{"in":"1289"},"end":{"in":"1289"}}]}},{"toponym":"Newenton(e) super Coddeswolde","citations":[{"label":"1303 Pat","year":1303}],"when":{"timespans":[{"start":{"in":"1303"},"end":{"in":"1303"}}]}},{"toponym":"Newenton(e) als. Nawnton super Cottesold","citations":[{"label":"1570 FF","year":1570}],"when":{"timespans":[{"start":{"in":"1570"},"end":{"in":"1570"}}]}},{"toponym":"Neweton","citations":[{"label":"1303 FA","year":1303}],"when":{"timespans":[{"start":{"in":"1303"},"end":{"in":"1303"}}]}},{"toponym":"Neuton on Coteswolde","citations":[{"label":"1304 Pat","year":1304}],"when":{"timespans":[{"start":{"in":"1304"},"end":{"in":"1304"}}]}},{"toponym":"Newton als. Naunton","citations":[{"label":"1591 FF","year":1591}],"when":{"timespans":[{"start":{"in":"1591"},"end":{"in":"1591"}}]}},{"toponym":"Niwenton super Coteswalde","citations":[{"label":"1307 Pat","year":1307}],"when":{"timespans":[{"start":{"in":"1307"},"end":{"in":"1307"}}]}},{"toponym":"Niwenton","citations":[{"label":"1328 Misc","year":1328}],"when":{"timespans":[{"start":{"in":"1328"},"end":{"in":"1328"}}]}},{"toponym":"Newnton","citations":[{"label":"Hy 6 AddCh","year":1422}],"when":{"timespans":[{"start":{"earliest":"1422","latest":"1471"},"end":{"earliest":"1422","latest":"1471"}}]}},{"toponym":"Nawinton, Nawenton","citations":[{"label":"1484 Rogers","year":1484},{"label":"1545 LP","year":1545}],"when":{"timespans":[{"start":{"in":"1484"},"end":{"in":"1484"}},{"start":{"in":"1545"},"end":{"in":"1545"}}]}},{"toponym":"Nawenton upon Cottesold","citations":[{"label":"1544 LP","year":1544}],"when":{"timespans":[{"start":{"in":"1544"},"end":{"in":"1544"}}]}},{"toponym":"Nawenton upon Cottiswolde","citations":[{"label":"1597 FF","year":1597}],"when":{"timespans":[{"start":{"in":"1597"},"end":{"in":"1597"}}]}},{"toponym":"Nawenton als. Nawneton on Cotteswoulde","citations":[{"label":"1625 Inq","year":1625}],"when":{"timespans":[{"start":{"in":"1625"},"end":{"in":"1625"}}]}},{"toponym":"Naunton, Nawnton","citations":[{"label":"1476 IpmR","year":1476},{"label":"1535–1683, recurring VE","year":1535},{"label":"1535–1683, recurring PR"},{"label":"1535 VE","year":1535},{"label":"1683 PR","year":1683}],"when":{"timespans":[{"start":{"in":"1476"},"end":{"in":"1476"}},{"start":{"in":"1535"},"end":{"in":"1683"}},{"start":{"in":"1535"},"end":{"in":"1535"}},{"start":{"in":"1683"},"end":{"in":"1683"}}]}},{"toponym":"Nawnton super Cott(e)swo(u)lde","citations":[{"label":"1566 FF","year":1566},{"label":"1642 Inq","year":1642}],"when":{"timespans":[{"start":{"in":"1566"},"end":{"in":"1566"}},{"start":{"in":"1642"},"end":{"in":"1642"}}]}}],"types":[{"identifier":"http://vocab.getty.edu/aat/300232418","label":"administrative division","sourceLabels":[{"label":"township","lang":"en"}]}],"geometry":{"type":"GeometryCollection","geometries":[{"type":"Point","coordinates":[-1.83333,51.9],"citations":[{"label":"GeoNames, gazetteer record geonames:2641865"}]},{"type":"Point","coordinates":[-1.840091057,51.90499419],"citations":[{"label":"English Place-Name Society survey (DEEP coordinates)"}]},{"type":"Point","coordinates":[-1.832805760024714,51.90948080812757],"citations":[{"label":"Unlock (EDINA) gazetteer, gazetteer record unlock:11227131"}]},{"type":"Point","coordinates":[-1.83422,51.9099],"citations":[{"label":"Key to English Place-Names (KEPN), gazetteer record 6284"}]}]},"when":{"timespans":[{"start":{"in":"1086"},"end":{"in":"1683"}}]},"links":[{"type":"closeMatch","identifier":"https://sws.geonames.org/2641865/"}],"relations":[{"relationType":"gvp:broaderPartitive","relationTo":"http://placenames.org.uk/id/placename/38/008796","label":"within Naunton"}]}]}