{"@context":"https://raw.githubusercontent.com/LinkedPasts/linked-places-format/main/linkedplaces-context-v1.1.jsonld","type":"FeatureCollection","license":"Digitisation of English Placenames MADS data is licensed to Jisc by the English Place Names Society and released under a Creative Commons Attribution-NonCommercial 4.0 International License.","note":"LPF v1.3, lossy; derived from the PLATO record; plato_commit=ca0afadabec1e23a145c0b03df77e8f151f79832","features":[{"@id":"https://w3id.org/whg-epns/38/008785","type":"Feature","properties":{"title":"Eyford","ccodes":["GB"],"fclasses":["A","P"]},"names":[{"toponym":"Eyford","lang":"en","citations":[{"label":"English Place-Name Society survey, volume 38: Gloucestershire"}]},{"toponym":"Aiforde","citations":[{"label":"1086 DB","year":1086}],"when":{"timespans":[{"start":{"in":"1086"},"end":{"in":"1086"}}]}},{"toponym":"Heyford, Heiford","citations":[{"label":"1220 Fees","year":1220},{"label":"1327 SR","year":1327}],"when":{"timespans":[{"start":{"in":"1220"},"end":{"in":"1220"}},{"start":{"in":"1236"},"end":{"in":"1236"}},{"start":{"in":"1327"},"end":{"in":"1327"}}]}},{"toponym":"Hayford(e)","citations":[{"label":"1316 FA","year":1316},{"label":"1551 Pat","year":1551}],"when":{"timespans":[{"start":{"in":"1316"},"end":{"in":"1316"}},{"start":{"in":"1551"},"end":{"in":"1551"}}]}},{"toponym":"Eyford(e)","citations":[{"label":"1272 Episc","year":1272},{"label":"1303 FA","year":1303},{"label":"1327 SR","year":1327},{"label":"1360–1752, recurring Ipm","year":1360},{"label":"1360–1752, recurring PR"},{"label":"1360 Ipm","year":1360},{"label":"1752 PR","year":1752}],"when":{"timespans":[{"start":{"in":"1272"},"end":{"in":"1272"}},{"start":{"in":"1303"},"end":{"in":"1303"}},{"start":{"in":"1327"},"end":{"in":"1327"}},{"start":{"in":"1360"},"end":{"in":"1752"}},{"start":{"in":"1360"},"end":{"in":"1360"}},{"start":{"in":"1752"},"end":{"in":"1752"}}]}},{"toponym":"Eyvorde","citations":[{"label":"1318 WinchLB","year":1318}],"when":{"timespans":[{"start":{"in":"1318"},"end":{"in":"1318"}}]}},{"toponym":"Exford als. Eysford","citations":[{"label":"1618 FF","year":1618}],"when":{"timespans":[{"start":{"in":"1618"},"end":{"in":"1618"}}]}}],"types":[{"identifier":"http://vocab.getty.edu/aat/300232418","label":"administrative division","sourceLabels":[{"label":"township","lang":"en"}]}],"geometry":{"type":"GeometryCollection","geometries":[{"type":"Point","coordinates":[-1.796398474,51.9229105],"citations":[{"label":"English Place-Name Society survey (DEEP coordinates)"}]},{"type":"Point","coordinates":[-1.803650236862375,51.92741954422396],"citations":[{"label":"Unlock (EDINA) gazetteer, gazetteer record unlock:11141220"}]},{"type":"Point","coordinates":[-1.80507,51.9279],"citations":[{"label":"Key to English Place-Names (KEPN), gazetteer record 6283"}]}]},"when":{"timespans":[{"start":{"in":"1086"},"end":{"in":"1752"}}]},"relations":[{"relationType":"gvp:broaderPartitive","relationTo":"https://w3id.org/whg-epns/38/008784","label":"within Eyford"}]}]}