{"@context":"https://raw.githubusercontent.com/LinkedPasts/linked-places-format/main/linkedplaces-context-v1.1.jsonld","type":"FeatureCollection","license":"Digitisation of English Placenames MADS data is licensed to Jisc by the English Place Names Society and released under a Creative Commons Attribution-NonCommercial 4.0 International License.","note":"LPF v1.3, lossy; derived from the PLATO record; plato_commit=ca0afadabec1e23a145c0b03df77e8f151f79832","features":[{"@id":"https://w3id.org/whg-epns/38/009565","type":"Feature","properties":{"title":"Broadwell","ccodes":["GB"],"fclasses":["A","P"]},"names":[{"toponym":"Broadwell","lang":"en","citations":[{"label":"English Place-Name Society survey, volume 38: Gloucestershire"}]},{"toponym":"Bradewell(e)","citations":[{"label":"11 KCD","year":1000},{"label":"1086 DB","year":1086},{"label":"1221 FF","year":1221},{"label":"1221 Ass","year":1221},{"label":"1251 Ch","year":1251},{"label":"1276–1428, recurring RH","year":1276},{"label":"1276–1428, recurring AddRoll"},{"label":"1276 RH","year":1276},{"label":"1428 AddRoll","year":1428}],"when":{"timespans":[{"start":{"earliest":"1000","latest":"1100"},"end":{"earliest":"1000","latest":"1100"}},{"start":{"in":"1086"},"end":{"in":"1086"}},{"start":{"in":"1221"},"end":{"in":"1221"}},{"start":{"in":"1221"},"end":{"in":"1221"}},{"start":{"in":"1251"},"end":{"in":"1251"}},{"start":{"in":"1276"},"end":{"in":"1428"}},{"start":{"in":"1276"},"end":{"in":"1276"}},{"start":{"in":"1428"},"end":{"in":"1428"}}]}},{"toponym":"Bradwell","citations":[{"label":"1433 Pat","year":1433},{"label":"1535–1675, recurring VE","year":1535},{"label":"1535–1675, recurring Og"},{"label":"1535 VE","year":1535},{"label":"1675 Og","year":1675}],"when":{"timespans":[{"start":{"in":"1433"},"end":{"in":"1433"}},{"start":{"in":"1535"},"end":{"in":"1675"}},{"start":{"in":"1535"},"end":{"in":"1535"}},{"start":{"in":"1675"},"end":{"in":"1675"}}]}},{"toponym":"Brodwell","citations":[{"label":"1605 Comm","year":1605},{"label":"1611 Rec","year":1611}],"when":{"timespans":[{"start":{"in":"1605"},"end":{"in":"1605"}},{"start":{"in":"1611"},"end":{"in":"1611"}}]}},{"toponym":"Broadwell","citations":[{"label":"1684 PR","year":1684},{"label":"1715 PR","year":1715}],"when":{"timespans":[{"start":{"in":"1684"},"end":{"in":"1684"}},{"start":{"in":"1715"},"end":{"in":"1715"}}]}}],"types":[{"identifier":"http://vocab.getty.edu/aat/300232418","label":"administrative division","sourceLabels":[{"label":"township","lang":"en"}]}],"geometry":{"type":"GeometryCollection","geometries":[{"type":"Point","coordinates":[-1.70511,51.94575],"citations":[{"label":"GeoNames, gazetteer record geonames:2654626"}]},{"type":"Point","coordinates":[-1.709025421,51.9407107],"citations":[{"label":"English Place-Name Society survey (DEEP coordinates)"}]},{"type":"Point","coordinates":[-1.701721256370625,51.94518915126898],"citations":[{"label":"Unlock (EDINA) gazetteer, gazetteer record unlock:11088199"}]},{"type":"Point","coordinates":[-1.70315,51.9456],"citations":[{"label":"Key to English Place-Names (KEPN), gazetteer record 6294"}]}]},"when":{"timespans":[{"start":{"in":"1000"},"end":{"in":"1715"}}]},"links":[{"type":"closeMatch","identifier":"https://sws.geonames.org/2654626/"}],"relations":[{"relationType":"gvp:broaderPartitive","relationTo":"https://w3id.org/whg-epns/38/009564","label":"within Broadwell"}]}]}