{"@context":"https://raw.githubusercontent.com/LinkedPasts/linked-places-format/main/linkedplaces-context-v1.1.jsonld","type":"FeatureCollection","license":"Digitisation of English Placenames MADS data is licensed to Jisc by the English Place Names Society and released under a Creative Commons Attribution-NonCommercial 4.0 International License.","note":"LPF v1.3, lossy; derived from the PLATO record; plato_commit=ca0afadabec1e23a145c0b03df77e8f151f79832","features":[{"@id":"https://w3id.org/whg-epns/38/009677","type":"Feature","properties":{"title":"Donnington","ccodes":["GB"],"fclasses":["A","P"]},"names":[{"toponym":"Donnington","lang":"en","citations":[{"label":"English Place-Name Society survey, volume 38: Gloucestershire"}]}],"types":[{"identifier":"http://vocab.getty.edu/aat/300232418","label":"administrative division","sourceLabels":[{"label":"parish","lang":"en"}]}],"geometry":{"type":"GeometryCollection","geometries":[{"type":"Point","coordinates":[-1.72142,51.95135],"citations":[{"label":"GeoNames, gazetteer record geonames:6697375"}]},{"type":"Point","coordinates":[-1.723518681,51.94973748],"citations":[{"label":"English Place-Name Society survey (DEEP coordinates)"}]},{"type":"Point","coordinates":[-1.716214490938098,51.95421682152455],"citations":[{"label":"Unlock (EDINA) gazetteer, gazetteer record unlock:11130681"}]},{"type":"Point","coordinates":[-1.71764,51.9547],"citations":[{"label":"Key to English Place-Names (KEPN), gazetteer record 6297"}]}]},"links":[{"type":"closeMatch","identifier":"https://sws.geonames.org/6697375/"}],"relations":[{"relationType":"gvp:broaderPartitive","relationTo":"https://w3id.org/whg-epns/38/009410","label":"within Slaughter Hundred"}]}]}