{"@context":"https://raw.githubusercontent.com/LinkedPasts/linked-places-format/main/linkedplaces-context-v1.1.jsonld","type":"FeatureCollection","license":"Digitisation of English Placenames MADS data is licensed to Jisc by the English Place Names Society and released under a Creative Commons Attribution-NonCommercial 4.0 International License.","note":"LPF v1.3, lossy; derived from the PLATO record; plato_commit=ca0afadabec1e23a145c0b03df77e8f151f79832","features":[{"@id":"https://w3id.org/whg-epns/38/010232","type":"Feature","properties":{"title":"Kiftsgate Hundred (Upper Division)","ccodes":["GB"],"fclasses":["A"]},"names":[{"toponym":"Kiftsgate Hundred (Upper Division)","lang":"en","citations":[{"label":"English Place-Name Society survey, volume 38: Gloucestershire"}]},{"toponym":"Cheftesihat","citations":[{"label":"1086 DB","year":1086}],"when":{"timespans":[{"start":{"in":"1086"},"end":{"in":"1086"}}]}},{"toponym":"Keftesgate hundredum","citations":[{"label":"1183 P","year":1183},{"label":"1274 RH","year":1274},{"label":"1284 Pat","year":1284}],"when":{"timespans":[{"start":{"in":"1183"},"end":{"in":"1183"}},{"start":{"in":"1187"},"end":{"in":"1187"}},{"start":{"in":"1274"},"end":{"in":"1274"}},{"start":{"in":"1284"},"end":{"in":"1284"}},{"start":{"in":"1484"},"end":{"in":"1484"}}]}},{"toponym":"Keftegate","citations":[{"label":"1303 FA","year":1303},{"label":"1485 Pat","year":1485}],"when":{"timespans":[{"start":{"in":"1303"},"end":{"in":"1303"}},{"start":{"in":"1485"},"end":{"in":"1485"}}]}},{"toponym":"Kiftesgate, Kyftesgate hundredum, Kyftesgat'","citations":[{"label":"1193 P","year":1193},{"label":"1220 Fees","year":1220},{"label":"1233 Pat","year":1233},{"label":"1248 Ass","year":1248},{"label":"1255 Cl","year":1255},{"label":"1259 WinchLB","year":1259},{"label":"1274 RH","year":1274},{"label":"1279 Ipm","year":1279},{"label":"1285–1568, recurring FA","year":1285},{"label":"1285–1568, recurring Comm"},{"label":"1285 FA","year":1285},{"label":"1568 Comm","year":1568}],"when":{"timespans":[{"start":{"in":"1193"},"end":{"in":"1193"}},{"start":{"in":"1220"},"end":{"in":"1220"}},{"start":{"in":"1233"},"end":{"in":"1233"}},{"start":{"in":"1248"},"end":{"in":"1248"}},{"start":{"in":"1255"},"end":{"in":"1255"}},{"start":{"in":"1259"},"end":{"in":"1259"}},{"start":{"in":"1274"},"end":{"in":"1274"}},{"start":{"in":"1279"},"end":{"in":"1279"}},{"start":{"in":"1285"},"end":{"in":"1568"}},{"start":{"in":"1285"},"end":{"in":"1285"}},{"start":{"in":"1568"},"end":{"in":"1568"}}]}},{"toponym":"Kiftesygate","citations":[{"label":"1221 Ass","year":1221}],"when":{"timespans":[{"start":{"in":"1221"},"end":{"in":"1221"}}]}},{"toponym":"Kiftesygwat","citations":[{"label":"1221 Eyre","year":1221}],"when":{"timespans":[{"start":{"in":"1221"},"end":{"in":"1221"}}]}},{"toponym":"Kiftesyiate","citations":[{"label":"1221 Ass","year":1221}],"when":{"timespans":[{"start":{"in":"1221"},"end":{"in":"1221"}}]}},{"toponym":"Kiftesy(h)ate","citations":[{"label":"1248 Ass","year":1248}],"when":{"timespans":[{"start":{"in":"1248"},"end":{"in":"1248"}}]}},{"toponym":"Kuftesgat(e)","citations":[{"label":"1227-1230 Pat","year":1227}],"when":{"timespans":[{"start":{"earliest":"1227","latest":"1230"},"end":{"earliest":"1227","latest":"1230"}}]}},{"toponym":"Kufteseyte","citations":[{"label":"1236 Theok","year":1236}],"when":{"timespans":[{"start":{"in":"1236"},"end":{"in":"1236"}}]}},{"toponym":"Skuftesgat(e)","citations":[{"label":"1223 Pat","year":1223}],"when":{"timespans":[{"start":{"in":"1223"},"end":{"in":"1223"}},{"start":{"in":"1228"},"end":{"in":"1228"}}]}},{"toponym":"Khyftesyate","citations":[{"label":"1248 Ass","year":1248}],"when":{"timespans":[{"start":{"in":"1248"},"end":{"in":"1248"}}]}},{"toponym":"Kiftegate, Kyftegate","citations":[{"label":"1251 Pat","year":1251},{"label":"1287 Ass","year":1287},{"label":"1316 FA","year":1316},{"label":"1395 Pat","year":1395}],"when":{"timespans":[{"start":{"in":"1251"},"end":{"in":"1251"}},{"start":{"in":"1287"},"end":{"in":"1287"}},{"start":{"in":"1316"},"end":{"in":"1316"}},{"start":{"in":"1395"},"end":{"in":"1395"}}]}},{"toponym":"Kyfhyate","citations":[{"label":"1495 Rent","year":1495}],"when":{"timespans":[{"start":{"in":"1495"},"end":{"in":"1495"}}]}},{"toponym":"Kyfgate","citations":[{"label":"1536 Rent","year":1536}],"when":{"timespans":[{"start":{"in":"1536"},"end":{"in":"1536"}}]}},{"toponym":"Kippisgate","citations":[{"label":"1518 Glouc","year":1518}],"when":{"timespans":[{"start":{"in":"1518"},"end":{"in":"1518"}}]}},{"toponym":"Kuesgate","citations":[{"label":"c. 1560 Surv","year":1550}],"when":{"timespans":[{"start":{"earliest":"1550","latest":"1570"},"end":{"earliest":"1550","latest":"1570"}}]}}],"types":[{"identifier":"http://vocab.getty.edu/aat/300232418","label":"administrative division","sourceLabels":[{"label":"hundred / wapentake","lang":"en"}]}],"geometry":null,"when":{"timespans":[{"start":{"in":"1086"},"end":{"in":"1570"}}]},"relations":[{"relationType":"gvp:broaderPartitive","relationTo":"https://w3id.org/whg-epns/38/000001","label":"within Gloucestershire"}]}]}