{"@context":"https://raw.githubusercontent.com/LinkedPasts/linked-places-format/main/linkedplaces-context-v1.1.jsonld","type":"FeatureCollection","license":"Digitisation of English Placenames MADS data is licensed to Jisc by the English Place Names Society and released under a Creative Commons Attribution-NonCommercial 4.0 International License.","note":"LPF v1.3, lossy; derived from the PLATO record; plato_commit=fa0d247ccc0263f8f19c8d7cdcd163df96935d1e","features":[{"@id":"https://w3id.org/whg-epns/38/010521","type":"Feature","properties":{"title":"Bourton on the Hill","ccodes":["GB"],"fclasses":["A","P"]},"names":[{"toponym":"Bourton on the Hill","lang":"en","citations":[{"label":"English Place-Name Society survey, volume 38: Gloucestershire"}]},{"toponym":"Bortvne","citations":[{"label":"1086 DB","year":1086}],"when":{"timespans":[{"start":{"in":"1086"},"end":{"in":"1086"}}]}},{"toponym":"Burton'","citations":[{"label":"1173 P","year":1173},{"label":"1206 Abbr","year":1206},{"label":"1221 Eyre","year":1221},{"label":"1231 Cl","year":1231},{"label":"Ass","year":1287},{"label":"Rent"},{"label":"1287 Ass","year":1287},{"label":"1536 Rent","year":1536}],"when":{"timespans":[{"start":{"in":"1173"},"end":{"in":"1173"}},{"start":{"in":"1206"},"end":{"in":"1206"}},{"start":{"in":"1221"},"end":{"in":"1221"}},{"start":{"in":"1231"},"end":{"in":"1231"}},{"start":{"in":"1287"},"end":{"in":"1536"}},{"start":{"in":"1287"},"end":{"in":"1287"}},{"start":{"in":"1536"},"end":{"in":"1536"}}]}},{"toponym":"Burton' in Hennemeyrs'","citations":[{"label":"1274 FF","year":1274}],"when":{"timespans":[{"start":{"in":"1274"},"end":{"in":"1274"}}]}},{"toponym":"Burton' in Henmarsh","citations":[{"label":"1500-15 ECP","year":1500}],"when":{"timespans":[{"start":{"earliest":"1500","latest":"1515"},"end":{"earliest":"1500","latest":"1515"}}]}},{"toponym":"Burton' iuxta Campedene","citations":[{"label":"1291 FF","year":1291}],"when":{"timespans":[{"start":{"in":"1291"},"end":{"in":"1291"}}]}},{"toponym":"Burton' super montem","citations":[{"label":"1535 VE","year":1535},{"label":"1541 FF","year":1541},{"label":"1577 M","year":1577}],"when":{"timespans":[{"start":{"in":"1535"},"end":{"in":"1535"}},{"start":{"in":"1541"},"end":{"in":"1541"}},{"start":{"in":"1577"},"end":{"in":"1577"}}]}},{"toponym":"Burton' upon the Hill","citations":[{"label":"1552 Pat","year":1552}],"when":{"timespans":[{"start":{"in":"1552"},"end":{"in":"1552"}}]}},{"toponym":"Bourton","citations":[{"label":"c. 1195 Godstow","year":1185},{"label":"1287 Ass","year":1287},{"label":"Tax","year":1291},{"label":"Rent"},{"label":"1291 Tax","year":1291},{"label":"1495 Rent","year":1495}],"when":{"timespans":[{"start":{"earliest":"1185","latest":"1205"},"end":{"earliest":"1185","latest":"1205"}},{"start":{"in":"1287"},"end":{"in":"1287"}},{"start":{"in":"1291"},"end":{"in":"1495"}},{"start":{"in":"1291"},"end":{"in":"1291"}},{"start":{"in":"1495"},"end":{"in":"1495"}}]}},{"toponym":"Bourton in Hen(n)emersh","citations":[{"label":"1415 IpmR","year":1415},{"label":"1415 AD","year":1415}],"when":{"timespans":[{"start":{"in":"1415"},"end":{"in":"1415"}},{"start":{"in":"1415"},"end":{"in":"1415"}}]}},{"toponym":"Bourton in Hemmarsh","citations":[{"label":"1421 Pat","year":1421}],"when":{"timespans":[{"start":{"in":"1421"},"end":{"in":"1421"}}]}},{"toponym":"Bourton on the Hill","citations":[{"label":"1741 PR","year":1741}],"when":{"timespans":[{"start":{"in":"1741"},"end":{"in":"1741"}}]}},{"toponym":"Borghtone","citations":[{"label":"1331 Ipm","year":1331}],"when":{"timespans":[{"start":{"in":"1331"},"end":{"in":"1331"}}]}},{"toponym":"Boorton","citations":[{"label":"1434 MinAcct","year":1434}],"when":{"timespans":[{"start":{"in":"1434"},"end":{"in":"1434"}}]}},{"toponym":"Boorton in Hennemershe","citations":[{"label":"1393 Cl","year":1393}],"when":{"timespans":[{"start":{"in":"1393"},"end":{"in":"1393"}}]}},{"toponym":"Borton super Montem als. Borton in Henmarshe","citations":[{"label":"1590 FF","year":1590}],"when":{"timespans":[{"start":{"in":"1590"},"end":{"in":"1590"}}]}},{"toponym":"Borton on the Hill","citations":[{"label":"1714 PR","year":1714}],"when":{"timespans":[{"start":{"in":"1714"},"end":{"in":"1714"}}]}}],"types":[{"identifier":"http://vocab.getty.edu/aat/300232418","label":"administrative division","sourceLabels":[{"label":"township","lang":"en"}]}],"geometry":{"type":"GeometryCollection","geometries":[{"type":"Point","coordinates":[-1.73333,51.98333],"citations":[{"label":"GeoNames, gazetteer record geonames:2655088"}]},{"type":"Point","coordinates":[-1.752423561,51.98576904],"citations":[{"label":"English Place-Name Society survey (DEEP coordinates)"}]},{"type":"Point","coordinates":[-1.74654,51.9907],"citations":[{"label":"Key to English Place-Names (KEPN), gazetteer record 15955"}]}]},"when":{"timespans":[{"start":{"in":"1086"},"end":{"in":"1741"}}]},"links":[{"type":"closeMatch","identifier":"https://sws.geonames.org/2655088/"}],"relations":[{"relationType":"gvp:broaderPartitive","relationTo":"https://w3id.org/whg-epns/38/010520","label":"within Bourton on the Hill"}]}]}