{"@context":"https://raw.githubusercontent.com/LinkedPasts/linked-places-format/main/linkedplaces-context-v1.1.jsonld","type":"FeatureCollection","license":"Digitisation of English Placenames MADS data is licensed to Jisc by the English Place Names Society and released under a Creative Commons Attribution-NonCommercial 4.0 International License.","note":"LPF v1.3, lossy; derived from the PLATO record; plato_commit=fa0d247ccc0263f8f19c8d7cdcd163df96935d1e","features":[{"@id":"https://w3id.org/whg-epns/38/010660","type":"Feature","properties":{"title":"Clifford Chambers","ccodes":["GB"],"fclasses":["A","P"]},"names":[{"toponym":"Clifford Chambers","lang":"en","citations":[{"label":"English Place-Name Society survey, volume 38: Gloucestershire"}]}],"types":[{"identifier":"http://vocab.getty.edu/aat/300232418","label":"administrative division","sourceLabels":[{"label":"parish","lang":"en"}]}],"geometry":{"type":"GeometryCollection","geometries":[{"type":"Point","coordinates":[-1.722183224,52.1655346],"citations":[{"label":"English Place-Name Society survey (DEEP coordinates)"}]},{"type":"Point","coordinates":[-1.714843531651939,52.17001370898073],"citations":[{"label":"Unlock (EDINA) gazetteer, gazetteer record unlock:11109202"}]},{"type":"Point","coordinates":[-1.71628,52.1704],"citations":[{"label":"Key to English Place-Names (KEPN), gazetteer record 6308"}]}]},"relations":[{"relationType":"gvp:broaderPartitive","relationTo":"https://w3id.org/whg-epns/38/010232","label":"within Kiftsgate Hundred"}]}]}