{"@context":"https://raw.githubusercontent.com/LinkedPasts/linked-places-format/main/linkedplaces-context-v1.1.jsonld","type":"FeatureCollection","license":"Digitisation of English Placenames MADS data is licensed to Jisc by the English Place Names Society and released under a Creative Commons Attribution-NonCommercial 4.0 International License.","note":"LPF v1.3, lossy; derived from the PLATO record; plato_commit=ca0afadabec1e23a145c0b03df77e8f151f79832","features":[{"@id":"http://placenames.org.uk/id/placename/38/011083","type":"Feature","properties":{"title":"Mickleton","ccodes":["GB"],"fclasses":["A","P"]},"names":[{"toponym":"Mickleton","lang":"en","citations":[{"label":"English Place-Name Society survey, volume 38: Gloucestershire"}]},{"toponym":"Micclantun, to Mycclantune","citations":[{"label":"1005 KCD","year":1005}],"when":{"timespans":[{"start":{"in":"1005"},"end":{"in":"1005"}}]}},{"toponym":"Muceltv[n]e","citations":[{"label":"1086 DB","year":1086}],"when":{"timespans":[{"start":{"in":"1086"},"end":{"in":"1086"}}]}},{"toponym":"Mucleton(a)","citations":[{"label":"1109 Monast","year":1109},{"label":"1183 AC","year":1183},{"label":"1221 Ass","year":1221}],"when":{"timespans":[{"start":{"in":"1109"},"end":{"in":"1109"}},{"start":{"in":"1183"},"end":{"in":"1183"}},{"start":{"in":"1221"},"end":{"in":"1221"}}]}},{"toponym":"Mukelton(e)","citations":[{"label":"1274 RH","year":1274},{"label":"1291 Tax","year":1291},{"label":"1313–1428, recurring FF","year":1313},{"label":"1313–1428, recurring WinchLB"},{"label":"1313 FF","year":1313},{"label":"1428 WinchLB","year":1428}],"when":{"timespans":[{"start":{"in":"1274"},"end":{"in":"1274"}},{"start":{"in":"1291"},"end":{"in":"1291"}},{"start":{"in":"1313"},"end":{"in":"1428"}},{"start":{"in":"1313"},"end":{"in":"1313"}},{"start":{"in":"1428"},"end":{"in":"1428"}}]}},{"toponym":"Mic(e)letun(a), Mik(e)letun(a), Mik(e)leton","citations":[{"label":"1091 Monast","year":1091},{"label":"1221 Ass","year":1221},{"label":"c. 1560 Surv","year":1550},{"label":"1584 Comm","year":1584}],"when":{"timespans":[{"start":{"in":"1091"},"end":{"in":"1091"}},{"start":{"in":"1221"},"end":{"in":"1221"}},{"start":{"earliest":"1550","latest":"1570"},"end":{"earliest":"1550","latest":"1570"}},{"start":{"in":"1584"},"end":{"in":"1584"}}]}},{"toponym":"Mikelton(e), Mykelton(e), Mykulton(e), Mykylton(e)","citations":[{"label":"1248 Ass","year":1248},{"label":"1402–1540, recurring Ipm","year":1402},{"label":"1402–1540, recurring FF"},{"label":"1402 Ipm","year":1402},{"label":"1540 FF","year":1540}],"when":{"timespans":[{"start":{"in":"1248"},"end":{"in":"1248"}},{"start":{"in":"1287"},"end":{"in":"1287"}},{"start":{"in":"1402"},"end":{"in":"1540"}},{"start":{"in":"1402"},"end":{"in":"1402"}},{"start":{"in":"1540"},"end":{"in":"1540"}}]}},{"toponym":"Mickleton","citations":[{"label":"1587 FF","year":1587}],"when":{"timespans":[{"start":{"in":"1587"},"end":{"in":"1587"}}]}},{"toponym":"Muclinton'","citations":[{"label":"1195 P","year":1195}],"when":{"timespans":[{"start":{"in":"1195"},"end":{"in":"1195"}}]}},{"toponym":"Mukelinton(a)","citations":[{"label":"1220 Bracton","year":1220},{"label":"1220 Cur","year":1220},{"label":"1221 Ass","year":1221}],"when":{"timespans":[{"start":{"in":"1220"},"end":{"in":"1220"}},{"start":{"in":"1220"},"end":{"in":"1220"}},{"start":{"in":"1221"},"end":{"in":"1221"}}]}},{"toponym":"Mikelinton'","citations":[{"label":"1221 Ass","year":1221}],"when":{"timespans":[{"start":{"in":"1221"},"end":{"in":"1221"}}]}},{"toponym":"Mokelton","citations":[{"label":"1287 Ass","year":1287}],"when":{"timespans":[{"start":{"in":"1287"},"end":{"in":"1287"}}]}},{"toponym":"Mekelton(a)","citations":[{"label":"1278 WinchLB","year":1278}],"when":{"timespans":[{"start":{"in":"1278"},"end":{"in":"1278"}}]}},{"toponym":"Mekulton(a)","citations":[{"label":"1475 Pat","year":1475}],"when":{"timespans":[{"start":{"in":"1475"},"end":{"in":"1475"}}]}},{"toponym":"Mekilton(a)","citations":[{"label":"1535 VE","year":1535}],"when":{"timespans":[{"start":{"in":"1535"},"end":{"in":"1535"}}]}}],"types":[{"identifier":"http://vocab.getty.edu/aat/300232418","label":"administrative division","sourceLabels":[{"label":"township","lang":"en"}]}],"geometry":{"type":"GeometryCollection","geometries":[{"type":"Point","coordinates":[-1.76667,52.08333],"citations":[{"label":"GeoNames, gazetteer record geonames:2642639"}]},{"type":"Point","coordinates":[-1.766471981,52.08470648],"citations":[{"label":"English Place-Name Society survey (DEEP coordinates)"}]},{"type":"Point","coordinates":[-1.759150027286456,52.08918840234055],"citations":[{"label":"Unlock (EDINA) gazetteer, gazetteer record unlock:11217759"}]},{"type":"Point","coordinates":[-1.76058,52.0896],"citations":[{"label":"Key to English Place-Names (KEPN), gazetteer record 6316"}]}]},"when":{"timespans":[{"start":{"in":"1005"},"end":{"in":"1587"}}]},"links":[{"type":"closeMatch","identifier":"https://sws.geonames.org/2642639/"}],"relations":[{"relationType":"gvp:broaderPartitive","relationTo":"http://placenames.org.uk/id/placename/38/011082","label":"within Mickleton"}]}]}