{"@context":"https://raw.githubusercontent.com/LinkedPasts/linked-places-format/main/linkedplaces-context-v1.1.jsonld","type":"FeatureCollection","license":"Digitisation of English Placenames MADS data is licensed to Jisc by the English Place Names Society and released under a Creative Commons Attribution-NonCommercial 4.0 International License.","note":"LPF v1.3, lossy; derived from the PLATO record; plato_commit=fa0d247ccc0263f8f19c8d7cdcd163df96935d1e","features":[{"@id":"https://w3id.org/whg-epns/38/011190","type":"Feature","properties":{"title":"Moreton in Marsh","ccodes":["GB"],"fclasses":["A","P"]},"names":[{"toponym":"Moreton in Marsh","lang":"en","citations":[{"label":"English Place-Name Society survey, volume 38: Gloucestershire"}]}],"types":[{"identifier":"http://vocab.getty.edu/aat/300232418","label":"administrative division","sourceLabels":[{"label":"parish","lang":"en"}]}],"geometry":{"type":"GeometryCollection","geometries":[{"type":"Point","coordinates":[-1.70297,51.98964],"citations":[{"label":"GeoNames, gazetteer record geonames:2642200"}]},{"type":"Point","coordinates":[-1.708734165,51.9856691],"citations":[{"label":"English Place-Name Society survey (DEEP coordinates)"}]},{"type":"Point","coordinates":[-1.70285,51.9906],"citations":[{"label":"Key to English Place-Names (KEPN), gazetteer record 6318"}]}]},"links":[{"type":"closeMatch","identifier":"https://sws.geonames.org/2642200/"}],"relations":[{"relationType":"gvp:broaderPartitive","relationTo":"https://w3id.org/whg-epns/38/010232","label":"within Kiftsgate Hundred"}]}]}