{"@context":"https://raw.githubusercontent.com/LinkedPasts/linked-places-format/main/linkedplaces-context-v1.1.jsonld","type":"FeatureCollection","license":"Digitisation of English Placenames MADS data is licensed to Jisc by the English Place Names Society and released under a Creative Commons Attribution-NonCommercial 4.0 International License.","note":"LPF v1.3, lossy; derived from the PLATO record; plato_commit=ca0afadabec1e23a145c0b03df77e8f151f79832","features":[{"@id":"https://w3id.org/whg-epns/79/000406","type":"Feature","properties":{"title":"Beeston Regis","ccodes":["GB"],"fclasses":["A","P"]},"names":[{"toponym":"Beeston Regis","lang":"en","citations":[{"label":"English Place-Name Society survey, volume 79: Norfolk"}]},{"toponym":"Besentuna, Besetuna, Besetune","citations":[{"label":"1086 DB","year":1086}],"when":{"timespans":[{"start":{"in":"1086"},"end":{"in":"1086"}}]}},{"toponym":"Besenton","citations":[{"label":"1185 P","year":1185}],"when":{"timespans":[{"start":{"in":"1185"},"end":{"in":"1185"}}]}},{"toponym":"Beston","citations":[{"label":"1198-9 Fees","year":1198},{"label":"1209 Ass","year":1209},{"label":"1210 FF","year":1210},{"label":"1275 RH","year":1275},{"label":"1287 Ipm","year":1287},{"label":"1302 FA","year":1302},{"label":"1311 Pat","year":1311},{"label":"1333 SR","year":1333},{"label":"1347 Fine","year":1347},{"label":"1348 Ch","year":1348}],"when":{"timespans":[{"start":{"earliest":"1198","latest":"1199"},"end":{"earliest":"1198","latest":"1199"}},{"start":{"earliest":"1242","latest":"1243"},"end":{"earliest":"1242","latest":"1243"}},{"start":{"in":"1209"},"end":{"in":"1209"}},{"start":{"in":"1210"},"end":{"in":"1210"}},{"start":{"in":"1219"},"end":{"in":"1219"}},{"start":{"in":"1275"},"end":{"in":"1275"}},{"start":{"in":"1287"},"end":{"in":"1287"}},{"start":{"in":"1302"},"end":{"in":"1302"}},{"start":{"in":"1346"},"end":{"in":"1346"}},{"start":{"earliest":"1401","latest":"1402"},"end":{"earliest":"1401","latest":"1402"}},{"start":{"in":"1311"},"end":{"in":"1311"}},{"start":{"in":"1333"},"end":{"in":"1333"}},{"start":{"in":"1347"},"end":{"in":"1347"}},{"start":{"in":"1348"},"end":{"in":"1348"}}]}},{"toponym":"Beeston","citations":[{"label":"1209 FF","year":1209}],"when":{"timespans":[{"start":{"in":"1209"},"end":{"in":"1209"}}]}},{"toponym":"Bestun","citations":[{"label":"1208 Wals","year":1208}],"when":{"timespans":[{"start":{"in":"1208"},"end":{"in":"1208"}}]}},{"toponym":"Bestone","citations":[{"label":"1257 Ass","year":1257},{"label":"1316 FA","year":1316},{"label":"1320 BM","year":1320},{"label":"1330 SR","year":1330}],"when":{"timespans":[{"start":{"in":"1257"},"end":{"in":"1257"}},{"start":{"in":"1269"},"end":{"in":"1269"}},{"start":{"in":"1286"},"end":{"in":"1286"}},{"start":{"in":"1316"},"end":{"in":"1316"}},{"start":{"in":"1320"},"end":{"in":"1320"}},{"start":{"in":"1330"},"end":{"in":"1330"}}]}},{"toponym":"Beestone","citations":[{"label":"1379 BM","year":1379}],"when":{"timespans":[{"start":{"in":"1379"},"end":{"in":"1379"}}]}},{"toponym":"Beston iuxta mare","citations":[{"label":"1382 Pat","year":1382},{"label":"1441 FF","year":1441},{"label":"1494 NoVis","year":1494}],"when":{"timespans":[{"start":{"in":"1382"},"end":{"in":"1382"}},{"start":{"in":"1399"},"end":{"in":"1399"}},{"start":{"in":"1441"},"end":{"in":"1441"}},{"start":{"in":"1494"},"end":{"in":"1494"}}]}}],"types":[{"identifier":"http://vocab.getty.edu/aat/300232418","label":"administrative division","sourceLabels":[{"label":"township","lang":"en"}]}],"geometry":{"type":"GeometryCollection","geometries":[{"type":"Point","coordinates":[1.22529,52.93324],"citations":[{"label":"GeoNames, gazetteer record geonames:7297694"}]},{"type":"Point","coordinates":[1.229792815,52.94013072],"citations":[{"label":"English Place-Name Society survey (DEEP coordinates)"}]},{"type":"Point","coordinates":[1.222030983066499,52.93584560559945],"citations":[{"label":"Unlock (EDINA) gazetteer, gazetteer record unlock:11073506"}]},{"type":"Point","coordinates":[1.22022,52.9362],"citations":[{"label":"Key to English Place-Names (KEPN), gazetteer record 9158"}]}]},"when":{"timespans":[{"start":{"in":"1086"},"end":{"in":"1494"}}]},"links":[{"type":"closeMatch","identifier":"https://sws.geonames.org/7297694/"}],"relations":[{"relationType":"gvp:broaderPartitive","relationTo":"https://w3id.org/whg-epns/79/000405","label":"within Beeston Regis"}]}]}