{"@context":"https://raw.githubusercontent.com/LinkedPasts/linked-places-format/main/linkedplaces-context-v1.1.jsonld","type":"FeatureCollection","license":"Digitisation of English Placenames MADS data is licensed to Jisc by the English Place Names Society and released under a Creative Commons Attribution-NonCommercial 4.0 International License.","note":"LPF v1.3, lossy; derived from the PLATO record; plato_commit=ca0afadabec1e23a145c0b03df77e8f151f79832","features":[{"@id":"https://w3id.org/whg-epns/79/000755","type":"Feature","properties":{"title":"Gimingham","ccodes":["GB"],"fclasses":["A","P"]},"names":[{"toponym":"Gimingham","lang":"en","citations":[{"label":"English Place-Name Society survey, volume 79: Norfolk"}]},{"toponym":"Gimingheham, Gimingeham","citations":[{"label":"1086 DB","year":1086}],"when":{"timespans":[{"start":{"in":"1086"},"end":{"in":"1086"}}]}},{"toponym":"Gimingeham","citations":[{"label":"1121 AD","year":1121},{"label":"1191 P","year":1191},{"label":"1211-2 RBE","year":1211},{"label":"1240 LibR","year":1240},{"label":"1242 Pat","year":1242}],"when":{"timespans":[{"start":{"in":"1121"},"end":{"in":"1121"}},{"start":{"in":"1191"},"end":{"in":"1191"}},{"start":{"earliest":"1211","latest":"1212"},"end":{"earliest":"1211","latest":"1212"}},{"start":{"in":"1240"},"end":{"in":"1240"}},{"start":{"in":"1242"},"end":{"in":"1242"}}]}},{"toponym":"Gimmingeham","citations":[{"label":"12th c. Lewes","year":1100},{"label":"1188–1194, recurring P","year":1188},{"label":"1188–1194, recurring P"},{"label":"1188 P","year":1188},{"label":"1194 P","year":1194}],"when":{"timespans":[{"start":{"earliest":"1100","latest":"1200"},"end":{"earliest":"1100","latest":"1200"}},{"start":{"in":"1188"},"end":{"in":"1194"}},{"start":{"in":"1188"},"end":{"in":"1188"}},{"start":{"in":"1194"},"end":{"in":"1194"}}]}},{"toponym":"Gymmingeham","citations":[{"label":"12th c. Lewes","year":1100}],"when":{"timespans":[{"start":{"earliest":"1100","latest":"1200"},"end":{"earliest":"1100","latest":"1200"}}]}},{"toponym":"Gummingeham","citations":[{"label":"1192 P","year":1192}],"when":{"timespans":[{"start":{"in":"1192"},"end":{"in":"1192"}},{"start":{"in":"1193"},"end":{"in":"1193"}},{"start":{"in":"1194"},"end":{"in":"1194"}}]}},{"toponym":"Giminigeham","citations":[{"label":"1223 Cur","year":1223}],"when":{"timespans":[{"start":{"in":"1223"},"end":{"in":"1223"}}]}},{"toponym":"Gimigham","citations":[{"label":"1198 Cur","year":1198},{"label":"1207 P","year":1207}],"when":{"timespans":[{"start":{"in":"1198"},"end":{"in":"1198"}},{"start":{"in":"1207"},"end":{"in":"1207"}}]}},{"toponym":"Gimingham","citations":[{"label":"1199 RC","year":1199},{"label":"1200 Cur","year":1200},{"label":"1203 FF","year":1203},{"label":"1208 P","year":1208},{"label":"1257 Ass","year":1257},{"label":"1275 RH","year":1275},{"label":"1329 Pat","year":1329}],"when":{"timespans":[{"start":{"in":"1199"},"end":{"in":"1199"}},{"start":{"in":"1200"},"end":{"in":"1200"}},{"start":{"in":"1203"},"end":{"in":"1203"}},{"start":{"in":"1208"},"end":{"in":"1208"}},{"start":{"in":"1209"},"end":{"in":"1209"}},{"start":{"in":"1210"},"end":{"in":"1210"}},{"start":{"in":"1257"},"end":{"in":"1257"}},{"start":{"in":"1275"},"end":{"in":"1275"}},{"start":{"in":"1329"},"end":{"in":"1329"}},{"start":{"in":"1343"},"end":{"in":"1343"}}]}},{"toponym":"Gimmingham","citations":[{"label":"12th c. Lewes","year":1100},{"label":"1242 P","year":1242},{"label":"1286 Ass","year":1286}],"when":{"timespans":[{"start":{"earliest":"1100","latest":"1200"},"end":{"earliest":"1100","latest":"1200"}},{"start":{"in":"1242"},"end":{"in":"1242"}},{"start":{"in":"1286"},"end":{"in":"1286"}}]}},{"toponym":"Gimmyngham","citations":[{"label":"1230 P","year":1230}],"when":{"timespans":[{"start":{"in":"1230"},"end":{"in":"1230"}}]}},{"toponym":"Gymigham","citations":[{"label":"1234 Cl","year":1234}],"when":{"timespans":[{"start":{"in":"1234"},"end":{"in":"1234"}}]}},{"toponym":"Gymyngham","citations":[{"label":"1256 Cl","year":1256},{"label":"1286 Ass","year":1286},{"label":"1302 to 1402 FA","year":1302},{"label":"1317 FF","year":1317},{"label":"1327 Banco","year":1327},{"label":"1350 Pat","year":1350},{"label":"1350 Ch","year":1350},{"label":"1352 Pat","year":1352},{"label":"1388 BM","year":1388}],"when":{"timespans":[{"start":{"in":"1256"},"end":{"in":"1256"}},{"start":{"in":"1343"},"end":{"in":"1343"}},{"start":{"in":"1353"},"end":{"in":"1353"}},{"start":{"in":"1286"},"end":{"in":"1286"}},{"start":{"earliest":"1302","latest":"1402"},"end":{"earliest":"1302","latest":"1402"}},{"start":{"in":"1317"},"end":{"in":"1317"}},{"start":{"in":"1327"},"end":{"in":"1327"}},{"start":{"in":"1350"},"end":{"in":"1350"}},{"start":{"in":"1350"},"end":{"in":"1350"}},{"start":{"in":"1352"},"end":{"in":"1352"}},{"start":{"in":"1388"},"end":{"in":"1388"}}]}},{"toponym":"Gymingham","citations":[{"label":"1265 Ipm","year":1265},{"label":"1269 Ass","year":1269},{"label":"1275 RH","year":1275},{"label":"1285 Ch","year":1285},{"label":"1285 Coxf","year":1285},{"label":"1294 Orig","year":1294}],"when":{"timespans":[{"start":{"in":"1265"},"end":{"in":"1265"}},{"start":{"in":"1269"},"end":{"in":"1269"}},{"start":{"in":"1286"},"end":{"in":"1286"}},{"start":{"in":"1275"},"end":{"in":"1275"}},{"start":{"in":"1285"},"end":{"in":"1285"}},{"start":{"in":"1285"},"end":{"in":"1285"}},{"start":{"in":"1294"},"end":{"in":"1294"}}]}},{"toponym":"Gymmingham","citations":[{"label":"1269 Ass","year":1269}],"when":{"timespans":[{"start":{"in":"1269"},"end":{"in":"1269"}}]}},{"toponym":"Gymmyngham","citations":[{"label":"1347 Fine","year":1347},{"label":"1355 Pat","year":1355},{"label":"1445 Past","year":1445}],"when":{"timespans":[{"start":{"in":"1347"},"end":{"in":"1347"}},{"start":{"in":"1355"},"end":{"in":"1355"}},{"start":{"in":"1548"},"end":{"in":"1548"}},{"start":{"in":"1445"},"end":{"in":"1445"}}]}},{"toponym":"Gemyngham","citations":[{"label":"1392 Fine","year":1392},{"label":"1449 Past","year":1449}],"when":{"timespans":[{"start":{"in":"1392"},"end":{"in":"1392"}},{"start":{"in":"1449"},"end":{"in":"1449"}}]}}],"types":[{"identifier":"http://vocab.getty.edu/aat/300232418","label":"administrative division","sourceLabels":[{"label":"township","lang":"en"}]}],"geometry":{"type":"GeometryCollection","geometries":[{"type":"Point","coordinates":[1.39234,52.87614],"citations":[{"label":"GeoNames, gazetteer record geonames:2648640"}]},{"type":"Point","coordinates":[1.388298851,52.87274995],"citations":[{"label":"English Place-Name Society survey (DEEP coordinates)"}]},{"type":"Point","coordinates":[1.396067014701634,52.87702623436718],"citations":[{"label":"Unlock (EDINA) gazetteer, gazetteer record unlock:11152681"}]},{"type":"Point","coordinates":[1.39424,52.8774],"citations":[{"label":"Key to English Place-Names (KEPN), gazetteer record 9162"}]}]},"when":{"timespans":[{"start":{"in":"1086"},"end":{"in":"1548"}}]},"links":[{"type":"closeMatch","identifier":"https://sws.geonames.org/2648640/"}],"relations":[{"relationType":"gvp:broaderPartitive","relationTo":"https://w3id.org/whg-epns/79/000754","label":"within Gimingham"}]}]}