{"@context":"https://raw.githubusercontent.com/LinkedPasts/linked-places-format/main/linkedplaces-context-v1.1.jsonld","type":"FeatureCollection","license":"Digitisation of English Placenames MADS data is licensed to Jisc by the English Place Names Society and released under a Creative Commons Attribution-NonCommercial 4.0 International License.","note":"LPF v1.3, lossy; derived from the PLATO record; plato_commit=ca0afadabec1e23a145c0b03df77e8f151f79832","features":[{"@id":"https://w3id.org/whg-epns/79/001044","type":"Feature","properties":{"title":"Gunton","ccodes":["GB"],"fclasses":["A","P"]},"names":[{"toponym":"Gunton","lang":"en","citations":[{"label":"English Place-Name Society survey, volume 79: Norfolk"}]},{"toponym":"Gunetune","citations":[{"label":"1086 DB","year":1086}],"when":{"timespans":[{"start":{"in":"1086"},"end":{"in":"1086"}}]}},{"toponym":"Guneton","citations":[{"label":"1195 to 1200 P","year":1195},{"label":"1197 Coxf","year":1197},{"label":"1198-9 Fees","year":1198},{"label":"1202 Seld","year":1202},{"label":"1220 Cur","year":1220},{"label":"1227 FF","year":1227},{"label":"1228 Cl","year":1228},{"label":"1302 FA","year":1302}],"when":{"timespans":[{"start":{"earliest":"1195","latest":"1200"},"end":{"earliest":"1195","latest":"1200"}},{"start":{"in":"1197"},"end":{"in":"1197"}},{"start":{"earliest":"1198","latest":"1199"},"end":{"earliest":"1198","latest":"1199"}},{"start":{"in":"1202"},"end":{"in":"1202"}},{"start":{"in":"1220"},"end":{"in":"1220"}},{"start":{"in":"1227"},"end":{"in":"1227"}},{"start":{"in":"1289"},"end":{"in":"1289"}},{"start":{"in":"1228"},"end":{"in":"1228"}},{"start":{"in":"1302"},"end":{"in":"1302"}}]}},{"toponym":"Guniton","citations":[{"label":"1184 P","year":1184},{"label":"1198-9 Fees","year":1198}],"when":{"timespans":[{"start":{"in":"1184"},"end":{"in":"1184"}},{"start":{"earliest":"1198","latest":"1199"},"end":{"earliest":"1198","latest":"1199"}}]}},{"toponym":"Gunetona","citations":[{"label":"1222 Bract","year":1222}],"when":{"timespans":[{"start":{"in":"1222"},"end":{"in":"1222"}}]}},{"toponym":"Gunetun(e)","citations":[{"label":"1227 FF","year":1227},{"label":"1237-51 Holme","year":1237}],"when":{"timespans":[{"start":{"in":"1227"},"end":{"in":"1227"}},{"start":{"earliest":"1237","latest":"1251"},"end":{"earliest":"1237","latest":"1251"}}]}},{"toponym":"Gunneton","citations":[{"label":"1250 Ass","year":1250}],"when":{"timespans":[{"start":{"in":"1250"},"end":{"in":"1250"}}]}},{"toponym":"Gunetone","citations":[{"label":"1257 Ass","year":1257}],"when":{"timespans":[{"start":{"in":"1257"},"end":{"in":"1257"}},{"start":{"in":"1269"},"end":{"in":"1269"}},{"start":{"in":"1286"},"end":{"in":"1286"}}]}},{"toponym":"Gonetone","citations":[{"label":"1166 RBE","year":1166}],"when":{"timespans":[{"start":{"in":"1166"},"end":{"in":"1166"}}]}},{"toponym":"Goneton","citations":[{"label":"1226 FF","year":1226}],"when":{"timespans":[{"start":{"in":"1226"},"end":{"in":"1226"}},{"start":{"in":"1226"},"end":{"in":"1226"}}]}},{"toponym":"Gonton","citations":[{"label":"1368 FF","year":1368}],"when":{"timespans":[{"start":{"in":"1368"},"end":{"in":"1368"}}]}},{"toponym":"Gunton(e)","citations":[{"label":"1230 P","year":1230},{"label":"1275 RH","year":1275},{"label":"1286 Ass","year":1286},{"label":"1291 Ipm","year":1291},{"label":"1302 to 1428 FA","year":1302},{"label":"1313 to 1472 FF","year":1313},{"label":"1375 Pat","year":1375},{"label":"1535 VE","year":1535}],"when":{"timespans":[{"start":{"in":"1230"},"end":{"in":"1230"}},{"start":{"in":"1275"},"end":{"in":"1275"}},{"start":{"in":"1286"},"end":{"in":"1286"}},{"start":{"in":"1291"},"end":{"in":"1291"}},{"start":{"earliest":"1302","latest":"1428"},"end":{"earliest":"1302","latest":"1428"}},{"start":{"earliest":"1313","latest":"1472"},"end":{"earliest":"1313","latest":"1472"}},{"start":{"in":"1375"},"end":{"in":"1375"}},{"start":{"in":"1548"},"end":{"in":"1548"}},{"start":{"in":"1535"},"end":{"in":"1535"}}]}}],"types":[{"identifier":"http://vocab.getty.edu/aat/300232418","label":"administrative division","sourceLabels":[{"label":"township","lang":"en"}]}],"geometry":{"type":"GeometryCollection","geometries":[{"type":"Point","coordinates":[1.33333,52.85],"citations":[{"label":"GeoNames, gazetteer record geonames:2647756"}]},{"type":"Point","coordinates":[1.29793352,52.85730751],"citations":[{"label":"English Place-Name Society survey (DEEP coordinates)"}]},{"type":"Point","coordinates":[1.31983436061359,52.85220037786027],"citations":[{"label":"Unlock (EDINA) gazetteer, gazetteer record unlock:11162503"}]},{"type":"Point","coordinates":[1.30387,52.862],"citations":[{"label":"Key to English Place-Names (KEPN), gazetteer record 9164"}]}]},"when":{"timespans":[{"start":{"in":"1086"},"end":{"in":"1548"}}]},"links":[{"type":"closeMatch","identifier":"https://sws.geonames.org/2647756/"}],"relations":[{"relationType":"gvp:broaderPartitive","relationTo":"https://w3id.org/whg-epns/79/001043","label":"within Gunton"}]}]}