{"@context":"https://raw.githubusercontent.com/LinkedPasts/linked-places-format/main/linkedplaces-context-v1.1.jsonld","type":"FeatureCollection","license":"Digitisation of English Placenames MADS data is licensed to Jisc by the English Place Names Society and released under a Creative Commons Attribution-NonCommercial 4.0 International License.","note":"LPF v1.3, lossy; derived from the PLATO record; plato_commit=ca0afadabec1e23a145c0b03df77e8f151f79832","features":[{"@id":"https://w3id.org/whg-epns/79/001495","type":"Feature","properties":{"title":"Repps, North and South","ccodes":["GB"],"fclasses":["A","P"]},"names":[{"toponym":"Repps, North and South","lang":"en","citations":[{"label":"English Place-Name Society survey, volume 79: Norfolk"}]},{"toponym":"Norrepes, Norhrepes, Sutrepes","citations":[{"label":"1086 DB","year":1086}],"when":{"timespans":[{"start":{"in":"1086"},"end":{"in":"1086"}}]}},{"toponym":"Repples","citations":[{"label":"1191 P","year":1191},{"label":"1257 Ass","year":1257},{"label":"1199 Seld","year":1199}],"when":{"timespans":[{"start":{"in":"1191"},"end":{"in":"1191"}},{"start":{"in":"1209"},"end":{"in":"1209"}},{"start":{"in":"1210"},"end":{"in":"1210"}},{"start":{"in":"1257"},"end":{"in":"1257"}},{"start":{"in":"1199"},"end":{"in":"1199"}}]}},{"toponym":"Reppes","citations":[{"label":"1196 FF","year":1196},{"label":"1197 to 1242 P","year":1197},{"label":"1199 Seld","year":1199},{"label":"1294 Ipm","year":1294},{"label":"1225 Cur","year":1225},{"label":"1254 NfA","year":1254},{"label":"1279 BM","year":1279},{"label":"1324-7 Ipm","year":1324},{"label":"1361 BM","year":1361}],"when":{"timespans":[{"start":{"in":"1196"},"end":{"in":"1196"}},{"start":{"earliest":"1197","latest":"1242"},"end":{"earliest":"1197","latest":"1242"}},{"start":{"in":"1199"},"end":{"in":"1199"}},{"start":{"in":"1294"},"end":{"in":"1294"}},{"start":{"in":"1332"},"end":{"in":"1332"}},{"start":{"in":"1225"},"end":{"in":"1225"}},{"start":{"in":"1254"},"end":{"in":"1254"}},{"start":{"in":"1279"},"end":{"in":"1279"}},{"start":{"earliest":"1324","latest":"1327"},"end":{"earliest":"1324","latest":"1327"}},{"start":{"in":"1361"},"end":{"in":"1361"}}]}},{"toponym":"Reples","citations":[{"label":"1220 Cur","year":1220}],"when":{"timespans":[{"start":{"in":"1220"},"end":{"in":"1220"}}]}},{"toponym":"Repes","citations":[{"label":"1307 De Banco","year":1307}],"when":{"timespans":[{"start":{"in":"1307"},"end":{"in":"1307"}}]}},{"toponym":"Reppys","citations":[{"label":"1353 Cl","year":1353}],"when":{"timespans":[{"start":{"in":"1353"},"end":{"in":"1353"}}]}},{"toponym":"Nordrepples","citations":[{"label":"1185 P","year":1185}],"when":{"timespans":[{"start":{"in":"1185"},"end":{"in":"1185"}},{"start":{"in":"1186"},"end":{"in":"1186"}}]}},{"toponym":"Norrepples","citations":[{"label":"1209 Ass","year":1209}],"when":{"timespans":[{"start":{"in":"1209"},"end":{"in":"1209"}}]}},{"toponym":"Norreppes","citations":[{"label":"1210 Cur","year":1210}],"when":{"timespans":[{"start":{"in":"1210"},"end":{"in":"1210"}}]}},{"toponym":"Nordreppes","citations":[{"label":"1250 Ass","year":1250}],"when":{"timespans":[{"start":{"in":"1250"},"end":{"in":"1250"}}]}},{"toponym":"Nortreples","citations":[{"label":"1250 Ass","year":1250}],"when":{"timespans":[{"start":{"in":"1250"},"end":{"in":"1250"}}]}},{"toponym":"Northreppes","citations":[{"label":"1250 Ass","year":1250},{"label":"1275 RH","year":1275},{"label":"1317 FF","year":1317},{"label":"1322 Ipm","year":1322},{"label":"1347 Fine","year":1347},{"label":"1369 AD","year":1369}],"when":{"timespans":[{"start":{"in":"1250"},"end":{"in":"1250"}},{"start":{"in":"1257"},"end":{"in":"1257"}},{"start":{"in":"1286"},"end":{"in":"1286"}},{"start":{"in":"1275"},"end":{"in":"1275"}},{"start":{"in":"1317"},"end":{"in":"1317"}},{"start":{"in":"1343"},"end":{"in":"1343"}},{"start":{"in":"1322"},"end":{"in":"1322"}},{"start":{"in":"1347"},"end":{"in":"1347"}},{"start":{"in":"1369"},"end":{"in":"1369"}}]}},{"toponym":"Nortreppe","citations":[{"label":"1269 AD","year":1269}],"when":{"timespans":[{"start":{"in":"1269"},"end":{"in":"1269"}}]}},{"toponym":"North Reppys","citations":[{"label":"1316 FA","year":1316},{"label":"1378 Pat","year":1378}],"when":{"timespans":[{"start":{"in":"1316"},"end":{"in":"1316"}},{"start":{"in":"1378"},"end":{"in":"1378"}}]}},{"toponym":"North Reppes","citations":[{"label":"1330 SR","year":1330}],"when":{"timespans":[{"start":{"in":"1330"},"end":{"in":"1330"}}]}},{"toponym":"Northrepp","citations":[{"label":"1375 AD","year":1375}],"when":{"timespans":[{"start":{"in":"1375"},"end":{"in":"1375"}}]}},{"toponym":"Northreppys","citations":[{"label":"1400 Fine","year":1400}],"when":{"timespans":[{"start":{"in":"1400"},"end":{"in":"1400"}}]}},{"toponym":"Northreppis","citations":[{"label":"1418 AD","year":1418}],"when":{"timespans":[{"start":{"in":"1418"},"end":{"in":"1418"}}]}},{"toponym":"North Reppis","citations":[{"label":"1535 VE","year":1535}],"when":{"timespans":[{"start":{"in":"1535"},"end":{"in":"1535"}}]}},{"toponym":"Sudreppes","citations":[{"label":"1199 Seld","year":1199},{"label":"1269 Ass","year":1269}],"when":{"timespans":[{"start":{"in":"1199"},"end":{"in":"1199"}},{"start":{"in":"1269"},"end":{"in":"1269"}}]}},{"toponym":"Sutrepples","citations":[{"label":"1210 FF","year":1210},{"label":"1257 Ass","year":1257}],"when":{"timespans":[{"start":{"in":"1210"},"end":{"in":"1210"}},{"start":{"in":"1257"},"end":{"in":"1257"}}]}},{"toponym":"Suth Reppes","citations":[{"label":"1286 Ass","year":1286},{"label":"1305 Pat","year":1305}],"when":{"timespans":[{"start":{"in":"1286"},"end":{"in":"1286"}},{"start":{"in":"1305"},"end":{"in":"1305"}}]}},{"toponym":"Suthreppes","citations":[{"label":"1295 AD","year":1295},{"label":"1317 FF","year":1317},{"label":"1330 SR","year":1330},{"label":"1347 Fine","year":1347}],"when":{"timespans":[{"start":{"in":"1295"},"end":{"in":"1295"}},{"start":{"in":"1317"},"end":{"in":"1317"}},{"start":{"in":"1330"},"end":{"in":"1330"}},{"start":{"in":"1347"},"end":{"in":"1347"}}]}},{"toponym":"Southreppes","citations":[{"label":"1327 Pat","year":1327},{"label":"1409 AD","year":1409}],"when":{"timespans":[{"start":{"in":"1327"},"end":{"in":"1327"}},{"start":{"in":"1347"},"end":{"in":"1347"}},{"start":{"in":"1397"},"end":{"in":"1397"}},{"start":{"in":"1409"},"end":{"in":"1409"}},{"start":{"in":"1475"},"end":{"in":"1475"}}]}},{"toponym":"Sowthrippes","citations":[{"label":"1368 BM","year":1368}],"when":{"timespans":[{"start":{"in":"1368"},"end":{"in":"1368"}}]}},{"toponym":"South Reppys","citations":[{"label":"1378 Pat","year":1378}],"when":{"timespans":[{"start":{"in":"1378"},"end":{"in":"1378"}}]}},{"toponym":"Suthreppis","citations":[{"label":"1418 AD","year":1418}],"when":{"timespans":[{"start":{"in":"1418"},"end":{"in":"1418"}}]}},{"toponym":"Southreppys","citations":[{"label":"1472 FF","year":1472}],"when":{"timespans":[{"start":{"in":"1472"},"end":{"in":"1472"}}]}},{"toponym":"South Reppis","citations":[{"label":"1535 VE","year":1535}],"when":{"timespans":[{"start":{"in":"1535"},"end":{"in":"1535"}}]}},{"toponym":"Tunreppes","citations":[{"label":"1210 Cur","year":1210}],"when":{"timespans":[{"start":{"in":"1210"},"end":{"in":"1210"}}]}}],"types":[{"identifier":"http://vocab.getty.edu/aat/300232418","label":"administrative division","sourceLabels":[{"label":"parish","lang":"en"}]}],"geometry":{"type":"Point","coordinates":[1.33697,52.906],"citations":[{"label":"Key to English Place-Names (KEPN), gazetteer record 9172"}]},"when":{"timespans":[{"start":{"in":"1086"},"end":{"in":"1535"}}]},"relations":[{"relationType":"gvp:broaderPartitive","relationTo":"https://w3id.org/whg-epns/79/000002","label":"within North Erpingham Hundred"}]}]}