{"@context":"https://raw.githubusercontent.com/LinkedPasts/linked-places-format/main/linkedplaces-context-v1.1.jsonld","type":"FeatureCollection","license":"Digitisation of English Placenames MADS data is licensed to Jisc by the English Place Names Society and released under a Creative Commons Attribution-NonCommercial 4.0 International License.","note":"LPF v1.3, lossy; derived from the PLATO record; plato_commit=ca0afadabec1e23a145c0b03df77e8f151f79832","features":[{"@id":"http://placenames.org.uk/id/placename/79/001751","type":"Feature","properties":{"title":"Roughton","ccodes":["GB"],"fclasses":["A","P"]},"names":[{"toponym":"Roughton","lang":"en","citations":[{"label":"English Place-Name Society survey, volume 79: Norfolk"}]},{"toponym":"Rustuna, Rostuna, Rugutune","citations":[{"label":"1086 DB","year":1086}],"when":{"timespans":[{"start":{"in":"1086"},"end":{"in":"1086"}}]}},{"toponym":"Rocton","citations":[{"label":"1196 FF","year":1196}],"when":{"timespans":[{"start":{"in":"1196"},"end":{"in":"1196"}},{"start":{"in":"1267"},"end":{"in":"1267"}}]}},{"toponym":"Ructon","citations":[{"label":"1197 FF","year":1197},{"label":"1198-9 Fees","year":1198},{"label":"1204 P","year":1204},{"label":"1209 Ass","year":1209},{"label":"1212 Coxf","year":1212},{"label":"1275 RH","year":1275},{"label":"1285 FF","year":1285}],"when":{"timespans":[{"start":{"in":"1197"},"end":{"in":"1197"}},{"start":{"in":"1209"},"end":{"in":"1209"}},{"start":{"earliest":"1198","latest":"1199"},"end":{"earliest":"1198","latest":"1199"}},{"start":{"in":"1204"},"end":{"in":"1204"}},{"start":{"in":"1209"},"end":{"in":"1209"}},{"start":{"in":"1250"},"end":{"in":"1250"}},{"start":{"in":"1212"},"end":{"in":"1212"}},{"start":{"in":"1275"},"end":{"in":"1275"}},{"start":{"in":"1285"},"end":{"in":"1285"}}]}},{"toponym":"Ruhton","citations":[{"label":"1202 Seld","year":1202},{"label":"1208 P","year":1208},{"label":"1208 Cur","year":1208}],"when":{"timespans":[{"start":{"in":"1202"},"end":{"in":"1202"}},{"start":{"in":"1208"},"end":{"in":"1208"}},{"start":{"in":"1208"},"end":{"in":"1208"}}]}},{"toponym":"Ruchton","citations":[{"label":"1220 Cur","year":1220},{"label":"1302 FA","year":1302},{"label":"1333 SR","year":1333}],"when":{"timespans":[{"start":{"in":"1220"},"end":{"in":"1220"}},{"start":{"in":"1302"},"end":{"in":"1302"}},{"start":{"in":"1333"},"end":{"in":"1333"}}]}},{"toponym":"Ruchtona, Ruschtona","citations":[{"label":"1220 Bract","year":1220}],"when":{"timespans":[{"start":{"in":"1220"},"end":{"in":"1220"}}]}},{"toponym":"Ruchtone","citations":[{"label":"1254-75 Val","year":1254},{"label":"1359 AD","year":1359}],"when":{"timespans":[{"start":{"earliest":"1254","latest":"1275"},"end":{"earliest":"1254","latest":"1275"}},{"start":{"in":"1359"},"end":{"in":"1359"}}]}},{"toponym":"Ructone","citations":[{"label":"1257 Ass","year":1257}],"when":{"timespans":[{"start":{"in":"1257"},"end":{"in":"1257"}}]}},{"toponym":"Rughtone","citations":[{"label":"1269 Ass","year":1269},{"label":"1368 AD","year":1368}],"when":{"timespans":[{"start":{"in":"1269"},"end":{"in":"1269"}},{"start":{"in":"1368"},"end":{"in":"1368"}},{"start":{"in":"1369"},"end":{"in":"1369"}},{"start":{"in":"1388"},"end":{"in":"1388"}}]}},{"toponym":"Rugtone","citations":[{"label":"1269 Ass","year":1269}],"when":{"timespans":[{"start":{"in":"1269"},"end":{"in":"1269"}}]}},{"toponym":"Rugthone","citations":[{"label":"1277 FF","year":1277}],"when":{"timespans":[{"start":{"in":"1277"},"end":{"in":"1277"}}]}},{"toponym":"Rughton","citations":[{"label":"1307 De Banco","year":1307},{"label":"1312 to 1366 FF","year":1312},{"label":"1315 Pat","year":1315},{"label":"1324 Coxf","year":1324},{"label":"1332 Ch","year":1332},{"label":"1307 Ipm","year":1307},{"label":"1316 FA","year":1316}],"when":{"timespans":[{"start":{"in":"1307"},"end":{"in":"1307"}},{"start":{"earliest":"1312","latest":"1366"},"end":{"earliest":"1312","latest":"1366"}},{"start":{"in":"1315"},"end":{"in":"1315"}},{"start":{"in":"1324"},"end":{"in":"1324"}},{"start":{"in":"1332"},"end":{"in":"1332"}},{"start":{"in":"1307"},"end":{"in":"1307"}},{"start":{"in":"1316"},"end":{"in":"1316"}},{"start":{"in":"1346"},"end":{"in":"1346"}}]}},{"toponym":"Roughton","citations":[{"label":"1353 Cl","year":1353},{"label":"1375 Ipm","year":1375},{"label":"1428 FA","year":1428},{"label":"1445 AD","year":1445},{"label":"1535 VE","year":1535}],"when":{"timespans":[{"start":{"in":"1353"},"end":{"in":"1353"}},{"start":{"in":"1375"},"end":{"in":"1375"}},{"start":{"in":"1428"},"end":{"in":"1428"}},{"start":{"in":"1445"},"end":{"in":"1445"}},{"start":{"in":"1535"},"end":{"in":"1535"}}]}},{"toponym":"Roghton","citations":[{"label":"1363 FF","year":1363}],"when":{"timespans":[{"start":{"in":"1363"},"end":{"in":"1363"}}]}},{"toponym":"Ruweton","citations":[{"label":"1287 Ipm","year":1287}],"when":{"timespans":[{"start":{"in":"1287"},"end":{"in":"1287"}},{"start":{"in":"1288"},"end":{"in":"1288"}}]}},{"toponym":"Rowton","citations":[{"label":"1675 Ogilby","year":1675},{"label":"1782 Marshall","year":1782}],"when":{"timespans":[{"start":{"in":"1675"},"end":{"in":"1675"}},{"start":{"in":"1782"},"end":{"in":"1782"}},{"start":{"in":"1795"},"end":{"in":"1795"}}]}}],"types":[{"identifier":"http://vocab.getty.edu/aat/300232418","label":"administrative division","sourceLabels":[{"label":"township","lang":"en"}]}],"geometry":{"type":"GeometryCollection","geometries":[{"type":"Point","coordinates":[1.3,52.88333],"citations":[{"label":"GeoNames, gazetteer record geonames:2639063"}]},{"type":"Point","coordinates":[1.284461522,52.87567016],"citations":[{"label":"English Place-Name Society survey (DEEP coordinates)"}]},{"type":"Point","coordinates":[1.292900955711329,52.88892893788468],"citations":[{"label":"Unlock (EDINA) gazetteer, gazetteer record unlock:11273275"}]},{"type":"Point","coordinates":[1.2904,52.8803],"citations":[{"label":"Key to English Place-Names (KEPN), gazetteer record 9174"}]}]},"when":{"timespans":[{"start":{"in":"1086"},"end":{"in":"1795"}}]},"links":[{"type":"closeMatch","identifier":"https://sws.geonames.org/2639063/"}],"relations":[{"relationType":"gvp:broaderPartitive","relationTo":"http://placenames.org.uk/id/placename/79/001750","label":"within Roughton"}]}]}