{"@context":"https://raw.githubusercontent.com/LinkedPasts/linked-places-format/main/linkedplaces-context-v1.1.jsonld","type":"FeatureCollection","license":"Digitisation of English Placenames MADS data is licensed to Jisc by the English Place Names Society and released under a Creative Commons Attribution-NonCommercial 4.0 International License.","note":"LPF v1.3, lossy; derived from the PLATO record; plato_commit=ca0afadabec1e23a145c0b03df77e8f151f79832","features":[{"@id":"http://placenames.org.uk/id/placename/79/002487","type":"Feature","properties":{"title":"Trimingham","ccodes":["GB"],"fclasses":["A","P"]},"names":[{"toponym":"Trimingham","lang":"en","citations":[{"label":"English Place-Name Society survey, volume 79: Norfolk"}]}],"types":[{"identifier":"http://vocab.getty.edu/aat/300232418","label":"administrative division","sourceLabels":[{"label":"parish","lang":"en"}]}],"geometry":{"type":"GeometryCollection","geometries":[{"type":"Point","coordinates":[1.38107,52.89846],"citations":[{"label":"GeoNames, gazetteer record geonames:2635462"}]},{"type":"Point","coordinates":[1.374861035,52.89112227],"citations":[{"label":"English Place-Name Society survey (DEEP coordinates)"}]},{"type":"Point","coordinates":[1.382631278796589,52.89539939479597],"citations":[{"label":"Unlock (EDINA) gazetteer, gazetteer record unlock:11306141"}]},{"type":"Point","coordinates":[1.3808,52.8958],"citations":[{"label":"Key to English Place-Names (KEPN), gazetteer record 9182"}]}]},"links":[{"type":"closeMatch","identifier":"https://sws.geonames.org/2635462/"}],"relations":[{"relationType":"gvp:broaderPartitive","relationTo":"http://placenames.org.uk/id/placename/79/000002","label":"within North Erpingham Hundred"}]}]}