{"@context":"https://raw.githubusercontent.com/LinkedPasts/linked-places-format/main/linkedplaces-context-v1.1.jsonld","type":"FeatureCollection","license":"Digitisation of English Placenames MADS data is licensed to Jisc by the English Place Names Society and released under a Creative Commons Attribution-NonCommercial 4.0 International License.","note":"LPF v1.3, lossy; derived from the PLATO record; plato_commit=ca0afadabec1e23a145c0b03df77e8f151f79832","features":[{"@id":"http://placenames.org.uk/id/placename/79/002488","type":"Feature","properties":{"title":"Trimingham","ccodes":["GB"],"fclasses":["A","P"]},"names":[{"toponym":"Trimingham","lang":"en","citations":[{"label":"English Place-Name Society survey, volume 79: Norfolk"}]},{"toponym":"Trimingeham","citations":[{"label":"1185 P","year":1185}],"when":{"timespans":[{"start":{"in":"1185"},"end":{"in":"1185"}}]}},{"toponym":"Tremingham","citations":[{"label":"1242 P","year":1242}],"when":{"timespans":[{"start":{"in":"1242"},"end":{"in":"1242"}}]}},{"toponym":"Trimingham","citations":[{"label":"1242 Lib","year":1242}],"when":{"timespans":[{"start":{"in":"1242"},"end":{"in":"1242"}}]}},{"toponym":"Trymingham","citations":[{"label":"1294 Pat","year":1294}],"when":{"timespans":[{"start":{"in":"1294"},"end":{"in":"1294"}}]}},{"toponym":"Trymyngham","citations":[{"label":"1316 FF","year":1316},{"label":"1317-8 NfD","year":1317},{"label":"1327 Cl","year":1327},{"label":"1345 Ipm","year":1345},{"label":"1347 Fine","year":1347}],"when":{"timespans":[{"start":{"in":"1316"},"end":{"in":"1316"}},{"start":{"in":"1317"},"end":{"in":"1317"}},{"start":{"in":"1358"},"end":{"in":"1358"}},{"start":{"earliest":"1317","latest":"1318"},"end":{"earliest":"1317","latest":"1318"}},{"start":{"in":"1327"},"end":{"in":"1327"}},{"start":{"in":"1345"},"end":{"in":"1345"}},{"start":{"in":"1347"},"end":{"in":"1347"}}]}},{"toponym":"Thrymyngham","citations":[{"label":"1318 De Banco","year":1318}],"when":{"timespans":[{"start":{"in":"1318"},"end":{"in":"1318"}}]}},{"toponym":"Tremyngham","citations":[{"label":"1535 VE","year":1535}],"when":{"timespans":[{"start":{"in":"1535"},"end":{"in":"1535"}}]}}],"types":[{"identifier":"http://vocab.getty.edu/aat/300232418","label":"administrative division","sourceLabels":[{"label":"township","lang":"en"}]}],"geometry":{"type":"GeometryCollection","geometries":[{"type":"Point","coordinates":[1.38107,52.89846],"citations":[{"label":"GeoNames, gazetteer record geonames:2635462"}]},{"type":"Point","coordinates":[1.374861035,52.89112227],"citations":[{"label":"English Place-Name Society survey (DEEP coordinates)"}]},{"type":"Point","coordinates":[1.382631278796589,52.89539939479597],"citations":[{"label":"Unlock (EDINA) gazetteer, gazetteer record unlock:11306141"}]},{"type":"Point","coordinates":[1.3808,52.8958],"citations":[{"label":"Key to English Place-Names (KEPN), gazetteer record 9182"}]}]},"when":{"timespans":[{"start":{"in":"1185"},"end":{"in":"1535"}}]},"links":[{"type":"closeMatch","identifier":"https://sws.geonames.org/2635462/"}],"relations":[{"relationType":"gvp:broaderPartitive","relationTo":"http://placenames.org.uk/id/placename/79/002487","label":"within Trimingham"}]}]}