{"@context":"https://raw.githubusercontent.com/LinkedPasts/linked-places-format/main/linkedplaces-context-v1.1.jsonld","type":"FeatureCollection","license":"Digitisation of English Placenames MADS data is licensed to Jisc by the English Place Names Society and released under a Creative Commons Attribution-NonCommercial 4.0 International License.","note":"LPF v1.3, lossy; derived from the PLATO record; plato_commit=ca0afadabec1e23a145c0b03df77e8f151f79832","features":[{"@id":"http://placenames.org.uk/id/placename/79/003092","type":"Feature","properties":{"title":"Banningham","ccodes":["GB"],"fclasses":["A","P"]},"names":[{"toponym":"Banningham","lang":"en","citations":[{"label":"English Place-Name Society survey, volume 79: Norfolk"}]}],"types":[{"identifier":"http://vocab.getty.edu/aat/300232418","label":"administrative division","sourceLabels":[{"label":"parish","lang":"en"}]}],"geometry":{"type":"GeometryCollection","geometries":[{"type":"Point","coordinates":[1.279718673,52.8128403],"citations":[{"label":"English Place-Name Society survey (DEEP coordinates)"}]},{"type":"Point","coordinates":[1.287465477611232,52.81712405468971],"citations":[{"label":"Unlock (EDINA) gazetteer, gazetteer record unlock:11069535"}]},{"type":"Point","coordinates":[1.28565,52.8175],"citations":[{"label":"Key to English Place-Names (KEPN), gazetteer record 9187"}]}]},"relations":[{"relationType":"gvp:broaderPartitive","relationTo":"http://placenames.org.uk/id/placename/79/002628","label":"within South Erpingham Hundred"}]}]}