{"@context":"https://raw.githubusercontent.com/LinkedPasts/linked-places-format/main/linkedplaces-context-v1.1.jsonld","type":"FeatureCollection","license":"Digitisation of English Placenames MADS data is licensed to Jisc by the English Place Names Society and released under a Creative Commons Attribution-NonCommercial 4.0 International License.","note":"LPF v1.3, lossy; derived from the PLATO record; plato_commit=ca0afadabec1e23a145c0b03df77e8f151f79832","features":[{"@id":"http://placenames.org.uk/id/placename/79/004268","type":"Feature","properties":{"title":"Colby","ccodes":["GB"],"fclasses":["A","P"]},"names":[{"toponym":"Colby","lang":"en","citations":[{"label":"English Place-Name Society survey, volume 79: Norfolk"}]}],"types":[{"identifier":"http://vocab.getty.edu/aat/300232418","label":"administrative division","sourceLabels":[{"label":"parish","lang":"en"}]}],"geometry":{"type":"GeometryCollection","geometries":[{"type":"Point","coordinates":[1.29515,52.82716],"citations":[{"label":"GeoNames, gazetteer record geonames:7298992"}]},{"type":"Point","coordinates":[1.295891731,52.83038083],"citations":[{"label":"English Place-Name Society survey (DEEP coordinates)"}]},{"type":"Point","coordinates":[1.303643286149423,52.83466344680733],"citations":[{"label":"Unlock (EDINA) gazetteer, gazetteer record unlock:11113428"}]},{"type":"Point","coordinates":[1.30183,52.835],"citations":[{"label":"Key to English Place-Names (KEPN), gazetteer record 9198"}]}]},"links":[{"type":"closeMatch","identifier":"https://sws.geonames.org/7298992/"}],"relations":[{"relationType":"gvp:broaderPartitive","relationTo":"http://placenames.org.uk/id/placename/79/002628","label":"within South Erpingham Hundred"}]}]}