{"@context":"https://raw.githubusercontent.com/LinkedPasts/linked-places-format/main/linkedplaces-context-v1.1.jsonld","type":"FeatureCollection","license":"Digitisation of English Placenames MADS data is licensed to Jisc by the English Place Names Society and released under a Creative Commons Attribution-NonCommercial 4.0 International License.","note":"LPF v1.3, lossy; derived from the PLATO record; plato_commit=ca0afadabec1e23a145c0b03df77e8f151f79832","features":[{"@id":"http://placenames.org.uk/id/placename/79/004788","type":"Feature","properties":{"title":"Heydon","ccodes":["GB"],"fclasses":["A","P"]},"names":[{"toponym":"Heydon","lang":"en","citations":[{"label":"English Place-Name Society survey, volume 79: Norfolk"}]},{"toponym":"Heidon","citations":[{"label":"1196 FF","year":1196},{"label":"1250 Ass","year":1250},{"label":"1241 Cl","year":1241}],"when":{"timespans":[{"start":{"in":"1196"},"end":{"in":"1196"}},{"start":{"in":"1226"},"end":{"in":"1226"}},{"start":{"in":"1250"},"end":{"in":"1250"}},{"start":{"in":"1241"},"end":{"in":"1241"}}]}},{"toponym":"Haydon","citations":[{"label":"1225 Cur","year":1225},{"label":"1361 Pat","year":1361}],"when":{"timespans":[{"start":{"in":"1225"},"end":{"in":"1225"}},{"start":{"in":"1361"},"end":{"in":"1361"}}]}},{"toponym":"Heydon","citations":[{"label":"1242-3 Fees","year":1242},{"label":"1253 Ipm","year":1253},{"label":"1278 FF","year":1278},{"label":"1291 Tax","year":1291},{"label":"1302 FA","year":1302},{"label":"1336 Pat","year":1336},{"label":"1347 Fine","year":1347},{"label":"1432 Fine","year":1432},{"label":"1443 Past","year":1443},{"label":"1535 VE","year":1535}],"when":{"timespans":[{"start":{"earliest":"1242","latest":"1243"},"end":{"earliest":"1242","latest":"1243"}},{"start":{"in":"1253"},"end":{"in":"1253"}},{"start":{"in":"1311"},"end":{"in":"1311"}},{"start":{"in":"1278"},"end":{"in":"1278"}},{"start":{"in":"1334"},"end":{"in":"1334"}},{"start":{"in":"1403"},"end":{"in":"1403"}},{"start":{"in":"1291"},"end":{"in":"1291"}},{"start":{"in":"1302"},"end":{"in":"1302"}},{"start":{"earliest":"1401","latest":"1402"},"end":{"earliest":"1401","latest":"1402"}},{"start":{"in":"1336"},"end":{"in":"1336"}},{"start":{"in":"1347"},"end":{"in":"1347"}},{"start":{"in":"1432"},"end":{"in":"1432"}},{"start":{"in":"1443"},"end":{"in":"1443"}},{"start":{"in":"1535"},"end":{"in":"1535"}}]}},{"toponym":"Heydone","citations":[{"label":"1254-75 Val","year":1254},{"label":"1257 Ass","year":1257},{"label":"1325 Ipm","year":1325},{"label":"1325 FF","year":1325}],"when":{"timespans":[{"start":{"earliest":"1254","latest":"1275"},"end":{"earliest":"1254","latest":"1275"}},{"start":{"in":"1257"},"end":{"in":"1257"}},{"start":{"in":"1269"},"end":{"in":"1269"}},{"start":{"in":"1286"},"end":{"in":"1286"}},{"start":{"in":"1325"},"end":{"in":"1325"}},{"start":{"in":"1325"},"end":{"in":"1325"}},{"start":{"in":"1349"},"end":{"in":"1349"}}]}},{"toponym":"Heydona","citations":[{"label":"1276 Walsing","year":1276}],"when":{"timespans":[{"start":{"in":"1276"},"end":{"in":"1276"}}]}},{"toponym":"Hedon","citations":[{"label":"1399 Pat","year":1399}],"when":{"timespans":[{"start":{"in":"1399"},"end":{"in":"1399"}}]}}],"types":[{"identifier":"http://vocab.getty.edu/aat/300232418","label":"administrative division","sourceLabels":[{"label":"township","lang":"en"}]}],"geometry":{"type":"GeometryCollection","geometries":[{"type":"Point","coordinates":[1.13333,52.8],"citations":[{"label":"GeoNames, gazetteer record geonames:2647003"}]},{"type":"Point","coordinates":[1.130271432,52.79889147],"citations":[{"label":"English Place-Name Society survey (DEEP coordinates)"}]},{"type":"Point","coordinates":[1.138001348707534,52.80318525273586],"citations":[{"label":"Unlock (EDINA) gazetteer, gazetteer record unlock:11171062"}]},{"type":"Point","coordinates":[1.13621,52.8036],"citations":[{"label":"Key to English Place-Names (KEPN), gazetteer record 9204"}]}]},"when":{"timespans":[{"start":{"in":"1196"},"end":{"in":"1535"}}]},"links":[{"type":"closeMatch","identifier":"https://sws.geonames.org/2647003/"}],"relations":[{"relationType":"gvp:broaderPartitive","relationTo":"http://placenames.org.uk/id/placename/79/004787","label":"within Heydon"}]}]}