{"@context":"https://raw.githubusercontent.com/LinkedPasts/linked-places-format/main/linkedplaces-context-v1.1.jsonld","type":"FeatureCollection","license":"Digitisation of English Placenames MADS data is licensed to Jisc by the English Place Names Society and released under a Creative Commons Attribution-NonCommercial 4.0 International License.","note":"LPF v1.3, lossy; derived from the PLATO record; plato_commit=ca0afadabec1e23a145c0b03df77e8f151f79832","features":[{"@id":"http://placenames.org.uk/id/placename/79/005130","type":"Feature","properties":{"title":"Lamas","ccodes":["GB"],"fclasses":["A","P"]},"names":[{"toponym":"Lamas","lang":"en","citations":[{"label":"English Place-Name Society survey, volume 79: Norfolk"}]},{"toponym":"Lammesse","citations":[{"label":"1044-7 Sawyer","year":1044},{"label":"1044-7 KCD","year":1044},{"label":"1100-20 Holme","year":1100},{"label":"c. 1150 Bodl","year":1140},{"label":"1186 P","year":1186},{"label":"1228 to 1430 FF","year":1228},{"label":"1242-3 Fees","year":1242},{"label":"1254-75 Val","year":1254},{"label":"1257 Ass","year":1257},{"label":"1275 RH","year":1275},{"label":"1283 to 1364 Ipm","year":1283},{"label":"1254 NfA","year":1254},{"label":"1302 to 1428 FA","year":1302},{"label":"1307 De Banco","year":1307},{"label":"1336 Pat","year":1336},{"label":"1344 Cl","year":1344},{"label":"1399 AD","year":1399},{"label":"1455-6 BM","year":1455}],"when":{"timespans":[{"start":{"earliest":"1044","latest":"1047"},"end":{"earliest":"1044","latest":"1047"}},{"start":{"earliest":"1044","latest":"1047"},"end":{"earliest":"1044","latest":"1047"}},{"start":{"earliest":"1100","latest":"1120"},"end":{"earliest":"1100","latest":"1120"}},{"start":{"earliest":"1140","latest":"1160"},"end":{"earliest":"1140","latest":"1160"}},{"start":{"in":"1186"},"end":{"in":"1186"}},{"start":{"earliest":"1228","latest":"1430"},"end":{"earliest":"1228","latest":"1430"}},{"start":{"earliest":"1242","latest":"1243"},"end":{"earliest":"1242","latest":"1243"}},{"start":{"earliest":"1254","latest":"1275"},"end":{"earliest":"1254","latest":"1275"}},{"start":{"in":"1257"},"end":{"in":"1257"}},{"start":{"in":"1269"},"end":{"in":"1269"}},{"start":{"in":"1286"},"end":{"in":"1286"}},{"start":{"in":"1275"},"end":{"in":"1275"}},{"start":{"earliest":"1283","latest":"1364"},"end":{"earliest":"1283","latest":"1364"}},{"start":{"in":"1254"},"end":{"in":"1254"}},{"start":{"earliest":"1302","latest":"1428"},"end":{"earliest":"1302","latest":"1428"}},{"start":{"in":"1307"},"end":{"in":"1307"}},{"start":{"in":"1328"},"end":{"in":"1328"}},{"start":{"in":"1336"},"end":{"in":"1336"}},{"start":{"in":"1344"},"end":{"in":"1344"}},{"start":{"in":"1348"},"end":{"in":"1348"}},{"start":{"in":"1399"},"end":{"in":"1399"}},{"start":{"earliest":"1455","latest":"1456"},"end":{"earliest":"1455","latest":"1456"}}]}},{"toponym":"Lamers","citations":[{"label":"1086 DB","year":1086}],"when":{"timespans":[{"start":{"in":"1086"},"end":{"in":"1086"}}]}},{"toponym":"Lammasse","citations":[{"label":"1187 to 1194 P","year":1187}],"when":{"timespans":[{"start":{"earliest":"1187","latest":"1194"},"end":{"earliest":"1187","latest":"1194"}}]}},{"toponym":"Lamerss'","citations":[{"label":"1214 Cur","year":1214}],"when":{"timespans":[{"start":{"in":"1214"},"end":{"in":"1214"}}]}},{"toponym":"Lamersse","citations":[{"label":"1250 Ass","year":1250}],"when":{"timespans":[{"start":{"in":"1250"},"end":{"in":"1250"}}]}},{"toponym":"Lammers","citations":[{"label":"1257 Ass","year":1257}],"when":{"timespans":[{"start":{"in":"1257"},"end":{"in":"1257"}}]}},{"toponym":"Lammes","citations":[{"label":"1286 Ch","year":1286},{"label":"1535 VA","year":1535}],"when":{"timespans":[{"start":{"in":"1286"},"end":{"in":"1286"}},{"start":{"in":"1535"},"end":{"in":"1535"}}]}},{"toponym":"Lamesse","citations":[{"label":"1257 Ass","year":1257},{"label":"1307 FF","year":1307}],"when":{"timespans":[{"start":{"in":"1257"},"end":{"in":"1257"}},{"start":{"in":"1307"},"end":{"in":"1307"}}]}}],"types":[{"identifier":"http://vocab.getty.edu/aat/300232418","label":"administrative division","sourceLabels":[{"label":"township","lang":"en"}]}],"geometry":{"type":"GeometryCollection","geometries":[{"type":"Point","coordinates":[1.320052658,52.75775015],"citations":[{"label":"English Place-Name Society survey (DEEP coordinates)"}]},{"type":"Point","coordinates":[1.327793293956854,52.76203138628325],"citations":[{"label":"Unlock (EDINA) gazetteer, gazetteer record unlock:11190556"}]},{"type":"Point","coordinates":[1.32529,52.7534],"citations":[{"label":"Key to English Place-Names (KEPN), gazetteer record 9208"}]}]},"when":{"timespans":[{"start":{"in":"1044"},"end":{"in":"1535"}}]},"relations":[{"relationType":"gvp:broaderPartitive","relationTo":"http://placenames.org.uk/id/placename/79/005129","label":"within Lamas with Little Hautbois"}]}]}