{"@context":"https://raw.githubusercontent.com/LinkedPasts/linked-places-format/main/linkedplaces-context-v1.1.jsonld","type":"FeatureCollection","license":"Digitisation of English Placenames MADS data is licensed to Jisc by the English Place Names Society and released under a Creative Commons Attribution-NonCommercial 4.0 International License.","note":"LPF v1.3, lossy; derived from the PLATO record; plato_commit=fa0d247ccc0263f8f19c8d7cdcd163df96935d1e","features":[{"@id":"https://w3id.org/whg-epns/79/005215","type":"Feature","properties":{"title":"Marsham","ccodes":["GB"],"fclasses":["A","P"]},"names":[{"toponym":"Marsham","lang":"en","citations":[{"label":"English Place-Name Society survey, volume 79: Norfolk"}]}],"types":[{"identifier":"http://vocab.getty.edu/aat/300232418","label":"administrative division","sourceLabels":[{"label":"parish","lang":"en"}]}],"geometry":{"type":"GeometryCollection","geometries":[{"type":"Point","coordinates":[1.24615,52.76714],"citations":[{"label":"GeoNames, gazetteer record geonames:7301864"}]},{"type":"Point","coordinates":[1.246075399,52.75979963],"citations":[{"label":"English Place-Name Society survey (DEEP coordinates)"}]},{"type":"Point","coordinates":[1.254479280258596,52.77306186204191],"citations":[{"label":"Unlock (EDINA) gazetteer, gazetteer record unlock:11214191"}]},{"type":"Point","coordinates":[1.252,52.7645],"citations":[{"label":"Key to English Place-Names (KEPN), gazetteer record 9210"}]}]},"links":[{"type":"closeMatch","identifier":"https://sws.geonames.org/7301864/"}],"relations":[{"relationType":"gvp:broaderPartitive","relationTo":"https://w3id.org/whg-epns/79/002628","label":"within South Erpingham Hundred"}]}]}