{"@context":"https://raw.githubusercontent.com/LinkedPasts/linked-places-format/main/linkedplaces-context-v1.1.jsonld","type":"FeatureCollection","license":"Digitisation of English Placenames MADS data is licensed to Jisc by the English Place Names Society and released under a Creative Commons Attribution-NonCommercial 4.0 International License.","note":"LPF v1.3, lossy; derived from the PLATO record; plato_commit=fa0d247ccc0263f8f19c8d7cdcd163df96935d1e","features":[{"@id":"https://w3id.org/whg-epns/79/005216","type":"Feature","properties":{"title":"Marsham","ccodes":["GB"],"fclasses":["A","P"]},"names":[{"toponym":"Marsham","lang":"en","citations":[{"label":"English Place-Name Society survey, volume 79: Norfolk"}]},{"toponym":"Marsam","citations":[{"label":"1086 DB","year":1086}],"when":{"timespans":[{"start":{"in":"1086"},"end":{"in":"1086"}}]}},{"toponym":"Marsham","citations":[{"label":"1121-45 NCReg","year":1121},{"label":"1238 Pat","year":1238},{"label":"1252 Ch","year":1252},{"label":"1269 Ass","year":1269},{"label":"1275 RH","year":1275},{"label":"1302 Pat","year":1302},{"label":"1316 to 1428 FA","year":1316},{"label":"1333 SR","year":1333},{"label":"1337 FF","year":1337},{"label":"1337 Fine","year":1337},{"label":"1341 Cl","year":1341},{"label":"1473-5 ECP","year":1473}],"when":{"timespans":[{"start":{"earliest":"1121","latest":"1145"},"end":{"earliest":"1121","latest":"1145"}},{"start":{"in":"1198"},"end":{"in":"1198"}},{"start":{"in":"1238"},"end":{"in":"1238"}},{"start":{"in":"1252"},"end":{"in":"1252"}},{"start":{"in":"1269"},"end":{"in":"1269"}},{"start":{"in":"1275"},"end":{"in":"1275"}},{"start":{"in":"1302"},"end":{"in":"1302"}},{"start":{"in":"1306"},"end":{"in":"1306"}},{"start":{"in":"1336"},"end":{"in":"1336"}},{"start":{"earliest":"1316","latest":"1428"},"end":{"earliest":"1316","latest":"1428"}},{"start":{"in":"1333"},"end":{"in":"1333"}},{"start":{"in":"1337"},"end":{"in":"1337"}},{"start":{"in":"1382"},"end":{"in":"1382"}},{"start":{"in":"1337"},"end":{"in":"1337"}},{"start":{"in":"1341"},"end":{"in":"1341"}},{"start":{"in":"1347"},"end":{"in":"1347"}},{"start":{"earliest":"1473","latest":"1475"},"end":{"earliest":"1473","latest":"1475"}}]}},{"toponym":"Maresham","citations":[{"label":"1275 FF","year":1275}],"when":{"timespans":[{"start":{"in":"1275"},"end":{"in":"1275"}}]}},{"toponym":"Marseham","citations":[{"label":"1535 VE","year":1535}],"when":{"timespans":[{"start":{"in":"1535"},"end":{"in":"1535"}}]}},{"toponym":"Masham","citations":[{"label":"1675 Ogilby","year":1675}],"when":{"timespans":[{"start":{"in":"1675"},"end":{"in":"1675"}}]}}],"types":[{"identifier":"http://vocab.getty.edu/aat/300232418","label":"administrative division","sourceLabels":[{"label":"township","lang":"en"}]}],"geometry":{"type":"GeometryCollection","geometries":[{"type":"Point","coordinates":[1.24615,52.76714],"citations":[{"label":"GeoNames, gazetteer record geonames:7301864"}]},{"type":"Point","coordinates":[1.246075399,52.75979963],"citations":[{"label":"English Place-Name Society survey (DEEP coordinates)"}]},{"type":"Point","coordinates":[1.254479280258596,52.77306186204191],"citations":[{"label":"Unlock (EDINA) gazetteer, gazetteer record unlock:11214191"}]},{"type":"Point","coordinates":[1.252,52.7645],"citations":[{"label":"Key to English Place-Names (KEPN), gazetteer record 9210"}]}]},"when":{"timespans":[{"start":{"in":"1086"},"end":{"in":"1675"}}]},"links":[{"type":"closeMatch","identifier":"https://sws.geonames.org/7301864/"}],"relations":[{"relationType":"gvp:broaderPartitive","relationTo":"https://w3id.org/whg-epns/79/005215","label":"within Marsham"}]}]}