{"@context":"https://raw.githubusercontent.com/LinkedPasts/linked-places-format/main/linkedplaces-context-v1.1.jsonld","type":"FeatureCollection","license":"Digitisation of English Placenames MADS data is licensed to Jisc by the English Place Names Society and released under a Creative Commons Attribution-NonCommercial 4.0 International License.","note":"LPF v1.3, lossy; derived from the PLATO record; plato_commit=ca0afadabec1e23a145c0b03df77e8f151f79832","features":[{"@id":"https://w3id.org/whg-epns/79/006086","type":"Feature","properties":{"title":"Wickmere","ccodes":["GB"],"fclasses":["A","P"]},"names":[{"toponym":"Wickmere","lang":"en","citations":[{"label":"English Place-Name Society survey, volume 79: Norfolk"}]}],"types":[{"identifier":"http://vocab.getty.edu/aat/300232418","label":"administrative division","sourceLabels":[{"label":"parish","lang":"en"}]}],"geometry":{"type":"GeometryCollection","geometries":[{"type":"Point","coordinates":[1.21162,52.8492],"citations":[{"label":"GeoNames, gazetteer record geonames:7291082"}]},{"type":"Point","coordinates":[1.223119732,52.85036959],"citations":[{"label":"English Place-Name Society survey (DEEP coordinates)"}]},{"type":"Point","coordinates":[1.230867947943281,52.85465701440837],"citations":[{"label":"Unlock (EDINA) gazetteer, gazetteer record unlock:11322551"}]},{"type":"Point","coordinates":[1.22906,52.855],"citations":[{"label":"Key to English Place-Names (KEPN), gazetteer record 9220"}]}]},"links":[{"type":"closeMatch","identifier":"https://sws.geonames.org/7291082/"}],"relations":[{"relationType":"gvp:broaderPartitive","relationTo":"https://w3id.org/whg-epns/79/002628","label":"within South Erpingham Hundred"}]}]}