{"@context":"https://raw.githubusercontent.com/LinkedPasts/linked-places-format/main/linkedplaces-context-v1.1.jsonld","type":"FeatureCollection","license":"Digitisation of English Placenames MADS data is licensed to Jisc by the English Place Names Society and released under a Creative Commons Attribution-NonCommercial 4.0 International License.","note":"LPF v1.3, lossy; derived from the PLATO record; plato_commit=fa0d247ccc0263f8f19c8d7cdcd163df96935d1e","features":[{"@id":"https://w3id.org/whg-epns/79/006717","type":"Feature","properties":{"title":"Briston","ccodes":["GB"],"fclasses":["A","P"]},"names":[{"toponym":"Briston","lang":"en","citations":[{"label":"English Place-Name Society survey, volume 79: Norfolk"}]}],"types":[{"identifier":"http://vocab.getty.edu/aat/300232418","label":"administrative division","sourceLabels":[{"label":"parish","lang":"en"}]}],"geometry":{"type":"GeometryCollection","geometries":[{"type":"Point","coordinates":[1.05899,52.85369],"citations":[{"label":"GeoNames, gazetteer record geonames:2654673"}]},{"type":"Point","coordinates":[1.059364859,52.84571197],"citations":[{"label":"English Place-Name Society survey (DEEP coordinates)"}]},{"type":"Point","coordinates":[1.067096453566718,52.85001034116991],"citations":[{"label":"Unlock (EDINA) gazetteer, gazetteer record unlock:11087515"}]},{"type":"Point","coordinates":[1.06531,52.8504],"citations":[{"label":"Key to English Place-Names (KEPN), gazetteer record 9495"}]}]},"links":[{"type":"closeMatch","identifier":"https://sws.geonames.org/2654673/"}],"relations":[{"relationType":"gvp:broaderPartitive","relationTo":"https://w3id.org/whg-epns/79/006245","label":"within Holt Hundred"}]}]}