{"@context":"https://raw.githubusercontent.com/LinkedPasts/linked-places-format/main/linkedplaces-context-v1.1.jsonld","type":"FeatureCollection","license":"Digitisation of English Placenames MADS data is licensed to Jisc by the English Place Names Society and released under a Creative Commons Attribution-NonCommercial 4.0 International License.","note":"LPF v1.3, lossy; derived from the PLATO record; plato_commit=ca0afadabec1e23a145c0b03df77e8f151f79832","features":[{"@id":"http://placenames.org.uk/id/placename/79/007317","type":"Feature","properties":{"title":"Holt","ccodes":["GB"],"fclasses":["A","P"]},"names":[{"toponym":"Holt","lang":"en","citations":[{"label":"English Place-Name Society survey, volume 79: Norfolk"}]}],"types":[{"identifier":"http://vocab.getty.edu/aat/300232418","label":"administrative division","sourceLabels":[{"label":"parish","lang":"en"}]}],"geometry":{"type":"GeometryCollection","geometries":[{"type":"Point","coordinates":[1.08863,52.90591],"citations":[{"label":"GeoNames, gazetteer record geonames:2646701"}]},{"type":"Point","coordinates":[1.078007161,52.89919329],"citations":[{"label":"English Place-Name Society survey (DEEP coordinates)"}]},{"type":"Point","coordinates":[1.100597680566491,52.90310331961737],"citations":[{"label":"Unlock (EDINA) gazetteer, gazetteer record unlock:11177840"}]},{"type":"Point","coordinates":[1.08396,52.9039],"citations":[{"label":"Key to English Place-Names (KEPN), gazetteer record 9501"}]}]},"links":[{"type":"closeMatch","identifier":"https://sws.geonames.org/2646701/"}],"relations":[{"relationType":"gvp:broaderPartitive","relationTo":"http://placenames.org.uk/id/placename/79/006245","label":"within Holt Hundred"}]}]}