{"@context":"https://raw.githubusercontent.com/LinkedPasts/linked-places-format/main/linkedplaces-context-v1.1.jsonld","type":"FeatureCollection","license":"Digitisation of English Placenames MADS data is licensed to Jisc by the English Place Names Society and released under a Creative Commons Attribution-NonCommercial 4.0 International License.","note":"LPF v1.3, lossy; derived from the PLATO record; plato_commit=ca0afadabec1e23a145c0b03df77e8f151f79832","features":[{"@id":"https://w3id.org/whg-epns/79/008038","type":"Feature","properties":{"title":"Sharrington","ccodes":["GB"],"fclasses":["A","P"]},"names":[{"toponym":"Sharrington","lang":"en","citations":[{"label":"English Place-Name Society survey, volume 79: Norfolk"}]},{"toponym":"Scarnetuna, Scartune","citations":[{"label":"1086 DB","year":1086}],"when":{"timespans":[{"start":{"in":"1086"},"end":{"in":"1086"}}]}},{"toponym":"Sarenton","citations":[{"label":"1197 FF","year":1197},{"label":"1250 Ass","year":1250}],"when":{"timespans":[{"start":{"in":"1197"},"end":{"in":"1197"}},{"start":{"in":"1250"},"end":{"in":"1250"}}]}},{"toponym":"Serneton","citations":[{"label":"1199 Fees","year":1199}],"when":{"timespans":[{"start":{"in":"1199"},"end":{"in":"1199"}},{"start":{"in":"1233"},"end":{"in":"1233"}}]}},{"toponym":"Scarnetuna","citations":[{"label":"c. 1200 BM","year":1190}],"when":{"timespans":[{"start":{"earliest":"1190","latest":"1210"},"end":{"earliest":"1190","latest":"1210"}}]}},{"toponym":"Scarneton","citations":[{"label":"1209 Ass","year":1209}],"when":{"timespans":[{"start":{"in":"1209"},"end":{"in":"1209"}}]}},{"toponym":"Scharenton","citations":[{"label":"1219 FF","year":1219}],"when":{"timespans":[{"start":{"in":"1219"},"end":{"in":"1219"}}]}},{"toponym":"Sharentona","citations":[{"label":"1227 Bract","year":1227}],"when":{"timespans":[{"start":{"in":"1227"},"end":{"in":"1227"}}]}},{"toponym":"Sharnton","citations":[{"label":"1228 FF","year":1228},{"label":"1281 Ipm","year":1281},{"label":"1311 FF","year":1311}],"when":{"timespans":[{"start":{"in":"1228"},"end":{"in":"1228"}},{"start":{"in":"1281"},"end":{"in":"1281"}},{"start":{"in":"1311"},"end":{"in":"1311"}},{"start":{"in":"1315"},"end":{"in":"1315"}}]}},{"toponym":"Scarntun","citations":[{"label":"1234 FF","year":1234}],"when":{"timespans":[{"start":{"in":"1234"},"end":{"in":"1234"}}]}},{"toponym":"Sharneton","citations":[{"label":"1250 Ass","year":1250},{"label":"1283 FF","year":1283},{"label":"1296 Ipm","year":1296},{"label":"1302 FA","year":1302}],"when":{"timespans":[{"start":{"in":"1250"},"end":{"in":"1250"}},{"start":{"in":"1283"},"end":{"in":"1283"}},{"start":{"in":"1336"},"end":{"in":"1336"}},{"start":{"in":"1296"},"end":{"in":"1296"}},{"start":{"in":"1314"},"end":{"in":"1314"}},{"start":{"in":"1317"},"end":{"in":"1317"}},{"start":{"in":"1302"},"end":{"in":"1302"}}]}},{"toponym":"Sarington","citations":[{"label":"1250 Ass","year":1250}],"when":{"timespans":[{"start":{"in":"1250"},"end":{"in":"1250"}}]}},{"toponym":"Scharinton","citations":[{"label":"1252 Ch","year":1252}],"when":{"timespans":[{"start":{"in":"1252"},"end":{"in":"1252"}}]}},{"toponym":"Sharnetone","citations":[{"label":"1254 NfA","year":1254},{"label":"1257 Ass","year":1257}],"when":{"timespans":[{"start":{"in":"1254"},"end":{"in":"1254"}},{"start":{"in":"1257"},"end":{"in":"1257"}}]}},{"toponym":"Skarington, Skarnetone","citations":[{"label":"1257 Ass","year":1257}],"when":{"timespans":[{"start":{"in":"1257"},"end":{"in":"1257"}}]}},{"toponym":"Schartone","citations":[{"label":"1257 Ass","year":1257}],"when":{"timespans":[{"start":{"in":"1257"},"end":{"in":"1257"}}]}},{"toponym":"Sharington","citations":[{"label":"1257 Ass","year":1257},{"label":"1316 FA","year":1316},{"label":"1333 SR","year":1333}],"when":{"timespans":[{"start":{"in":"1257"},"end":{"in":"1257"}},{"start":{"in":"1316"},"end":{"in":"1316"}},{"start":{"in":"1333"},"end":{"in":"1333"}}]}},{"toponym":"Scharnetone","citations":[{"label":"1269 Ass","year":1269}],"when":{"timespans":[{"start":{"in":"1269"},"end":{"in":"1269"}}]}},{"toponym":"Sharntone","citations":[{"label":"1269 Ass","year":1269}],"when":{"timespans":[{"start":{"in":"1269"},"end":{"in":"1269"}}]}},{"toponym":"Scharenton, Sarneton","citations":[{"label":"1275 RH","year":1275}],"when":{"timespans":[{"start":{"in":"1275"},"end":{"in":"1275"}}]}},{"toponym":"Shernton","citations":[{"label":"1286 Ipm","year":1286},{"label":"1288 IpmR","year":1288}],"when":{"timespans":[{"start":{"in":"1286"},"end":{"in":"1286"}},{"start":{"in":"1288"},"end":{"in":"1288"}}]}},{"toponym":"Sharyngton","citations":[{"label":"1307 Ipm","year":1307},{"label":"1322 to 1421 FF","year":1322},{"label":"1336 Pat","year":1336},{"label":"1346 FA","year":1346},{"label":"1535 VE","year":1535}],"when":{"timespans":[{"start":{"in":"1307"},"end":{"in":"1307"}},{"start":{"earliest":"1322","latest":"1421"},"end":{"earliest":"1322","latest":"1421"}},{"start":{"in":"1336"},"end":{"in":"1336"}},{"start":{"in":"1346"},"end":{"in":"1346"}},{"start":{"in":"1402"},"end":{"in":"1402"}},{"start":{"in":"1428"},"end":{"in":"1428"}},{"start":{"in":"1535"},"end":{"in":"1535"}}]}},{"toponym":"Scharentone","citations":[{"label":"1330 SR","year":1330}],"when":{"timespans":[{"start":{"in":"1330"},"end":{"in":"1330"}}]}},{"toponym":"Scheryngton, Scherynton","citations":[{"label":"1443 Past","year":1443}],"when":{"timespans":[{"start":{"in":"1443"},"end":{"in":"1443"}}]}},{"toponym":"Sherington","citations":[{"label":"1610 Speed","year":1610}],"when":{"timespans":[{"start":{"in":"1610"},"end":{"in":"1610"}}]}}],"types":[{"identifier":"http://vocab.getty.edu/aat/300232418","label":"administrative division","sourceLabels":[{"label":"township","lang":"en"}]}],"geometry":{"type":"GeometryCollection","geometries":[{"type":"Point","coordinates":[1.02357,52.89336],"citations":[{"label":"GeoNames, gazetteer record geonames:2638116"}]},{"type":"Point","coordinates":[1.017371407,52.88276276],"citations":[{"label":"English Place-Name Society survey (DEEP coordinates)"}]},{"type":"Point","coordinates":[1.025105685672236,52.88706381755724],"citations":[{"label":"Unlock (EDINA) gazetteer, gazetteer record unlock:11281665"}]},{"type":"Point","coordinates":[1.02394,52.8964],"citations":[{"label":"Key to English Place-Names (KEPN), gazetteer record 9510"}]}]},"when":{"timespans":[{"start":{"in":"1086"},"end":{"in":"1610"}}]},"links":[{"type":"closeMatch","identifier":"https://sws.geonames.org/2638116/"}],"relations":[{"relationType":"gvp:broaderPartitive","relationTo":"https://w3id.org/whg-epns/79/008037","label":"within Sharrington"}]}]}