{"@context":"https://raw.githubusercontent.com/LinkedPasts/linked-places-format/main/linkedplaces-context-v1.1.jsonld","type":"FeatureCollection","license":"Digitisation of English Placenames MADS data is licensed to Jisc by the English Place Names Society and released under a Creative Commons Attribution-NonCommercial 4.0 International License.","note":"LPF v1.3, lossy; derived from the PLATO record; plato_commit=ca0afadabec1e23a145c0b03df77e8f151f79832","features":[{"@id":"https://w3id.org/whg-epns/79/008091","type":"Feature","properties":{"title":"Stody","ccodes":["GB"],"fclasses":["A","P"]},"names":[{"toponym":"Stody","lang":"en","citations":[{"label":"English Place-Name Society survey, volume 79: Norfolk"}]}],"types":[{"identifier":"http://vocab.getty.edu/aat/300232418","label":"administrative division","sourceLabels":[{"label":"parish","lang":"en"}]}],"geometry":{"type":"GeometryCollection","geometries":[{"type":"Point","coordinates":[1.05244,52.87384],"citations":[{"label":"GeoNames, gazetteer record geonames:7280465"}]},{"type":"Point","coordinates":[1.046423796,52.87302664],"citations":[{"label":"English Place-Name Society survey (DEEP coordinates)"}]},{"type":"Point","coordinates":[1.054159110999337,52.87732579016998],"citations":[{"label":"Unlock (EDINA) gazetteer, gazetteer record unlock:11292649"}]},{"type":"Point","coordinates":[1.05237,52.8777],"citations":[{"label":"Key to English Place-Names (KEPN), gazetteer record 9511"}]}]},"links":[{"type":"closeMatch","identifier":"https://sws.geonames.org/7280465/"}],"relations":[{"relationType":"gvp:broaderPartitive","relationTo":"https://w3id.org/whg-epns/79/006245","label":"within Holt Hundred"}]}]}