{"@context":"https://raw.githubusercontent.com/LinkedPasts/linked-places-format/main/linkedplaces-context-v1.1.jsonld","type":"FeatureCollection","license":"Digitisation of English Placenames MADS data is licensed to Jisc by the English Place Names Society and released under a Creative Commons Attribution-NonCommercial 4.0 International License.","note":"LPF v1.3, lossy; derived from the PLATO record; plato_commit=ca0afadabec1e23a145c0b03df77e8f151f79832","features":[{"@id":"https://w3id.org/whg-epns/50/000017","type":"Feature","properties":{"title":"Chaddleworth","ccodes":["GB"],"fclasses":["A","P"]},"names":[{"toponym":"Chaddleworth","lang":"en","citations":[{"label":"English Place-Name Society survey, volume 50: Berkshire"}]}],"types":[{"identifier":"http://vocab.getty.edu/aat/300232418","label":"administrative division","sourceLabels":[{"label":"parish","lang":"en"}]}],"geometry":{"type":"GeometryCollection","geometries":[{"type":"Point","coordinates":[-1.41167,51.50403],"citations":[{"label":"GeoNames, gazetteer record geonames:7297445"}]},{"type":"Point","coordinates":[-1.402139875316171,51.49443474933447],"citations":[{"label":"Unlock (EDINA) gazetteer, gazetteer record unlock:11103073"}]},{"type":"Point","coordinates":[-1.40359,51.4949],"citations":[{"label":"Key to English Place-Names (KEPN), gazetteer record 3103"}]}]},"links":[{"type":"closeMatch","identifier":"https://sws.geonames.org/7297445/"}],"relations":[{"relationType":"gvp:broaderPartitive","relationTo":"https://w3id.org/whg-epns/50/000002","label":"within Kintbury Eagle Hundred"}]}]}