{"@context":"https://raw.githubusercontent.com/LinkedPasts/linked-places-format/main/linkedplaces-context-v1.1.jsonld","type":"FeatureCollection","license":"Digitisation of English Placenames MADS data is licensed to Jisc by the English Place Names Society and released under a Creative Commons Attribution-NonCommercial 4.0 International License.","note":"LPF v1.3, lossy; derived from the PLATO record; plato_commit=ca0afadabec1e23a145c0b03df77e8f151f79832","features":[{"@id":"http://placenames.org.uk/id/placename/50/002174","type":"Feature","properties":{"title":"Letcombe Regis","ccodes":["GB"],"fclasses":["A","P"]},"names":[{"toponym":"Letcombe Regis","lang":"en","citations":[{"label":"English Place-Name Society survey, volume 50: Berkshire"}]},{"toponym":"Dunledcombe","citations":[{"label":"1316 FA","year":1316}],"when":{"timespans":[{"start":{"in":"1316"},"end":{"in":"1316"}}]}},{"toponym":"Dounledecombe Regis","citations":[{"label":"1327 Windsor","year":1327}],"when":{"timespans":[{"start":{"in":"1327"},"end":{"in":"1327"}}]}},{"toponym":"Dounlidecombe Regis","citations":[{"label":"1344 Windsor","year":1344}],"when":{"timespans":[{"start":{"in":"1344"},"end":{"in":"1344"}}]}},{"toponym":"Ledecombe Regis","citations":[{"label":"1356 Pat","year":1356},{"label":"1369 Fine","year":1369},{"label":"1463 Ch","year":1463}],"when":{"timespans":[{"start":{"in":"1356"},"end":{"in":"1356"}},{"start":{"in":"1369"},"end":{"in":"1369"}},{"start":{"in":"1412"},"end":{"in":"1412"}},{"start":{"in":"1463"},"end":{"in":"1463"}}]}},{"toponym":"Ledec(o)umbe Regis","citations":[{"label":"1399 Fine","year":1399}],"when":{"timespans":[{"start":{"in":"1399"},"end":{"in":"1399"}}]}},{"toponym":"Lodecombe Regis","citations":[{"label":"1400 Cl","year":1400}],"when":{"timespans":[{"start":{"in":"1400"},"end":{"in":"1400"}}]}}],"types":[{"identifier":"http://vocab.getty.edu/aat/300232418","label":"administrative division","sourceLabels":[{"label":"township","lang":"en"}]}],"geometry":{"type":"GeometryCollection","geometries":[{"type":"Point","coordinates":[-1.45174,51.57675],"citations":[{"label":"GeoNames, gazetteer record geonames:2644595"}]},{"type":"Point","coordinates":[-1.444371941109778,51.57557536963269],"citations":[{"label":"Unlock (EDINA) gazetteer, gazetteer record unlock:11194184"}]},{"type":"Point","coordinates":[-1.44582,51.5761],"citations":[{"label":"Key to English Place-Names (KEPN), gazetteer record 3113"}]}]},"when":{"timespans":[{"start":{"in":"1316"},"end":{"in":"1463"}}]},"links":[{"type":"closeMatch","identifier":"https://sws.geonames.org/2644595/"}],"relations":[{"relationType":"gvp:broaderPartitive","relationTo":"http://placenames.org.uk/id/placename/50/002173","label":"within Letcombe Regis"}]}]}