{"@context":"https://raw.githubusercontent.com/LinkedPasts/linked-places-format/main/linkedplaces-context-v1.1.jsonld","type":"FeatureCollection","license":"Digitisation of English Placenames MADS data is licensed to Jisc by the English Place Names Society and released under a Creative Commons Attribution-NonCommercial 4.0 International License.","note":"LPF v1.3, lossy; derived from the PLATO record; plato_commit=fa0d247ccc0263f8f19c8d7cdcd163df96935d1e","features":[{"@id":"https://w3id.org/whg-epns/50/002125","type":"Feature","properties":{"title":"Letcombe Bassett and Letcombe Regis","ccodes":["GB"],"fclasses":["A","P"]},"names":[{"toponym":"Letcombe Bassett and Letcombe Regis","lang":"en","citations":[{"label":"English Place-Name Society survey, volume 50: Berkshire"}]},{"toponym":"Ledecumbe, Ledencumbe","citations":[{"label":"1086 DB","year":1086}],"when":{"timespans":[{"start":{"in":"1086"},"end":{"in":"1086"}}]}},{"toponym":"Ledecumba","citations":[{"label":"OxonCh","year":1120},{"label":"SR"},{"label":"c. 1130 OxonCh","year":1120},{"label":"1327 SR","year":1327}],"when":{"timespans":[{"start":{"in":"1120"},"end":{"in":"1327"}},{"start":{"earliest":"1120","latest":"1140"},"end":{"earliest":"1120","latest":"1140"}},{"start":{"in":"1327"},"end":{"in":"1327"}}]}},{"toponym":"Ledecumb', Ledecumbe, Ledecombe, Ledecoumbe","citations":[{"label":"c. 1130-1327 unspecified sources","year":1120}],"when":{"timespans":[{"start":{"in":"1120"},"end":{"in":"1327"}}]}},{"toponym":"Leecumba","citations":[{"label":"1151 Os","year":1151}],"when":{"timespans":[{"start":{"in":"1151"},"end":{"in":"1151"}}]}},{"toponym":"Lecumbe","citations":[{"label":"1230 Cl","year":1230}],"when":{"timespans":[{"start":{"in":"1230"},"end":{"in":"1230"}}]}},{"toponym":"Hledecumba","citations":[{"label":"Hy 2 Abingdon","year":1154}],"when":{"timespans":[{"start":{"earliest":"1154","latest":"1189"},"end":{"earliest":"1154","latest":"1189"}}]}},{"toponym":"Lhedecombe","citations":[{"label":"1385 Cl","year":1385}],"when":{"timespans":[{"start":{"in":"1385"},"end":{"in":"1385"}}]}},{"toponym":"Lidecumb'","citations":[{"label":"1205 FineR","year":1205}],"when":{"timespans":[{"start":{"in":"1205"},"end":{"in":"1205"}}]}},{"toponym":"Lidecombe","citations":[{"label":"1345 Cl","year":1345}],"when":{"timespans":[{"start":{"in":"1345"},"end":{"in":"1345"}}]}},{"toponym":"Dedecumb'","citations":[{"label":"1235-6 Fees","year":1235}],"when":{"timespans":[{"start":{"earliest":"1235","latest":"1236"},"end":{"earliest":"1235","latest":"1236"}}]}},{"toponym":"Lodecumbe","citations":[{"label":"1277 Cl","year":1277}],"when":{"timespans":[{"start":{"in":"1277"},"end":{"in":"1277"}}]}},{"toponym":"Lodecombe","citations":[{"label":"1337 Cl","year":1337}],"when":{"timespans":[{"start":{"in":"1337"},"end":{"in":"1337"}}]}},{"toponym":"Ludecombe","citations":[{"label":"1338 Cl","year":1338}],"when":{"timespans":[{"start":{"in":"1338"},"end":{"in":"1338"}}]}},{"toponym":"Letcombe","citations":[{"label":"1383 Fine","year":1383}],"when":{"timespans":[{"start":{"in":"1383"},"end":{"in":"1383"}}]}},{"toponym":"Lettcombe","citations":[{"label":"1390 Eynsh","year":1390}],"when":{"timespans":[{"start":{"in":"1390"},"end":{"in":"1390"}}]}},{"toponym":"Ledcombe","citations":[{"label":"1389 Os","year":1389}],"when":{"timespans":[{"start":{"in":"1389"},"end":{"in":"1389"}}]}}],"types":[{"identifier":"http://vocab.getty.edu/aat/300232418","label":"administrative division","sourceLabels":[{"label":"township","lang":"en"}]}],"geometry":{"type":"GeometryCollection","geometries":[{"type":"Point","coordinates":[-1.46238,51.56344],"citations":[{"label":"GeoNames, gazetteer record geonames:2644596"}]},{"type":"Point","coordinates":[-1.458909903144938,51.5666508008531],"citations":[{"label":"Unlock (EDINA) gazetteer, gazetteer record unlock:11194180"}]},{"type":"Point","coordinates":[-1.46035,51.5671],"citations":[{"label":"Key to English Place-Names (KEPN), gazetteer record 3112"}]}]},"when":{"timespans":[{"start":{"in":"1086"},"end":{"in":"1390"}}]},"links":[{"type":"closeMatch","identifier":"https://sws.geonames.org/2644596/"}],"relations":[{"relationType":"gvp:broaderPartitive","relationTo":"https://w3id.org/whg-epns/50/002124","label":"within Letcombe Bassett"}]}]}