{"@context":"https://raw.githubusercontent.com/LinkedPasts/linked-places-format/main/linkedplaces-context-v1.1.jsonld","type":"FeatureCollection","license":"Digitisation of English Placenames MADS data is licensed to Jisc by the English Place Names Society and released under a Creative Commons Attribution-NonCommercial 4.0 International License.","note":"LPF v1.3, lossy; derived from the PLATO record; plato_commit=fa0d247ccc0263f8f19c8d7cdcd163df96935d1e","features":[{"@id":"https://w3id.org/whg-epns/50/002509","type":"Feature","properties":{"title":"Lambourn Hundred","ccodes":["GB"],"fclasses":["A"]},"names":[{"toponym":"Lambourn Hundred","lang":"en","citations":[{"label":"English Place-Name Society survey, volume 50: Berkshire"}]},{"toponym":"Lamborne","citations":[{"label":"1086 DB","year":1086}],"when":{"timespans":[{"start":{"in":"1086"},"end":{"in":"1086"}}]}},{"toponym":"Lamburn","citations":[{"label":"P","year":1180},{"label":"1180 P","year":1180}],"when":{"timespans":[{"start":{"in":"1180"},"end":{"in":"1180"}},{"start":{"in":"1180"},"end":{"in":"1180"}}]}},{"toponym":"Lamburn', Lamburne","citations":[{"label":"1180-1600 unspecified sources","year":1180}],"when":{"timespans":[{"start":{"in":"1180"},"end":{"in":"1600"}}]}},{"toponym":"Launburn'","citations":[{"label":"1219 Fees","year":1219}],"when":{"timespans":[{"start":{"in":"1219"},"end":{"in":"1219"}}]}},{"toponym":"manor and hundred of Chepyng Lambourne","citations":[{"label":"1367 Pat","year":1367}],"when":{"timespans":[{"start":{"in":"1367"},"end":{"in":"1367"}}]}}],"types":[{"identifier":"http://vocab.getty.edu/aat/300232418","label":"administrative division","sourceLabels":[{"label":"hundred / wapentake","lang":"en"}]}],"geometry":null,"when":{"timespans":[{"start":{"in":"1086"},"end":{"in":"1600"}}]},"relations":[{"relationType":"gvp:broaderPartitive","relationTo":"https://w3id.org/whg-epns/50/000001","label":"within Berkshire"}]}]}