{"@context":"https://raw.githubusercontent.com/LinkedPasts/linked-places-format/main/linkedplaces-context-v1.1.jsonld","type":"FeatureCollection","license":"Digitisation of English Placenames MADS data is licensed to Jisc by the English Place Names Society and released under a Creative Commons Attribution-NonCommercial 4.0 International License.","note":"LPF v1.3, lossy; derived from the PLATO record; plato_commit=fa0d247ccc0263f8f19c8d7cdcd163df96935d1e","features":[{"@id":"https://w3id.org/whg-epns/50/005604","type":"Feature","properties":{"title":"Woolstone","ccodes":["GB"],"fclasses":["A","P"]},"names":[{"toponym":"Woolstone","lang":"en","citations":[{"label":"English Place-Name Society survey, volume 50: Berkshire"}]},{"toponym":"Olvricestone","citations":[{"label":"1086 DB","year":1086}],"when":{"timespans":[{"start":{"in":"1086"},"end":{"in":"1086"}}]}},{"toponym":"Wolfrichstone","citations":[{"label":"1204-5 Winchester","year":1204}],"when":{"timespans":[{"start":{"earliest":"1204","latest":"1205"},"end":{"earliest":"1204","latest":"1205"}}]}},{"toponym":"Wlvricheston'","citations":[{"label":"1206 Cur","year":1206}],"when":{"timespans":[{"start":{"in":"1206"},"end":{"in":"1206"}}]}},{"toponym":"Wluricheston'","citations":[{"label":"1220 Fees","year":1220}],"when":{"timespans":[{"start":{"in":"1220"},"end":{"in":"1220"}}]}},{"toponym":"Wolfricheston', Wolricheston', Wulfricheston'","citations":[{"label":"1241 Ass","year":1241}],"when":{"timespans":[{"start":{"in":"1241"},"end":{"in":"1241"}}]}},{"toponym":"Wulvricheston'","citations":[{"label":"1242-3 Fees","year":1242}],"when":{"timespans":[{"start":{"earliest":"1242","latest":"1243"},"end":{"earliest":"1242","latest":"1243"}}]}},{"toponym":"Wolfrichestone","citations":[{"label":"1243 Winchester","year":1243}],"when":{"timespans":[{"start":{"in":"1243"},"end":{"in":"1243"}}]}},{"toponym":"Wlricheston, Wuluricheston","citations":[{"label":"1275-6 RH","year":1275}],"when":{"timespans":[{"start":{"earliest":"1275","latest":"1276"},"end":{"earliest":"1275","latest":"1276"}}]}},{"toponym":"W(o)lfricheston', Wulfricheston', Ulfricheston', Welingeston'","citations":[{"label":"1284 Ass","year":1284}],"when":{"timespans":[{"start":{"in":"1284"},"end":{"in":"1284"}}]}},{"toponym":"Wolriston, Wolfredyngtone","citations":[{"label":"1325 Winchester","year":1325}],"when":{"timespans":[{"start":{"in":"1325"},"end":{"in":"1325"}}]}},{"toponym":"Wolfricheston","citations":[{"label":"1327 SR","year":1327}],"when":{"timespans":[{"start":{"in":"1327"},"end":{"in":"1327"}}]}},{"toponym":"Woluerisshton, Woluerissheton'","citations":[{"label":"1547 LRMB","year":1547}],"when":{"timespans":[{"start":{"in":"1547"},"end":{"in":"1547"}}]}}],"types":[{"identifier":"http://vocab.getty.edu/aat/300232418","label":"administrative division","sourceLabels":[{"label":"township","lang":"en"}]}],"geometry":{"type":"GeometryCollection","geometries":[{"type":"Point","coordinates":[-1.57783,51.58806],"citations":[{"label":"GeoNames, gazetteer record geonames:2633590"}]},{"type":"Point","coordinates":[-1.574170534719511,51.58511050129393],"citations":[{"label":"Unlock (EDINA) gazetteer, gazetteer record unlock:11327065"}]},{"type":"Point","coordinates":[-1.5756,51.5856],"citations":[{"label":"Key to English Place-Names (KEPN), gazetteer record 3135"}]}]},"when":{"timespans":[{"start":{"in":"1086"},"end":{"in":"1547"}}]},"links":[{"type":"closeMatch","identifier":"https://sws.geonames.org/2633590/"}],"relations":[{"relationType":"gvp:broaderPartitive","relationTo":"https://w3id.org/whg-epns/50/005603","label":"within Woolstone"}]}]}