{"@context":"https://raw.githubusercontent.com/LinkedPasts/linked-places-format/main/linkedplaces-context-v1.1.jsonld","type":"FeatureCollection","license":"Digitisation of English Placenames MADS data is licensed to Jisc by the English Place Names Society and released under a Creative Commons Attribution-NonCommercial 4.0 International License.","note":"LPF v1.3, lossy; derived from the PLATO record; plato_commit=ca0afadabec1e23a145c0b03df77e8f151f79832","features":[{"@id":"http://placenames.org.uk/id/placename/50/006606","type":"Feature","properties":{"title":"Appleford","ccodes":["GB"],"fclasses":["A","P"]},"names":[{"toponym":"Appleford","lang":"en","citations":[{"label":"English Place-Name Society survey, volume 50: Berkshire"}]},{"toponym":"Æppelford, Appelforda","citations":[{"label":"c. 895 BCS","year":885}],"when":{"timespans":[{"start":{"earliest":"0885","latest":"0905"},"end":{"earliest":"0885","latest":"0905"}}]}},{"toponym":"(on) æppelford, (of) æppelforda","citations":[{"label":"BCS"}]},{"toponym":"Apleford","citations":[{"label":"1086 DB","year":1086}],"when":{"timespans":[{"start":{"in":"1086"},"end":{"in":"1086"}}]}},{"toponym":"Appelford'","citations":[{"label":"1175–1175, recurring P","year":1175},{"label":"1175 P","year":1175}],"when":{"timespans":[{"start":{"in":"1175"},"end":{"in":"1175"}},{"start":{"in":"1175"},"end":{"in":"1175"}}]}},{"toponym":"Apelfordia","citations":[{"label":"1224 Bract","year":1224}],"when":{"timespans":[{"start":{"in":"1224"},"end":{"in":"1224"}}]}},{"toponym":"Appulford","citations":[{"label":"1322 BC","year":1322}],"when":{"timespans":[{"start":{"in":"1322"},"end":{"in":"1322"}}]}},{"toponym":"Appulford'","citations":[{"label":"1383-4 ObAcc","year":1383}],"when":{"timespans":[{"start":{"earliest":"1383","latest":"1384"},"end":{"earliest":"1383","latest":"1384"}}]}},{"toponym":"Apulford","citations":[{"label":"1535 VE","year":1535}],"when":{"timespans":[{"start":{"in":"1535"},"end":{"in":"1535"}}]}},{"toponym":"Eppelford'","citations":[{"label":"1220 Fees","year":1220}],"when":{"timespans":[{"start":{"in":"1220"},"end":{"in":"1220"}}]}},{"toponym":"Aspelforde","citations":[{"label":"1316 FA","year":1316}],"when":{"timespans":[{"start":{"in":"1316"},"end":{"in":"1316"}}]}}],"types":[{"identifier":"http://vocab.getty.edu/aat/300232418","label":"administrative division","sourceLabels":[{"label":"township","lang":"en"}]}],"geometry":{"type":"GeometryCollection","geometries":[{"type":"Point","coordinates":[-1.24077,51.63917],"citations":[{"label":"GeoNames, gazetteer record geonames:2657231"}]},{"type":"Point","coordinates":[-1.241293449630628,51.63738597201072],"citations":[{"label":"Unlock (EDINA) gazetteer, gazetteer record unlock:11062914"}]},{"type":"Point","coordinates":[-1.24276,51.6379],"citations":[{"label":"Key to English Place-Names (KEPN), gazetteer record 3144"}]}]},"when":{"timespans":[{"start":{"in":"0885"},"end":{"in":"1535"}}]},"links":[{"type":"closeMatch","identifier":"https://sws.geonames.org/2657231/"}],"relations":[{"relationType":"gvp:broaderPartitive","relationTo":"http://placenames.org.uk/id/placename/50/006605","label":"within Appleford"}]}]}