{"@context":"https://raw.githubusercontent.com/LinkedPasts/linked-places-format/main/linkedplaces-context-v1.1.jsonld","type":"FeatureCollection","license":"Digitisation of English Placenames MADS data is licensed to Jisc by the English Place Names Society and released under a Creative Commons Attribution-NonCommercial 4.0 International License.","note":"LPF v1.3, lossy; derived from the PLATO record; plato_commit=ca0afadabec1e23a145c0b03df77e8f151f79832","features":[{"@id":"https://w3id.org/whg-epns/50/007273","type":"Feature","properties":{"title":"Goosey","ccodes":["GB"],"fclasses":["A","P"]},"names":[{"toponym":"Goosey","lang":"en","citations":[{"label":"English Place-Name Society survey, volume 50: Berkshire"}]}],"types":[{"identifier":"http://vocab.getty.edu/aat/300232418","label":"administrative division","sourceLabels":[{"label":"parish","lang":"en"}]}],"geometry":{"type":"GeometryCollection","geometries":[{"type":"Point","coordinates":[-1.47441,51.63085],"citations":[{"label":"GeoNames, gazetteer record geonames:7293927"}]},{"type":"Point","coordinates":[-1.487159537144237,51.62073232867606],"citations":[{"label":"Unlock (EDINA) gazetteer, gazetteer record unlock:11156440"}]},{"type":"Point","coordinates":[-1.47416,51.6211],"citations":[{"label":"Key to English Place-Names (KEPN), gazetteer record 3151"}]}]},"links":[{"type":"closeMatch","identifier":"https://sws.geonames.org/7293927/"}],"relations":[{"relationType":"gvp:broaderPartitive","relationTo":"https://w3id.org/whg-epns/50/006596","label":"within Ock Hundred"}]}]}