{"@context":"https://raw.githubusercontent.com/LinkedPasts/linked-places-format/main/linkedplaces-context-v1.1.jsonld","type":"FeatureCollection","license":"Digitisation of English Placenames MADS data is licensed to Jisc by the English Place Names Society and released under a Creative Commons Attribution-NonCommercial 4.0 International License.","note":"LPF v1.3, lossy; derived from the PLATO record; plato_commit=fa0d247ccc0263f8f19c8d7cdcd163df96935d1e","features":[{"@id":"https://w3id.org/whg-epns/50/008208","type":"Feature","properties":{"title":"Tubney","ccodes":["GB"],"fclasses":["A","P"]},"names":[{"toponym":"Tubney","lang":"en","citations":[{"label":"English Place-Name Society survey, volume 50: Berkshire"}]},{"toponym":"Tobenie","citations":[{"label":"1086 DB","year":1086}],"when":{"timespans":[{"start":{"in":"1086"},"end":{"in":"1086"}}]}},{"toponym":"Tobbeneia","citations":[{"label":"a. 1170 ClaudiusCix","year":1120}],"when":{"timespans":[{"start":{"earliest":"1120","latest":"1170"},"end":{"earliest":"1120","latest":"1170"}}]}},{"toponym":"Tobbeney","citations":[{"label":"1242-3 Fees","year":1242},{"label":"1316 FA","year":1316}],"when":{"timespans":[{"start":{"earliest":"1242","latest":"1243"},"end":{"earliest":"1242","latest":"1243"}},{"start":{"in":"1316"},"end":{"in":"1316"}}]}},{"toponym":"Tobbeneye","citations":[{"label":"1327 SR","year":1327}],"when":{"timespans":[{"start":{"in":"1327"},"end":{"in":"1327"}}]}},{"toponym":"Tubbeneia","citations":[{"label":"William Abingdon","year":1066},{"label":"RBE","year":1166},{"label":"1166 RBE","year":1166}],"when":{"timespans":[{"start":{"earliest":"1066","latest":"1100"},"end":{"earliest":"1066","latest":"1100"}},{"start":{"in":"1166"},"end":{"in":"1166"}},{"start":{"in":"1166"},"end":{"in":"1166"}}]}},{"toponym":"Tubbenai, Tubbeneya, Tubbeney(e), Tubbeneie","citations":[{"label":"1166-1600 unspecified sources","year":1166}],"when":{"timespans":[{"start":{"in":"1166"},"end":{"in":"1600"}}]}},{"toponym":"Tuben'","citations":[{"label":"1185 RR","year":1185}],"when":{"timespans":[{"start":{"in":"1185"},"end":{"in":"1185"}}]}},{"toponym":"Tubeney","citations":[{"label":"1242-3 Fees","year":1242},{"label":"1284 Ass","year":1284}],"when":{"timespans":[{"start":{"earliest":"1242","latest":"1243"},"end":{"earliest":"1242","latest":"1243"}},{"start":{"in":"1284"},"end":{"in":"1284"}}]}},{"toponym":"Tulbeneye","citations":[{"label":"1268-72 FF","year":1268}],"when":{"timespans":[{"start":{"earliest":"1268","latest":"1272"},"end":{"earliest":"1268","latest":"1272"}}]}}],"types":[{"identifier":"http://vocab.getty.edu/aat/300232418","label":"administrative division","sourceLabels":[{"label":"township","lang":"en"}]}],"geometry":{"type":"GeometryCollection","geometries":[{"type":"Point","coordinates":[-1.370725669365482,51.6831128410876],"citations":[{"label":"Unlock (EDINA) gazetteer, gazetteer record unlock:11306686"}]},{"type":"Point","coordinates":[-1.37218,51.6836],"citations":[{"label":"Key to English Place-Names (KEPN), gazetteer record 3158"}]}]},"when":{"timespans":[{"start":{"in":"1066"},"end":{"in":"1600"}}]},"relations":[{"relationType":"gvp:broaderPartitive","relationTo":"https://w3id.org/whg-epns/50/008207","label":"within Tubney"}]}]}