{"@context":"https://raw.githubusercontent.com/LinkedPasts/linked-places-format/main/linkedplaces-context-v1.1.jsonld","type":"FeatureCollection","license":"Digitisation of English Placenames MADS data is licensed to Jisc by the English Place Names Society and released under a Creative Commons Attribution-NonCommercial 4.0 International License.","note":"LPF v1.3, lossy; derived from the PLATO record; plato_commit=ca0afadabec1e23a145c0b03df77e8f151f79832","features":[{"@id":"http://placenames.org.uk/id/placename/50/009365","type":"Feature","properties":{"title":"North Hinksey and South Hinksey","ccodes":["GB"],"fclasses":["A","P"]},"names":[{"toponym":"North Hinksey and South Hinksey","lang":"en","citations":[{"label":"English Place-Name Society survey, volume 50: Berkshire"}]},{"toponym":"Hengestesie","citations":[{"label":"821 BCS","year":821}],"when":{"timespans":[{"start":{"in":"0821"},"end":{"in":"0821"}}]}},{"toponym":"Hengestesieg","citations":[{"label":"821 BCS","year":821}],"when":{"timespans":[{"start":{"in":"0821"},"end":{"in":"0821"}}]}},{"toponym":"(ad) Hengestesige","citations":[{"label":"c. 957 BCS","year":947}],"when":{"timespans":[{"start":{"earliest":"0947","latest":"0967"},"end":{"earliest":"0947","latest":"0967"}}]}},{"toponym":"Hengesteseia","citations":[{"label":"1205-21 Os","year":1205}],"when":{"timespans":[{"start":{"earliest":"1205","latest":"1221"},"end":{"earliest":"1205","latest":"1221"}}]}},{"toponym":"Northengestes'","citations":[{"label":"1241 Ass","year":1241}],"when":{"timespans":[{"start":{"in":"1241"},"end":{"in":"1241"}}]}},{"toponym":"Northengesteseye","citations":[{"label":"1284 Ass","year":1284}],"when":{"timespans":[{"start":{"in":"1284"},"end":{"in":"1284"}}]}},{"toponym":"Hansteseia","citations":[{"label":"Hy 1 ClaudiusCix","year":1100}],"when":{"timespans":[{"start":{"earliest":"1100","latest":"1135"},"end":{"earliest":"1100","latest":"1135"}}]}},{"toponym":"Henstesia, Hentesia","citations":[{"label":"1177 P","year":1177}],"when":{"timespans":[{"start":{"in":"1177"},"end":{"in":"1177"}}]}},{"toponym":"Hensteseye","citations":[{"label":"1247-8 Ass","year":1247}],"when":{"timespans":[{"start":{"earliest":"1247","latest":"1248"},"end":{"earliest":"1247","latest":"1248"}}]}},{"toponym":"Hengsteseye","citations":[{"label":"1224 OS","year":1224}],"when":{"timespans":[{"start":{"in":"1224"},"end":{"in":"1224"}}]}},{"toponym":"Hengste, Henchsteseye, Hengsteseye","citations":[{"label":"1284 Ass","year":1284}],"when":{"timespans":[{"start":{"in":"1284"},"end":{"in":"1284"}}]}},{"toponym":"Henxtesia Superior","citations":[{"label":"c. 1222 Frid","year":1212}],"when":{"timespans":[{"start":{"earliest":"1212","latest":"1232"},"end":{"earliest":"1212","latest":"1232"}}]}},{"toponym":"Northchenxtesey, Southchenxtesey","citations":[{"label":"1316 FA","year":1316}],"when":{"timespans":[{"start":{"in":"1316"},"end":{"in":"1316"}}]}},{"toponym":"Henxteseya","citations":[{"label":"1389 Os","year":1389}],"when":{"timespans":[{"start":{"in":"1389"},"end":{"in":"1389"}}]}},{"toponym":"Hengseye","citations":[{"label":"1233-4 Os","year":1233}],"when":{"timespans":[{"start":{"earliest":"1233","latest":"1234"},"end":{"earliest":"1233","latest":"1234"}}]}},{"toponym":"Hengseya","citations":[{"label":"c. 1280 Os","year":1270}],"when":{"timespans":[{"start":{"earliest":"1270","latest":"1290"},"end":{"earliest":"1270","latest":"1290"}}]}},{"toponym":"Suthhenctesey, Northenctesey","citations":[{"label":"1242-3 Fees","year":1242}],"when":{"timespans":[{"start":{"earliest":"1242","latest":"1243"},"end":{"earliest":"1242","latest":"1243"}}]}},{"toponym":"Hengtesy","citations":[{"label":"1275-6 RH","year":1275}],"when":{"timespans":[{"start":{"earliest":"1275","latest":"1276"},"end":{"earliest":"1275","latest":"1276"}}]}},{"toponym":"Henxeye","citations":[{"label":"c. 1250 Os","year":1240}],"when":{"timespans":[{"start":{"earliest":"1240","latest":"1260"},"end":{"earliest":"1240","latest":"1260"}}]}},{"toponym":"Henxxe","citations":[{"label":"1251-64 S","year":1251}],"when":{"timespans":[{"start":{"earliest":"1251","latest":"1264"},"end":{"earliest":"1251","latest":"1264"}}]}},{"toponym":"Hencsei","citations":[{"label":"c. 1300 RG","year":1290}],"when":{"timespans":[{"start":{"earliest":"1290","latest":"1310"},"end":{"earliest":"1290","latest":"1310"}}]}},{"toponym":"Northenxeye, Southenxye","citations":[{"label":"1327 SR","year":1327}],"when":{"timespans":[{"start":{"in":"1327"},"end":{"in":"1327"}}]}},{"toponym":"Henxseia","citations":[{"label":"1440 Os","year":1440}],"when":{"timespans":[{"start":{"in":"1440"},"end":{"in":"1440"}}]}},{"toponym":"Northenxy","citations":[{"label":"1509-10 Os","year":1509}],"when":{"timespans":[{"start":{"earliest":"1509","latest":"1510"},"end":{"earliest":"1509","latest":"1510"}}]}},{"toponym":"Laurencehinksey, Southinksey","citations":[{"label":"1535 VE","year":1535}],"when":{"timespans":[{"start":{"in":"1535"},"end":{"in":"1535"}}]}}],"types":[{"identifier":"http://vocab.getty.edu/aat/300232418","label":"administrative division","sourceLabels":[{"label":"township","lang":"en"}]}],"geometry":{"type":"GeometryCollection","geometries":[{"type":"Point","coordinates":[-1.29201,51.75015],"citations":[{"label":"GeoNames, gazetteer record geonames:2641336"}]},{"type":"Point","coordinates":[-1.28294137051022,51.74555620892787],"citations":[{"label":"Unlock (EDINA) gazetteer, gazetteer record unlock:11232659"}]},{"type":"Point","coordinates":[-1.28441,51.746],"citations":[{"label":"Key to English Place-Names (KEPN), gazetteer record 3163"}]}]},"when":{"timespans":[{"start":{"in":"0821"},"end":{"in":"1535"}}]},"links":[{"type":"closeMatch","identifier":"https://sws.geonames.org/2641336/"}],"relations":[{"relationType":"gvp:broaderPartitive","relationTo":"http://placenames.org.uk/id/placename/50/009364","label":"within North and South Hinksey"}]}]}