{"@context":"https://raw.githubusercontent.com/LinkedPasts/linked-places-format/main/linkedplaces-context-v1.1.jsonld","type":"FeatureCollection","license":"Digitisation of English Placenames MADS data is licensed to Jisc by the English Place Names Society and released under a Creative Commons Attribution-NonCommercial 4.0 International License.","note":"LPF v1.3, lossy; derived from the PLATO record; plato_commit=ca0afadabec1e23a145c0b03df77e8f151f79832","features":[{"@id":"http://placenames.org.uk/id/placename/50/009364","type":"Feature","properties":{"title":"North and South Hinksey","ccodes":["GB"],"fclasses":["A","P"]},"names":[{"toponym":"North and South Hinksey","lang":"en","citations":[{"label":"English Place-Name Society survey, volume 50: Berkshire"}]}],"types":[{"identifier":"http://vocab.getty.edu/aat/300232418","label":"administrative division","sourceLabels":[{"label":"parish","lang":"en"}]}],"geometry":{"type":"Point","coordinates":[-1.28441,51.746],"citations":[{"label":"Key to English Place-Names (KEPN), gazetteer record 3163"}]},"relations":[{"relationType":"gvp:broaderPartitive","relationTo":"http://placenames.org.uk/id/placename/50/008444","label":"within Hormer Hundred"}]}]}