{"@context":"https://raw.githubusercontent.com/LinkedPasts/linked-places-format/main/linkedplaces-context-v1.1.jsonld","type":"FeatureCollection","license":"Digitisation of English Placenames MADS data is licensed to Jisc by the English Place Names Society and released under a Creative Commons Attribution-NonCommercial 4.0 International License.","note":"LPF v1.3, lossy; derived from the PLATO record; plato_commit=ca0afadabec1e23a145c0b03df77e8f151f79832","features":[{"@id":"http://placenames.org.uk/id/placename/50/009614","type":"Feature","properties":{"title":"Radley","ccodes":["GB"],"fclasses":["A","P"]},"names":[{"toponym":"Radley","lang":"en","citations":[{"label":"English Place-Name Society survey, volume 50: Berkshire"}]},{"toponym":"Radelege","citations":[{"label":"c. 1180 Abingdon","year":1170}],"when":{"timespans":[{"start":{"earliest":"1170","latest":"1190"},"end":{"earliest":"1170","latest":"1190"}}]}},{"toponym":"Radeley","citations":[{"label":"1242-3 Fees","year":1242}],"when":{"timespans":[{"start":{"earliest":"1242","latest":"1243"},"end":{"earliest":"1242","latest":"1243"}}]}},{"toponym":"Radele","citations":[{"label":"1316 FA","year":1316},{"label":"1353 Pat","year":1353},{"label":"1396-7 ObAcc","year":1396}],"when":{"timespans":[{"start":{"in":"1316"},"end":{"in":"1316"}},{"start":{"in":"1353"},"end":{"in":"1353"}},{"start":{"earliest":"1396","latest":"1397"},"end":{"earliest":"1396","latest":"1397"}}]}}],"types":[{"identifier":"http://vocab.getty.edu/aat/300232418","label":"administrative division","sourceLabels":[{"label":"township","lang":"en"}]}],"geometry":{"type":"GeometryCollection","geometries":[{"type":"Point","coordinates":[-1.24025,51.68746],"citations":[{"label":"GeoNames, gazetteer record geonames:2639719"}]},{"type":"Point","coordinates":[-1.254859171949541,51.69142742743556],"citations":[{"label":"Unlock (EDINA) gazetteer, gazetteer record unlock:11251969"}]},{"type":"Point","coordinates":[-1.24186,51.6918],"citations":[{"label":"Key to English Place-Names (KEPN), gazetteer record 3165"}]}]},"when":{"timespans":[{"start":{"in":"1170"},"end":{"in":"1397"}}]},"links":[{"type":"closeMatch","identifier":"https://sws.geonames.org/2639719/"}],"relations":[{"relationType":"gvp:broaderPartitive","relationTo":"http://placenames.org.uk/id/placename/50/009613","label":"within Radley"}]}]}