{"@context":"https://raw.githubusercontent.com/LinkedPasts/linked-places-format/main/linkedplaces-context-v1.1.jsonld","type":"FeatureCollection","license":"Digitisation of English Placenames MADS data is licensed to Jisc by the English Place Names Society and released under a Creative Commons Attribution-NonCommercial 4.0 International License.","note":"LPF v1.3, lossy; derived from the PLATO record; plato_commit=ca0afadabec1e23a145c0b03df77e8f151f79832","features":[{"@id":"https://w3id.org/whg-epns/50/009863","type":"Feature","properties":{"title":"Sunningwell","ccodes":["GB"],"fclasses":["A","P"]},"names":[{"toponym":"Sunningwell","lang":"en","citations":[{"label":"English Place-Name Society survey, volume 50: Berkshire"}]},{"toponym":"(ad) Sunnigwellan","citations":[{"label":"811 BCS","year":811}],"when":{"timespans":[{"start":{"in":"0811"},"end":{"in":"0811"}}]}},{"toponym":"Sunningauuille","citations":[{"label":"821 BCS","year":821}],"when":{"timespans":[{"start":{"in":"0821"},"end":{"in":"0821"}}]}},{"toponym":"Suniggawelle","citations":[{"label":"821 BCS","year":821}],"when":{"timespans":[{"start":{"in":"0821"},"end":{"in":"0821"}}]}},{"toponym":"Soningeuuel","citations":[{"label":"1086 DB","year":1086}],"when":{"timespans":[{"start":{"in":"1086"},"end":{"in":"1086"}}]}},{"toponym":"Sunni(n)gewelle","citations":[{"label":"William Abingdon","year":1066}],"when":{"timespans":[{"start":{"earliest":"1066","latest":"1100"},"end":{"earliest":"1066","latest":"1100"}}]}},{"toponym":"Suningewell'","citations":[{"label":"1224-5 Ass","year":1224},{"label":"1244 Cl","year":1244}],"when":{"timespans":[{"start":{"earliest":"1224","latest":"1225"},"end":{"earliest":"1224","latest":"1225"}},{"start":{"in":"1244"},"end":{"in":"1244"}}]}},{"toponym":"Sunningewell'","citations":[{"label":"1241 Ass","year":1241},{"label":"1242-3 Fees","year":1242}],"when":{"timespans":[{"start":{"in":"1241"},"end":{"in":"1241"}},{"start":{"earliest":"1242","latest":"1243"},"end":{"earliest":"1242","latest":"1243"}}]}},{"toponym":"Sunyngewell","citations":[{"label":"1347 Pat","year":1347}],"when":{"timespans":[{"start":{"in":"1347"},"end":{"in":"1347"}}]}},{"toponym":"Sonigwell', Schonigwell'","citations":[{"label":"1241 Ass","year":1241}],"when":{"timespans":[{"start":{"in":"1241"},"end":{"in":"1241"}}]}},{"toponym":"Sonyngwelle","citations":[{"label":"1327 SR","year":1327}],"when":{"timespans":[{"start":{"in":"1327"},"end":{"in":"1327"}}]}},{"toponym":"Sonnyngwell', Sonyngwelle","citations":[{"label":"1375-6 ObAcc","year":1375}],"when":{"timespans":[{"start":{"earliest":"1375","latest":"1376"},"end":{"earliest":"1375","latest":"1376"}}]}},{"toponym":"Sunningwell'","citations":[{"label":"1242-3 Fees","year":1242}],"when":{"timespans":[{"start":{"earliest":"1242","latest":"1243"},"end":{"earliest":"1242","latest":"1243"}}]}},{"toponym":"Suningwell'","citations":[{"label":"1243 Cl","year":1243}],"when":{"timespans":[{"start":{"in":"1243"},"end":{"in":"1243"}}]}}],"types":[{"identifier":"http://vocab.getty.edu/aat/300232418","label":"administrative division","sourceLabels":[{"label":"township","lang":"en"}]}],"geometry":{"type":"GeometryCollection","geometries":[{"type":"Point","coordinates":[-1.2824,51.70187],"citations":[{"label":"GeoNames, gazetteer record geonames:2636516"}]},{"type":"Point","coordinates":[-1.283652241560716,51.70059889449047],"citations":[{"label":"Unlock (EDINA) gazetteer, gazetteer record unlock:11295550"}]},{"type":"Point","coordinates":[-1.28512,51.7011],"citations":[{"label":"Key to English Place-Names (KEPN), gazetteer record 3166"}]}]},"when":{"timespans":[{"start":{"in":"0811"},"end":{"in":"1376"}}]},"links":[{"type":"closeMatch","identifier":"https://sws.geonames.org/2636516/"}],"relations":[{"relationType":"gvp:broaderPartitive","relationTo":"https://w3id.org/whg-epns/50/009862","label":"within Sunningwell"}]}]}