{"@context":"https://raw.githubusercontent.com/LinkedPasts/linked-places-format/main/linkedplaces-context-v1.1.jsonld","type":"FeatureCollection","license":"Digitisation of English Placenames MADS data is licensed to Jisc by the English Place Names Society and released under a Creative Commons Attribution-NonCommercial 4.0 International License.","note":"LPF v1.3, lossy; derived from the PLATO record; plato_commit=ca0afadabec1e23a145c0b03df77e8f151f79832","features":[{"@id":"https://w3id.org/whg-epns/50/010762","type":"Feature","properties":{"title":"Grove","ccodes":["GB"],"fclasses":["A","P"]},"names":[{"toponym":"Grove","lang":"en","citations":[{"label":"English Place-Name Society survey, volume 50: Berkshire"}]},{"toponym":"la Graue","citations":[{"label":"1188 P","year":1188}],"when":{"timespans":[{"start":{"in":"1188"},"end":{"in":"1188"}}]}},{"toponym":"la Graua","citations":[{"label":"1189 P","year":1189}],"when":{"timespans":[{"start":{"in":"1189"},"end":{"in":"1189"}}]}},{"toponym":"Graua","citations":[{"label":"1201 P","year":1201}],"when":{"timespans":[{"start":{"in":"1201"},"end":{"in":"1201"}}]}},{"toponym":"Graue","citations":[{"label":"1284 Ass","year":1284}],"when":{"timespans":[{"start":{"in":"1284"},"end":{"in":"1284"}}]}},{"toponym":"Grave","citations":[{"label":"1294 SR","year":1294}],"when":{"timespans":[{"start":{"in":"1294"},"end":{"in":"1294"}}]}},{"toponym":"Grove","citations":[{"label":"1316 FA","year":1316},{"label":"1377 Fine","year":1377}],"when":{"timespans":[{"start":{"in":"1316"},"end":{"in":"1316"}},{"start":{"in":"1377"},"end":{"in":"1377"}},{"start":{"in":"1413"},"end":{"in":"1413"}}]}},{"toponym":"Groue","citations":[{"label":"1327 SR","year":1327}],"when":{"timespans":[{"start":{"in":"1327"},"end":{"in":"1327"}}]}}],"types":[{"identifier":"http://vocab.getty.edu/aat/300232418","label":"administrative division","sourceLabels":[{"label":"township","lang":"en"}]}],"geometry":{"type":"GeometryCollection","geometries":[{"type":"Point","coordinates":[-1.42187,51.60954],"citations":[{"label":"GeoNames, gazetteer record geonames:2647837"}]},{"type":"Point","coordinates":[-1.415047897755584,51.61140277610578],"citations":[{"label":"Unlock (EDINA) gazetteer, gazetteer record unlock:11161695"}]},{"type":"Point","coordinates":[-1.4165,51.6119],"citations":[{"label":"Key to English Place-Names (KEPN), gazetteer record 3172"}]}]},"when":{"timespans":[{"start":{"in":"1188"},"end":{"in":"1413"}}]},"links":[{"type":"closeMatch","identifier":"https://sws.geonames.org/2647837/"}],"relations":[{"relationType":"gvp:broaderPartitive","relationTo":"https://w3id.org/whg-epns/50/010761","label":"within Grove"}]}]}