{"@context":"https://raw.githubusercontent.com/LinkedPasts/linked-places-format/main/linkedplaces-context-v1.1.jsonld","type":"FeatureCollection","license":"Digitisation of English Placenames MADS data is licensed to Jisc by the English Place Names Society and released under a Creative Commons Attribution-NonCommercial 4.0 International License.","note":"LPF v1.3, lossy; derived from the PLATO record; plato_commit=fa0d247ccc0263f8f19c8d7cdcd163df96935d1e","features":[{"@id":"https://w3id.org/whg-epns/50/011333","type":"Feature","properties":{"title":"West Hendred","ccodes":["GB"],"fclasses":["A","P"]},"names":[{"toponym":"West Hendred","lang":"en","citations":[{"label":"English Place-Name Society survey, volume 50: Berkshire"}]}],"types":[{"identifier":"http://vocab.getty.edu/aat/300232418","label":"administrative division","sourceLabels":[{"label":"parish","lang":"en"}]}],"geometry":{"type":"GeometryCollection","geometries":[{"type":"Point","coordinates":[-1.3592,51.58372],"citations":[{"label":"GeoNames, gazetteer record geonames:7300973"}]},{"type":"Point","coordinates":[-1.357532434426074,51.59311716016163],"citations":[{"label":"Unlock (EDINA) gazetteer, gazetteer record unlock:11317013"}]},{"type":"Point","coordinates":[-1.34455,51.5935],"citations":[{"label":"Key to English Place-Names (KEPN), gazetteer record 3174"}]}]},"links":[{"type":"closeMatch","identifier":"https://sws.geonames.org/7300973/"}],"relations":[{"relationType":"gvp:broaderPartitive","relationTo":"https://w3id.org/whg-epns/50/010382","label":"within Wantage Hundred"}]}]}