{"@context":"https://raw.githubusercontent.com/LinkedPasts/linked-places-format/main/linkedplaces-context-v1.1.jsonld","type":"FeatureCollection","license":"Digitisation of English Placenames MADS data is licensed to Jisc by the English Place Names Society and released under a Creative Commons Attribution-NonCommercial 4.0 International License.","note":"LPF v1.3, lossy; derived from the PLATO record; plato_commit=ca0afadabec1e23a145c0b03df77e8f151f79832","features":[{"@id":"http://placenames.org.uk/id/placename/50/011979","type":"Feature","properties":{"title":"Aldworth","ccodes":["GB"],"fclasses":["A","P"]},"names":[{"toponym":"Aldworth","lang":"en","citations":[{"label":"English Place-Name Society survey, volume 50: Berkshire"}]}],"types":[{"identifier":"http://vocab.getty.edu/aat/300232418","label":"administrative division","sourceLabels":[{"label":"parish","lang":"en"}]}],"geometry":{"type":"GeometryCollection","geometries":[{"type":"Point","coordinates":[-1.20111,51.50981],"citations":[{"label":"GeoNames, gazetteer record geonames:2657522"}]},{"type":"Point","coordinates":[-1.200155808651105,51.51121665340321],"citations":[{"label":"Unlock (EDINA) gazetteer, gazetteer record unlock:11058162"}]},{"type":"Point","coordinates":[-1.20163,51.5117],"citations":[{"label":"Key to English Place-Names (KEPN), gazetteer record 3178"}]}]},"links":[{"type":"closeMatch","identifier":"https://sws.geonames.org/2657522/"}],"relations":[{"relationType":"gvp:broaderPartitive","relationTo":"http://placenames.org.uk/id/placename/50/011973","label":"within Compton Hundred"}]}]}