{"@context":"https://raw.githubusercontent.com/LinkedPasts/linked-places-format/main/linkedplaces-context-v1.1.jsonld","type":"FeatureCollection","license":"Digitisation of English Placenames MADS data is licensed to Jisc by the English Place Names Society and released under a Creative Commons Attribution-NonCommercial 4.0 International License.","note":"LPF v1.3, lossy; derived from the PLATO record; plato_commit=ca0afadabec1e23a145c0b03df77e8f151f79832","features":[{"@id":"https://w3id.org/whg-epns/50/012713","type":"Feature","properties":{"title":"Ashampstead","ccodes":["GB"],"fclasses":["A","P"]},"names":[{"toponym":"Ashampstead","lang":"en","citations":[{"label":"English Place-Name Society survey, volume 50: Berkshire"}]}],"types":[{"identifier":"http://vocab.getty.edu/aat/300232418","label":"administrative division","sourceLabels":[{"label":"parish","lang":"en"}]}],"geometry":{"type":"GeometryCollection","geometries":[{"type":"Point","coordinates":[-1.18391,51.48217],"citations":[{"label":"GeoNames, gazetteer record geonames:7294179"}]},{"type":"Point","coordinates":[-1.186066193812161,51.49313431681918],"citations":[{"label":"Unlock (EDINA) gazetteer, gazetteer record unlock:11064238"}]},{"type":"Point","coordinates":[-1.1877,51.4846],"citations":[{"label":"Key to English Place-Names (KEPN), gazetteer record 3184"}]}]},"links":[{"type":"closeMatch","identifier":"https://sws.geonames.org/7294179/"}],"relations":[{"relationType":"gvp:broaderPartitive","relationTo":"https://w3id.org/whg-epns/50/012709","label":"within Moreton Hundred"}]}]}