{"@context":"https://raw.githubusercontent.com/LinkedPasts/linked-places-format/main/linkedplaces-context-v1.1.jsonld","type":"FeatureCollection","license":"Digitisation of English Placenames MADS data is licensed to Jisc by the English Place Names Society and released under a Creative Commons Attribution-NonCommercial 4.0 International License.","note":"LPF v1.3, lossy; derived from the PLATO record; plato_commit=ca0afadabec1e23a145c0b03df77e8f151f79832","features":[{"@id":"https://w3id.org/whg-epns/50/013479","type":"Feature","properties":{"title":"East Hagbourne","ccodes":["GB"],"fclasses":["A","P"]},"names":[{"toponym":"East Hagbourne","lang":"en","citations":[{"label":"English Place-Name Society survey, volume 50: Berkshire"}]}],"types":[{"identifier":"http://vocab.getty.edu/aat/300232418","label":"administrative division","sourceLabels":[{"label":"parish","lang":"en"}]}],"geometry":{"type":"GeometryCollection","geometries":[{"type":"Point","coordinates":[-1.24094,51.59115],"citations":[{"label":"GeoNames, gazetteer record geonames:2650432"}]},{"type":"Point","coordinates":[-1.227606817160599,51.59233414652249],"citations":[{"label":"Unlock (EDINA) gazetteer, gazetteer record unlock:11136044"}]},{"type":"Point","coordinates":[-1.24351,51.5929],"citations":[{"label":"Key to English Place-Names (KEPN), gazetteer record 3190"}]}]},"links":[{"type":"closeMatch","identifier":"https://sws.geonames.org/2650432/"}],"relations":[{"relationType":"gvp:broaderPartitive","relationTo":"https://w3id.org/whg-epns/50/012709","label":"within Moreton Hundred"}]}]}