{"@context":"https://raw.githubusercontent.com/LinkedPasts/linked-places-format/main/linkedplaces-context-v1.1.jsonld","type":"FeatureCollection","license":"Digitisation of English Placenames MADS data is licensed to Jisc by the English Place Names Society and released under a Creative Commons Attribution-NonCommercial 4.0 International License.","note":"LPF v1.3, lossy; derived from the PLATO record; plato_commit=ca0afadabec1e23a145c0b03df77e8f151f79832","features":[{"@id":"http://placenames.org.uk/id/placename/50/014305","type":"Feature","properties":{"title":"Streatley","ccodes":["GB"],"fclasses":["A","P"]},"names":[{"toponym":"Streatley","lang":"en","citations":[{"label":"English Place-Name Society survey, volume 50: Berkshire"}]},{"toponym":"Stretlea","citations":[{"label":"c. 690 BCS","year":680}],"when":{"timespans":[{"start":{"earliest":"0680","latest":"0700"},"end":{"earliest":"0680","latest":"0700"}}]}},{"toponym":"Stretleæ","citations":[{"label":"687 BCS","year":687}],"when":{"timespans":[{"start":{"in":"0687"},"end":{"in":"0687"}}]}},{"toponym":"Stretleg'","citations":[{"label":"1224–1535, recurring Ass","year":1224},{"label":"1224–1535, recurring VE"},{"label":"1224-5 Ass","year":1224},{"label":"1535 VE","year":1535}],"when":{"timespans":[{"start":{"in":"1224"},"end":{"in":"1535"}},{"start":{"earliest":"1224","latest":"1225"},"end":{"earliest":"1224","latest":"1225"}},{"start":{"in":"1535"},"end":{"in":"1535"}}]}},{"toponym":"Stretle(ye), Stretl(e)y, Stretlee, Stretley","citations":[{"label":"1224-1535 unspecified sources","year":1224}],"when":{"timespans":[{"start":{"in":"1224"},"end":{"in":"1535"}}]}},{"toponym":"Stretele","citations":[{"label":"c. 1290 Gor","year":1280}],"when":{"timespans":[{"start":{"earliest":"1280","latest":"1300"},"end":{"earliest":"1280","latest":"1300"}},{"start":{"in":"1295"},"end":{"in":"1295"}}]}},{"toponym":"Streteley","citations":[{"label":"1535 VE","year":1535}],"when":{"timespans":[{"start":{"in":"1535"},"end":{"in":"1535"}}]}},{"toponym":"Estralei","citations":[{"label":"1086 DB","year":1086}],"when":{"timespans":[{"start":{"in":"1086"},"end":{"in":"1086"}}]}},{"toponym":"Straleghe","citations":[{"label":"c. 1250 Gor","year":1240}],"when":{"timespans":[{"start":{"earliest":"1240","latest":"1260"},"end":{"earliest":"1240","latest":"1260"}}]}},{"toponym":"Stradlea","citations":[{"label":"1167 P","year":1167},{"label":"c. 1181 Gor","year":1171}],"when":{"timespans":[{"start":{"in":"1167"},"end":{"in":"1167"}},{"start":{"in":"1176"},"end":{"in":"1176"}},{"start":{"earliest":"1171","latest":"1191"},"end":{"earliest":"1171","latest":"1191"}}]}},{"toponym":"Stradleg'","citations":[{"label":"1200 P","year":1200}],"when":{"timespans":[{"start":{"in":"1200"},"end":{"in":"1200"}}]}},{"toponym":"Stradle(ie)","citations":[{"label":"1230-1 MemR","year":1230}],"when":{"timespans":[{"start":{"earliest":"1230","latest":"1231"},"end":{"earliest":"1230","latest":"1231"}}]}},{"toponym":"Stradlegh'","citations":[{"label":"1241 Ass","year":1241}],"when":{"timespans":[{"start":{"in":"1241"},"end":{"in":"1241"}}]}},{"toponym":"Stratle","citations":[{"label":"1218–1284, recurring Bract","year":1218},{"label":"1218–1284, recurring Ass"},{"label":"1218 Bract","year":1218},{"label":"1284 Ass","year":1284}],"when":{"timespans":[{"start":{"in":"1218"},"end":{"in":"1284"}},{"start":{"in":"1218"},"end":{"in":"1218"}},{"start":{"in":"1284"},"end":{"in":"1284"}}]}},{"toponym":"Stratlye, Stratl', Strattle","citations":[{"label":"1218-1284 unspecified sources","year":1218}],"when":{"timespans":[{"start":{"in":"1218"},"end":{"in":"1284"}}]}},{"toponym":"Stredle","citations":[{"label":"1241 Ass","year":1241}],"when":{"timespans":[{"start":{"in":"1241"},"end":{"in":"1241"}}]}},{"toponym":"Stredley(e)","citations":[{"label":"1275-6 RH","year":1275}],"when":{"timespans":[{"start":{"earliest":"1275","latest":"1276"},"end":{"earliest":"1275","latest":"1276"}}]}},{"toponym":"Streyteley","citations":[{"label":"1524 AD","year":1524}],"when":{"timespans":[{"start":{"in":"1524"},"end":{"in":"1524"}}]}},{"toponym":"Streytley","citations":[{"label":"1535 VE","year":1535}],"when":{"timespans":[{"start":{"in":"1535"},"end":{"in":"1535"}}]}},{"toponym":"Streatly","citations":[{"label":"1583 ChanProc","year":1583}],"when":{"timespans":[{"start":{"in":"1583"},"end":{"in":"1583"}}]}}],"types":[{"identifier":"http://vocab.getty.edu/aat/300232418","label":"administrative division","sourceLabels":[{"label":"township","lang":"en"}]}],"geometry":{"type":"GeometryCollection","geometries":[{"type":"Point","coordinates":[-1.1491,51.52316],"citations":[{"label":"GeoNames, gazetteer record geonames:2636673"}]},{"type":"Point","coordinates":[-1.142347236646587,51.51980094625439],"citations":[{"label":"Unlock (EDINA) gazetteer, gazetteer record unlock:11294262"}]},{"type":"Point","coordinates":[-1.14382,51.5203],"citations":[{"label":"Key to English Place-Names (KEPN), gazetteer record 3195"}]}]},"when":{"timespans":[{"start":{"in":"0680"},"end":{"in":"1583"}}]},"links":[{"type":"closeMatch","identifier":"https://sws.geonames.org/2636673/"}],"relations":[{"relationType":"gvp:broaderPartitive","relationTo":"http://placenames.org.uk/id/placename/50/014304","label":"within Streatley"}]}]}