{"@context":"https://raw.githubusercontent.com/LinkedPasts/linked-places-format/main/linkedplaces-context-v1.1.jsonld","type":"FeatureCollection","license":"Digitisation of English Placenames MADS data is licensed to Jisc by the English Place Names Society and released under a Creative Commons Attribution-NonCommercial 4.0 International License.","note":"LPF v1.3, lossy; derived from the PLATO record; plato_commit=fa0d247ccc0263f8f19c8d7cdcd163df96935d1e","features":[{"@id":"https://w3id.org/whg-epns/86/000026","type":"Feature","properties":{"title":"Abbotsbury","ccodes":["GB"],"fclasses":["A","P"]},"names":[{"toponym":"Abbotsbury","lang":"en","citations":[{"label":"English Place-Name Society survey, volume 86: Dorset"}]},{"toponym":"Abbedesburie","citations":[{"label":"936 × 946 Finberg","year":936}],"when":{"timespans":[{"start":{"earliest":"0936","latest":"0946"},"end":{"earliest":"0936","latest":"0946"}}]}},{"toponym":"Abbedesber","citations":[{"label":"1201 FF","year":1201}],"when":{"timespans":[{"start":{"in":"1201"},"end":{"in":"1201"}}]}},{"toponym":"Abbedesbir', Abbedesbyr'","citations":[{"label":"Fees","year":1212},{"label":"FA"},{"label":"1212 Fees","year":1212},{"label":"1285 FA","year":1285}],"when":{"timespans":[{"start":{"in":"1212"},"end":{"in":"1285"}},{"start":{"in":"1212"},"end":{"in":"1212"}},{"start":{"in":"1285"},"end":{"in":"1285"}}]}},{"toponym":"Abbedesbury","citations":[{"label":"1217 Pat","year":1217},{"label":"1277 Ass","year":1277},{"label":"1311 Pat","year":1311}],"when":{"timespans":[{"start":{"in":"1217"},"end":{"in":"1217"}},{"start":{"in":"1277"},"end":{"in":"1277"}},{"start":{"in":"1311"},"end":{"in":"1311"}}]}},{"toponym":"Abbedesbur'","citations":[{"label":"1268 Ass","year":1268}],"when":{"timespans":[{"start":{"in":"1268"},"end":{"in":"1268"}}]}},{"toponym":"Abbedesburi","citations":[{"label":"1269 Ilch","year":1269}],"when":{"timespans":[{"start":{"in":"1269"},"end":{"in":"1269"}}]}},{"toponym":"Abbedesbirie, Abbedesburia, Abbedesburgo","citations":[{"label":"14 LodersC","year":1300}],"when":{"timespans":[{"start":{"earliest":"1300","latest":"1400"},"end":{"earliest":"1300","latest":"1400"}}]}},{"toponym":"Abedesberie","citations":[{"label":"1086 DB","year":1086}],"when":{"timespans":[{"start":{"in":"1086"},"end":{"in":"1086"}}]}},{"toponym":"Abedesber","citations":[{"label":"1201 FF","year":1201}],"when":{"timespans":[{"start":{"in":"1201"},"end":{"in":"1201"}}]}},{"toponym":"Abbeddesbury","citations":[{"label":"1253 FF","year":1253},{"label":"1285 FA","year":1285}],"when":{"timespans":[{"start":{"in":"1253"},"end":{"in":"1253"}},{"start":{"in":"1285"},"end":{"in":"1285"}}]}},{"toponym":"at Abbodesburi","citations":[{"label":"1016 × 1035 AbbotsC","year":1016}],"when":{"timespans":[{"start":{"earliest":"1016","latest":"1035"},"end":{"earliest":"1016","latest":"1035"}}]}},{"toponym":"(æt) Abbodesbyrig","citations":[{"label":"m11 AbbotsC","year":1025},{"label":"1058 × 1066 ASWrits","year":1058}],"when":{"timespans":[{"start":{"earliest":"1025","latest":"1075"},"end":{"earliest":"1025","latest":"1075"}},{"start":{"earliest":"1058","latest":"1066"},"end":{"earliest":"1058","latest":"1066"}}]}},{"toponym":"Abbodesbirie","citations":[{"label":"1066-78 Ch","year":1066}],"when":{"timespans":[{"start":{"earliest":"1066","latest":"1078"},"end":{"earliest":"1066","latest":"1078"}}]}},{"toponym":"Abbodesb'ie","citations":[{"label":"1165-89 Ilch","year":1165}],"when":{"timespans":[{"start":{"earliest":"1165","latest":"1189"},"end":{"earliest":"1165","latest":"1189"}}]}},{"toponym":"Abbodesberia","citations":[{"label":"1194 P","year":1194}],"when":{"timespans":[{"start":{"in":"1194"},"end":{"in":"1194"}},{"start":{"in":"1199"},"end":{"in":"1199"}},{"start":{"in":"1210"},"end":{"in":"1210"}}]}},{"toponym":"Abbodesbir'","citations":[{"label":"P","year":1195},{"label":"1195 P","year":1195}],"when":{"timespans":[{"start":{"in":"1195"},"end":{"in":"1195"}},{"start":{"in":"1195"},"end":{"in":"1195"}}]}},{"toponym":"Abbodesbire, Abbodesbiry, Abbodesbury, Abbodesbyr', Abbodesbyry, Abbodesbiri, Abbodesbur', Abbodesbure","citations":[{"label":"1195-1600 unspecified sources","year":1195}],"when":{"timespans":[{"start":{"in":"1195"},"end":{"in":"1600"}}]}},{"toponym":"Abbodesbury","citations":[{"label":"1401 Pat","year":1401}],"when":{"timespans":[{"start":{"in":"1401"},"end":{"in":"1401"}}]}},{"toponym":"Abodesberia","citations":[{"label":"1197 P","year":1197}],"when":{"timespans":[{"start":{"in":"1197"},"end":{"in":"1197"}}]}},{"toponym":"Abodesbir'","citations":[{"label":"1205 P","year":1205}],"when":{"timespans":[{"start":{"in":"1205"},"end":{"in":"1205"}}]}},{"toponym":"Abodesbyr'","citations":[{"label":"1244 Ass","year":1244}],"when":{"timespans":[{"start":{"in":"1244"},"end":{"in":"1244"}}]}},{"toponym":"Abodesbury","citations":[{"label":"1291 Tax","year":1291}],"when":{"timespans":[{"start":{"in":"1291"},"end":{"in":"1291"}}]}},{"toponym":"Abboddesbury","citations":[{"label":"1316 FA","year":1316},{"label":"1333 Pat","year":1333}],"when":{"timespans":[{"start":{"in":"1316"},"end":{"in":"1316"}},{"start":{"in":"1333"},"end":{"in":"1333"}}]}},{"toponym":"Abbatesberia","citations":[{"label":"1086 Exon","year":1086}],"when":{"timespans":[{"start":{"in":"1086"},"end":{"in":"1086"}}]}},{"toponym":"Abbadesbur'","citations":[{"label":"1288 Ass","year":1288}],"when":{"timespans":[{"start":{"in":"1288"},"end":{"in":"1288"}}]}},{"toponym":"Abbatisbury","citations":[{"label":"1465 Weld1","year":1465}],"when":{"timespans":[{"start":{"in":"1465"},"end":{"in":"1465"}}]}},{"toponym":"Abbatysbury","citations":[{"label":"1469 Weld1","year":1469}],"when":{"timespans":[{"start":{"in":"1469"},"end":{"in":"1469"}}]}},{"toponym":"Abbates-Byri","citations":[{"label":"1535-43 Leland","year":1535}],"when":{"timespans":[{"start":{"earliest":"1535","latest":"1543"},"end":{"earliest":"1535","latest":"1543"}}]}},{"toponym":"Abbotesbiria","citations":[{"label":"1135-54 Ch","year":1135}],"when":{"timespans":[{"start":{"earliest":"1135","latest":"1154"},"end":{"earliest":"1135","latest":"1154"}},{"start":{"earliest":"1178","latest":"1187"},"end":{"earliest":"1178","latest":"1187"}}]}},{"toponym":"Abbotesburie","citations":[{"label":"1154-65 Ch","year":1154}],"when":{"timespans":[{"start":{"earliest":"1154","latest":"1165"},"end":{"earliest":"1154","latest":"1165"}}]}},{"toponym":"Abbotesbir'","citations":[{"label":"P","year":1195},{"label":"1195 P","year":1195}],"when":{"timespans":[{"start":{"in":"1195"},"end":{"in":"1195"}},{"start":{"in":"1195"},"end":{"in":"1195"}}]}},{"toponym":"Ab(b)ot(t)esbire, Ab(b)ot(t)esbiry, Ab(b)ot(t)esbury, Ab(b)ot(t)esbur', Ab(b)ot(t)esburi, Ab(b)ot(t)esbiri, Ab(b)ot(t)esburia, Ab(b)ot(t)esbery, Ab(b)ot(t)esburie","citations":[{"label":"1195-1600 unspecified sources","year":1195}],"when":{"timespans":[{"start":{"in":"1195"},"end":{"in":"1600"}}]}},{"toponym":"Abbottesburye","citations":[{"label":"1582 AD","year":1582}],"when":{"timespans":[{"start":{"in":"1582"},"end":{"in":"1582"}}]}},{"toponym":"Abottisbire","citations":[{"label":"l12 MontC","year":1175}],"when":{"timespans":[{"start":{"earliest":"1175","latest":"1200"},"end":{"earliest":"1175","latest":"1200"}}]}},{"toponym":"Abottisbyry","citations":[{"label":"1260 Cl","year":1260}],"when":{"timespans":[{"start":{"in":"1260"},"end":{"in":"1260"}}]}},{"toponym":"Abottisbury","citations":[{"label":"Pat","year":1348},{"label":"Cl"},{"label":"1348 Pat","year":1348},{"label":"1461 Cl","year":1461}],"when":{"timespans":[{"start":{"in":"1348"},"end":{"in":"1461"}},{"start":{"in":"1348"},"end":{"in":"1348"}},{"start":{"in":"1461"},"end":{"in":"1461"}}]}},{"toponym":"Abbotysbury","citations":[{"label":"1354 AD","year":1354},{"label":"1431 FA","year":1431}],"when":{"timespans":[{"start":{"in":"1354"},"end":{"in":"1354"}},{"start":{"in":"1431"},"end":{"in":"1431"}}]}},{"toponym":"Abbodeb'i","citations":[{"label":"1201 FineR","year":1201}],"when":{"timespans":[{"start":{"in":"1201"},"end":{"in":"1201"}}]}},{"toponym":"Abbodebire","citations":[{"label":"1242-3 Fees","year":1242}],"when":{"timespans":[{"start":{"earliest":"1242","latest":"1243"},"end":{"earliest":"1242","latest":"1243"}}]}},{"toponym":"Ab(b)otebir'","citations":[{"label":"1212 PatR","year":1212},{"label":"1264 Cl","year":1264}],"when":{"timespans":[{"start":{"in":"1212"},"end":{"in":"1212"}},{"start":{"in":"1213"},"end":{"in":"1213"}},{"start":{"in":"1264"},"end":{"in":"1264"}}]}},{"toponym":"Abbedebyria","citations":[{"label":"1210-2 RBE","year":1210}],"when":{"timespans":[{"start":{"earliest":"1210","latest":"1212"},"end":{"earliest":"1210","latest":"1212"}}]}},{"toponym":"Abbudebury","citations":[{"label":"1346 FA","year":1346}],"when":{"timespans":[{"start":{"in":"1346"},"end":{"in":"1346"}}]}},{"toponym":"Abbesbury","citations":[{"label":"1258 Pat","year":1258}],"when":{"timespans":[{"start":{"in":"1258"},"end":{"in":"1258"}}]}},{"toponym":"Abbesbiry","citations":[{"label":"1288 Cl","year":1288}],"when":{"timespans":[{"start":{"in":"1288"},"end":{"in":"1288"}}]}},{"toponym":"Abbidesbir'","citations":[{"label":"1275 RH","year":1275}],"when":{"timespans":[{"start":{"in":"1275"},"end":{"in":"1275"}}]}},{"toponym":"Abbetesbir'","citations":[{"label":"1280 Ass","year":1280}],"when":{"timespans":[{"start":{"in":"1280"},"end":{"in":"1280"}}]}},{"toponym":"Abbudesbury","citations":[{"label":"1291 Tax","year":1291},{"label":"1346 FA","year":1346}],"when":{"timespans":[{"start":{"in":"1291"},"end":{"in":"1291"}},{"start":{"in":"1346"},"end":{"in":"1346"}}]}},{"toponym":"Abbudesbir(y)","citations":[{"label":"1303 FA","year":1303}],"when":{"timespans":[{"start":{"in":"1303"},"end":{"in":"1303"}}]}},{"toponym":"Abudesbur'","citations":[{"label":"1291 Tax","year":1291}],"when":{"timespans":[{"start":{"in":"1291"},"end":{"in":"1291"}}]}},{"toponym":"Abbotsbury","citations":[{"label":"Cl","year":1344},{"label":"1344 Cl","year":1344}],"when":{"timespans":[{"start":{"in":"1344"},"end":{"in":"1344"}},{"start":{"in":"1344"},"end":{"in":"1344"}}]}},{"toponym":"Abbot(t)sburie","citations":[{"label":"1653 ParlSurv","year":1653}],"when":{"timespans":[{"start":{"in":"1653"},"end":{"in":"1653"}}]}},{"toponym":"Abbottsbury","citations":[{"label":"1664 HTax","year":1664}],"when":{"timespans":[{"start":{"in":"1664"},"end":{"in":"1664"}}]}}],"types":[{"identifier":"http://vocab.getty.edu/aat/300232418","label":"administrative division","sourceLabels":[{"label":"township","lang":"en"}]}],"geometry":{"type":"GeometryCollection","geometries":[{"type":"Point","coordinates":[-2.6,50.66667],"citations":[{"label":"GeoNames, gazetteer record geonames:2657869"}]},{"type":"Point","coordinates":[-2.59717318,50.66525933],"citations":[{"label":"English Place-Name Society survey (DEEP coordinates)"}]},{"type":"Point","coordinates":[-2.601441386423161,50.66703661603575],"citations":[{"label":"Unlock (EDINA) gazetteer, gazetteer record unlock:11055284"}]},{"type":"Point","coordinates":[-2.60272,50.6676],"citations":[{"label":"Key to English Place-Names (KEPN), gazetteer record 11634"}]}]},"when":{"timespans":[{"start":{"in":"0936"},"end":{"in":"1664"}}]},"links":[{"type":"closeMatch","identifier":"https://sws.geonames.org/2657869/"}],"relations":[{"relationType":"gvp:broaderPartitive","relationTo":"https://w3id.org/whg-epns/86/000025","label":"within Abbotsbury"}]}]}