{"@context":"https://raw.githubusercontent.com/LinkedPasts/linked-places-format/main/linkedplaces-context-v1.1.jsonld","type":"FeatureCollection","license":"Digitisation of English Placenames MADS data is licensed to Jisc by the English Place Names Society and released under a Creative Commons Attribution-NonCommercial 4.0 International License.","note":"LPF v1.3, lossy; derived from the PLATO record; plato_commit=ca0afadabec1e23a145c0b03df77e8f151f79832","features":[{"@id":"https://w3id.org/whg-epns/86/002311","type":"Feature","properties":{"title":"Winterborne Steepleton","ccodes":["GB"],"fclasses":["A","P"]},"names":[{"toponym":"Winterborne Steepleton","lang":"en","citations":[{"label":"English Place-Name Society survey, volume 86: Dorset"}]}],"types":[{"identifier":"http://vocab.getty.edu/aat/300232418","label":"administrative division","sourceLabels":[{"label":"parish","lang":"en"}]}],"geometry":{"type":"GeometryCollection","geometries":[{"type":"Point","coordinates":[-2.53333,50.7],"citations":[{"label":"GeoNames, gazetteer record geonames:2633799"}]},{"type":"Point","coordinates":[-2.53238,50.7039],"citations":[{"label":"Key to English Place-Names (KEPN), gazetteer record 11644"}]}]},"links":[{"type":"closeMatch","identifier":"https://sws.geonames.org/2633799/"}],"relations":[{"relationType":"gvp:broaderPartitive","relationTo":"https://w3id.org/whg-epns/86/000002","label":"within Uggescombe Hundred"}]}]}