{"@context":"https://raw.githubusercontent.com/LinkedPasts/linked-places-format/main/linkedplaces-context-v1.1.jsonld","type":"FeatureCollection","license":"Digitisation of English Placenames MADS data is licensed to Jisc by the English Place Names Society and released under a Creative Commons Attribution-NonCommercial 4.0 International License.","note":"LPF v1.3, lossy; derived from the PLATO record; plato_commit=ca0afadabec1e23a145c0b03df77e8f151f79832","features":[{"@id":"https://w3id.org/whg-epns/86/003741","type":"Feature","properties":{"title":"Winterborne, Winterbourne","ccodes":["GB"],"fclasses":["A","P"]},"names":[{"toponym":"Winterborne, Winterbourne","lang":"en","citations":[{"label":"English Place-Name Society survey, volume 86: Dorset"}]},{"toponym":"(in) Winceburnan","citations":[{"label":"987 KCD","year":987}],"when":{"timespans":[{"start":{"in":"0987"},"end":{"in":"0987"}}]}},{"toponym":"Wintreburne","citations":[{"label":"1086 DB","year":1086},{"label":"1212 Fees","year":1212}],"when":{"timespans":[{"start":{"in":"1086"},"end":{"in":"1086"}},{"start":{"in":"1212"},"end":{"in":"1212"}}]}},{"toponym":"Wintreborna","citations":[{"label":"1086 Exon","year":1086}],"when":{"timespans":[{"start":{"in":"1086"},"end":{"in":"1086"}}]}},{"toponym":"Winterburn(e)","citations":[{"label":"1244 Ass","year":1244},{"label":"1285 FA","year":1285}],"when":{"timespans":[{"start":{"in":"1244"},"end":{"in":"1244"}},{"start":{"in":"1285"},"end":{"in":"1285"}}]}},{"toponym":"Winterborne","citations":[{"label":"1653 ParlSurv","year":1653}],"when":{"timespans":[{"start":{"in":"1653"},"end":{"in":"1653"}}]}},{"toponym":"Wynterbo(u)rn","citations":[{"label":"1318 Ch","year":1318},{"label":"1332 SR","year":1332},{"label":"1346 FA","year":1346}],"when":{"timespans":[{"start":{"in":"1318"},"end":{"in":"1318"}},{"start":{"in":"1332"},"end":{"in":"1332"}},{"start":{"in":"1346"},"end":{"in":"1346"}}]}},{"toponym":"Wyntrebourne","citations":[{"label":"1428 FA","year":1428}],"when":{"timespans":[{"start":{"in":"1428"},"end":{"in":"1428"}}]}},{"toponym":"Wynterburn Abbatisse de Cerne, Wynterburn' Abbatis","citations":[{"label":"1244 Ass","year":1244}],"when":{"timespans":[{"start":{"in":"1244"},"end":{"in":"1244"}},{"start":{"in":"1268"},"end":{"in":"1268"}}]}},{"toponym":"Winterborn(e) Abbatis","citations":[{"label":"1288 Ass","year":1288},{"label":"1344 Cerne","year":1344}],"when":{"timespans":[{"start":{"in":"1288"},"end":{"in":"1288"}},{"start":{"in":"1344"},"end":{"in":"1344"}}]}},{"toponym":"Winterburn Abbots, Wynterburn Abbots","citations":[{"label":"1297 Cl","year":1297},{"label":"1297 Pat","year":1297}],"when":{"timespans":[{"start":{"in":"1297"},"end":{"in":"1297"}},{"start":{"in":"1297"},"end":{"in":"1297"}}]}},{"toponym":"Wynterbourne Abbot","citations":[{"label":"1428 FA","year":1428}],"when":{"timespans":[{"start":{"in":"1428"},"end":{"in":"1428"}}]}},{"toponym":"Abbas Winterborne","citations":[{"label":"1795 Boswell","year":1795}],"when":{"timespans":[{"start":{"in":"1795"},"end":{"in":"1795"}}]}},{"toponym":"Watreleswyntreburn","citations":[{"label":"1291 Fine","year":1291},{"label":"1292 Abbr","year":1292},{"label":"1292 Orig","year":1292},{"label":"1365 FF","year":1365}],"when":{"timespans":[{"start":{"in":"1291"},"end":{"in":"1291"}},{"start":{"in":"1292"},"end":{"in":"1292"}},{"start":{"in":"1292"},"end":{"in":"1292"}},{"start":{"in":"1365"},"end":{"in":"1365"}}]}},{"toponym":"Watreles Wyntreburn","citations":[{"label":"1292 Hutch3","year":1292}],"when":{"timespans":[{"start":{"in":"1292"},"end":{"in":"1292"}}]}},{"toponym":"Wynterborn Waterlyse","citations":[{"label":"1303 FA","year":1303}],"when":{"timespans":[{"start":{"in":"1303"},"end":{"in":"1303"}}]}},{"toponym":"Waterleswyntreburn","citations":[{"label":"1306 Pat","year":1306}],"when":{"timespans":[{"start":{"in":"1306"},"end":{"in":"1306"}}]}},{"toponym":"Winterborne Abbott alias Waterless","citations":[{"label":"1644 Prideaux","year":1644}],"when":{"timespans":[{"start":{"in":"1644"},"end":{"in":"1644"}}]}},{"toponym":"Winterborne Abbas alias Waterless","citations":[{"label":"1699 Prideaux","year":1699}],"when":{"timespans":[{"start":{"in":"1699"},"end":{"in":"1699"}}]}},{"toponym":"Winterborne Abbas otherwise Winterborne Waterless","citations":[{"label":"1727 Prideaux","year":1727}],"when":{"timespans":[{"start":{"in":"1727"},"end":{"in":"1727"}}]}}],"types":[{"identifier":"http://vocab.getty.edu/aat/300232418","label":"administrative division","sourceLabels":[{"label":"township","lang":"en"}]}],"geometry":{"type":"GeometryCollection","geometries":[{"type":"Point","coordinates":[-2.541109603,50.71230105],"citations":[{"label":"English Place-Name Society survey (DEEP coordinates)"}]},{"type":"Point","coordinates":[-2.545359103687223,50.7122817135189],"citations":[{"label":"Unlock (EDINA) gazetteer, gazetteer record unlock:11324270"}]},{"type":"Point","coordinates":[-2.4183,50.694],"citations":[{"label":"Key to English Place-Names (KEPN), gazetteer record 723"}]}]},"when":{"timespans":[{"start":{"in":"0987"},"end":{"in":"1795"}}]},"relations":[{"relationType":"gvp:broaderPartitive","relationTo":"https://w3id.org/whg-epns/86/003740","label":"within Winterborne Abbas"}]}]}