{"@context":"https://raw.githubusercontent.com/LinkedPasts/linked-places-format/main/linkedplaces-context-v1.1.jsonld","type":"FeatureCollection","license":"Digitisation of English Placenames MADS data is licensed to Jisc by the English Place Names Society and released under a Creative Commons Attribution-NonCommercial 4.0 International License.","note":"LPF v1.3, lossy; derived from the PLATO record; plato_commit=ca0afadabec1e23a145c0b03df77e8f151f79832","features":[{"@id":"http://placenames.org.uk/id/placename/86/003870","type":"Feature","properties":{"title":"Wraxall","ccodes":["GB"],"fclasses":["A","P"]},"names":[{"toponym":"Wraxall","lang":"en","citations":[{"label":"English Place-Name Society survey, volume 86: Dorset"}]}],"types":[{"identifier":"http://vocab.getty.edu/aat/300232418","label":"administrative division","sourceLabels":[{"label":"parish","lang":"en"}]}],"geometry":{"type":"GeometryCollection","geometries":[{"type":"Point","coordinates":[-2.61191,50.80459],"citations":[{"label":"GeoNames, gazetteer record geonames:7295032"}]},{"type":"Point","coordinates":[-2.608894628,50.80550174],"citations":[{"label":"English Place-Name Society survey (DEEP coordinates)"}]},{"type":"Point","coordinates":[-2.617481415749631,50.81085331305973],"citations":[{"label":"Unlock (EDINA) gazetteer, gazetteer record unlock:11173181"}]},{"type":"Point","coordinates":[-2.61877,50.8114],"citations":[{"label":"Key to English Place-Names (KEPN), gazetteer record 11504"}]}]},"links":[{"type":"closeMatch","identifier":"https://sws.geonames.org/7295032/"}],"relations":[{"relationType":"gvp:broaderPartitive","relationTo":"http://placenames.org.uk/id/placename/86/002436","label":"within Eggardon Hundred"}]}]}