{"@context":"https://raw.githubusercontent.com/LinkedPasts/linked-places-format/main/linkedplaces-context-v1.1.jsonld","type":"FeatureCollection","license":"Digitisation of English Placenames MADS data is licensed to Jisc by the English Place Names Society and released under a Creative Commons Attribution-NonCommercial 4.0 International License.","note":"LPF v1.3, lossy; derived from the PLATO record; plato_commit=fa0d247ccc0263f8f19c8d7cdcd163df96935d1e","features":[{"@id":"https://w3id.org/whg-epns/86/004168","type":"Feature","properties":{"title":"West Chelborough","ccodes":["GB"],"fclasses":["A","P"]},"names":[{"toponym":"West Chelborough","lang":"en","citations":[{"label":"English Place-Name Society survey, volume 86: Dorset"}]}],"types":[{"identifier":"http://vocab.getty.edu/aat/300232418","label":"administrative division","sourceLabels":[{"label":"parish","lang":"en"}]}],"geometry":{"type":"GeometryCollection","geometries":[{"type":"Point","coordinates":[-2.65268,50.8443],"citations":[{"label":"GeoNames, gazetteer record geonames:7293441"}]},{"type":"Point","coordinates":[-2.646366058473451,50.84667150206262],"citations":[{"label":"Unlock (EDINA) gazetteer, gazetteer record unlock:11316525"}]},{"type":"Point","coordinates":[-2.63344,50.8473],"citations":[{"label":"Key to English Place-Names (KEPN), gazetteer record 11624"}]}]},"links":[{"type":"closeMatch","identifier":"https://sws.geonames.org/7293441/"}],"relations":[{"relationType":"gvp:broaderPartitive","relationTo":"https://w3id.org/whg-epns/86/003968","label":"within Tollerford Hundred"}]}]}