{"@context":"https://raw.githubusercontent.com/LinkedPasts/linked-places-format/main/linkedplaces-context-v1.1.jsonld","type":"FeatureCollection","license":"Digitisation of English Placenames MADS data is licensed to Jisc by the English Place Names Society and released under a Creative Commons Attribution-NonCommercial 4.0 International License.","note":"LPF v1.3, lossy; derived from the PLATO record; plato_commit=fa0d247ccc0263f8f19c8d7cdcd163df96935d1e","features":[{"@id":"https://w3id.org/whg-epns/86/005882","type":"Feature","properties":{"title":"Toller Fratrum","ccodes":["GB"],"fclasses":["A","P"]},"names":[{"toponym":"Toller Fratrum","lang":"en","citations":[{"label":"English Place-Name Society survey, volume 86: Dorset"}]},{"toponym":"Tolre Hosp(it)'","citations":[{"label":"1268 Ass","year":1268}],"when":{"timespans":[{"start":{"in":"1268"},"end":{"in":"1268"}},{"start":{"in":"1288"},"end":{"in":"1288"}}]}},{"toponym":"Tolrehospital","citations":[{"label":"1348 Pat","year":1348}],"when":{"timespans":[{"start":{"in":"1348"},"end":{"in":"1348"}}]}},{"toponym":"Tolre Lib' Prioris Sancti Johannis Jer'l'm in Angl'","citations":[{"label":"1280 Ass","year":1280}],"when":{"timespans":[{"start":{"in":"1280"},"end":{"in":"1280"}}]}},{"toponym":"'prior and brethren of Hospital of St John of Jerusalem'","citations":[{"label":"1346 Pat","year":1346}],"when":{"timespans":[{"start":{"in":"1346"},"end":{"in":"1346"}}]}},{"toponym":"Tolre Fratrum","citations":[{"label":"1340 NI","year":1340},{"label":"1344 Cerne","year":1344}],"when":{"timespans":[{"start":{"in":"1340"},"end":{"in":"1340"}},{"start":{"in":"1344"},"end":{"in":"1344"}}]}},{"toponym":"Toller Fratrum","citations":[{"label":"1428 FA","year":1428}],"when":{"timespans":[{"start":{"in":"1428"},"end":{"in":"1428"}}]}},{"toponym":"Toller-Fratrum","citations":[{"label":"1774 Hutch1","year":1774}],"when":{"timespans":[{"start":{"in":"1774"},"end":{"in":"1774"}}]}},{"toponym":"Toller Fratrum (Little)","citations":[{"label":"1795 Boswell","year":1795}],"when":{"timespans":[{"start":{"in":"1795"},"end":{"in":"1795"}}]}},{"toponym":"Little Toller","citations":[{"label":"1664 HTax","year":1664},{"label":"1762 Hutch3","year":1762}],"when":{"timespans":[{"start":{"in":"1664"},"end":{"in":"1664"}},{"start":{"in":"1762"},"end":{"in":"1762"}}]}}],"types":[{"identifier":"http://vocab.getty.edu/aat/300232418","label":"administrative division","sourceLabels":[{"label":"township","lang":"en"}]}],"geometry":{"type":"GeometryCollection","geometries":[{"type":"Point","coordinates":[-2.60112,50.77704],"citations":[{"label":"GeoNames, gazetteer record geonames:7293440"}]},{"type":"Point","coordinates":[-2.597139467,50.77408456],"citations":[{"label":"English Place-Name Society survey (DEEP coordinates)"}]},{"type":"Point","coordinates":[-2.602824397659552,50.77495517029642],"citations":[{"label":"Unlock (EDINA) gazetteer, gazetteer record unlock:11302062"}]},{"type":"Point","coordinates":[-2.60411,50.7755],"citations":[{"label":"Key to English Place-Names (KEPN), gazetteer record 11631"}]}]},"when":{"timespans":[{"start":{"in":"1268"},"end":{"in":"1795"}}]},"links":[{"type":"closeMatch","identifier":"https://sws.geonames.org/7293440/"}],"relations":[{"relationType":"gvp:broaderPartitive","relationTo":"https://w3id.org/whg-epns/86/005881","label":"within Toller Fratrum"}]}]}