{"@context":"https://raw.githubusercontent.com/LinkedPasts/linked-places-format/main/linkedplaces-context-v1.1.jsonld","type":"FeatureCollection","license":"Digitisation of English Placenames MADS data is licensed to Jisc by the English Place Names Society and released under a Creative Commons Attribution-NonCommercial 4.0 International License.","note":"LPF v1.3, lossy; derived from the PLATO record; plato_commit=ca0afadabec1e23a145c0b03df77e8f151f79832","features":[{"@id":"http://placenames.org.uk/id/placename/86/007670","type":"Feature","properties":{"title":"Hawkchurch","ccodes":["GB"],"fclasses":["A","P"]},"names":[{"toponym":"Hawkchurch","lang":"en","citations":[{"label":"English Place-Name Society survey, volume 86: Dorset"}]}],"types":[{"identifier":"http://vocab.getty.edu/aat/300232418","label":"administrative division","sourceLabels":[{"label":"parish","lang":"en"}]}],"geometry":{"type":"GeometryCollection","geometries":[{"type":"Point","coordinates":[-2.93333,50.8],"citations":[{"label":"GeoNames, gazetteer record geonames:2647295"}]},{"type":"Point","coordinates":[-2.932375653,50.79886805],"citations":[{"label":"English Place-Name Society survey (DEEP coordinates)"}]},{"type":"Point","coordinates":[-2.929555874150354,50.79979042986017],"citations":[{"label":"Unlock (EDINA) gazetteer, gazetteer record unlock:11167672"}]},{"type":"Point","coordinates":[-2.9308,50.8003],"citations":[{"label":"Key to English Place-Names (KEPN), gazetteer record 387"}]}]},"links":[{"type":"closeMatch","identifier":"https://sws.geonames.org/2647295/"}],"relations":[{"relationType":"gvp:broaderPartitive","relationTo":"http://placenames.org.uk/id/placename/86/006520","label":"within Cerne, Totcome & Modbury Hundred"}]}]}