{"@context":"https://raw.githubusercontent.com/LinkedPasts/linked-places-format/main/linkedplaces-context-v1.1.jsonld","type":"FeatureCollection","license":"Digitisation of English Placenames MADS data is licensed to Jisc by the English Place Names Society and released under a Creative Commons Attribution-NonCommercial 4.0 International License.","note":"LPF v1.3, lossy; derived from the PLATO record; plato_commit=ca0afadabec1e23a145c0b03df77e8f151f79832","features":[{"@id":"https://w3id.org/whg-epns/86/009916","type":"Feature","properties":{"title":"Batcombe","ccodes":["GB"],"fclasses":["A","P"]},"names":[{"toponym":"Batcombe","lang":"en","citations":[{"label":"English Place-Name Society survey, volume 86: Dorset"}]},{"toponym":"Batecumbe","citations":[{"label":"1201 Cur","year":1201},{"label":"1244 Ass","year":1244},{"label":"1270 For","year":1270},{"label":"1274 Ipm","year":1274},{"label":"1280 Ass","year":1280},{"label":"1303 FA","year":1303},{"label":"1312 FF","year":1312},{"label":"1314 Pat","year":1314}],"when":{"timespans":[{"start":{"in":"1201"},"end":{"in":"1201"}},{"start":{"in":"1244"},"end":{"in":"1244"}},{"start":{"in":"1270"},"end":{"in":"1270"}},{"start":{"in":"1274"},"end":{"in":"1274"}},{"start":{"in":"1280"},"end":{"in":"1280"}},{"start":{"in":"1303"},"end":{"in":"1303"}},{"start":{"in":"1312"},"end":{"in":"1312"}},{"start":{"in":"1314"},"end":{"in":"1314"}}]}},{"toponym":"Batecomb(e)","citations":[{"label":"1268 Ass","year":1268},{"label":"1290 Ch","year":1290},{"label":"1299 Ipm","year":1299},{"label":"1303 FA","year":1303},{"label":"1311–1431, recurring Ipm","year":1311},{"label":"1311–1431, recurring FA"},{"label":"1311 Ipm","year":1311},{"label":"1431 FA","year":1431}],"when":{"timespans":[{"start":{"in":"1268"},"end":{"in":"1268"}},{"start":{"in":"1290"},"end":{"in":"1290"}},{"start":{"in":"1299"},"end":{"in":"1299"}},{"start":{"in":"1303"},"end":{"in":"1303"}},{"start":{"in":"1311"},"end":{"in":"1431"}},{"start":{"in":"1311"},"end":{"in":"1311"}},{"start":{"in":"1431"},"end":{"in":"1431"}}]}},{"toponym":"Batecumb","citations":[{"label":"1291 Tax","year":1291}],"when":{"timespans":[{"start":{"in":"1291"},"end":{"in":"1291"}}]}},{"toponym":"Batecoumb","citations":[{"label":"1314 Pat","year":1314}],"when":{"timespans":[{"start":{"in":"1314"},"end":{"in":"1314"}}]}},{"toponym":"Battecumbe","citations":[{"label":"1244 Ass","year":1244},{"label":"1300 Drew","year":1300}],"when":{"timespans":[{"start":{"in":"1244"},"end":{"in":"1244"}},{"start":{"in":"1300"},"end":{"in":"1300"}}]}},{"toponym":"Battecombe","citations":[{"label":"14 Winch","year":1300}],"when":{"timespans":[{"start":{"earliest":"1300","latest":"1400"},"end":{"earliest":"1300","latest":"1400"}}]}},{"toponym":"Badecumbe","citations":[{"label":"1300 Drew","year":1300}],"when":{"timespans":[{"start":{"in":"1300"},"end":{"in":"1300"}}]}},{"toponym":"Badecombe","citations":[{"label":"1336 Ch","year":1336},{"label":"1337–1386, recurring Ipm","year":1337},{"label":"1337–1386, recurring MinAcct"},{"label":"1337–1386, recurring Cl"},{"label":"1337 Ipm","year":1337},{"label":"1337 MinAcct","year":1337},{"label":"1386 Cl","year":1386}],"when":{"timespans":[{"start":{"in":"1336"},"end":{"in":"1336"}},{"start":{"in":"1337"},"end":{"in":"1386"}},{"start":{"in":"1337"},"end":{"in":"1337"}},{"start":{"in":"1337"},"end":{"in":"1337"}},{"start":{"in":"1386"},"end":{"in":"1386"}}]}},{"toponym":"Badecoumbe","citations":[{"label":"1384 Ipm","year":1384}],"when":{"timespans":[{"start":{"in":"1384"},"end":{"in":"1384"}}]}},{"toponym":"Batcomb","citations":[{"label":"1340 NI","year":1340},{"label":"1686 DCMCt","year":1686}],"when":{"timespans":[{"start":{"in":"1340"},"end":{"in":"1340"}},{"start":{"in":"1686"},"end":{"in":"1686"}}]}},{"toponym":"Battcomb manner","citations":[{"label":"1569-74 Map","year":1569}],"when":{"timespans":[{"start":{"earliest":"1569","latest":"1574"},"end":{"earliest":"1569","latest":"1574"}}]}}],"types":[{"identifier":"http://vocab.getty.edu/aat/300232418","label":"administrative division","sourceLabels":[{"label":"township","lang":"en"}]}],"geometry":{"type":"GeometryCollection","geometries":[{"type":"Point","coordinates":[-2.55,50.83333],"citations":[{"label":"GeoNames, gazetteer record geonames:2656175"}]},{"type":"Point","coordinates":[-2.542512217,50.83370958],"citations":[{"label":"English Place-Name Society survey (DEEP coordinates)"}]},{"type":"Point","coordinates":[-2.546825276957137,50.83818675554686],"citations":[{"label":"Unlock (EDINA) gazetteer, gazetteer record unlock:11071543"}]},{"type":"Point","coordinates":[-2.54812,50.8387],"citations":[{"label":"Key to English Place-Names (KEPN), gazetteer record 11680"}]}]},"when":{"timespans":[{"start":{"in":"1201"},"end":{"in":"1686"}}]},"links":[{"type":"closeMatch","identifier":"https://sws.geonames.org/2656175/"}],"relations":[{"relationType":"gvp:broaderPartitive","relationTo":"https://w3id.org/whg-epns/86/009915","label":"within Batcombe"}]}]}