{"@context":"https://raw.githubusercontent.com/LinkedPasts/linked-places-format/main/linkedplaces-context-v1.1.jsonld","type":"FeatureCollection","license":"Digitisation of English Placenames MADS data is licensed to Jisc by the English Place Names Society and released under a Creative Commons Attribution-NonCommercial 4.0 International License.","note":"LPF v1.3, lossy; derived from the PLATO record; plato_commit=fa0d247ccc0263f8f19c8d7cdcd163df96935d1e","features":[{"@id":"https://w3id.org/whg-epns/86/010933","type":"Feature","properties":{"title":"Leigh","ccodes":["GB"],"fclasses":["A","P"]},"names":[{"toponym":"Leigh","lang":"en","citations":[{"label":"English Place-Name Society survey, volume 86: Dorset"}]},{"toponym":"Lega","citations":[{"label":"1228 FF","year":1228},{"label":"ChrP"}],"when":{"timespans":[{"start":{"in":"1228"},"end":{"in":"1228"}}]}},{"toponym":"Leg'","citations":[{"label":"1280 Ass","year":1280}],"when":{"timespans":[{"start":{"in":"1280"},"end":{"in":"1280"}}]}},{"toponym":"Legh(e)","citations":[{"label":"1244 Ass","year":1244},{"label":"1270 ChrP","year":1270},{"label":"1288 Ass","year":1288},{"label":"1297 Pat","year":1297},{"label":"1316 FA","year":1316}],"when":{"timespans":[{"start":{"in":"1244"},"end":{"in":"1244"}},{"start":{"in":"1268"},"end":{"in":"1268"}},{"start":{"in":"1270"},"end":{"in":"1270"}},{"start":{"in":"1288"},"end":{"in":"1288"}},{"start":{"in":"1297"},"end":{"in":"1297"}},{"start":{"in":"1316"},"end":{"in":"1316"}}]}},{"toponym":"Shirburn'","citations":[{"label":"1324 Pat","year":1324},{"label":"SR","year":1332},{"label":"VE"},{"label":"1332 SR","year":1332},{"label":"1535 VE","year":1535}],"when":{"timespans":[{"start":{"in":"1324"},"end":{"in":"1324"}},{"start":{"in":"1332"},"end":{"in":"1535"}},{"start":{"in":"1332"},"end":{"in":"1332"}},{"start":{"in":"1535"},"end":{"in":"1535"}}]}},{"toponym":"Leye","citations":[{"label":"1281 ChrP","year":1281},{"label":"1384 Cl","year":1384},{"label":"1384 Ipm","year":1384}],"when":{"timespans":[{"start":{"in":"1281"},"end":{"in":"1281"}},{"start":{"in":"1384"},"end":{"in":"1384"}},{"start":{"in":"1384"},"end":{"in":"1384"}}]}},{"toponym":"Leygh(e)","citations":[{"label":"ChrP"},{"label":"1326 Ipm","year":1326},{"label":"Cl","year":1327},{"label":"FA"},{"label":"1327 Cl","year":1327},{"label":"1412 FA","year":1412}],"when":{"timespans":[{"start":{"in":"1326"},"end":{"in":"1326"}},{"start":{"in":"1327"},"end":{"in":"1412"}},{"start":{"in":"1327"},"end":{"in":"1327"}},{"start":{"in":"1412"},"end":{"in":"1412"}}]}},{"toponym":"'Leigh(e) by Shirburn'","citations":[{"label":"1359 Pat","year":1359},{"label":"Batten","year":1586},{"label":"1586 Batten","year":1586}],"when":{"timespans":[{"start":{"in":"1359"},"end":{"in":"1359"}},{"start":{"in":"1586"},"end":{"in":"1586"}},{"start":{"in":"1586"},"end":{"in":"1586"}}]}},{"toponym":"Lye","citations":[{"label":"1486 Ipm","year":1486},{"label":"1569-74 Map","year":1569},{"label":"1576 AddCh","year":1576}],"when":{"timespans":[{"start":{"in":"1486"},"end":{"in":"1486"}},{"start":{"earliest":"1569","latest":"1574"},"end":{"earliest":"1569","latest":"1574"}},{"start":{"in":"1576"},"end":{"in":"1576"}}]}},{"toponym":"Lye or Leigh","citations":[{"label":"1765 Tayl","year":1765}],"when":{"timespans":[{"start":{"in":"1765"},"end":{"in":"1765"}}]}},{"toponym":"Lee…in Yetmyster","citations":[{"label":"1558 SRO","year":1558}],"when":{"timespans":[{"start":{"in":"1558"},"end":{"in":"1558"}}]}},{"toponym":"Lyghe","citations":[{"label":"1566 Digby","year":1566},{"label":"1568 Gough","year":1568}],"when":{"timespans":[{"start":{"in":"1566"},"end":{"in":"1566"}},{"start":{"in":"1568"},"end":{"in":"1568"}}]}},{"toponym":"Ligh(e)","citations":[{"label":"1587 Gough","year":1587},{"label":"1600 Digby","year":1600},{"label":"1607 Gough","year":1607},{"label":"1671 SalisT","year":1671}],"when":{"timespans":[{"start":{"in":"1587"},"end":{"in":"1587"}},{"start":{"in":"1600"},"end":{"in":"1600"}},{"start":{"in":"1607"},"end":{"in":"1607"}},{"start":{"in":"1671"},"end":{"in":"1671"}}]}}],"types":[{"identifier":"http://vocab.getty.edu/aat/300232418","label":"administrative division","sourceLabels":[{"label":"township","lang":"en"}]}],"geometry":{"type":"GeometryCollection","geometries":[{"type":"Point","coordinates":[-2.55,50.86667],"citations":[{"label":"GeoNames, gazetteer record geonames:2644666"}]},{"type":"Point","coordinates":[-2.544424219,50.87597052],"citations":[{"label":"English Place-Name Society survey (DEEP coordinates)"}]},{"type":"Point","coordinates":[-2.54724611742113,50.8741591189995],"citations":[{"label":"Unlock (EDINA) gazetteer, gazetteer record unlock:11193772"}]},{"type":"Point","coordinates":[-2.54854,50.8747],"citations":[{"label":"Key to English Place-Names (KEPN), gazetteer record 11683"}]}]},"when":{"timespans":[{"start":{"in":"1228"},"end":{"in":"1765"}}]},"links":[{"type":"closeMatch","identifier":"https://sws.geonames.org/2644666/"}],"relations":[{"relationType":"gvp:broaderPartitive","relationTo":"https://w3id.org/whg-epns/86/010932","label":"within Leigh"}]}]}