{"@context":"https://raw.githubusercontent.com/LinkedPasts/linked-places-format/main/linkedplaces-context-v1.1.jsonld","type":"FeatureCollection","license":"Digitisation of English Placenames MADS data is licensed to Jisc by the English Place Names Society and released under a Creative Commons Attribution-NonCommercial 4.0 International License.","note":"LPF v1.3, lossy; derived from the PLATO record; plato_commit=fa0d247ccc0263f8f19c8d7cdcd163df96935d1e","features":[{"@id":"https://w3id.org/whg-epns/86/016708","type":"Feature","properties":{"title":"Mapperton","ccodes":["GB"],"fclasses":["A","P"]},"names":[{"toponym":"Mapperton","lang":"en","citations":[{"label":"English Place-Name Society survey, volume 86: Dorset"}]},{"toponym":"Malperetone","citations":[{"label":"1086 DB","year":1086}],"when":{"timespans":[{"start":{"in":"1086"},"end":{"in":"1086"}}]}},{"toponym":"Malperretona","citations":[{"label":"1086 Exon","year":1086}],"when":{"timespans":[{"start":{"in":"1086"},"end":{"in":"1086"}}]}},{"toponym":"Maperetone","citations":[{"label":"1086 DB","year":1086}],"when":{"timespans":[{"start":{"in":"1086"},"end":{"in":"1086"}}]}},{"toponym":"Maperton(')","citations":[{"label":"1212 Fees","year":1212},{"label":"1224 Cur","year":1224},{"label":"1244 Ass","year":1244},{"label":"1297 Cl","year":1297},{"label":"1316 Pat","year":1316},{"label":"SR","year":1332},{"label":"Hutch3"},{"label":"1332 SR","year":1332},{"label":"1863 Hutch3","year":1863}],"when":{"timespans":[{"start":{"in":"1212"},"end":{"in":"1212"}},{"start":{"in":"1224"},"end":{"in":"1224"}},{"start":{"in":"1244"},"end":{"in":"1244"}},{"start":{"in":"1268"},"end":{"in":"1268"}},{"start":{"in":"1297"},"end":{"in":"1297"}},{"start":{"in":"1316"},"end":{"in":"1316"}},{"start":{"in":"1332"},"end":{"in":"1863"}},{"start":{"in":"1332"},"end":{"in":"1332"}},{"start":{"in":"1863"},"end":{"in":"1863"}}]}},{"toponym":"Southmaperton, Northmaperton, S(o)uthmaperton","citations":[{"label":"1346 FA","year":1346},{"label":"1428 FA","year":1428}],"when":{"timespans":[{"start":{"in":"1346"},"end":{"in":"1346"}},{"start":{"in":"1428"},"end":{"in":"1428"}}]}},{"toponym":"South Maperton","citations":[{"label":"1431 FA","year":1431},{"label":"1774 Hutch1","year":1774}],"when":{"timespans":[{"start":{"in":"1431"},"end":{"in":"1431"}},{"start":{"in":"1774"},"end":{"in":"1774"}}]}},{"toponym":"Mapertune","citations":[{"label":"1367 Forde","year":1367}],"when":{"timespans":[{"start":{"in":"1367"},"end":{"in":"1367"}}]}},{"toponym":"Maporton","citations":[{"label":"1474 Pat","year":1474}],"when":{"timespans":[{"start":{"in":"1474"},"end":{"in":"1474"}}]}},{"toponym":"Mapperton","citations":[{"label":"1795 Boswell","year":1795}],"when":{"timespans":[{"start":{"in":"1795"},"end":{"in":"1795"}}]}},{"toponym":"Mauperton'","citations":[{"label":"1225 Cur","year":1225},{"label":"1268 Ass","year":1268}],"when":{"timespans":[{"start":{"in":"1225"},"end":{"in":"1225"}},{"start":{"in":"1268"},"end":{"in":"1268"}}]}},{"toponym":"Mapelderton","citations":[{"label":"1236 FF","year":1236},{"label":"1279 Ipm","year":1279}],"when":{"timespans":[{"start":{"in":"1236"},"end":{"in":"1236"}},{"start":{"in":"1279"},"end":{"in":"1279"}}]}},{"toponym":"Mapeldoreton'","citations":[{"label":"1235-6 Fees","year":1235}],"when":{"timespans":[{"start":{"earliest":"1235","latest":"1236"},"end":{"earliest":"1235","latest":"1236"}}]}},{"toponym":"Mapeldretton","citations":[{"label":"1256 FF","year":1256}],"when":{"timespans":[{"start":{"in":"1256"},"end":{"in":"1256"}}]}},{"toponym":"Mapeldereton'","citations":[{"label":"1280 Ass","year":1280}],"when":{"timespans":[{"start":{"in":"1280"},"end":{"in":"1280"}}]}},{"toponym":"Meperton'","citations":[{"label":"1244 Ass","year":1244}],"when":{"timespans":[{"start":{"in":"1244"},"end":{"in":"1244"}}]}},{"toponym":"Mapellerton'","citations":[{"label":"1268 Ass","year":1268}],"when":{"timespans":[{"start":{"in":"1268"},"end":{"in":"1268"}}]}},{"toponym":"Mapelarton","citations":[{"label":"1275 Abbr","year":1275},{"label":"1285 Ipm","year":1285},{"label":"1352 Pat","year":1352}],"when":{"timespans":[{"start":{"in":"1275"},"end":{"in":"1275"}},{"start":{"in":"1285"},"end":{"in":"1285"}},{"start":{"in":"1352"},"end":{"in":"1352"}}]}},{"toponym":"Mapelerton(e)","citations":[{"label":"1288 Ass","year":1288},{"label":"1291 Tax","year":1291},{"label":"1326 Ipm","year":1326},{"label":"1327 SR","year":1327},{"label":"1340 NI","year":1340}],"when":{"timespans":[{"start":{"in":"1288"},"end":{"in":"1288"}},{"start":{"in":"1291"},"end":{"in":"1291"}},{"start":{"in":"1326"},"end":{"in":"1326"}},{"start":{"in":"1327"},"end":{"in":"1327"}},{"start":{"in":"1340"},"end":{"in":"1340"}}]}},{"toponym":"North Mapelerton(e) Ilch, No(r)th Mapelerton(e)","citations":[{"label":"AddCh","year":1368},{"label":"FA"},{"label":"1368 AddCh","year":1368},{"label":"1428 FA","year":1428}],"when":{"timespans":[{"start":{"in":"1368"},"end":{"in":"1428"}},{"start":{"in":"1368"},"end":{"in":"1368"}},{"start":{"in":"1428"},"end":{"in":"1428"}}]}},{"toponym":"Maplerton","citations":[{"label":"1589 Brid","year":1589},{"label":"1596 AD","year":1596},{"label":"1607 Brid","year":1607}],"when":{"timespans":[{"start":{"in":"1589"},"end":{"in":"1589"}},{"start":{"in":"1596"},"end":{"in":"1596"}},{"start":{"in":"1607"},"end":{"in":"1607"}}]}},{"toponym":"Mapelarton Bret","citations":[{"label":"1312 Ipm","year":1312}],"when":{"timespans":[{"start":{"in":"1312"},"end":{"in":"1312"}},{"start":{"in":"1331"},"end":{"in":"1331"}}]}},{"toponym":"Brittes Maperton","citations":[{"label":"1412 FA","year":1412}],"when":{"timespans":[{"start":{"in":"1412"},"end":{"in":"1412"}}]}},{"toponym":"Bryttesmaperton","citations":[{"label":"1423 Pat","year":1423}],"when":{"timespans":[{"start":{"in":"1423"},"end":{"in":"1423"}}]}},{"toponym":"Mapertorne","citations":[{"label":"1551 AddCh","year":1551}],"when":{"timespans":[{"start":{"in":"1551"},"end":{"in":"1551"}}]}},{"toponym":"Mapleston","citations":[{"label":"1653 ParlSurv","year":1653}],"when":{"timespans":[{"start":{"in":"1653"},"end":{"in":"1653"}}]}}],"types":[{"identifier":"http://vocab.getty.edu/aat/300232418","label":"administrative division","sourceLabels":[{"label":"township","lang":"en"}]}],"geometry":{"type":"GeometryCollection","geometries":[{"type":"Point","coordinates":[-2.69788,50.79449],"citations":[{"label":"GeoNames, gazetteer record geonames:7295022"}]},{"type":"Point","coordinates":[-2.705239664,50.79416666],"citations":[{"label":"English Place-Name Society survey (DEEP coordinates)"}]},{"type":"Point","coordinates":[-2.702375146418282,50.79238568802024],"citations":[{"label":"Unlock (EDINA) gazetteer, gazetteer record unlock:11213406"}]},{"type":"Point","coordinates":[-2.70365,50.7929],"citations":[{"label":"Key to English Place-Names (KEPN), gazetteer record 11428"}]}]},"when":{"timespans":[{"start":{"in":"1086"},"end":{"in":"1863"}}]},"links":[{"type":"closeMatch","identifier":"https://sws.geonames.org/7295022/"}],"relations":[{"relationType":"gvp:broaderPartitive","relationTo":"https://w3id.org/whg-epns/86/016707","label":"within Mapperton"}]}]}