{"@context":"https://raw.githubusercontent.com/LinkedPasts/linked-places-format/main/linkedplaces-context-v1.1.jsonld","type":"FeatureCollection","license":"Digitisation of English Placenames MADS data is licensed to Jisc by the English Place Names Society and released under a Creative Commons Attribution-NonCommercial 4.0 International License.","note":"LPF v1.3, lossy; derived from the PLATO record; plato_commit=ca0afadabec1e23a145c0b03df77e8f151f79832","features":[{"@id":"https://w3id.org/whg-epns/86/017038","type":"Feature","properties":{"title":"Netherbury","ccodes":["GB"],"fclasses":["A","P"]},"names":[{"toponym":"Netherbury","lang":"en","citations":[{"label":"English Place-Name Society survey, volume 86: Dorset"}]},{"toponym":"Niderberie","citations":[{"label":"1086 DB","year":1086}],"when":{"timespans":[{"start":{"in":"1086"},"end":{"in":"1086"}}]}},{"toponym":"Niderbiri","citations":[{"label":"1091 Osm","year":1091}],"when":{"timespans":[{"start":{"in":"1091"},"end":{"in":"1091"}}]}},{"toponym":"Nutherbir","citations":[{"label":"1226 Osm","year":1226}],"when":{"timespans":[{"start":{"in":"1226"},"end":{"in":"1226"}}]}},{"toponym":"Nutherbury","citations":[{"label":"1327 SR","year":1327}],"when":{"timespans":[{"start":{"in":"1327"},"end":{"in":"1327"}}]}},{"toponym":"Nytherbyre, Nytherbire Roberti","citations":[{"label":"c.1226 Sarum","year":1216}],"when":{"timespans":[{"start":{"earliest":"1216","latest":"1236"},"end":{"earliest":"1216","latest":"1236"}}]}},{"toponym":"Nitherbir'","citations":[{"label":"1280 Brid","year":1280}],"when":{"timespans":[{"start":{"in":"1280"},"end":{"in":"1280"}}]}},{"toponym":"Nitherbury","citations":[{"label":"1285 FA","year":1285}],"when":{"timespans":[{"start":{"in":"1285"},"end":{"in":"1285"}},{"start":{"in":"1428"},"end":{"in":"1428"}}]}},{"toponym":"Nitherbyr'","citations":[{"label":"1285 FA","year":1285}],"when":{"timespans":[{"start":{"in":"1285"},"end":{"in":"1285"}}]}},{"toponym":"Nitherbur'","citations":[{"label":"1288 Ass","year":1288}],"when":{"timespans":[{"start":{"in":"1288"},"end":{"in":"1288"}}]}},{"toponym":"Nitherburi","citations":[{"label":"1356 Weld2","year":1356}],"when":{"timespans":[{"start":{"in":"1356"},"end":{"in":"1356"}}]}},{"toponym":"Nytherbury","citations":[{"label":"1291 Tax","year":1291},{"label":"1332 SR","year":1332}],"when":{"timespans":[{"start":{"in":"1291"},"end":{"in":"1291"}},{"start":{"in":"1332"},"end":{"in":"1332"}}]}},{"toponym":"Nithirbiry","citations":[{"label":"1329 FF","year":1329}],"when":{"timespans":[{"start":{"in":"1329"},"end":{"in":"1329"}}]}},{"toponym":"Nythyrbury","citations":[{"label":"1504 Ipm","year":1504}],"when":{"timespans":[{"start":{"in":"1504"},"end":{"in":"1504"}}]}},{"toponym":"Netherbire in Terra","citations":[{"label":"c.1226 Sarum","year":1216}],"when":{"timespans":[{"start":{"earliest":"1216","latest":"1236"},"end":{"earliest":"1216","latest":"1236"}}]}},{"toponym":"Netherbir'","citations":[{"label":"1280 Ass","year":1280}],"when":{"timespans":[{"start":{"in":"1280"},"end":{"in":"1280"}}]}},{"toponym":"Netherbury","citations":[{"label":"1288 Ass","year":1288},{"label":"1306 FF","year":1306},{"label":"1315 Pat","year":1315},{"label":"1316–1316, recurring FA","year":1316},{"label":"1316 FA","year":1316}],"when":{"timespans":[{"start":{"in":"1288"},"end":{"in":"1288"}},{"start":{"in":"1306"},"end":{"in":"1306"}},{"start":{"in":"1315"},"end":{"in":"1315"}},{"start":{"in":"1316"},"end":{"in":"1316"}},{"start":{"in":"1316"},"end":{"in":"1316"}}]}},{"toponym":"Netherbur'","citations":[{"label":"1288 Ass","year":1288}],"when":{"timespans":[{"start":{"in":"1288"},"end":{"in":"1288"}}]}},{"toponym":"Netherburi(e)","citations":[{"label":"1295 Pap","year":1295},{"label":"1658 Pole","year":1658}],"when":{"timespans":[{"start":{"in":"1295"},"end":{"in":"1295"}},{"start":{"in":"1658"},"end":{"in":"1658"}}]}},{"toponym":"Netherbery(e)","citations":[{"label":"1345 Pat","year":1345},{"label":"1600 AD","year":1600}],"when":{"timespans":[{"start":{"in":"1345"},"end":{"in":"1345"}},{"start":{"in":"1600"},"end":{"in":"1600"}}]}},{"toponym":"Netherbyri, Netherbiry","citations":[{"label":"1535-43 Leland","year":1535}],"when":{"timespans":[{"start":{"earliest":"1535","latest":"1543"},"end":{"earliest":"1535","latest":"1543"}}]}},{"toponym":"Nethirbury","citations":[{"label":"1372 Pat","year":1372}],"when":{"timespans":[{"start":{"in":"1372"},"end":{"in":"1372"}},{"start":{"in":"1376"},"end":{"in":"1376"}}]}}],"types":[{"identifier":"http://vocab.getty.edu/aat/300232418","label":"administrative division","sourceLabels":[{"label":"township","lang":"en"}]}],"geometry":{"type":"GeometryCollection","geometries":[{"type":"Point","coordinates":[-2.75344,50.79072],"citations":[{"label":"GeoNames, gazetteer record geonames:2641789"}]},{"type":"Point","coordinates":[-2.750614606,50.79208478],"citations":[{"label":"English Place-Name Society survey (DEEP coordinates)"}]},{"type":"Point","coordinates":[-2.759127614141076,50.79203017845462],"citations":[{"label":"Unlock (EDINA) gazetteer, gazetteer record unlock:11227951"}]},{"type":"Point","coordinates":[-2.74621,50.7927],"citations":[{"label":"Key to English Place-Names (KEPN), gazetteer record 11424"}]}]},"when":{"timespans":[{"start":{"in":"1086"},"end":{"in":"1658"}}]},"links":[{"type":"closeMatch","identifier":"https://sws.geonames.org/2641789/"}],"relations":[{"relationType":"gvp:broaderPartitive","relationTo":"https://w3id.org/whg-epns/86/017037","label":"within Netherbury"}]}]}