{"@context":"https://raw.githubusercontent.com/LinkedPasts/linked-places-format/main/linkedplaces-context-v1.1.jsonld","type":"FeatureCollection","license":"Digitisation of English Placenames MADS data is licensed to Jisc by the English Place Names Society and released under a Creative Commons Attribution-NonCommercial 4.0 International License.","note":"LPF v1.3, lossy; derived from the PLATO record; plato_commit=fa0d247ccc0263f8f19c8d7cdcd163df96935d1e","features":[{"@id":"https://w3id.org/whg-epns/86/018546","type":"Feature","properties":{"title":"Stoke Abbott","ccodes":["GB"],"fclasses":["A","P"]},"names":[{"toponym":"Stoke Abbott","lang":"en","citations":[{"label":"English Place-Name Society survey, volume 86: Dorset"}]},{"toponym":"Stoche","citations":[{"label":"1086 DB","year":1086}],"when":{"timespans":[{"start":{"in":"1086"},"end":{"in":"1086"}}]}},{"toponym":"Stocas","citations":[{"label":"1125 SherC","year":1125}],"when":{"timespans":[{"start":{"in":"1125"},"end":{"in":"1125"}}]}},{"toponym":"Stoca(m)","citations":[{"label":"1145 SherC","year":1145}],"when":{"timespans":[{"start":{"in":"1145"},"end":{"in":"1145"}}]}},{"toponym":"Stokes","citations":[{"label":"1191 Sarum","year":1191},{"label":"1212 P","year":1212},{"label":"1247 Cl","year":1247}],"when":{"timespans":[{"start":{"in":"1191"},"end":{"in":"1191"}},{"start":{"in":"1238"},"end":{"in":"1238"}},{"start":{"in":"1212"},"end":{"in":"1212"}},{"start":{"in":"1247"},"end":{"in":"1247"}}]}},{"toponym":"Stok(e)","citations":[{"label":"1238 Sarum","year":1238},{"label":"1268 Ass","year":1268},{"label":"1285 FA","year":1285}],"when":{"timespans":[{"start":{"in":"1238"},"end":{"in":"1238"}},{"start":{"in":"1268"},"end":{"in":"1268"}},{"start":{"in":"1280"},"end":{"in":"1280"}},{"start":{"in":"1288"},"end":{"in":"1288"}},{"start":{"in":"1285"},"end":{"in":"1285"}},{"start":{"in":"1316"},"end":{"in":"1316"}}]}},{"toponym":"Stok(e) Abbe","citations":[{"label":"1268 Ass","year":1268},{"label":"1320 ChancW","year":1320},{"label":"1320 Pat","year":1320}],"when":{"timespans":[{"start":{"in":"1268"},"end":{"in":"1268"}},{"start":{"in":"1320"},"end":{"in":"1320"}},{"start":{"in":"1320"},"end":{"in":"1320"}}]}},{"toponym":"Stok(e) Abbatis","citations":[{"label":"1269 Drew","year":1269},{"label":"1273 Brid","year":1273},{"label":"1280 Ass","year":1280},{"label":"1285 FA","year":1285},{"label":"Ass","year":1288},{"label":"Strode"},{"label":"1288 Ass","year":1288},{"label":"1443 Strode","year":1443}],"when":{"timespans":[{"start":{"in":"1269"},"end":{"in":"1269"}},{"start":{"in":"1273"},"end":{"in":"1273"}},{"start":{"in":"1280"},"end":{"in":"1280"}},{"start":{"in":"1285"},"end":{"in":"1285"}},{"start":{"in":"1288"},"end":{"in":"1443"}},{"start":{"in":"1288"},"end":{"in":"1288"}},{"start":{"in":"1443"},"end":{"in":"1443"}}]}},{"toponym":"Stoke Abbot(t)s","citations":[{"label":"1275 FF","year":1275},{"label":"1297 Pat","year":1297},{"label":"1664 HTax","year":1664}],"when":{"timespans":[{"start":{"in":"1275"},"end":{"in":"1275"}},{"start":{"in":"1297"},"end":{"in":"1297"}},{"start":{"in":"1392"},"end":{"in":"1392"}},{"start":{"in":"1664"},"end":{"in":"1664"}}]}},{"toponym":"Stoke Abbot(t)","citations":[{"label":"Cl","year":1348},{"label":"CarP"},{"label":"1348 Cl","year":1348},{"label":"1495 CarP","year":1495}],"when":{"timespans":[{"start":{"in":"1348"},"end":{"in":"1495"}},{"start":{"in":"1348"},"end":{"in":"1348"}},{"start":{"in":"1495"},"end":{"in":"1495"}}]}},{"toponym":"Stoke Abbas","citations":[{"label":"1358 AD","year":1358}],"when":{"timespans":[{"start":{"in":"1358"},"end":{"in":"1358"}}]}},{"toponym":"Stoke alias Abbotts","citations":[{"label":"1795 Boswell","year":1795}],"when":{"timespans":[{"start":{"in":"1795"},"end":{"in":"1795"}}]}},{"toponym":"Abbodestok","citations":[{"label":"1302 Drew","year":1302},{"label":"1312 FF","year":1312},{"label":"1322 Brid","year":1322},{"label":"1334 FF","year":1334}],"when":{"timespans":[{"start":{"in":"1302"},"end":{"in":"1302"}},{"start":{"in":"1312"},"end":{"in":"1312"}},{"start":{"in":"1322"},"end":{"in":"1322"}},{"start":{"in":"1334"},"end":{"in":"1334"}}]}},{"toponym":"Abbots Stocke","citations":[{"label":"1333 Pat","year":1333}],"when":{"timespans":[{"start":{"in":"1333"},"end":{"in":"1333"}}]}},{"toponym":"Abbot(e)stoke","citations":[{"label":"1335 Inq aqd","year":1335},{"label":"1397 AddCh","year":1397},{"label":"1440 Strode","year":1440}],"when":{"timespans":[{"start":{"in":"1335"},"end":{"in":"1335"}},{"start":{"in":"1397"},"end":{"in":"1397"}},{"start":{"in":"1440"},"end":{"in":"1440"}}]}},{"toponym":"Abbott(e)stoke","citations":[{"label":"1440 Cl","year":1440},{"label":"1648 SC","year":1648}],"when":{"timespans":[{"start":{"in":"1440"},"end":{"in":"1440"}},{"start":{"in":"1648"},"end":{"in":"1648"}}]}},{"toponym":"Abbotystoke","citations":[{"label":"1431 FA","year":1431},{"label":"1441 AD","year":1441}],"when":{"timespans":[{"start":{"in":"1431"},"end":{"in":"1431"}},{"start":{"in":"1441"},"end":{"in":"1441"}}]}},{"toponym":"Abbatystoke","citations":[{"label":"1448 CarP","year":1448},{"label":"1449 Pole","year":1449}],"when":{"timespans":[{"start":{"in":"1448"},"end":{"in":"1448"}},{"start":{"in":"1449"},"end":{"in":"1449"}}]}},{"toponym":"Abbotistoke","citations":[{"label":"1462 AD","year":1462}],"when":{"timespans":[{"start":{"in":"1462"},"end":{"in":"1462"}},{"start":{"in":"1463"},"end":{"in":"1463"}}]}},{"toponym":"Abottstoake aVs Stoake Abbott","citations":[{"label":"1677 Sym","year":1677}],"when":{"timespans":[{"start":{"in":"1677"},"end":{"in":"1677"}}]}}],"types":[{"identifier":"http://vocab.getty.edu/aat/300232418","label":"administrative division","sourceLabels":[{"label":"township","lang":"en"}]}],"geometry":{"type":"GeometryCollection","geometries":[{"type":"Point","coordinates":[-2.77765,50.80364],"citations":[{"label":"GeoNames, gazetteer record geonames:2636867"}]},{"type":"Point","coordinates":[-2.774912566,50.80271841],"citations":[{"label":"English Place-Name Society survey (DEEP coordinates)"}]},{"type":"Point","coordinates":[-2.773463974337488,50.80092976084132],"citations":[{"label":"Unlock (EDINA) gazetteer, gazetteer record unlock:11292670"}]},{"type":"Point","coordinates":[-2.77473,50.8015],"citations":[{"label":"Key to English Place-Names (KEPN), gazetteer record 11425"}]}]},"when":{"timespans":[{"start":{"in":"1086"},"end":{"in":"1795"}}]},"links":[{"type":"closeMatch","identifier":"https://sws.geonames.org/2636867/"}],"relations":[{"relationType":"gvp:broaderPartitive","relationTo":"https://w3id.org/whg-epns/86/018545","label":"within Stoke Abbott"}]}]}