{"@context":"https://raw.githubusercontent.com/LinkedPasts/linked-places-format/main/linkedplaces-context-v1.1.jsonld","type":"FeatureCollection","license":"Digitisation of English Placenames MADS data is licensed to Jisc by the English Place Names Society and released under a Creative Commons Attribution-NonCommercial 4.0 International License.","note":"LPF v1.3, lossy; derived from the PLATO record; plato_commit=ca0afadabec1e23a145c0b03df77e8f151f79832","features":[{"@id":"http://placenames.org.uk/id/placename/86/018955","type":"Feature","properties":{"title":"Wambrook","ccodes":["GB"],"fclasses":["A","P"]},"names":[{"toponym":"Wambrook","lang":"en","citations":[{"label":"English Place-Name Society survey, volume 86: Dorset"}]}],"types":[{"identifier":"http://vocab.getty.edu/aat/300232418","label":"administrative division","sourceLabels":[{"label":"parish","lang":"en"}]}],"geometry":{"type":"GeometryCollection","geometries":[{"type":"Point","coordinates":[-3.00546,50.86504],"citations":[{"label":"GeoNames, gazetteer record geonames:2634819"}]},{"type":"Point","coordinates":[-3.003231755,50.86033756],"citations":[{"label":"English Place-Name Society survey (DEEP coordinates)"}]},{"type":"Point","coordinates":[-3.001849803794669,50.8621486873805],"citations":[{"label":"Unlock (EDINA) gazetteer, gazetteer record unlock:11312949"}]},{"type":"Point","coordinates":[-3.00328,50.8717],"citations":[{"label":"Key to English Place-Names (KEPN), gazetteer record 11426"}]}]},"links":[{"type":"closeMatch","identifier":"https://sws.geonames.org/2634819/"}],"relations":[{"relationType":"gvp:broaderPartitive","relationTo":"http://placenames.org.uk/id/placename/86/012708","label":"within Beaminster Hundred and Beaminster Forum & Redhone Hundred"}]}]}