{"@context":"https://raw.githubusercontent.com/LinkedPasts/linked-places-format/main/linkedplaces-context-v1.1.jsonld","type":"FeatureCollection","license":"Digitisation of English Placenames MADS data is licensed to Jisc by the English Place Names Society and released under a Creative Commons Attribution-NonCommercial 4.0 International License.","note":"LPF v1.3, lossy; derived from the PLATO record; plato_commit=ca0afadabec1e23a145c0b03df77e8f151f79832","features":[{"@id":"http://placenames.org.uk/id/placename/86/022035","type":"Feature","properties":{"title":"Marshwood","ccodes":["GB"],"fclasses":["A","P"]},"names":[{"toponym":"Marshwood","lang":"en","citations":[{"label":"English Place-Name Society survey, volume 86: Dorset"}]},{"toponym":"Mersoda","citations":[{"label":"a1174 France","year":1124},{"label":"14 LodersC","year":1300}],"when":{"timespans":[{"start":{"earliest":"1124","latest":"1174"},"end":{"earliest":"1124","latest":"1174"}},{"start":{"earliest":"1300","latest":"1400"},"end":{"earliest":"1300","latest":"1400"}}]}},{"toponym":"Merswude","citations":[{"label":"1188 P","year":1188},{"label":"1201 ChancR","year":1201},{"label":"1205 P","year":1205},{"label":"1205 ClR","year":1205},{"label":"1206–1275, recurring P","year":1206},{"label":"1206–1275, recurring Ipm"},{"label":"1206 P","year":1206},{"label":"1275 Ipm","year":1275}],"when":{"timespans":[{"start":{"in":"1188"},"end":{"in":"1188"}},{"start":{"in":"1201"},"end":{"in":"1201"}},{"start":{"in":"1205"},"end":{"in":"1205"}},{"start":{"in":"1205"},"end":{"in":"1205"}},{"start":{"in":"1206"},"end":{"in":"1275"}},{"start":{"in":"1206"},"end":{"in":"1206"}},{"start":{"in":"1275"},"end":{"in":"1275"}}]}},{"toponym":"Merswde","citations":[{"label":"1201 P","year":1201},{"label":"c.1220 Poul","year":1210},{"label":"13 AD","year":1200},{"label":"13 Weld2","year":1200}],"when":{"timespans":[{"start":{"in":"1201"},"end":{"in":"1201"}},{"start":{"earliest":"1210","latest":"1230"},"end":{"earliest":"1210","latest":"1230"}},{"start":{"earliest":"1200","latest":"1300"},"end":{"earliest":"1200","latest":"1300"}},{"start":{"earliest":"1200","latest":"1300"},"end":{"earliest":"1200","latest":"1300"}}]}},{"toponym":"Merswod(e)","citations":[{"label":"Hy 3 AddCh","year":1216},{"label":"1230 P","year":1230},{"label":"1254–1431, recurring FF","year":1254},{"label":"1254–1431, recurring AD"},{"label":"1254 FF","year":1254},{"label":"1431 AD","year":1431},{"label":"1383 Cl","year":1383}],"when":{"timespans":[{"start":{"earliest":"1216","latest":"1272"},"end":{"earliest":"1216","latest":"1272"}},{"start":{"in":"1230"},"end":{"in":"1230"}},{"start":{"in":"1254"},"end":{"in":"1431"}},{"start":{"in":"1254"},"end":{"in":"1254"}},{"start":{"in":"1431"},"end":{"in":"1431"}},{"start":{"in":"1383"},"end":{"in":"1383"}}]}},{"toponym":"Mersswod(e)","citations":[{"label":"1280 Ass","year":1280},{"label":"1376 AD","year":1376}],"when":{"timespans":[{"start":{"in":"1280"},"end":{"in":"1280"}},{"start":{"in":"1376"},"end":{"in":"1376"}}]}},{"toponym":"Mereswud'","citations":[{"label":"1200 FineR","year":1200}],"when":{"timespans":[{"start":{"in":"1200"},"end":{"in":"1200"}}]}},{"toponym":"honore de Mereswrðe","citations":[{"label":"1214 P","year":1214}],"when":{"timespans":[{"start":{"in":"1214"},"end":{"in":"1214"}}]}},{"toponym":"Mersewude","citations":[{"label":"1208 ChancR","year":1208}],"when":{"timespans":[{"start":{"in":"1208"},"end":{"in":"1208"}}]}},{"toponym":"Mersewd(e)","citations":[{"label":"1212 Fees","year":1212},{"label":"lHy 3 CottCh","year":1216}],"when":{"timespans":[{"start":{"in":"1212"},"end":{"in":"1212"}},{"start":{"earliest":"1216","latest":"1272"},"end":{"earliest":"1216","latest":"1272"}}]}},{"toponym":"Mershwod(e)","citations":[{"label":"1288 Ass","year":1288},{"label":"1293–1474, recurring Cl","year":1293},{"label":"1293–1474, recurring Pat"},{"label":"1293 Cl","year":1293},{"label":"1474 Pat","year":1474}],"when":{"timespans":[{"start":{"in":"1288"},"end":{"in":"1288"}},{"start":{"in":"1293"},"end":{"in":"1474"}},{"start":{"in":"1293"},"end":{"in":"1293"}},{"start":{"in":"1474"},"end":{"in":"1474"}}]}},{"toponym":"Mershewode","citations":[{"label":"1291–1493, recurring Fine","year":1291},{"label":"1291–1493, recurring DCMDeed"},{"label":"1291 Fine","year":1291},{"label":"c.1483 DCMDeed","year":1473}],"when":{"timespans":[{"start":{"in":"1291"},"end":{"in":"1493"}},{"start":{"in":"1291"},"end":{"in":"1291"}},{"start":{"earliest":"1473","latest":"1493"},"end":{"earliest":"1473","latest":"1493"}}]}},{"toponym":"Merssh(e)wode, Mers(s)ch(e)wode","citations":[{"label":"1291-c.1483 unspecified sources","year":1291}],"when":{"timespans":[{"start":{"in":"1291"},"end":{"in":"1493"}}]}},{"toponym":"Mersewode","citations":[{"label":"1303 FA","year":1303}],"when":{"timespans":[{"start":{"in":"1303"},"end":{"in":"1303"}}]}},{"toponym":"Mershoude","citations":[{"label":"1331 HarlCh","year":1331}],"when":{"timespans":[{"start":{"in":"1331"},"end":{"in":"1331"}}]}},{"toponym":"Merchewode","citations":[{"label":"1377 Pat","year":1377}],"when":{"timespans":[{"start":{"in":"1377"},"end":{"in":"1377"}},{"start":{"in":"1404"},"end":{"in":"1404"}}]}},{"toponym":"Mresshewode","citations":[{"label":"1463-66 Weld2","year":1463}],"when":{"timespans":[{"start":{"earliest":"1463","latest":"1466"},"end":{"earliest":"1463","latest":"1466"}}]}},{"toponym":"Merschood'","citations":[{"label":"1488 Weld2","year":1488}],"when":{"timespans":[{"start":{"in":"1488"},"end":{"in":"1488"}}]}},{"toponym":"Mershwood","citations":[{"label":"1591 Pole","year":1591}],"when":{"timespans":[{"start":{"in":"1591"},"end":{"in":"1591"}}]}},{"toponym":"Marshwode","citations":[{"label":"1328 FF","year":1328},{"label":"1358 CarP","year":1358},{"label":"1462 IpmR","year":1462}],"when":{"timespans":[{"start":{"in":"1328"},"end":{"in":"1328"}},{"start":{"in":"1358"},"end":{"in":"1358"}},{"start":{"in":"1462"},"end":{"in":"1462"}}]}},{"toponym":"Mars(s)hewod","citations":[{"label":"1422 Ct","year":1422}],"when":{"timespans":[{"start":{"in":"1422"},"end":{"in":"1422"}},{"start":{"in":"1547"},"end":{"in":"1547"}}]}},{"toponym":"Mars(s)hewood(e)","citations":[{"label":"1546 Ct","year":1546},{"label":"1571 Pole","year":1571}],"when":{"timespans":[{"start":{"in":"1546"},"end":{"in":"1546"}},{"start":{"in":"1571"},"end":{"in":"1571"}}]}},{"toponym":"Marsche Woodde","citations":[{"label":"1535-43 Leland","year":1535}],"when":{"timespans":[{"start":{"earliest":"1535","latest":"1543"},"end":{"earliest":"1535","latest":"1543"}}]}},{"toponym":"Marshwoode alias Marshoode alias Marshton'","citations":[{"label":"1576 Poul","year":1576}],"when":{"timespans":[{"start":{"in":"1576"},"end":{"in":"1576"}}]}},{"toponym":"Marswood","citations":[{"label":"1684 Poul","year":1684}],"when":{"timespans":[{"start":{"in":"1684"},"end":{"in":"1684"}}]}},{"toponym":"manor of Merssh(e)wod(e)'","citations":[{"label":"1374 Cl","year":1374}],"when":{"timespans":[{"start":{"in":"1374"},"end":{"in":"1374"}}]}},{"toponym":"Merssh(e)wod(e)Vaal","citations":[{"label":"1383–1462, recurring Fine","year":1383},{"label":"1383–1462, recurring Pat"},{"label":"1383 Fine","year":1383},{"label":"1462 Pat","year":1462}],"when":{"timespans":[{"start":{"in":"1383"},"end":{"in":"1462"}},{"start":{"in":"1383"},"end":{"in":"1383"}},{"start":{"in":"1462"},"end":{"in":"1462"}}]}},{"toponym":"Marshwodevale","citations":[{"label":"1403 Fine","year":1403},{"label":"1558 Val","year":1558}],"when":{"timespans":[{"start":{"in":"1403"},"end":{"in":"1403"}},{"start":{"in":"1558"},"end":{"in":"1558"}}]}}],"types":[{"identifier":"http://vocab.getty.edu/aat/300232418","label":"administrative division","sourceLabels":[{"label":"township","lang":"en"}]}],"geometry":{"type":"GeometryCollection","geometries":[{"type":"Point","coordinates":[-2.87761,50.79311],"citations":[{"label":"GeoNames, gazetteer record geonames:2642976"}]},{"type":"Point","coordinates":[-2.875482898,50.79211385],"citations":[{"label":"English Place-Name Society survey (DEEP coordinates)"}]},{"type":"Point","coordinates":[-2.872628881998319,50.79123634260129],"citations":[{"label":"Unlock (EDINA) gazetteer, gazetteer record unlock:11214233"}]},{"type":"Point","coordinates":[-2.87388,50.7918],"citations":[{"label":"Key to English Place-Names (KEPN), gazetteer record 11651"}]}]},"when":{"timespans":[{"start":{"in":"1124"},"end":{"in":"1684"}}]},"links":[{"type":"closeMatch","identifier":"https://sws.geonames.org/2642976/"}],"relations":[{"relationType":"gvp:broaderPartitive","relationTo":"http://placenames.org.uk/id/placename/86/022034","label":"within Marshwood"}]}]}