{"@context":"https://raw.githubusercontent.com/LinkedPasts/linked-places-format/main/linkedplaces-context-v1.1.jsonld","type":"FeatureCollection","license":"Digitisation of English Placenames MADS data is licensed to Jisc by the English Place Names Society and released under a Creative Commons Attribution-NonCommercial 4.0 International License.","note":"LPF v1.3, lossy; derived from the PLATO record; plato_commit=ca0afadabec1e23a145c0b03df77e8f151f79832","features":[{"@id":"http://placenames.org.uk/id/placename/96/001009","type":"Feature","properties":{"title":"Whaddon","ccodes":["GB"],"fclasses":["A","P"]},"names":[{"toponym":"Whaddon","lang":"en","citations":[{"label":"English Place-Name Society survey, volume 19: Cambridgeshire"}]},{"toponym":"Wadune","citations":[{"label":"1086 DB","year":1086},{"label":"1086 InqEl","year":1086}],"when":{"timespans":[{"start":{"in":"1086"},"end":{"in":"1086"}},{"start":{"in":"1086"},"end":{"in":"1086"}}]}},{"toponym":"Wadone","citations":[{"label":"1086 DB","year":1086},{"label":"1195 P","year":1195}],"when":{"timespans":[{"start":{"in":"1086"},"end":{"in":"1086"}},{"start":{"in":"1195"},"end":{"in":"1195"}}]}},{"toponym":"Wadona","citations":[{"label":"1086 ICC","year":1086},{"label":"12th Lewes","year":1100},{"label":"t. Stephen France","year":1135}],"when":{"timespans":[{"start":{"in":"1086"},"end":{"in":"1086"}},{"start":{"earliest":"1100","latest":"1200"},"end":{"earliest":"1100","latest":"1200"}},{"start":{"earliest":"1135","latest":"1154"},"end":{"earliest":"1135","latest":"1154"}}]}},{"toponym":"Wæddun","citations":[{"label":"1086 InqEl","year":1086}],"when":{"timespans":[{"start":{"in":"1086"},"end":{"in":"1086"}}]}},{"toponym":"Waddun(e), Wadduna","citations":[{"label":"1086 InqEl","year":1086},{"label":"1186-9 P","year":1186},{"label":"1218 SR","year":1218}],"when":{"timespans":[{"start":{"in":"1086"},"end":{"in":"1086"}},{"start":{"earliest":"1186","latest":"1189"},"end":{"earliest":"1186","latest":"1189"}},{"start":{"in":"1218"},"end":{"in":"1218"}}]}},{"toponym":"Waddon(e)","citations":[{"label":"1208–1341, recurring Cur","year":1208},{"label":"1208–1341, recurring Cl"},{"label":"1208 Cur","year":1208},{"label":"1341 Cl","year":1341}],"when":{"timespans":[{"start":{"in":"1208"},"end":{"in":"1341"}},{"start":{"in":"1208"},"end":{"in":"1208"}},{"start":{"in":"1341"},"end":{"in":"1341"}}]}},{"toponym":"Phwaddune","citations":[{"label":"1086 InqEl","year":1086}],"when":{"timespans":[{"start":{"in":"1086"},"end":{"in":"1086"}}]}},{"toponym":"Phwaddon","citations":[{"label":"1223 FF","year":1223}],"when":{"timespans":[{"start":{"in":"1223"},"end":{"in":"1223"}}]}},{"toponym":"Quaddon(e)","citations":[{"label":"1199 CurR","year":1199},{"label":"1341 NI","year":1341},{"label":"1387 Cl","year":1387},{"label":"1412 FA","year":1412}],"when":{"timespans":[{"start":{"in":"1199"},"end":{"in":"1199"}},{"start":{"in":"1341"},"end":{"in":"1341"}},{"start":{"in":"1387"},"end":{"in":"1387"}},{"start":{"in":"1412"},"end":{"in":"1412"}}]}},{"toponym":"Qwadone","citations":[{"label":"1268 Ass","year":1268}],"when":{"timespans":[{"start":{"in":"1268"},"end":{"in":"1268"}}]}},{"toponym":"Hwaddon","citations":[{"label":"1218 Seld","year":1218},{"label":"1381 WMP","year":1381}],"when":{"timespans":[{"start":{"in":"1218"},"end":{"in":"1218"}},{"start":{"in":"1381"},"end":{"in":"1381"}}]}},{"toponym":"Watdun","citations":[{"label":"1218 SR","year":1218}],"when":{"timespans":[{"start":{"in":"1218"},"end":{"in":"1218"}}]}},{"toponym":"Watdon","citations":[{"label":"1223 FF","year":1223},{"label":"c. 1237 Wardon","year":1227},{"label":"1268 Ass","year":1268}],"when":{"timespans":[{"start":{"in":"1223"},"end":{"in":"1223"}},{"start":{"earliest":"1227","latest":"1247"},"end":{"earliest":"1227","latest":"1247"}},{"start":{"in":"1268"},"end":{"in":"1268"}}]}},{"toponym":"Wathdoun","citations":[{"label":"c. 1250 Trinity","year":1240}],"when":{"timespans":[{"start":{"earliest":"1240","latest":"1260"},"end":{"earliest":"1240","latest":"1260"}}]}},{"toponym":"Whatdon","citations":[{"label":"1367 FF","year":1367}],"when":{"timespans":[{"start":{"in":"1367"},"end":{"in":"1367"}}]}},{"toponym":"Whaddon(e)","citations":[{"label":"1233–1233, recurring FF","year":1233},{"label":"1233 FF","year":1233}],"when":{"timespans":[{"start":{"in":"1233"},"end":{"in":"1233"}},{"start":{"in":"1233"},"end":{"in":"1233"}}]}},{"toponym":"Whaddon(e) cum Knesworthe","citations":[{"label":"1316 FA","year":1316}],"when":{"timespans":[{"start":{"in":"1316"},"end":{"in":"1316"}}]}},{"toponym":"Whaddon(e) cum Whidyhale","citations":[{"label":"1346 FA","year":1346}],"when":{"timespans":[{"start":{"in":"1346"},"end":{"in":"1346"}}]}},{"toponym":"Whaddon(e) cum Whidale","citations":[{"label":"1428 FA","year":1428}],"when":{"timespans":[{"start":{"in":"1428"},"end":{"in":"1428"}}]}},{"toponym":"Whaddoun","citations":[{"label":"1391 Cl","year":1391}],"when":{"timespans":[{"start":{"in":"1391"},"end":{"in":"1391"}}]}},{"toponym":"Whoddon","citations":[{"label":"1610 Camden","year":1610}],"when":{"timespans":[{"start":{"in":"1610"},"end":{"in":"1610"}}]}}],"types":[{"identifier":"http://vocab.getty.edu/aat/300232418","label":"administrative division","sourceLabels":[{"label":"township","lang":"en"}]}],"geometry":{"type":"GeometryCollection","geometries":[{"type":"Point","coordinates":[-0.02699,52.10213],"citations":[{"label":"GeoNames, gazetteer record geonames:2634199"}]},{"type":"Point","coordinates":[-0.03613825205823113,52.10005175677945],"citations":[{"label":"Unlock (EDINA) gazetteer, gazetteer record unlock:11319428"}]},{"type":"Point","coordinates":[-0.0231757,52.1003],"citations":[{"label":"Key to English Place-Names (KEPN), gazetteer record 3986"}]}]},"when":{"timespans":[{"start":{"in":"1086"},"end":{"in":"1610"}}]},"links":[{"type":"closeMatch","identifier":"https://sws.geonames.org/2634199/"}],"relations":[{"relationType":"gvp:broaderPartitive","relationTo":"http://placenames.org.uk/id/placename/96/001008","label":"within Whaddon"}]}]}