{"@context":"https://raw.githubusercontent.com/LinkedPasts/linked-places-format/main/linkedplaces-context-v1.1.jsonld","type":"FeatureCollection","license":"Digitisation of English Placenames MADS data is licensed to Jisc by the English Place Names Society and released under a Creative Commons Attribution-NonCommercial 4.0 International License.","note":"LPF v1.3, lossy; derived from the PLATO record; plato_commit=fa0d247ccc0263f8f19c8d7cdcd163df96935d1e","features":[{"@id":"https://w3id.org/whg-epns/96/001043","type":"Feature","properties":{"title":"Wetherley Hundred","ccodes":["GB"],"fclasses":["A"]},"names":[{"toponym":"Wetherley Hundred","lang":"en","citations":[{"label":"English Place-Name Society survey, volume 19: Cambridgeshire"}]},{"toponym":"Wedrelai","citations":[{"label":"1086 DB","year":1086}],"when":{"timespans":[{"start":{"in":"1086"},"end":{"in":"1086"}}]}},{"toponym":"Wederlai","citations":[{"label":"1086 DB","year":1086},{"label":"1086 InqEl","year":1086}],"when":{"timespans":[{"start":{"in":"1086"},"end":{"in":"1086"}},{"start":{"in":"1086"},"end":{"in":"1086"}}]}},{"toponym":"Wederlea","citations":[{"label":"1166-93 P","year":1166}],"when":{"timespans":[{"start":{"earliest":"1166","latest":"1193"},"end":{"earliest":"1166","latest":"1193"}}]}},{"toponym":"Wederle","citations":[{"label":"1168 P","year":1168},{"label":"1478 Pat","year":1478}],"when":{"timespans":[{"start":{"in":"1168"},"end":{"in":"1168"}},{"start":{"in":"1172"},"end":{"in":"1172"}},{"start":{"in":"1478"},"end":{"in":"1478"}}]}},{"toponym":"Woderle","citations":[{"label":"1167 P","year":1167}],"when":{"timespans":[{"start":{"in":"1167"},"end":{"in":"1167"}}]}},{"toponym":"Weđerlai","citations":[{"label":"1086 InqEl","year":1086}],"when":{"timespans":[{"start":{"in":"1086"},"end":{"in":"1086"}}]}},{"toponym":"Weđerle(a)","citations":[{"label":"1169 P","year":1169},{"label":"1171-5 P","year":1171}],"when":{"timespans":[{"start":{"in":"1169"},"end":{"in":"1169"}},{"start":{"earliest":"1171","latest":"1175"},"end":{"earliest":"1171","latest":"1175"}}]}},{"toponym":"Wetherle(e)","citations":[{"label":"SR","year":1218},{"label":"FA"},{"label":"1218 SR","year":1218},{"label":"1401 FA","year":1401}],"when":{"timespans":[{"start":{"in":"1218"},"end":{"in":"1401"}},{"start":{"in":"1218"},"end":{"in":"1218"}},{"start":{"in":"1401"},"end":{"in":"1401"}}]}},{"toponym":"Wetherly(e)","citations":[{"label":"1381 Ass","year":1381},{"label":"1570 SR","year":1570}],"when":{"timespans":[{"start":{"in":"1381"},"end":{"in":"1381"}},{"start":{"in":"1570"},"end":{"in":"1570"}}]}},{"toponym":"Whetherley","citations":[{"label":"1478 IpmR","year":1478}],"when":{"timespans":[{"start":{"in":"1478"},"end":{"in":"1478"}}]}},{"toponym":"Weatherly","citations":[{"label":"1660 EA","year":1660}],"when":{"timespans":[{"start":{"in":"1660"},"end":{"in":"1660"}}]}},{"toponym":"Werleia","citations":[{"label":"1086 ICC","year":1086}],"when":{"timespans":[{"start":{"in":"1086"},"end":{"in":"1086"}}]}},{"toponym":"Werle","citations":[{"label":"1185 RotDom","year":1185},{"label":"1236 Barnwell","year":1236}],"when":{"timespans":[{"start":{"in":"1185"},"end":{"in":"1185"}},{"start":{"in":"1236"},"end":{"in":"1236"}}]}},{"toponym":"Werele","citations":[{"label":"1268 Ass","year":1268}],"when":{"timespans":[{"start":{"in":"1268"},"end":{"in":"1268"}}]}},{"toponym":"Wherley","citations":[{"label":"1474 MinAcct","year":1474}],"when":{"timespans":[{"start":{"in":"1474"},"end":{"in":"1474"}}]}},{"toponym":"Werdeslea","citations":[{"label":"1174 ChancR","year":1174}],"when":{"timespans":[{"start":{"in":"1174"},"end":{"in":"1174"}}]}},{"toponym":"Wether(e)sle","citations":[{"label":"1236 Barnwell","year":1236},{"label":"1268 Ass","year":1268}],"when":{"timespans":[{"start":{"in":"1236"},"end":{"in":"1236"}},{"start":{"in":"1268"},"end":{"in":"1268"}}]}},{"toponym":"Wethesle","citations":[{"label":"1279 RH","year":1279}],"when":{"timespans":[{"start":{"in":"1279"},"end":{"in":"1279"}}]}},{"toponym":"Wethele","citations":[{"label":"1327 SR","year":1327}],"when":{"timespans":[{"start":{"in":"1327"},"end":{"in":"1327"}}]}},{"toponym":"Wereslea","citations":[{"label":"1199 P","year":1199}],"when":{"timespans":[{"start":{"in":"1199"},"end":{"in":"1199"}},{"start":{"in":"1200"},"end":{"in":"1200"}}]}},{"toponym":"Weresle","citations":[{"label":"1275 RH","year":1275}],"when":{"timespans":[{"start":{"in":"1275"},"end":{"in":"1275"}}]}},{"toponym":"Weyeresle","citations":[{"label":"1268 Ass","year":1268}],"when":{"timespans":[{"start":{"in":"1268"},"end":{"in":"1268"}}]}}],"types":[{"identifier":"http://vocab.getty.edu/aat/300232418","label":"administrative division","sourceLabels":[{"label":"hundred / wapentake","lang":"en"}]}],"geometry":null,"when":{"timespans":[{"start":{"in":"1086"},"end":{"in":"1660"}}]},"relations":[{"relationType":"gvp:broaderPartitive","relationTo":"https://w3id.org/whg-epns/96/000001","label":"within Cambridgeshire"}]}]}