{"@context":"https://raw.githubusercontent.com/LinkedPasts/linked-places-format/main/linkedplaces-context-v1.1.jsonld","type":"FeatureCollection","license":"Digitisation of English Placenames MADS data is licensed to Jisc by the English Place Names Society and released under a Creative Commons Attribution-NonCommercial 4.0 International License.","note":"LPF v1.3, lossy; derived from the PLATO record; plato_commit=ca0afadabec1e23a145c0b03df77e8f151f79832","features":[{"@id":"https://w3id.org/whg-epns/96/001248","type":"Feature","properties":{"title":"Grantchester","ccodes":["GB"],"fclasses":["A","P"]},"names":[{"toponym":"Grantchester","lang":"en","citations":[{"label":"English Place-Name Society survey, volume 19: Cambridgeshire"}]}],"types":[{"identifier":"http://vocab.getty.edu/aat/300232418","label":"administrative division","sourceLabels":[{"label":"parish","lang":"en"}]}],"geometry":{"type":"GeometryCollection","geometries":[{"type":"Point","coordinates":[0.08722,52.18525],"citations":[{"label":"GeoNames, gazetteer record geonames:7298345"}]},{"type":"Point","coordinates":[0.09897995280862487,52.17865989535268],"citations":[{"label":"Unlock (EDINA) gazetteer, gazetteer record unlock:11158128"}]},{"type":"Point","coordinates":[0.0973334,52.1791],"citations":[{"label":"Key to English Place-Names (KEPN), gazetteer record 3992"}]}]},"links":[{"type":"closeMatch","identifier":"https://sws.geonames.org/7298345/"}],"relations":[{"relationType":"gvp:broaderPartitive","relationTo":"https://w3id.org/whg-epns/96/001043","label":"within Wetherley Hundred"}]}]}