{"@context":"https://raw.githubusercontent.com/LinkedPasts/linked-places-format/main/linkedplaces-context-v1.1.jsonld","type":"FeatureCollection","license":"Digitisation of English Placenames MADS data is licensed to Jisc by the English Place Names Society and released under a Creative Commons Attribution-NonCommercial 4.0 International License.","note":"LPF v1.3, lossy; derived from the PLATO record; plato_commit=fa0d247ccc0263f8f19c8d7cdcd163df96935d1e","features":[{"@id":"https://w3id.org/whg-epns/96/002709","type":"Feature","properties":{"title":"Burrough Green","ccodes":["GB"],"fclasses":["A","P"]},"names":[{"toponym":"Burrough Green","lang":"en","citations":[{"label":"English Place-Name Society survey, volume 19: Cambridgeshire"}]}],"types":[{"identifier":"http://vocab.getty.edu/aat/300232418","label":"administrative division","sourceLabels":[{"label":"parish","lang":"en"}]}],"geometry":{"type":"GeometryCollection","geometries":[{"type":"Point","coordinates":[0.39452,52.17317],"citations":[{"label":"GeoNames, gazetteer record geonames:7670881"}]},{"type":"Point","coordinates":[0.3912616132855632,52.17309523566679],"citations":[{"label":"Unlock (EDINA) gazetteer, gazetteer record unlock:11093916"}]},{"type":"Point","coordinates":[0.389581,52.1735],"citations":[{"label":"Key to English Place-Names (KEPN), gazetteer record 4026"}]}]},"links":[{"type":"closeMatch","identifier":"https://sws.geonames.org/7670881/"}],"relations":[{"relationType":"gvp:broaderPartitive","relationTo":"https://w3id.org/whg-epns/96/002644","label":"within Radfield Hundred"}]}]}