{"@context":"https://raw.githubusercontent.com/LinkedPasts/linked-places-format/main/linkedplaces-context-v1.1.jsonld","type":"FeatureCollection","license":"Digitisation of English Placenames MADS data is licensed to Jisc by the English Place Names Society and released under a Creative Commons Attribution-NonCommercial 4.0 International License.","note":"LPF v1.3, lossy; derived from the PLATO record; plato_commit=ca0afadabec1e23a145c0b03df77e8f151f79832","features":[{"@id":"http://placenames.org.uk/id/placename/96/002771","type":"Feature","properties":{"title":"Carlton","ccodes":["GB"],"fclasses":["A","P"]},"names":[{"toponym":"Carlton","lang":"en","citations":[{"label":"English Place-Name Society survey, volume 19: Cambridgeshire"}]},{"toponym":"Carletunes","citations":[{"label":"c. 990 ASWills","year":980}],"when":{"timespans":[{"start":{"earliest":"0980","latest":"1000"},"end":{"earliest":"0980","latest":"1000"}}]}},{"toponym":"Carletun(e)","citations":[{"label":"t. Hy 2 Colch","year":1154}],"when":{"timespans":[{"start":{"earliest":"1154","latest":"1189"},"end":{"earliest":"1154","latest":"1189"}}]}},{"toponym":"Carletun(e) cum Willingham","citations":[{"label":"1218 SR","year":1218}],"when":{"timespans":[{"start":{"in":"1218"},"end":{"in":"1218"}}]}},{"toponym":"Carletona","citations":[{"label":"1086 ICC","year":1086}],"when":{"timespans":[{"start":{"in":"1086"},"end":{"in":"1086"}}]}},{"toponym":"Carletone","citations":[{"label":"1086 DB","year":1086}],"when":{"timespans":[{"start":{"in":"1086"},"end":{"in":"1086"}}]}},{"toponym":"Carleton(e), Karleton(e)","citations":[{"label":"1202–1551, recurring FF","year":1202},{"label":"1202–1551, recurring Pat"},{"label":"1202 FF","year":1202},{"label":"1551 Pat","year":1551}],"when":{"timespans":[{"start":{"in":"1202"},"end":{"in":"1551"}},{"start":{"in":"1202"},"end":{"in":"1202"}},{"start":{"in":"1551"},"end":{"in":"1551"}}]}},{"toponym":"Carleton(e) Parva","citations":[{"label":"1275 RH","year":1275}],"when":{"timespans":[{"start":{"in":"1275"},"end":{"in":"1275"}}]}},{"toponym":"Carleton(e) Canvile","citations":[{"label":"1559 Rental","year":1559}],"when":{"timespans":[{"start":{"in":"1559"},"end":{"in":"1559"}}]}},{"toponym":"Much Carleton(e)","citations":[{"label":"t. Eliz ChancP","year":1558}],"when":{"timespans":[{"start":{"earliest":"1558","latest":"1603"},"end":{"earliest":"1558","latest":"1603"}}]}},{"toponym":"Carlentone","citations":[{"label":"1086 DB","year":1086}],"when":{"timespans":[{"start":{"in":"1086"},"end":{"in":"1086"}}]}},{"toponym":"Carlentona","citations":[{"label":"t. Wm 1 Cluny","year":1066},{"label":"1121 AC","year":1121}],"when":{"timespans":[{"start":{"earliest":"1066","latest":"1087"},"end":{"earliest":"1066","latest":"1087"}},{"start":{"in":"1121"},"end":{"in":"1121"}}]}},{"toponym":"Carlentuna, Carlentone","citations":[{"label":"c. 1160 Colch","year":1150}],"when":{"timespans":[{"start":{"earliest":"1150","latest":"1170"},"end":{"earliest":"1150","latest":"1170"}}]}},{"toponym":"Karlentona","citations":[{"label":"c. 1098 Lewes","year":1088}],"when":{"timespans":[{"start":{"earliest":"1088","latest":"1108"},"end":{"earliest":"1088","latest":"1108"}}]}},{"toponym":"Carlton","citations":[{"label":"1135–1154, recurring France","year":1135},{"label":"t. Stephen France","year":1135}],"when":{"timespans":[{"start":{"in":"1135"},"end":{"in":"1154"}},{"start":{"earliest":"1135","latest":"1154"},"end":{"earliest":"1135","latest":"1154"}}]}},{"toponym":"Karlton","citations":[{"label":"1260 Ass","year":1260},{"label":"1268 Ass","year":1268}],"when":{"timespans":[{"start":{"in":"1260"},"end":{"in":"1260"}},{"start":{"in":"1268"},"end":{"in":"1268"}}]}},{"toponym":"Car(r)eltun","citations":[{"label":"1257-68 AD","year":1257}],"when":{"timespans":[{"start":{"earliest":"1257","latest":"1268"},"end":{"earliest":"1257","latest":"1268"}}]}},{"toponym":"Car(r)elton","citations":[{"label":"1268 Ass","year":1268},{"label":"1365 FF","year":1365}],"when":{"timespans":[{"start":{"in":"1268"},"end":{"in":"1268"}},{"start":{"in":"1365"},"end":{"in":"1365"}}]}},{"toponym":"Charleton","citations":[{"label":"1587 Ely","year":1587},{"label":"1645 Blaeu","year":1645}],"when":{"timespans":[{"start":{"in":"1587"},"end":{"in":"1587"}},{"start":{"in":"1645"},"end":{"in":"1645"}}]}}],"types":[{"identifier":"http://vocab.getty.edu/aat/300232418","label":"administrative division","sourceLabels":[{"label":"township","lang":"en"}]}],"geometry":{"type":"GeometryCollection","geometries":[{"type":"Point","coordinates":[0.36392,52.15936],"citations":[{"label":"GeoNames, gazetteer record geonames:7298777"}]},{"type":"Point","coordinates":[0.404903856288805,52.15483088468356],"citations":[{"label":"Unlock (EDINA) gazetteer, gazetteer record unlock:11098531"}]},{"type":"Point","coordinates":[0.403223,52.1553],"citations":[{"label":"Key to English Place-Names (KEPN), gazetteer record 4027"}]}]},"when":{"timespans":[{"start":{"in":"0980"},"end":{"in":"1645"}}]},"links":[{"type":"closeMatch","identifier":"https://sws.geonames.org/7298777/"}],"relations":[{"relationType":"gvp:broaderPartitive","relationTo":"http://placenames.org.uk/id/placename/96/002770","label":"within Carlton cum Willingham"}]}]}