{"@context":"https://raw.githubusercontent.com/LinkedPasts/linked-places-format/main/linkedplaces-context-v1.1.jsonld","type":"FeatureCollection","license":"Digitisation of English Placenames MADS data is licensed to Jisc by the English Place Names Society and released under a Creative Commons Attribution-NonCommercial 4.0 International License.","note":"LPF v1.3, lossy; derived from the PLATO record; plato_commit=fa0d247ccc0263f8f19c8d7cdcd163df96935d1e","features":[{"@id":"https://w3id.org/whg-epns/96/002939","type":"Feature","properties":{"title":"Weston Colville","ccodes":["GB"],"fclasses":["A","P"]},"names":[{"toponym":"Weston Colville","lang":"en","citations":[{"label":"English Place-Name Society survey, volume 19: Cambridgeshire"}]},{"toponym":"(oð) West tuniga gemæra","citations":[{"label":"974 BCS","year":974}],"when":{"timespans":[{"start":{"in":"0974"},"end":{"in":"0974"}}]}},{"toponym":"Westona","citations":[{"label":"1086 ICC","year":1086}],"when":{"timespans":[{"start":{"in":"1086"},"end":{"in":"1086"}}]}},{"toponym":"Westune","citations":[{"label":"1086 InqEl","year":1086}],"when":{"timespans":[{"start":{"in":"1086"},"end":{"in":"1086"}}]}},{"toponym":"Westone","citations":[{"label":"1086 DB","year":1086},{"label":"1086 InqEl","year":1086}],"when":{"timespans":[{"start":{"in":"1086"},"end":{"in":"1086"}},{"start":{"in":"1086"},"end":{"in":"1086"}}]}},{"toponym":"Weston(e)","citations":[{"label":"P","year":1176},{"label":"1176 P","year":1176}],"when":{"timespans":[{"start":{"in":"1176"},"end":{"in":"1176"}},{"start":{"in":"1176"},"end":{"in":"1176"}}]}},{"toponym":"Weston(e) Coluyle","citations":[{"label":"1236 Lewes","year":1236}],"when":{"timespans":[{"start":{"in":"1236"},"end":{"in":"1236"}}]}},{"toponym":"Weston(e) Coleuill'","citations":[{"label":"1285 Ass","year":1285}],"when":{"timespans":[{"start":{"in":"1285"},"end":{"in":"1285"}}]}},{"toponym":"Westone cum Parva Carletone","citations":[{"label":"1316 FA","year":1316}],"when":{"timespans":[{"start":{"in":"1316"},"end":{"in":"1316"}}]}},{"toponym":"Westone juxta Westerattyng","citations":[{"label":"1423 FF","year":1423}],"when":{"timespans":[{"start":{"in":"1423"},"end":{"in":"1423"}}]}},{"toponym":"Westone Shrubb","citations":[{"label":"1641 Cole","year":1641}],"when":{"timespans":[{"start":{"in":"1641"},"end":{"in":"1641"}}]}},{"toponym":"Westone Couell","citations":[{"label":"1645 Blaeu","year":1645}],"when":{"timespans":[{"start":{"in":"1645"},"end":{"in":"1645"}}]}},{"toponym":"Westkoleville","citations":[{"label":"1324 Ipm","year":1324}],"when":{"timespans":[{"start":{"in":"1324"},"end":{"in":"1324"}}]}},{"toponym":"Westcolvill","citations":[{"label":"1327 Ipm","year":1327}],"when":{"timespans":[{"start":{"in":"1327"},"end":{"in":"1327"}}]}}],"types":[{"identifier":"http://vocab.getty.edu/aat/300232418","label":"administrative division","sourceLabels":[{"label":"township","lang":"en"}]}],"geometry":{"type":"GeometryCollection","geometries":[{"type":"Point","coordinates":[0.35048,52.1518],"citations":[{"label":"GeoNames, gazetteer record geonames:7301656"}]},{"type":"Point","coordinates":[0.361086127998201,52.15571656797254],"citations":[{"label":"Unlock (EDINA) gazetteer, gazetteer record unlock:11318948"}]},{"type":"Point","coordinates":[0.35941,52.1562],"citations":[{"label":"Key to English Place-Names (KEPN), gazetteer record 4032"}]}]},"when":{"timespans":[{"start":{"in":"0974"},"end":{"in":"1645"}}]},"links":[{"type":"closeMatch","identifier":"https://sws.geonames.org/7301656/"}],"relations":[{"relationType":"gvp:broaderPartitive","relationTo":"https://w3id.org/whg-epns/96/002938","label":"within Weston Colville"}]}]}