{"@context":"https://raw.githubusercontent.com/LinkedPasts/linked-places-format/main/linkedplaces-context-v1.1.jsonld","type":"FeatureCollection","license":"Digitisation of English Placenames MADS data is licensed to Jisc by the English Place Names Society and released under a Creative Commons Attribution-NonCommercial 4.0 International License.","note":"LPF v1.3, lossy; derived from the PLATO record; plato_commit=ca0afadabec1e23a145c0b03df77e8f151f79832","features":[{"@id":"https://w3id.org/whg-epns/96/003126","type":"Feature","properties":{"title":"Cheveley","ccodes":["GB"],"fclasses":["A","P"]},"names":[{"toponym":"Cheveley","lang":"en","citations":[{"label":"English Place-Name Society survey, volume 19: Cambridgeshire"}]}],"types":[{"identifier":"http://vocab.getty.edu/aat/300232418","label":"administrative division","sourceLabels":[{"label":"parish","lang":"en"}]}],"geometry":{"type":"GeometryCollection","geometries":[{"type":"Point","coordinates":[0.4643,52.22049],"citations":[{"label":"GeoNames, gazetteer record geonames:2653205"}]},{"type":"Point","coordinates":[0.452673137732643,52.22579470592284],"citations":[{"label":"Unlock (EDINA) gazetteer, gazetteer record unlock:11104738"}]},{"type":"Point","coordinates":[0.450489,52.2172],"citations":[{"label":"Key to English Place-Names (KEPN), gazetteer record 4034"}]}]},"links":[{"type":"closeMatch","identifier":"https://sws.geonames.org/2653205/"}],"relations":[{"relationType":"gvp:broaderPartitive","relationTo":"https://w3id.org/whg-epns/96/003073","label":"within Cheveley Hundred"}]}]}