{"@context":"https://raw.githubusercontent.com/LinkedPasts/linked-places-format/main/linkedplaces-context-v1.1.jsonld","type":"FeatureCollection","license":"Digitisation of English Placenames MADS data is licensed to Jisc by the English Place Names Society and released under a Creative Commons Attribution-NonCommercial 4.0 International License.","note":"LPF v1.3, lossy; derived from the PLATO record; plato_commit=fa0d247ccc0263f8f19c8d7cdcd163df96935d1e","features":[{"@id":"https://w3id.org/whg-epns/96/003171","type":"Feature","properties":{"title":"Kirtling","ccodes":["GB"],"fclasses":["A","P"]},"names":[{"toponym":"Kirtling","lang":"en","citations":[{"label":"English Place-Name Society survey, volume 19: Cambridgeshire"}]},{"toponym":"Curtelinga, Curtelinge","citations":[{"label":"1086 ICC","year":1086}],"when":{"timespans":[{"start":{"in":"1086"},"end":{"in":"1086"}}]}},{"toponym":"Curtling'","citations":[{"label":"1219 Cur","year":1219}],"when":{"timespans":[{"start":{"in":"1219"},"end":{"in":"1219"}}]}},{"toponym":"Quetelinge","citations":[{"label":"1086 InqEl","year":1086}],"when":{"timespans":[{"start":{"in":"1086"},"end":{"in":"1086"}}]}},{"toponym":"Chertelinge","citations":[{"label":"1086 DB","year":1086},{"label":"1086 InqEl","year":1086},{"label":"1170 LibEl","year":1170}],"when":{"timespans":[{"start":{"in":"1086"},"end":{"in":"1086"}},{"start":{"in":"1086"},"end":{"in":"1086"}},{"start":{"in":"1170"},"end":{"in":"1170"}}]}},{"toponym":"Chertelinges","citations":[{"label":"1166 RBE","year":1166}],"when":{"timespans":[{"start":{"in":"1166"},"end":{"in":"1166"}}]}},{"toponym":"Kert(e)ling(a), Kert(e)ling(e), Kert(e)lyng(g)(e)","citations":[{"label":"P","year":1167},{"label":"LP"},{"label":"1167-8 P","year":1167},{"label":"1509 LP","year":1509}],"when":{"timespans":[{"start":{"in":"1167"},"end":{"in":"1509"}},{"start":{"earliest":"1167","latest":"1168"},"end":{"earliest":"1167","latest":"1168"}},{"start":{"in":"1509"},"end":{"in":"1509"}}]}},{"toponym":"Kertlingh","citations":[{"label":"1298 Ass","year":1298}],"when":{"timespans":[{"start":{"in":"1298"},"end":{"in":"1298"}}]}},{"toponym":"Kertelenge","citations":[{"label":"1381 AD","year":1381},{"label":"1434 Pat","year":1434}],"when":{"timespans":[{"start":{"in":"1381"},"end":{"in":"1381"}},{"start":{"in":"1456"},"end":{"in":"1456"}},{"start":{"in":"1434"},"end":{"in":"1434"}}]}},{"toponym":"Kertlinges, Kertlynges","citations":[{"label":"1176 P","year":1176},{"label":"1241 FineR","year":1241}],"when":{"timespans":[{"start":{"in":"1176"},"end":{"in":"1176"}},{"start":{"in":"1241"},"end":{"in":"1241"}}]}},{"toponym":"Chirtlyng","citations":[{"label":"1272 Ass","year":1272}],"when":{"timespans":[{"start":{"in":"1272"},"end":{"in":"1272"}}]}},{"toponym":"Kirt(e)ling(g)(e), Kirt(e)lyng(e), Kyrt(e)lyng(e)","citations":[{"label":"Ass","year":1268},{"label":"Pat"},{"label":"1268 Ass","year":1268},{"label":"1489 Pat","year":1489}],"when":{"timespans":[{"start":{"in":"1268"},"end":{"in":"1489"}},{"start":{"in":"1268"},"end":{"in":"1268"}},{"start":{"in":"1489"},"end":{"in":"1489"}}]}},{"toponym":"Kyrtelynche","citations":[{"label":"1438 IpmR","year":1438}],"when":{"timespans":[{"start":{"in":"1438"},"end":{"in":"1438"}}]}},{"toponym":"Kirtlyche","citations":[{"label":"t. Hy 6 Cole","year":1422}],"when":{"timespans":[{"start":{"earliest":"1422","latest":"1471"},"end":{"earliest":"1422","latest":"1471"}}]}},{"toponym":"Kirtling quæ & Catlidg nominatur","citations":[{"label":"1594 Camden","year":1594}],"when":{"timespans":[{"start":{"in":"1594"},"end":{"in":"1594"}}]}},{"toponym":"Kart(e)lyng(e), Cart(e)lyng(e)","citations":[{"label":"SR","year":1450},{"label":"EA"},{"label":"1450 SR","year":1450},{"label":"1553 EA","year":1553}],"when":{"timespans":[{"start":{"in":"1450"},"end":{"in":"1553"}},{"start":{"in":"1450"},"end":{"in":"1450"}},{"start":{"in":"1553"},"end":{"in":"1553"}}]}},{"toponym":"Cartlenge, Kartlenge","citations":[{"label":"1501 Rental","year":1501},{"label":"1553 EA","year":1553}],"when":{"timespans":[{"start":{"in":"1501"},"end":{"in":"1501"}},{"start":{"in":"1553"},"end":{"in":"1553"}}]}},{"toponym":"Cartelage","citations":[{"label":"1553 Pat","year":1553}],"when":{"timespans":[{"start":{"in":"1553"},"end":{"in":"1553"}}]}},{"toponym":"Kertlidge","citations":[{"label":"1640 EA","year":1640}],"when":{"timespans":[{"start":{"in":"1640"},"end":{"in":"1640"}}]}},{"toponym":"Catlidge","citations":[{"label":"1576 Saxton","year":1576},{"label":"1607 Kip","year":1607}],"when":{"timespans":[{"start":{"in":"1576"},"end":{"in":"1576"}},{"start":{"in":"1607"},"end":{"in":"1607"}}]}},{"toponym":"Cateledge","citations":[{"label":"1616 Cai","year":1616}],"when":{"timespans":[{"start":{"in":"1616"},"end":{"in":"1616"}}]}},{"toponym":"Kirtling, Catlige or Catlage","citations":[{"label":"1808 L","year":1808}],"when":{"timespans":[{"start":{"in":"1808"},"end":{"in":"1808"}}]}}],"types":[{"identifier":"http://vocab.getty.edu/aat/300232418","label":"administrative division","sourceLabels":[{"label":"township","lang":"en"}]}],"geometry":{"type":"GeometryCollection","geometries":[{"type":"Point","coordinates":[0.4725,52.18619],"citations":[{"label":"GeoNames, gazetteer record geonames:2645187"}]},{"type":"Point","coordinates":[0.465310524792068,52.18955730230839],"citations":[{"label":"Unlock (EDINA) gazetteer, gazetteer record unlock:11188317"}]},{"type":"Point","coordinates":[0.463621,52.19],"citations":[{"label":"Key to English Place-Names (KEPN), gazetteer record 4035"}]}]},"when":{"timespans":[{"start":{"in":"1086"},"end":{"in":"1808"}}]},"links":[{"type":"closeMatch","identifier":"https://sws.geonames.org/2645187/"}],"relations":[{"relationType":"gvp:broaderPartitive","relationTo":"https://w3id.org/whg-epns/96/003170","label":"within Kirtling"}]}]}