{"@context":"https://raw.githubusercontent.com/LinkedPasts/linked-places-format/main/linkedplaces-context-v1.1.jsonld","type":"FeatureCollection","license":"Digitisation of English Placenames MADS data is licensed to Jisc by the English Place Names Society and released under a Creative Commons Attribution-NonCommercial 4.0 International License.","note":"LPF v1.3, lossy; derived from the PLATO record; plato_commit=ca0afadabec1e23a145c0b03df77e8f151f79832","features":[{"@id":"https://w3id.org/whg-epns/96/003100","type":"Feature","properties":{"title":"Silverley","ccodes":["GB"],"fclasses":["A","P"]},"names":[{"toponym":"Silverley","lang":"en","citations":[{"label":"English Place-Name Society survey, volume 19: Cambridgeshire"}]},{"toponym":"Seuerlai","citations":[{"label":"1086 DB","year":1086},{"label":"1086 ICC","year":1086}],"when":{"timespans":[{"start":{"in":"1086"},"end":{"in":"1086"}},{"start":{"in":"1086"},"end":{"in":"1086"}}]}},{"toponym":"Seuerlei","citations":[{"label":"1086 ICC","year":1086}],"when":{"timespans":[{"start":{"in":"1086"},"end":{"in":"1086"}}]}},{"toponym":"Seuerlaio","citations":[{"label":"1086 InqEl","year":1086}],"when":{"timespans":[{"start":{"in":"1086"},"end":{"in":"1086"}}]}},{"toponym":"Seilverleia","citations":[{"label":"1086 InqEl","year":1086}],"when":{"timespans":[{"start":{"in":"1086"},"end":{"in":"1086"}}]}},{"toponym":"Selverleia","citations":[{"label":"t. Hy 2 BM","year":1154}],"when":{"timespans":[{"start":{"earliest":"1154","latest":"1189"},"end":{"earliest":"1154","latest":"1189"}}]}},{"toponym":"Selverleg'","citations":[{"label":"1199 CurR","year":1199},{"label":"1222 FF","year":1222}],"when":{"timespans":[{"start":{"in":"1199"},"end":{"in":"1199"}},{"start":{"in":"1222"},"end":{"in":"1222"}}]}},{"toponym":"Selverleg' et Ascheleg","citations":[{"label":"1246 FF","year":1246}],"when":{"timespans":[{"start":{"in":"1246"},"end":{"in":"1246"}}]}},{"toponym":"Selverle(e), Selverley(e)","citations":[{"label":"1218–1315, recurring SR","year":1218},{"label":"1218–1315, recurring Ass"},{"label":"1218 SR","year":1218},{"label":"1315 Ass","year":1315}],"when":{"timespans":[{"start":{"in":"1218"},"end":{"in":"1315"}},{"start":{"in":"1218"},"end":{"in":"1218"}},{"start":{"in":"1315"},"end":{"in":"1315"}}]}},{"toponym":"Selvirle","citations":[{"label":"1279 RH","year":1279}],"when":{"timespans":[{"start":{"in":"1279"},"end":{"in":"1279"}}]}},{"toponym":"Silverleg(h), Silverle(e), Silverley(e), Sylverley(e)","citations":[{"label":"1195–1553, recurring Abbr","year":1195},{"label":"1195–1553, recurring Pat"},{"label":"1195 Abbr","year":1195},{"label":"1553 Pat","year":1553}],"when":{"timespans":[{"start":{"in":"1195"},"end":{"in":"1553"}},{"start":{"in":"1195"},"end":{"in":"1195"}},{"start":{"in":"1553"},"end":{"in":"1553"}}]}},{"toponym":"Sylverley(e) cum Asshele","citations":[{"label":"1285 Ass","year":1285}],"when":{"timespans":[{"start":{"in":"1285"},"end":{"in":"1285"}}]}},{"toponym":"Sylvyrle","citations":[{"label":"1260 FF","year":1260}],"when":{"timespans":[{"start":{"in":"1260"},"end":{"in":"1260"}}]}},{"toponym":"Suluerle(ye)","citations":[{"label":"1285 Ass","year":1285},{"label":"1299 Hosp","year":1299},{"label":"1389 Cl","year":1389}],"when":{"timespans":[{"start":{"in":"1285"},"end":{"in":"1285"}},{"start":{"in":"1298"},"end":{"in":"1298"}},{"start":{"in":"1299"},"end":{"in":"1299"}},{"start":{"in":"1389"},"end":{"in":"1389"}}]}},{"toponym":"Suluerlegh","citations":[{"label":"1299 Hosp","year":1299}],"when":{"timespans":[{"start":{"in":"1299"},"end":{"in":"1299"}}]}}],"types":[{"identifier":"http://vocab.getty.edu/aat/300232418","label":"administrative division","sourceLabels":[{"label":"township","lang":"en"}]}],"geometry":{"type":"Point","coordinates":[0.480236,52.2256],"citations":[{"label":"Key to English Place-Names (KEPN), gazetteer record 4033"}]},"when":{"timespans":[{"start":{"in":"1086"},"end":{"in":"1553"}}]},"relations":[{"relationType":"gvp:broaderPartitive","relationTo":"https://w3id.org/whg-epns/96/003084","label":"within Ashley cum Silverley"}]}]}