{"@context":"https://raw.githubusercontent.com/LinkedPasts/linked-places-format/main/linkedplaces-context-v1.1.jsonld","type":"FeatureCollection","license":"Digitisation of English Placenames MADS data is licensed to Jisc by the English Place Names Society and released under a Creative Commons Attribution-NonCommercial 4.0 International License.","note":"LPF v1.3, lossy; derived from the PLATO record; plato_commit=ca0afadabec1e23a145c0b03df77e8f151f79832","features":[{"@id":"https://w3id.org/whg-epns/96/003578","type":"Feature","properties":{"title":"Great Wilbraham and Little Wilbraham","ccodes":["GB"],"fclasses":["A","P"]},"names":[{"toponym":"Great Wilbraham and Little Wilbraham","lang":"en","citations":[{"label":"English Place-Name Society survey, volume 19: Cambridgeshire"}]},{"toponym":"(æt) Wilburgeham","citations":[{"label":"c. 975 ASWills","year":965},{"label":"1086–1428, recurring ICC","year":1086},{"label":"1086–1428, recurring InqEl"},{"label":"1086–1428, recurring FA"},{"label":"1086 ICC","year":1086},{"label":"1086 InqEl","year":1086},{"label":"1428 FA","year":1428}],"when":{"timespans":[{"start":{"earliest":"0965","latest":"0985"},"end":{"earliest":"0965","latest":"0985"}},{"start":{"in":"1086"},"end":{"in":"1428"}},{"start":{"in":"1086"},"end":{"in":"1086"}},{"start":{"in":"1086"},"end":{"in":"1086"}},{"start":{"in":"1428"},"end":{"in":"1428"}}]}},{"toponym":"Wilburgesham","citations":[{"label":"1185 P","year":1185}],"when":{"timespans":[{"start":{"in":"1185"},"end":{"in":"1185"}}]}},{"toponym":"Wilburheham","citations":[{"label":"c. 1240 AD","year":1230}],"when":{"timespans":[{"start":{"earliest":"1230","latest":"1250"},"end":{"earliest":"1230","latest":"1250"}}]}},{"toponym":"Witborham, Wiborgham","citations":[{"label":"1086 DB","year":1086}],"when":{"timespans":[{"start":{"in":"1086"},"end":{"in":"1086"}}]}},{"toponym":"Wiborgeham, Wiburgeham","citations":[{"label":"1086 InqEl","year":1086}],"when":{"timespans":[{"start":{"in":"1086"},"end":{"in":"1086"}}]}},{"toponym":"Wiburham, Wyburham","citations":[{"label":"1156 France","year":1156},{"label":"1249 FF","year":1249}],"when":{"timespans":[{"start":{"in":"1156"},"end":{"in":"1156"}},{"start":{"in":"1249"},"end":{"in":"1249"}}]}},{"toponym":"Wyburgham, Wiburgham","citations":[{"label":"1230 P","year":1230},{"label":"1368 FF","year":1368},{"label":"1480 CTerr","year":1480}],"when":{"timespans":[{"start":{"in":"1230"},"end":{"in":"1230"}},{"start":{"in":"1242"},"end":{"in":"1242"}},{"start":{"in":"1368"},"end":{"in":"1368"}},{"start":{"in":"1480"},"end":{"in":"1480"}}]}},{"toponym":"Wilburcham","citations":[{"label":"1150 BM","year":1150},{"label":"1199 CurR","year":1199},{"label":"c. 1240 AD","year":1230}],"when":{"timespans":[{"start":{"in":"1150"},"end":{"in":"1150"}},{"start":{"in":"1199"},"end":{"in":"1199"}},{"start":{"earliest":"1230","latest":"1250"},"end":{"earliest":"1230","latest":"1250"}}]}},{"toponym":"Wilburgham, Wylburgham","citations":[{"label":"1159–1461, recurring Hosp","year":1159},{"label":"1159–1461, recurring Pat"},{"label":"c. 1169 Hosp","year":1159},{"label":"1461 Pat","year":1461}],"when":{"timespans":[{"start":{"in":"1159"},"end":{"in":"1461"}},{"start":{"earliest":"1159","latest":"1179"},"end":{"earliest":"1159","latest":"1179"}},{"start":{"in":"1461"},"end":{"in":"1461"}}]}},{"toponym":"Wilburgham magna, Wilburgham parua","citations":[{"label":"c. 1250 Hosp","year":1240}],"when":{"timespans":[{"start":{"earliest":"1240","latest":"1260"},"end":{"earliest":"1240","latest":"1260"}}]}},{"toponym":"Kinges Wilburgham","citations":[{"label":"1272 Ass","year":1272}],"when":{"timespans":[{"start":{"in":"1272"},"end":{"in":"1272"}}]}},{"toponym":"Wilborham","citations":[{"label":"1280 Fine","year":1280}],"when":{"timespans":[{"start":{"in":"1280"},"end":{"in":"1280"}}]}},{"toponym":"Wilborugham","citations":[{"label":"1325 Ct","year":1325}],"when":{"timespans":[{"start":{"in":"1325"},"end":{"in":"1325"}}]}},{"toponym":"Wylborgham","citations":[{"label":"1337 Ass","year":1337}],"when":{"timespans":[{"start":{"in":"1337"},"end":{"in":"1337"}}]}},{"toponym":"Wilbourgham","citations":[{"label":"1363 Ipm","year":1363}],"when":{"timespans":[{"start":{"in":"1363"},"end":{"in":"1363"}}]}},{"toponym":"Wilburham, Wylburham","citations":[{"label":"1119–1553, recurring ElyM","year":1119},{"label":"1119–1553, recurring Pat"},{"label":"a. 1169 ElyM","year":1119},{"label":"1553 Pat","year":1553}],"when":{"timespans":[{"start":{"in":"1119"},"end":{"in":"1553"}},{"start":{"earliest":"1119","latest":"1169"},"end":{"earliest":"1119","latest":"1169"}},{"start":{"in":"1553"},"end":{"in":"1553"}}]}},{"toponym":"Wilburham Parua","citations":[{"label":"12th AD","year":1100}],"when":{"timespans":[{"start":{"earliest":"1100","latest":"1200"},"end":{"earliest":"1100","latest":"1200"}}]}},{"toponym":"Wilburham Regis","citations":[{"label":"1218 SR","year":1218}],"when":{"timespans":[{"start":{"in":"1218"},"end":{"in":"1218"}}]}},{"toponym":"Alia Wilburham","citations":[{"label":"1236 Barnwell","year":1236}],"when":{"timespans":[{"start":{"in":"1236"},"end":{"in":"1236"}}]}},{"toponym":"Wilburuham","citations":[{"label":"1268 Ass","year":1268}],"when":{"timespans":[{"start":{"in":"1268"},"end":{"in":"1268"}}]}},{"toponym":"Wilbirham","citations":[{"label":"1298 Ass","year":1298}],"when":{"timespans":[{"start":{"in":"1298"},"end":{"in":"1298"}}]}},{"toponym":"Wilberham, Wylberham","citations":[{"label":"1290 Ch","year":1290},{"label":"1325 FF","year":1325},{"label":"1552 Pat","year":1552}],"when":{"timespans":[{"start":{"in":"1290"},"end":{"in":"1290"}},{"start":{"in":"1325"},"end":{"in":"1325"}},{"start":{"in":"1552"},"end":{"in":"1552"}}]}},{"toponym":"Winburgeham","citations":[{"label":"c. 1180 ElyF","year":1170}],"when":{"timespans":[{"start":{"earliest":"1170","latest":"1190"},"end":{"earliest":"1170","latest":"1190"}}]}},{"toponym":"Wyneburgham","citations":[{"label":"1271 FF","year":1271}],"when":{"timespans":[{"start":{"in":"1271"},"end":{"in":"1271"}}]}},{"toponym":"Wolburham, Wolborham","citations":[{"label":"1283 FF","year":1283}],"when":{"timespans":[{"start":{"in":"1283"},"end":{"in":"1283"}}]}},{"toponym":"Wulburgham","citations":[{"label":"1328 Banco","year":1328}],"when":{"timespans":[{"start":{"in":"1328"},"end":{"in":"1328"}}]}},{"toponym":"Wilbram, Wylbram","citations":[{"label":"1360–1550, recurring Ipm","year":1360},{"label":"1360–1550, recurring Pat"},{"label":"1360 Ipm","year":1360},{"label":"1550 Pat","year":1550}],"when":{"timespans":[{"start":{"in":"1360"},"end":{"in":"1550"}},{"start":{"in":"1360"},"end":{"in":"1360"}},{"start":{"in":"1550"},"end":{"in":"1550"}}]}},{"toponym":"Litle Wilbram","citations":[{"label":"1500 PCC","year":1500}],"when":{"timespans":[{"start":{"in":"1500"},"end":{"in":"1500"}}]}},{"toponym":"Moche Wilbram","citations":[{"label":"1515 Cole","year":1515}],"when":{"timespans":[{"start":{"in":"1515"},"end":{"in":"1515"}}]}},{"toponym":"Myche Wilbram","citations":[{"label":"1548 PCC","year":1548}],"when":{"timespans":[{"start":{"in":"1548"},"end":{"in":"1548"}}]}},{"toponym":"Wylbraham, Wilbraham","citations":[{"label":"t. Hy 8 Rental","year":1509},{"label":"1539 MinAcct","year":1539},{"label":"1643 EA","year":1643}],"when":{"timespans":[{"start":{"earliest":"1509","latest":"1547"},"end":{"earliest":"1509","latest":"1547"}},{"start":{"in":"1539"},"end":{"in":"1539"}},{"start":{"in":"1643"},"end":{"in":"1643"}}]}}],"types":[{"identifier":"http://vocab.getty.edu/aat/300232418","label":"administrative division","sourceLabels":[{"label":"township","lang":"en"}]}],"geometry":{"type":"GeometryCollection","geometries":[{"type":"Point","coordinates":[0.26698,52.19346],"citations":[{"label":"GeoNames, gazetteer record geonames:2647992"}]},{"type":"Point","coordinates":[0.2606581431054306,52.19365780099906],"citations":[{"label":"Unlock (EDINA) gazetteer, gazetteer record unlock:11159372"}]},{"type":"Point","coordinates":[0.27361,52.1938],"citations":[{"label":"Key to English Place-Names (KEPN), gazetteer record 4038"}]}]},"when":{"timespans":[{"start":{"in":"0965"},"end":{"in":"1643"}}]},"links":[{"type":"closeMatch","identifier":"https://sws.geonames.org/2647992/"}],"relations":[{"relationType":"gvp:broaderPartitive","relationTo":"https://w3id.org/whg-epns/96/003577","label":"within Great and Little Wilbraham"}]}]}