{"@context":"https://raw.githubusercontent.com/LinkedPasts/linked-places-format/main/linkedplaces-context-v1.1.jsonld","type":"FeatureCollection","license":"Digitisation of English Placenames MADS data is licensed to Jisc by the English Place Names Society and released under a Creative Commons Attribution-NonCommercial 4.0 International License.","note":"LPF v1.3, lossy; derived from the PLATO record; plato_commit=ca0afadabec1e23a145c0b03df77e8f151f79832","features":[{"@id":"https://w3id.org/whg-epns/96/003511","type":"Feature","properties":{"title":"Swaffham Prior","ccodes":["GB"],"fclasses":["A","P"]},"names":[{"toponym":"Swaffham Prior","lang":"en","citations":[{"label":"English Place-Name Society survey, volume 19: Cambridgeshire"}]}],"types":[{"identifier":"http://vocab.getty.edu/aat/300232418","label":"administrative division","sourceLabels":[{"label":"parish","lang":"en"}]}],"geometry":{"type":"GeometryCollection","geometries":[{"type":"Point","coordinates":[0.30066,52.25245],"citations":[{"label":"GeoNames, gazetteer record geonames:2636462"}]},{"type":"Point","coordinates":[0.3077760130673343,52.25569776180372],"citations":[{"label":"Unlock (EDINA) gazetteer, gazetteer record unlock:11295998"}]},{"type":"Point","coordinates":[0.295482,52.251211],"citations":[{"label":"Key to English Place-Names (KEPN), gazetteer record 366"}]}]},"links":[{"type":"closeMatch","identifier":"https://sws.geonames.org/2636462/"}],"relations":[{"relationType":"gvp:broaderPartitive","relationTo":"https://w3id.org/whg-epns/96/003268","label":"within Staine Hundred"}]}]}