{"@context":"https://raw.githubusercontent.com/LinkedPasts/linked-places-format/main/linkedplaces-context-v1.1.jsonld","type":"FeatureCollection","license":"Digitisation of English Placenames MADS data is licensed to Jisc by the English Place Names Society and released under a Creative Commons Attribution-NonCommercial 4.0 International License.","note":"LPF v1.3, lossy; derived from the PLATO record; plato_commit=ca0afadabec1e23a145c0b03df77e8f151f79832","features":[{"@id":"http://placenames.org.uk/id/placename/96/003699","type":"Feature","properties":{"title":"Fen Ditton","ccodes":["GB"],"fclasses":["A","P"]},"names":[{"toponym":"Fen Ditton","lang":"en","citations":[{"label":"English Place-Name Society survey, volume 19: Cambridgeshire"}]},{"toponym":"(æt) Dictunæ","citations":[{"label":"c. 975 ASWills","year":965}],"when":{"timespans":[{"start":{"earliest":"0965","latest":"0985"},"end":{"earliest":"0965","latest":"0985"}}]}},{"toponym":"(æt) Dictune","citations":[{"label":"c. 1000 ASWills","year":990},{"label":"c. 1050 LibEl","year":1040}],"when":{"timespans":[{"start":{"earliest":"0990","latest":"1010"},"end":{"earliest":"0990","latest":"1010"}},{"start":{"earliest":"1040","latest":"1060"},"end":{"earliest":"1040","latest":"1060"}}]}},{"toponym":"Dictun","citations":[{"label":"1022 Gale","year":1022}],"when":{"timespans":[{"start":{"in":"1022"},"end":{"in":"1022"}}]}},{"toponym":"(at) Dittone","citations":[{"label":"c. 950 ASWills","year":940}],"when":{"timespans":[{"start":{"earliest":"0940","latest":"0960"},"end":{"earliest":"0940","latest":"0960"}}]}},{"toponym":"Dittune","citations":[{"label":"c. 1050 KCD","year":1040}],"when":{"timespans":[{"start":{"earliest":"1040","latest":"1060"},"end":{"earliest":"1040","latest":"1060"}}]}},{"toponym":"Dittune non illam Silvestrem","citations":[{"label":"1170 LibEl","year":1170}],"when":{"timespans":[{"start":{"in":"1170"},"end":{"in":"1170"}}]}},{"toponym":"Dittona","citations":[{"label":"1086 ICC","year":1086}],"when":{"timespans":[{"start":{"in":"1086"},"end":{"in":"1086"}}]}},{"toponym":"Ditton(e), Dytton(e)","citations":[{"label":"1200–1200, recurring Cur","year":1200},{"label":"1200 Cur","year":1200}],"when":{"timespans":[{"start":{"in":"1200"},"end":{"in":"1200"}},{"start":{"in":"1200"},"end":{"in":"1200"}}]}},{"toponym":"Fen Ditton","citations":[{"label":"1281 Pat","year":1281}],"when":{"timespans":[{"start":{"in":"1281"},"end":{"in":"1281"}}]}},{"toponym":"Fenny Ditton","citations":[{"label":"1285 Ass","year":1285}],"when":{"timespans":[{"start":{"in":"1285"},"end":{"in":"1285"}}]}},{"toponym":"Ditton cum Horningeshey","citations":[{"label":"1316 FA","year":1316}],"when":{"timespans":[{"start":{"in":"1316"},"end":{"in":"1316"}}]}},{"toponym":"Duton","citations":[{"label":"1336 Cl","year":1336}],"when":{"timespans":[{"start":{"in":"1336"},"end":{"in":"1336"}}]}}],"types":[{"identifier":"http://vocab.getty.edu/aat/300232418","label":"administrative division","sourceLabels":[{"label":"township","lang":"en"}]}],"geometry":{"type":"GeometryCollection","geometries":[{"type":"Point","coordinates":[0.18955,52.22827],"citations":[{"label":"GeoNames, gazetteer record geonames:7298341"}]},{"type":"Point","coordinates":[0.1742513945820749,52.22226140019097],"citations":[{"label":"Unlock (EDINA) gazetteer, gazetteer record unlock:11143036"}]},{"type":"Point","coordinates":[0.172594,52.2227],"citations":[{"label":"Key to English Place-Names (KEPN), gazetteer record 4044"}]}]},"when":{"timespans":[{"start":{"in":"0940"},"end":{"in":"1336"}}]},"links":[{"type":"closeMatch","identifier":"https://sws.geonames.org/7298341/"}],"relations":[{"relationType":"gvp:broaderPartitive","relationTo":"http://placenames.org.uk/id/placename/96/003698","label":"within Fen Ditton"}]}]}