{"@context":"https://raw.githubusercontent.com/LinkedPasts/linked-places-format/main/linkedplaces-context-v1.1.jsonld","type":"FeatureCollection","license":"Digitisation of English Placenames MADS data is licensed to Jisc by the English Place Names Society and released under a Creative Commons Attribution-NonCommercial 4.0 International License.","note":"LPF v1.3, lossy; derived from the PLATO record; plato_commit=ca0afadabec1e23a145c0b03df77e8f151f79832","features":[{"@id":"https://w3id.org/whg-epns/96/003730","type":"Feature","properties":{"title":"Fulbourn","ccodes":["GB"],"fclasses":["A","P"]},"names":[{"toponym":"Fulbourn","lang":"en","citations":[{"label":"English Place-Name Society survey, volume 19: Cambridgeshire"}]}],"types":[{"identifier":"http://vocab.getty.edu/aat/300232418","label":"administrative division","sourceLabels":[{"label":"parish","lang":"en"}]}],"geometry":{"type":"GeometryCollection","geometries":[{"type":"Point","coordinates":[0.22213,52.18325],"citations":[{"label":"GeoNames, gazetteer record geonames:2649000"}]},{"type":"Point","coordinates":[0.2163507727617637,52.18550560664282],"citations":[{"label":"Unlock (EDINA) gazetteer, gazetteer record unlock:11148803"}]},{"type":"Point","coordinates":[0.214244,52.177],"citations":[{"label":"Key to English Place-Names (KEPN), gazetteer record 4045"}]}]},"links":[{"type":"closeMatch","identifier":"https://sws.geonames.org/2649000/"}],"relations":[{"relationType":"gvp:broaderPartitive","relationTo":"https://w3id.org/whg-epns/96/003649","label":"within Flendish Hundred"}]}]}