{"@context":"https://raw.githubusercontent.com/LinkedPasts/linked-places-format/main/linkedplaces-context-v1.1.jsonld","type":"FeatureCollection","license":"Digitisation of English Placenames MADS data is licensed to Jisc by the English Place Names Society and released under a Creative Commons Attribution-NonCommercial 4.0 International License.","note":"LPF v1.3, lossy; derived from the PLATO record; plato_commit=ca0afadabec1e23a145c0b03df77e8f151f79832","features":[{"@id":"https://w3id.org/whg-epns/96/003887","type":"Feature","properties":{"title":"Chesterton Hundred","ccodes":["GB"],"fclasses":["A"]},"names":[{"toponym":"Chesterton Hundred","lang":"en","citations":[{"label":"English Place-Name Society survey, volume 19: Cambridgeshire"}]},{"toponym":"Cestretune, Cestretona","citations":[{"label":"1086 InqEl","year":1086}],"when":{"timespans":[{"start":{"in":"1086"},"end":{"in":"1086"}}]}},{"toponym":"Cestretone","citations":[{"label":"1086 DB","year":1086}],"when":{"timespans":[{"start":{"in":"1086"},"end":{"in":"1086"}}]}},{"toponym":"Cestreton(e)","citations":[{"label":"1130–1304, recurring P","year":1130},{"label":"1130–1304, recurring Pat"},{"label":"1130 P","year":1130},{"label":"1304 Pat","year":1304}],"when":{"timespans":[{"start":{"in":"1130"},"end":{"in":"1304"}},{"start":{"in":"1130"},"end":{"in":"1130"}},{"start":{"in":"1304"},"end":{"in":"1304"}}]}},{"toponym":"Cestertun","citations":[{"label":"1218 SR","year":1218}],"when":{"timespans":[{"start":{"in":"1218"},"end":{"in":"1218"}}]}},{"toponym":"Cesterton(e)","citations":[{"label":"1236 Barnwell","year":1236},{"label":"1268 Ass","year":1268},{"label":"1275 Misc","year":1275},{"label":"1284 FA","year":1284}],"when":{"timespans":[{"start":{"in":"1236"},"end":{"in":"1236"}},{"start":{"in":"1296"},"end":{"in":"1296"}},{"start":{"in":"1268"},"end":{"in":"1268"}},{"start":{"in":"1275"},"end":{"in":"1275"}},{"start":{"in":"1284"},"end":{"in":"1284"}}]}},{"toponym":"Chesterton(e)","citations":[{"label":"1346 FA","year":1346},{"label":"1478 Pat","year":1478}],"when":{"timespans":[{"start":{"in":"1346"},"end":{"in":"1346"}},{"start":{"in":"1428"},"end":{"in":"1428"}},{"start":{"in":"1478"},"end":{"in":"1478"}}]}},{"toponym":"Chestirtone","citations":[{"label":"1401 FA","year":1401}],"when":{"timespans":[{"start":{"in":"1401"},"end":{"in":"1401"}}]}},{"toponym":"Cheserton'","citations":[{"label":"14th Cai","year":1300}],"when":{"timespans":[{"start":{"earliest":"1300","latest":"1400"},"end":{"earliest":"1300","latest":"1400"}}]}}],"types":[{"identifier":"http://vocab.getty.edu/aat/300232418","label":"administrative division","sourceLabels":[{"label":"hundred / wapentake","lang":"en"}]}],"geometry":null,"when":{"timespans":[{"start":{"in":"1086"},"end":{"in":"1478"}}]},"relations":[{"relationType":"gvp:broaderPartitive","relationTo":"https://w3id.org/whg-epns/96/000001","label":"within Cambridgeshire"}]}]}