{"@context":"https://raw.githubusercontent.com/LinkedPasts/linked-places-format/main/linkedplaces-context-v1.1.jsonld","type":"FeatureCollection","license":"Digitisation of English Placenames MADS data is licensed to Jisc by the English Place Names Society and released under a Creative Commons Attribution-NonCommercial 4.0 International License.","note":"LPF v1.3, lossy; derived from the PLATO record; plato_commit=ca0afadabec1e23a145c0b03df77e8f151f79832","features":[{"@id":"http://placenames.org.uk/id/placename/96/004466","type":"Feature","properties":{"title":"Long Stowe","ccodes":["GB"],"fclasses":["A","P"]},"names":[{"toponym":"Long Stowe","lang":"en","citations":[{"label":"English Place-Name Society survey, volume 19: Cambridgeshire"}]},{"toponym":"Stou","citations":[{"label":"1086 DB","year":1086}],"when":{"timespans":[{"start":{"in":"1086"},"end":{"in":"1086"}}]}},{"toponym":"Stowea","citations":[{"label":"1200 Cur","year":1200}],"when":{"timespans":[{"start":{"in":"1200"},"end":{"in":"1200"}}]}},{"toponym":"Stowe","citations":[{"label":"1204–1428, recurring FF","year":1204},{"label":"1204–1428, recurring FA"},{"label":"1204 FF","year":1204},{"label":"1428 FA","year":1428}],"when":{"timespans":[{"start":{"in":"1204"},"end":{"in":"1428"}},{"start":{"in":"1204"},"end":{"in":"1204"}},{"start":{"in":"1428"},"end":{"in":"1428"}}]}},{"toponym":"Stowe juxta Brunne","citations":[{"label":"1271 FF","year":1271}],"when":{"timespans":[{"start":{"in":"1271"},"end":{"in":"1271"}}]}},{"toponym":"Stowe cum Hattele","citations":[{"label":"1279 RH","year":1279}],"when":{"timespans":[{"start":{"in":"1279"},"end":{"in":"1279"}}]}},{"toponym":"Stowe Wid, Stowe Wythe","citations":[{"label":"c. 1350 Rams","year":1340}],"when":{"timespans":[{"start":{"earliest":"1340","latest":"1360"},"end":{"earliest":"1340","latest":"1360"}}]}},{"toponym":"Stouwe","citations":[{"label":"1346 FA","year":1346}],"when":{"timespans":[{"start":{"in":"1346"},"end":{"in":"1346"}}]}},{"toponym":"Lungestowe","citations":[{"label":"1268 Ass","year":1268}],"when":{"timespans":[{"start":{"in":"1268"},"end":{"in":"1268"}}]}},{"toponym":"Longa Stowe","citations":[{"label":"1271 FF","year":1271}],"when":{"timespans":[{"start":{"in":"1271"},"end":{"in":"1271"}}]}},{"toponym":"Longstowe","citations":[{"label":"1272 Ass","year":1272}],"when":{"timespans":[{"start":{"in":"1272"},"end":{"in":"1272"}}]}},{"toponym":"Longstowe juxta Caxton","citations":[{"label":"1391 FF","year":1391}],"when":{"timespans":[{"start":{"in":"1391"},"end":{"in":"1391"}}]}},{"toponym":"Langestowe by Brunne","citations":[{"label":"1316 Pat","year":1316}],"when":{"timespans":[{"start":{"in":"1316"},"end":{"in":"1316"}}]}}],"types":[{"identifier":"http://vocab.getty.edu/aat/300232418","label":"administrative division","sourceLabels":[{"label":"township","lang":"en"}]}],"geometry":{"type":"GeometryCollection","geometries":[{"type":"Point","coordinates":[-0.08333,52.16667],"citations":[{"label":"GeoNames, gazetteer record geonames:2643629"}]},{"type":"Point","coordinates":[-0.0926763,52.1823],"citations":[{"label":"Key to English Place-Names (KEPN), gazetteer record 4066"}]}]},"when":{"timespans":[{"start":{"in":"1086"},"end":{"in":"1428"}}]},"links":[{"type":"closeMatch","identifier":"https://sws.geonames.org/2643629/"}],"relations":[{"relationType":"gvp:broaderPartitive","relationTo":"http://placenames.org.uk/id/placename/96/004465","label":"within Long Stowe"}]}]}