{"@context":"https://raw.githubusercontent.com/LinkedPasts/linked-places-format/main/linkedplaces-context-v1.1.jsonld","type":"FeatureCollection","license":"Digitisation of English Placenames MADS data is licensed to Jisc by the English Place Names Society and released under a Creative Commons Attribution-NonCommercial 4.0 International License.","note":"LPF v1.3, lossy; derived from the PLATO record; plato_commit=ca0afadabec1e23a145c0b03df77e8f151f79832","features":[{"@id":"https://w3id.org/whg-epns/96/005069","type":"Feature","properties":{"title":"Madingley","ccodes":["GB"],"fclasses":["A","P"]},"names":[{"toponym":"Madingley","lang":"en","citations":[{"label":"English Place-Name Society survey, volume 19: Cambridgeshire"}]},{"toponym":"Mading(e)lei","citations":[{"label":"1086 DB","year":1086}],"when":{"timespans":[{"start":{"in":"1086"},"end":{"in":"1086"}}]}},{"toponym":"Madingele(e), Madyngle(e), Madyngley","citations":[{"label":"1198–1480, recurring FF","year":1198},{"label":"1198–1480, recurring CTerr"},{"label":"1198 FF","year":1198},{"label":"1480 CTerr","year":1480}],"when":{"timespans":[{"start":{"in":"1198"},"end":{"in":"1480"}},{"start":{"in":"1198"},"end":{"in":"1198"}},{"start":{"in":"1480"},"end":{"in":"1480"}}]}},{"toponym":"Matingeleia","citations":[{"label":"1086 ICC","year":1086}],"when":{"timespans":[{"start":{"in":"1086"},"end":{"in":"1086"}}]}},{"toponym":"Madineglea, Meddingale","citations":[{"label":"1086 InqEl","year":1086}],"when":{"timespans":[{"start":{"in":"1086"},"end":{"in":"1086"}}]}},{"toponym":"Medygley","citations":[{"label":"1480 CTerr","year":1480}],"when":{"timespans":[{"start":{"in":"1480"},"end":{"in":"1480"}}]}},{"toponym":"Maddingeleá, Maddingeleæ, Maddingele","citations":[{"label":"1086 InqEl","year":1086}],"when":{"timespans":[{"start":{"in":"1086"},"end":{"in":"1086"}}]}},{"toponym":"Maddingele(e), Maddingelea","citations":[{"label":"1193–1298, recurring P","year":1193},{"label":"1193–1298, recurring Ass"},{"label":"1193 P","year":1193},{"label":"1298 Ass","year":1298}],"when":{"timespans":[{"start":{"in":"1193"},"end":{"in":"1298"}},{"start":{"in":"1193"},"end":{"in":"1193"}},{"start":{"in":"1298"},"end":{"in":"1298"}}]}},{"toponym":"Maddingeleie","citations":[{"label":"1298 Ass","year":1298}],"when":{"timespans":[{"start":{"in":"1298"},"end":{"in":"1298"}}]}},{"toponym":"Madingle, Madingleg(a), Madingley, Madingle(e)","citations":[{"label":"1200–1539, recurring Cur","year":1200},{"label":"1200–1539, recurring MinAcct"},{"label":"1200 Cur","year":1200},{"label":"1539 MinAcct","year":1539}],"when":{"timespans":[{"start":{"in":"1200"},"end":{"in":"1539"}},{"start":{"in":"1200"},"end":{"in":"1200"}},{"start":{"in":"1539"},"end":{"in":"1539"}}]}},{"toponym":"Maddingle(e), Maddingleye, Maddingleia, Maddingle(y)gh, Maddyngle(e)","citations":[{"label":"1203–1470, recurring Ass","year":1203},{"label":"1203–1470, recurring CRent"},{"label":"1203 Ass","year":1203},{"label":"1470 CRent","year":1470}],"when":{"timespans":[{"start":{"in":"1203"},"end":{"in":"1470"}},{"start":{"in":"1203"},"end":{"in":"1203"}},{"start":{"in":"1470"},"end":{"in":"1470"}}]}},{"toponym":"Magding(e)le","citations":[{"label":"13th Ely","year":1200}],"when":{"timespans":[{"start":{"earliest":"1200","latest":"1300"},"end":{"earliest":"1200","latest":"1300"}}]}},{"toponym":"Maddigl'","citations":[{"label":"1268 Ass","year":1268}],"when":{"timespans":[{"start":{"in":"1268"},"end":{"in":"1268"}}]}},{"toponym":"Maddynle","citations":[{"label":"1291 Tax","year":1291},{"label":"1346 FA","year":1346}],"when":{"timespans":[{"start":{"in":"1291"},"end":{"in":"1291"}},{"start":{"in":"1346"},"end":{"in":"1346"}}]}},{"toponym":"Maddenlaye","citations":[{"label":"1565 Ely","year":1565}],"when":{"timespans":[{"start":{"in":"1565"},"end":{"in":"1565"}}]}},{"toponym":"Maddenlie","citations":[{"label":"1662 ElyVis","year":1662}],"when":{"timespans":[{"start":{"in":"1662"},"end":{"in":"1662"}}]}}],"types":[{"identifier":"http://vocab.getty.edu/aat/300232418","label":"administrative division","sourceLabels":[{"label":"township","lang":"en"}]}],"geometry":{"type":"GeometryCollection","geometries":[{"type":"Point","coordinates":[0.0427,52.2279],"citations":[{"label":"GeoNames, gazetteer record geonames:2643231"}]},{"type":"Point","coordinates":[0.0425722504927796,52.22461458060544],"citations":[{"label":"Unlock (EDINA) gazetteer, gazetteer record unlock:11210547"}]},{"type":"Point","coordinates":[0.0409302,52.225],"citations":[{"label":"Key to English Place-Names (KEPN), gazetteer record 4083"}]}]},"when":{"timespans":[{"start":{"in":"1086"},"end":{"in":"1662"}}]},"links":[{"type":"closeMatch","identifier":"https://sws.geonames.org/2643231/"}],"relations":[{"relationType":"gvp:broaderPartitive","relationTo":"https://w3id.org/whg-epns/96/005068","label":"within Madingley"}]}]}