{"@context":"https://raw.githubusercontent.com/LinkedPasts/linked-places-format/main/linkedplaces-context-v1.1.jsonld","type":"FeatureCollection","license":"Digitisation of English Placenames MADS data is licensed to Jisc by the English Place Names Society and released under a Creative Commons Attribution-NonCommercial 4.0 International License.","note":"LPF v1.3, lossy; derived from the PLATO record; plato_commit=ca0afadabec1e23a145c0b03df77e8f151f79832","features":[{"@id":"http://placenames.org.uk/id/placename/96/005420","type":"Feature","properties":{"title":"Chippenham","ccodes":["GB"],"fclasses":["A","P"]},"names":[{"toponym":"Chippenham","lang":"en","citations":[{"label":"English Place-Name Society survey, volume 19: Cambridgeshire"}]}],"types":[{"identifier":"http://vocab.getty.edu/aat/300232418","label":"administrative division","sourceLabels":[{"label":"parish","lang":"en"}]}],"geometry":{"type":"GeometryCollection","geometries":[{"type":"Point","coordinates":[0.43636,52.30184],"citations":[{"label":"GeoNames, gazetteer record geonames:2653143"}]},{"type":"Point","coordinates":[0.4419915826790614,52.29796340323944],"citations":[{"label":"Unlock (EDINA) gazetteer, gazetteer record unlock:11106600"}]},{"type":"Point","coordinates":[0.4403,52.2984],"citations":[{"label":"Key to English Place-Names (KEPN), gazetteer record 4089"}]}]},"links":[{"type":"closeMatch","identifier":"https://sws.geonames.org/2653143/"}],"relations":[{"relationType":"gvp:broaderPartitive","relationTo":"http://placenames.org.uk/id/placename/96/005323","label":"within Staploe Hundred"}]}]}