{"@context":"https://raw.githubusercontent.com/LinkedPasts/linked-places-format/main/linkedplaces-context-v1.1.jsonld","type":"FeatureCollection","license":"Digitisation of English Placenames MADS data is licensed to Jisc by the English Place Names Society and released under a Creative Commons Attribution-NonCommercial 4.0 International License.","note":"LPF v1.3, lossy; derived from the PLATO record; plato_commit=fa0d247ccc0263f8f19c8d7cdcd163df96935d1e","features":[{"@id":"https://w3id.org/whg-epns/96/005583","type":"Feature","properties":{"title":"Kennett","ccodes":["GB"],"fclasses":["A","P"]},"names":[{"toponym":"Kennett","lang":"en","citations":[{"label":"English Place-Name Society survey, volume 19: Cambridgeshire"}]},{"toponym":"Kenet","citations":[{"label":"ICC","year":1086},{"label":"Pat"},{"label":"1086 ICC","year":1086},{"label":"1488 Pat","year":1488}],"when":{"timespans":[{"start":{"in":"1086"},"end":{"in":"1488"}},{"start":{"in":"1086"},"end":{"in":"1086"}},{"start":{"in":"1488"},"end":{"in":"1488"}}]}},{"toponym":"Kenet juxta Kentford","citations":[{"label":"1320 FF","year":1320}],"when":{"timespans":[{"start":{"in":"1320"},"end":{"in":"1320"}}]}},{"toponym":"Kenet cum Badelingham","citations":[{"label":"1327 SR","year":1327}],"when":{"timespans":[{"start":{"in":"1327"},"end":{"in":"1327"}}]}},{"toponym":"Keneth","citations":[{"label":"1302 FA","year":1302}],"when":{"timespans":[{"start":{"in":"1302"},"end":{"in":"1302"}}]}},{"toponym":"Keneyt","citations":[{"label":"1327 Ipm","year":1327},{"label":"1372 Pat","year":1372}],"when":{"timespans":[{"start":{"in":"1327"},"end":{"in":"1327"}},{"start":{"in":"1372"},"end":{"in":"1372"}},{"start":{"in":"1384"},"end":{"in":"1384"}}]}},{"toponym":"Kenett","citations":[{"label":"1570 SR","year":1570}],"when":{"timespans":[{"start":{"in":"1570"},"end":{"in":"1570"}}]}},{"toponym":"Chenet","citations":[{"label":"1086 DB","year":1086},{"label":"1159-62 P","year":1159}],"when":{"timespans":[{"start":{"in":"1086"},"end":{"in":"1086"}},{"start":{"earliest":"1159","latest":"1162"},"end":{"earliest":"1159","latest":"1162"}}]}},{"toponym":"Cheneta","citations":[{"label":"1086 InqEl","year":1086}],"when":{"timespans":[{"start":{"in":"1086"},"end":{"in":"1086"}}]}},{"toponym":"Kentefarye","citations":[{"label":"1279 RH","year":1279}],"when":{"timespans":[{"start":{"in":"1279"},"end":{"in":"1279"}}]}},{"toponym":"Kent cum Kentesford","citations":[{"label":"1316 FA","year":1316}],"when":{"timespans":[{"start":{"in":"1316"},"end":{"in":"1316"}}]}}],"types":[{"identifier":"http://vocab.getty.edu/aat/300232418","label":"administrative division","sourceLabels":[{"label":"township","lang":"en"}]}],"geometry":{"type":"GeometryCollection","geometries":[{"type":"Point","coordinates":[0.48756,52.28496],"citations":[{"label":"GeoNames, gazetteer record geonames:2645806"}]},{"type":"Point","coordinates":[0.4854437737741395,52.28806307356297],"citations":[{"label":"Unlock (EDINA) gazetteer, gazetteer record unlock:11185172"}]},{"type":"Point","coordinates":[0.483748,52.2885],"citations":[{"label":"Key to English Place-Names (KEPN), gazetteer record 4092"}]}]},"when":{"timespans":[{"start":{"in":"1086"},"end":{"in":"1570"}}]},"links":[{"type":"closeMatch","identifier":"https://sws.geonames.org/2645806/"}],"relations":[{"relationType":"gvp:broaderPartitive","relationTo":"https://w3id.org/whg-epns/96/005582","label":"within Kennett"}]}]}