{"@context":"https://raw.githubusercontent.com/LinkedPasts/linked-places-format/main/linkedplaces-context-v1.1.jsonld","type":"FeatureCollection","license":"Digitisation of English Placenames MADS data is licensed to Jisc by the English Place Names Society and released under a Creative Commons Attribution-NonCommercial 4.0 International License.","note":"LPF v1.3, lossy; derived from the PLATO record; plato_commit=ca0afadabec1e23a145c0b03df77e8f151f79832","features":[{"@id":"http://placenames.org.uk/id/placename/96/005643","type":"Feature","properties":{"title":"Soham","ccodes":["GB"],"fclasses":["A","P"]},"names":[{"toponym":"Soham","lang":"en","citations":[{"label":"English Place-Name Society survey, volume 19: Cambridgeshire"}]}],"types":[{"identifier":"http://vocab.getty.edu/aat/300232418","label":"administrative division","sourceLabels":[{"label":"parish","lang":"en"}]}],"geometry":{"type":"GeometryCollection","geometries":[{"type":"Point","coordinates":[0.33869,52.33177],"citations":[{"label":"GeoNames, gazetteer record geonames:2637554"}]},{"type":"Point","coordinates":[0.3413168172801702,52.33597566536448],"citations":[{"label":"Unlock (EDINA) gazetteer, gazetteer record unlock:11286575"}]},{"type":"Point","coordinates":[0.339635,52.3364],"citations":[{"label":"Key to English Place-Names (KEPN), gazetteer record 4095"}]}]},"links":[{"type":"closeMatch","identifier":"https://sws.geonames.org/2637554/"}],"relations":[{"relationType":"gvp:broaderPartitive","relationTo":"http://placenames.org.uk/id/placename/96/005323","label":"within Staploe Hundred"}]}]}