{"@context":"https://raw.githubusercontent.com/LinkedPasts/linked-places-format/main/linkedplaces-context-v1.1.jsonld","type":"FeatureCollection","license":"Digitisation of English Placenames MADS data is licensed to Jisc by the English Place Names Society and released under a Creative Commons Attribution-NonCommercial 4.0 International License.","note":"LPF v1.3, lossy; derived from the PLATO record; plato_commit=fa0d247ccc0263f8f19c8d7cdcd163df96935d1e","features":[{"@id":"https://w3id.org/whg-epns/24/000092","type":"Feature","properties":{"title":"North Aston","ccodes":["GB"],"fclasses":["A","P"]},"names":[{"toponym":"North Aston","lang":"en","citations":[{"label":"English Place-Name Society survey, volume 24: Oxfordshire"}]},{"toponym":"Estone","citations":[{"label":"DB","year":1086},{"label":"Cl"},{"label":"1086 DB","year":1086},{"label":"1217 Cl","year":1217}],"when":{"timespans":[{"start":{"in":"1086"},"end":{"in":"1217"}},{"start":{"in":"1086"},"end":{"in":"1086"}},{"start":{"in":"1217"},"end":{"in":"1217"}}]}},{"toponym":"Eston(a)","citations":[{"label":"1086-1217 unspecified sources","year":1086}],"when":{"timespans":[{"start":{"in":"1086"},"end":{"in":"1217"}}]}},{"toponym":"Nort' Eston","citations":[{"label":"1200 Cur","year":1200}],"when":{"timespans":[{"start":{"in":"1200"},"end":{"in":"1200"}}]}},{"toponym":"Norhestun'","citations":[{"label":"1220 Fees","year":1220}],"when":{"timespans":[{"start":{"in":"1220"},"end":{"in":"1220"}}]}},{"toponym":"Nord Eston","citations":[{"label":"1232 Cl","year":1232}],"when":{"timespans":[{"start":{"in":"1232"},"end":{"in":"1232"}}]}},{"toponym":"Norzeston","citations":[{"label":"1235-6 Fees","year":1235}],"when":{"timespans":[{"start":{"earliest":"1235","latest":"1236"},"end":{"earliest":"1235","latest":"1236"}}]}},{"toponym":"Norteston'","citations":[{"label":"1242-3 Fees","year":1242}],"when":{"timespans":[{"start":{"earliest":"1242","latest":"1243"},"end":{"earliest":"1242","latest":"1243"}}]}},{"toponym":"Northeston'","citations":[{"label":"1242-3 Fees","year":1242},{"label":"1268 Ass","year":1268}],"when":{"timespans":[{"start":{"earliest":"1242","latest":"1243"},"end":{"earliest":"1242","latest":"1243"}},{"start":{"in":"1268"},"end":{"in":"1268"}}]}},{"toponym":"North Aston'","citations":[{"label":"1246-7 Ass","year":1246}],"when":{"timespans":[{"start":{"earliest":"1246","latest":"1247"},"end":{"earliest":"1246","latest":"1247"}}]}},{"toponym":"Northaston'","citations":[{"label":"RH","year":1278},{"label":"Cl"},{"label":"1278-9 RH","year":1278},{"label":"1373 Cl","year":1373}],"when":{"timespans":[{"start":{"in":"1278"},"end":{"in":"1373"}},{"start":{"earliest":"1278","latest":"1279"},"end":{"earliest":"1278","latest":"1279"}},{"start":{"in":"1373"},"end":{"in":"1373"}}]}},{"toponym":"Northaston","citations":[{"label":"1278-1373 unspecified sources","year":1278}],"when":{"timespans":[{"start":{"in":"1278"},"end":{"in":"1373"}}]}},{"toponym":"Noraston","citations":[{"label":"1284-5 FA","year":1284}],"when":{"timespans":[{"start":{"earliest":"1284","latest":"1285"},"end":{"earliest":"1284","latest":"1285"}}]}},{"toponym":"North Aston","citations":[{"label":"1428 FA","year":1428}],"when":{"timespans":[{"start":{"in":"1428"},"end":{"in":"1428"}}]}},{"toponym":"Nord Haston","citations":[{"label":"1346 FA","year":1346}],"when":{"timespans":[{"start":{"in":"1346"},"end":{"in":"1346"}}]}}],"types":[{"identifier":"http://vocab.getty.edu/aat/300232418","label":"administrative division","sourceLabels":[{"label":"township","lang":"en"}]}],"geometry":{"type":"GeometryCollection","geometries":[{"type":"Point","coordinates":[-1.30875,51.9558],"citations":[{"label":"GeoNames, gazetteer record geonames:2641428"}]},{"type":"Point","coordinates":[-1.308611916005654,51.96152093383808],"citations":[{"label":"Unlock (EDINA) gazetteer, gazetteer record unlock:11231993"}]},{"type":"Point","coordinates":[-1.31009,51.962],"citations":[{"label":"Key to English Place-Names (KEPN), gazetteer record 3637"}]}]},"when":{"timespans":[{"start":{"in":"1086"},"end":{"in":"1428"}}]},"links":[{"type":"closeMatch","identifier":"https://sws.geonames.org/2641428/"}],"relations":[{"relationType":"gvp:broaderPartitive","relationTo":"https://w3id.org/whg-epns/24/000091","label":"within North Aston"}]}]}