{"@context":"https://raw.githubusercontent.com/LinkedPasts/linked-places-format/main/linkedplaces-context-v1.1.jsonld","type":"FeatureCollection","license":"Digitisation of English Placenames MADS data is licensed to Jisc by the English Place Names Society and released under a Creative Commons Attribution-NonCommercial 4.0 International License.","note":"LPF v1.3, lossy; derived from the PLATO record; plato_commit=ca0afadabec1e23a145c0b03df77e8f151f79832","features":[{"@id":"http://placenames.org.uk/id/placename/24/000268","type":"Feature","properties":{"title":"Middle Barton","ccodes":["GB"],"fclasses":["A","P"]},"names":[{"toponym":"Middle Barton","lang":"en","citations":[{"label":"English Place-Name Society survey, volume 24: Oxfordshire"}]},{"toponym":"Mydell Barton","citations":[{"label":"1449 Cl","year":1449}],"when":{"timespans":[{"start":{"in":"1449"},"end":{"in":"1449"}}]}},{"toponym":"Middilbarton","citations":[{"label":"1509-10 Os","year":1509}],"when":{"timespans":[{"start":{"earliest":"1509","latest":"1510"},"end":{"earliest":"1509","latest":"1510"}}]}}],"types":[{"identifier":"http://vocab.getty.edu/aat/300232418","label":"administrative division","sourceLabels":[{"label":"township","lang":"en"}]}],"geometry":{"type":"GeometryCollection","geometries":[{"type":"Point","coordinates":[-1.367336260189418,51.9258832467799],"citations":[{"label":"Unlock (EDINA) gazetteer, gazetteer record unlock:11218002"}]},{"type":"Point","coordinates":[-1.35426,51.9263],"citations":[{"label":"Key to English Place-Names (KEPN), gazetteer record 3639"}]}]},"when":{"timespans":[{"start":{"in":"1449"},"end":{"in":"1510"}}]},"relations":[{"relationType":"gvp:broaderPartitive","relationTo":"http://placenames.org.uk/id/placename/24/000244","label":"within Steeple Barton"}]}]}