{"@context":"https://raw.githubusercontent.com/LinkedPasts/linked-places-format/main/linkedplaces-context-v1.1.jsonld","type":"FeatureCollection","license":"Digitisation of English Placenames MADS data is licensed to Jisc by the English Place Names Society and released under a Creative Commons Attribution-NonCommercial 4.0 International License.","note":"LPF v1.3, lossy; derived from the PLATO record; plato_commit=fa0d247ccc0263f8f19c8d7cdcd163df96935d1e","features":[{"@id":"https://w3id.org/whg-epns/24/002630","type":"Feature","properties":{"title":"Duns Tew","ccodes":["GB"],"fclasses":["A","P"]},"names":[{"toponym":"Duns Tew","lang":"en","citations":[{"label":"English Place-Name Society survey, volume 24: Oxfordshire"}]},{"toponym":"Teowe, Tewa(m), Tvvam","citations":[{"label":"1086 DB","year":1086}],"when":{"timespans":[{"start":{"in":"1086"},"end":{"in":"1086"}}]}},{"toponym":"Tiwe","citations":[{"label":"1192 P","year":1192},{"label":"1204 Cur","year":1204}],"when":{"timespans":[{"start":{"in":"1192"},"end":{"in":"1192"}},{"start":{"in":"1204"},"end":{"in":"1204"}}]}},{"toponym":"Tiwa","citations":[{"label":"1193 P","year":1193},{"label":"1204 Cur","year":1204},{"label":"1215 Cl","year":1215}],"when":{"timespans":[{"start":{"in":"1193"},"end":{"in":"1193"}},{"start":{"in":"1204"},"end":{"in":"1204"}},{"start":{"in":"1215"},"end":{"in":"1215"}}]}},{"toponym":"Tywe","citations":[{"label":"1208 Fine","year":1208}],"when":{"timespans":[{"start":{"in":"1208"},"end":{"in":"1208"}}]}},{"toponym":"Donestiua","citations":[{"label":"c. 1210 Os","year":1200}],"when":{"timespans":[{"start":{"earliest":"1200","latest":"1220"},"end":{"earliest":"1200","latest":"1220"}}]}},{"toponym":"Dunnestywa","citations":[{"label":"Os","year":1223},{"label":"AD"},{"label":"c. 1233 Os","year":1223},{"label":"1294-5 AD","year":1294}],"when":{"timespans":[{"start":{"in":"1223"},"end":{"in":"1295"}},{"start":{"earliest":"1223","latest":"1243"},"end":{"earliest":"1223","latest":"1243"}},{"start":{"earliest":"1294","latest":"1295"},"end":{"earliest":"1294","latest":"1295"}}]}},{"toponym":"Dunnestiwa, Dun(n)estywe, Don(n)estiwe","citations":[{"label":"c. 1233-1295 unspecified sources","year":1223}],"when":{"timespans":[{"start":{"in":"1223"},"end":{"in":"1295"}}]}},{"toponym":"Dunestyue","citations":[{"label":"1242 P","year":1242}],"when":{"timespans":[{"start":{"in":"1242"},"end":{"in":"1242"}}]}},{"toponym":"Bonestywe","citations":[{"label":"1278-9 RH","year":1278}],"when":{"timespans":[{"start":{"earliest":"1278","latest":"1279"},"end":{"earliest":"1278","latest":"1279"}}]}},{"toponym":"Dunes Tywe","citations":[{"label":"1287 Cl","year":1287}],"when":{"timespans":[{"start":{"in":"1287"},"end":{"in":"1287"}}]}},{"toponym":"Dunnesthiwe","citations":[{"label":"1220 Fees","year":1220}],"when":{"timespans":[{"start":{"in":"1220"},"end":{"in":"1220"}}]}},{"toponym":"Dunestyuwe","citations":[{"label":"1242 P","year":1242}],"when":{"timespans":[{"start":{"in":"1242"},"end":{"in":"1242"}}]}},{"toponym":"Dunstiwe","citations":[{"label":"1242-3 Fees","year":1242},{"label":"1273-4 RH","year":1273}],"when":{"timespans":[{"start":{"earliest":"1242","latest":"1243"},"end":{"earliest":"1242","latest":"1243"}},{"start":{"earliest":"1273","latest":"1274"},"end":{"earliest":"1273","latest":"1274"}}]}},{"toponym":"Dunstywe","citations":[{"label":"1246-7 Ass","year":1246}],"when":{"timespans":[{"start":{"earliest":"1246","latest":"1247"},"end":{"earliest":"1246","latest":"1247"}},{"start":{"in":"1268"},"end":{"in":"1268"}},{"start":{"in":"1285"},"end":{"in":"1285"}}]}},{"toponym":"Domstywe","citations":[{"label":"1284-5 FA","year":1284}],"when":{"timespans":[{"start":{"earliest":"1284","latest":"1285"},"end":{"earliest":"1284","latest":"1285"}}]}},{"toponym":"Donstiwe","citations":[{"label":"1349 Ipm","year":1349}],"when":{"timespans":[{"start":{"in":"1349"},"end":{"in":"1349"}}]}},{"toponym":"Dunstywa","citations":[{"label":"1389 Os","year":1389}],"when":{"timespans":[{"start":{"in":"1389"},"end":{"in":"1389"}}]}},{"toponym":"Dunstighel","citations":[{"label":"1285 Ass","year":1285}],"when":{"timespans":[{"start":{"in":"1285"},"end":{"in":"1285"}}]}},{"toponym":"Dunstowe","citations":[{"label":"1285 Ass","year":1285},{"label":"1316 FA","year":1316}],"when":{"timespans":[{"start":{"in":"1285"},"end":{"in":"1285"}},{"start":{"in":"1316"},"end":{"in":"1316"}}]}},{"toponym":"Dounestowe","citations":[{"label":"1327 Cl","year":1327}],"when":{"timespans":[{"start":{"in":"1327"},"end":{"in":"1327"}}]}},{"toponym":"Dunsto","citations":[{"label":"1675 Ogilby","year":1675}],"when":{"timespans":[{"start":{"in":"1675"},"end":{"in":"1675"}}]}},{"toponym":"Dunestwye","citations":[{"label":"1321 AD","year":1321}],"when":{"timespans":[{"start":{"in":"1321"},"end":{"in":"1321"}}]}},{"toponym":"Dunstuwe, Dunstue","citations":[{"label":"1327 Ch","year":1327}],"when":{"timespans":[{"start":{"in":"1327"},"end":{"in":"1327"}}]}},{"toponym":"Dunsteue","citations":[{"label":"1346 FA","year":1346}],"when":{"timespans":[{"start":{"in":"1346"},"end":{"in":"1346"}}]}},{"toponym":"Dunstew(e)","citations":[{"label":"1428 FA","year":1428}],"when":{"timespans":[{"start":{"in":"1428"},"end":{"in":"1428"}}]}},{"toponym":"Donstew","citations":[{"label":"1461-2 BM","year":1461}],"when":{"timespans":[{"start":{"earliest":"1461","latest":"1462"},"end":{"earliest":"1461","latest":"1462"}}]}}],"types":[{"identifier":"http://vocab.getty.edu/aat/300232418","label":"administrative division","sourceLabels":[{"label":"township","lang":"en"}]}],"geometry":{"type":"GeometryCollection","geometries":[{"type":"Point","coordinates":[-1.33604,51.95236],"citations":[{"label":"GeoNames, gazetteer record geonames:2650653"}]},{"type":"Point","coordinates":[-1.33785331817229,51.95269703992408],"citations":[{"label":"Unlock (EDINA) gazetteer, gazetteer record unlock:11134399"}]},{"type":"Point","coordinates":[-1.33932,51.9531],"citations":[{"label":"Key to English Place-Names (KEPN), gazetteer record 3662"}]}]},"when":{"timespans":[{"start":{"in":"1086"},"end":{"in":"1675"}}]},"links":[{"type":"closeMatch","identifier":"https://sws.geonames.org/2650653/"}],"relations":[{"relationType":"gvp:broaderPartitive","relationTo":"https://w3id.org/whg-epns/24/002629","label":"within Duns Tew"}]}]}