{"@context":"https://raw.githubusercontent.com/LinkedPasts/linked-places-format/main/linkedplaces-context-v1.1.jsonld","type":"FeatureCollection","license":"Digitisation of English Placenames MADS data is licensed to Jisc by the English Place Names Society and released under a Creative Commons Attribution-NonCommercial 4.0 International License.","note":"LPF v1.3, lossy; derived from the PLATO record; plato_commit=ca0afadabec1e23a145c0b03df77e8f151f79832","features":[{"@id":"http://placenames.org.uk/id/placename/24/003353","type":"Feature","properties":{"title":"Asthall","ccodes":["GB"],"fclasses":["A","P"]},"names":[{"toponym":"Asthall","lang":"en","citations":[{"label":"English Place-Name Society survey, volume 24: Oxfordshire"}]},{"toponym":"(æt) Eást Heolon","citations":[{"label":"early 11th Ælfric Pentateuch","year":1000}],"when":{"timespans":[{"start":{"earliest":"1000","latest":"1025"},"end":{"earliest":"1000","latest":"1025"}}]}},{"toponym":"Esthale","citations":[{"label":"1086–1354, recurring DB","year":1086},{"label":"1086–1354, recurring Ipm"},{"label":"1086 DB","year":1086},{"label":"1354 Ipm","year":1354}],"when":{"timespans":[{"start":{"in":"1086"},"end":{"in":"1354"}},{"start":{"in":"1086"},"end":{"in":"1086"}},{"start":{"in":"1354"},"end":{"in":"1354"}}]}},{"toponym":"Esthal(l)a, Esthall(e), Esthalles","citations":[{"label":"1086-1354 unspecified sources","year":1086}],"when":{"timespans":[{"start":{"in":"1086"},"end":{"in":"1354"}}]}},{"toponym":"Asteles","citations":[{"label":"c. 1185 OxonCh","year":1175}],"when":{"timespans":[{"start":{"earliest":"1175","latest":"1195"},"end":{"earliest":"1175","latest":"1195"}}]}},{"toponym":"Astal","citations":[{"label":"1275-6 RH","year":1275},{"label":"1797 Davis","year":1797}],"when":{"timespans":[{"start":{"earliest":"1275","latest":"1276"},"end":{"earliest":"1275","latest":"1276"}},{"start":{"in":"1797"},"end":{"in":"1797"}}]}},{"toponym":"Estlihall","citations":[{"label":"1205 Cl","year":1205}],"when":{"timespans":[{"start":{"in":"1205"},"end":{"in":"1205"}}]}},{"toponym":"Estate","citations":[{"label":"1220 Fees","year":1220}],"when":{"timespans":[{"start":{"in":"1220"},"end":{"in":"1220"}}]}},{"toponym":"Estal","citations":[{"label":"1237 Fees","year":1237}],"when":{"timespans":[{"start":{"in":"1237"},"end":{"in":"1237"}}]}},{"toponym":"Estalle","citations":[{"label":"1242-3 Fees","year":1242}],"when":{"timespans":[{"start":{"earliest":"1242","latest":"1243"},"end":{"earliest":"1242","latest":"1243"}}]}},{"toponym":"Estall'","citations":[{"label":"1278-9 RH","year":1278}],"when":{"timespans":[{"start":{"earliest":"1278","latest":"1279"},"end":{"earliest":"1278","latest":"1279"}}]}},{"toponym":"Hesthall","citations":[{"label":"1219 FF","year":1219}],"when":{"timespans":[{"start":{"in":"1219"},"end":{"in":"1219"}}]}},{"toponym":"Hesthalle","citations":[{"label":"1285 Ass","year":1285}],"when":{"timespans":[{"start":{"in":"1285"},"end":{"in":"1285"}}]}},{"toponym":"Asthall'","citations":[{"label":"1246–1428, recurring Ass","year":1246},{"label":"1246–1428, recurring FA"},{"label":"1246-7 Ass","year":1246},{"label":"1428 FA","year":1428}],"when":{"timespans":[{"start":{"in":"1246"},"end":{"in":"1428"}},{"start":{"earliest":"1246","latest":"1247"},"end":{"earliest":"1246","latest":"1247"}},{"start":{"in":"1428"},"end":{"in":"1428"}}]}},{"toponym":"Asthall","citations":[{"label":"1246-1428 unspecified sources","year":1246}],"when":{"timespans":[{"start":{"in":"1246"},"end":{"in":"1428"}}]}},{"toponym":"Astehalle","citations":[{"label":"1526 LS","year":1526}],"when":{"timespans":[{"start":{"in":"1526"},"end":{"in":"1526"}}]}},{"toponym":"Easthalle","citations":[{"label":"1278-9 RH","year":1278}],"when":{"timespans":[{"start":{"earliest":"1278","latest":"1279"},"end":{"earliest":"1278","latest":"1279"}}]}},{"toponym":"Aschall","citations":[{"label":"1285 Ass","year":1285}],"when":{"timespans":[{"start":{"in":"1285"},"end":{"in":"1285"}}]}}],"types":[{"identifier":"http://vocab.getty.edu/aat/300232418","label":"administrative division","sourceLabels":[{"label":"township","lang":"en"}]}],"geometry":{"type":"GeometryCollection","geometries":[{"type":"Point","coordinates":[-1.58312,51.79998],"citations":[{"label":"GeoNames, gazetteer record geonames:2656881"}]},{"type":"Point","coordinates":[-1.586643802316519,51.80096949878372],"citations":[{"label":"Unlock (EDINA) gazetteer, gazetteer record unlock:11064956"}]},{"type":"Point","coordinates":[-1.58808,51.8014],"citations":[{"label":"Key to English Place-Names (KEPN), gazetteer record 3671"}]}]},"when":{"timespans":[{"start":{"in":"1000"},"end":{"in":"1797"}}]},"links":[{"type":"closeMatch","identifier":"https://sws.geonames.org/2656881/"}],"relations":[{"relationType":"gvp:broaderPartitive","relationTo":"http://placenames.org.uk/id/placename/24/003352","label":"within Asthall"}]}]}