{"@context":"https://raw.githubusercontent.com/LinkedPasts/linked-places-format/main/linkedplaces-context-v1.1.jsonld","type":"FeatureCollection","license":"Digitisation of English Placenames MADS data is licensed to Jisc by the English Place Names Society and released under a Creative Commons Attribution-NonCommercial 4.0 International License.","note":"LPF v1.3, lossy; derived from the PLATO record; plato_commit=ca0afadabec1e23a145c0b03df77e8f151f79832","features":[{"@id":"http://placenames.org.uk/id/placename/24/003712","type":"Feature","properties":{"title":"Brize Norton","ccodes":["GB"],"fclasses":["A","P"]},"names":[{"toponym":"Brize Norton","lang":"en","citations":[{"label":"English Place-Name Society survey, volume 24: Oxfordshire"}]},{"toponym":"Nortone","citations":[{"label":"1086–1300, recurring DB","year":1086},{"label":"1086–1300, recurring Ipm"},{"label":"1086 DB","year":1086},{"label":"1300 Ipm","year":1300}],"when":{"timespans":[{"start":{"in":"1086"},"end":{"in":"1300"}},{"start":{"in":"1086"},"end":{"in":"1086"}},{"start":{"in":"1300"},"end":{"in":"1300"}}]}},{"toponym":"Norton(a), Nortune, Nortun', Norton', Northone","citations":[{"label":"1086-1300 unspecified sources","year":1086}],"when":{"timespans":[{"start":{"in":"1086"},"end":{"in":"1300"}}]}},{"toponym":"Suthnorton","citations":[{"label":"1235 FF","year":1235}],"when":{"timespans":[{"start":{"in":"1235"},"end":{"in":"1235"}}]}},{"toponym":"Northone Brun","citations":[{"label":"1264–1316, recurring Eynsh","year":1264},{"label":"1264–1316, recurring FA"},{"label":"1264-8 Eynsh","year":1264},{"label":"1316 FA","year":1316}],"when":{"timespans":[{"start":{"in":"1264"},"end":{"in":"1316"}},{"start":{"earliest":"1264","latest":"1268"},"end":{"earliest":"1264","latest":"1268"}},{"start":{"in":"1316"},"end":{"in":"1316"}}]}},{"toponym":"Northon(a) Brun, Norton' Brun, Norton Brun","citations":[{"label":"1264-1316 unspecified sources","year":1264}],"when":{"timespans":[{"start":{"in":"1264"},"end":{"in":"1316"}}]}},{"toponym":"Northone Bruyn","citations":[{"label":"1320–1517, recurring Eynsh","year":1320},{"label":"1320–1517, recurring D Inc"},{"label":"1320 Eynsh","year":1320},{"label":"1517 D Inc","year":1517}],"when":{"timespans":[{"start":{"in":"1320"},"end":{"in":"1517"}},{"start":{"in":"1320"},"end":{"in":"1320"}},{"start":{"in":"1517"},"end":{"in":"1517"}}]}},{"toponym":"Norton Bruyn","citations":[{"label":"1320-1517 unspecified sources","year":1320}],"when":{"timespans":[{"start":{"in":"1320"},"end":{"in":"1517"}}]}},{"toponym":"Brunesnorton","citations":[{"label":"1341 Ipm","year":1341},{"label":"1365 Ch","year":1365}],"when":{"timespans":[{"start":{"in":"1341"},"end":{"in":"1341"}},{"start":{"in":"1365"},"end":{"in":"1365"}}]}},{"toponym":"Norton le Bruyn","citations":[{"label":"c. 1384 Eynsh","year":1374}],"when":{"timespans":[{"start":{"earliest":"1374","latest":"1394"},"end":{"earliest":"1374","latest":"1394"}}]}},{"toponym":"Brimesnorton","citations":[{"label":"1388 Cl","year":1388}],"when":{"timespans":[{"start":{"in":"1388"},"end":{"in":"1388"}}]}},{"toponym":"Norton Broyn","citations":[{"label":"1509-10 Os","year":1509}],"when":{"timespans":[{"start":{"earliest":"1509","latest":"1510"},"end":{"earliest":"1509","latest":"1510"}}]}},{"toponym":"Bresenorton alias Norton Bruyn","citations":[{"label":"1517 D Inc","year":1517}],"when":{"timespans":[{"start":{"in":"1517"},"end":{"in":"1517"}}]}},{"toponym":"Norton Bryne","citations":[{"label":"1526 LS","year":1526}],"when":{"timespans":[{"start":{"in":"1526"},"end":{"in":"1526"}}]}},{"toponym":"Norton Broyne","citations":[{"label":"1539 Eynsh","year":1539}],"when":{"timespans":[{"start":{"in":"1539"},"end":{"in":"1539"}}]}},{"toponym":"Breames Norton alias Norton Broyne","citations":[{"label":"1560 AD","year":1560}],"when":{"timespans":[{"start":{"in":"1560"},"end":{"in":"1560"}}]}},{"toponym":"Brice Norton","citations":[{"label":"early 18th ParColl","year":1700}],"when":{"timespans":[{"start":{"earliest":"1700","latest":"1725"},"end":{"earliest":"1700","latest":"1725"}}]}}],"types":[{"identifier":"http://vocab.getty.edu/aat/300232418","label":"administrative division","sourceLabels":[{"label":"township","lang":"en"}]}],"geometry":{"type":"GeometryCollection","geometries":[{"type":"Point","coordinates":[-1.56667,51.76667],"citations":[{"label":"GeoNames, gazetteer record geonames:2654659"}]},{"type":"Point","coordinates":[-1.557988881622514,51.76489673066907],"citations":[{"label":"Unlock (EDINA) gazetteer, gazetteer record unlock:11087595"}]},{"type":"Point","coordinates":[-1.55943,51.7654],"citations":[{"label":"Key to English Place-Names (KEPN), gazetteer record 3675"}]}]},"when":{"timespans":[{"start":{"in":"1086"},"end":{"in":"1725"}}]},"links":[{"type":"closeMatch","identifier":"https://sws.geonames.org/2654659/"}],"relations":[{"relationType":"gvp:broaderPartitive","relationTo":"http://placenames.org.uk/id/placename/24/003711","label":"within Brize Norton"}]}]}