{"@context":"https://raw.githubusercontent.com/LinkedPasts/linked-places-format/main/linkedplaces-context-v1.1.jsonld","type":"FeatureCollection","license":"Digitisation of English Placenames MADS data is licensed to Jisc by the English Place Names Society and released under a Creative Commons Attribution-NonCommercial 4.0 International License.","note":"LPF v1.3, lossy; derived from the PLATO record; plato_commit=ca0afadabec1e23a145c0b03df77e8f151f79832","features":[{"@id":"https://w3id.org/whg-epns/24/003900","type":"Feature","properties":{"title":"Broughton Poggs","ccodes":["GB"],"fclasses":["A","P"]},"names":[{"toponym":"Broughton Poggs","lang":"en","citations":[{"label":"English Place-Name Society survey, volume 24: Oxfordshire"}]},{"toponym":"Brotone","citations":[{"label":"1086 DB","year":1086}],"when":{"timespans":[{"start":{"in":"1086"},"end":{"in":"1086"}}]}},{"toponym":"Broctona","citations":[{"label":"1192–1236, recurring Eynsh","year":1192},{"label":"1192–1236, recurring Fees"},{"label":"1192 Eynsh","year":1192},{"label":"1236 Fees","year":1236}],"when":{"timespans":[{"start":{"in":"1192"},"end":{"in":"1236"}},{"start":{"in":"1192"},"end":{"in":"1192"}},{"start":{"in":"1236"},"end":{"in":"1236"}}]}},{"toponym":"Brocton', Broctun'","citations":[{"label":"1192-1236 unspecified sources","year":1192}],"when":{"timespans":[{"start":{"in":"1192"},"end":{"in":"1236"}}]}},{"toponym":"Brochton'","citations":[{"label":"1242-3 Fees","year":1242},{"label":"1268 Ass","year":1268}],"when":{"timespans":[{"start":{"earliest":"1242","latest":"1243"},"end":{"earliest":"1242","latest":"1243"}},{"start":{"in":"1268"},"end":{"in":"1268"}}]}},{"toponym":"Braxston'","citations":[{"label":"1246-7 Ass","year":1246}],"when":{"timespans":[{"start":{"earliest":"1246","latest":"1247"},"end":{"earliest":"1246","latest":"1247"}}]}},{"toponym":"Burthon'","citations":[{"label":"1246-7 Ass","year":1246}],"when":{"timespans":[{"start":{"earliest":"1246","latest":"1247"},"end":{"earliest":"1246","latest":"1247"}}]}},{"toponym":"Brouctone","citations":[{"label":"1254 Eynsh","year":1254}],"when":{"timespans":[{"start":{"in":"1254"},"end":{"in":"1254"}}]}},{"toponym":"Brouton'","citations":[{"label":"1268 Ass","year":1268}],"when":{"timespans":[{"start":{"in":"1268"},"end":{"in":"1268"}}]}},{"toponym":"Brouton","citations":[{"label":"1278-9 RH","year":1278}],"when":{"timespans":[{"start":{"earliest":"1278","latest":"1279"},"end":{"earliest":"1278","latest":"1279"}}]}},{"toponym":"Brouthton","citations":[{"label":"1303 Ipm","year":1303}],"when":{"timespans":[{"start":{"in":"1303"},"end":{"in":"1303"}}]}},{"toponym":"Broghton","citations":[{"label":"1316 FA","year":1316},{"label":"1345 Ch","year":1345},{"label":"1347 Cl","year":1347}],"when":{"timespans":[{"start":{"in":"1316"},"end":{"in":"1316"}},{"start":{"in":"1345"},"end":{"in":"1345"}},{"start":{"in":"1347"},"end":{"in":"1347"}}]}},{"toponym":"Broughton","citations":[{"label":"1330 FA","year":1330}],"when":{"timespans":[{"start":{"in":"1330"},"end":{"in":"1330"}}]}},{"toponym":"Broughton Maulditz","citations":[{"label":"1401-2 FA","year":1401}],"when":{"timespans":[{"start":{"earliest":"1401","latest":"1402"},"end":{"earliest":"1401","latest":"1402"}}]}},{"toponym":"Broughton Pouges","citations":[{"label":"1526 LS","year":1526}],"when":{"timespans":[{"start":{"in":"1526"},"end":{"in":"1526"}}]}},{"toponym":"Brouztone Mauduyt","citations":[{"label":"1347 Cl","year":1347}],"when":{"timespans":[{"start":{"in":"1347"},"end":{"in":"1347"}}]}}],"types":[{"identifier":"http://vocab.getty.edu/aat/300232418","label":"administrative division","sourceLabels":[{"label":"township","lang":"en"}]}],"geometry":{"type":"GeometryCollection","geometries":[{"type":"Point","coordinates":[-1.659702205128655,51.72926649614308],"citations":[{"label":"Unlock (EDINA) gazetteer, gazetteer record unlock:11089783"}]},{"type":"Point","coordinates":[-1.66106,51.7387],"citations":[{"label":"Key to English Place-Names (KEPN), gazetteer record 3677"}]}]},"when":{"timespans":[{"start":{"in":"1086"},"end":{"in":"1526"}}]},"relations":[{"relationType":"gvp:broaderPartitive","relationTo":"https://w3id.org/whg-epns/24/003899","label":"within Broughton Poggs"}]}]}