{"@context":"https://raw.githubusercontent.com/LinkedPasts/linked-places-format/main/linkedplaces-context-v1.1.jsonld","type":"FeatureCollection","license":"Digitisation of English Placenames MADS data is licensed to Jisc by the English Place Names Society and released under a Creative Commons Attribution-NonCommercial 4.0 International License.","note":"LPF v1.3, lossy; derived from the PLATO record; plato_commit=ca0afadabec1e23a145c0b03df77e8f151f79832","features":[{"@id":"http://placenames.org.uk/id/placename/24/004761","type":"Feature","properties":{"title":"Holwell","ccodes":["GB"],"fclasses":["A","P"]},"names":[{"toponym":"Holwell","lang":"en","citations":[{"label":"English Place-Name Society survey, volume 24: Oxfordshire"}]},{"toponym":"Holewella","citations":[{"label":"1189 Ch","year":1189}],"when":{"timespans":[{"start":{"in":"1189"},"end":{"in":"1189"}}]}},{"toponym":"Holewell","citations":[{"label":"1335 Cl","year":1335},{"label":"1675 Ogilby","year":1675}],"when":{"timespans":[{"start":{"in":"1335"},"end":{"in":"1335"}},{"start":{"in":"1675"},"end":{"in":"1675"}}]}},{"toponym":"Holewelle","citations":[{"label":"1366 Ch","year":1366}],"when":{"timespans":[{"start":{"in":"1366"},"end":{"in":"1366"}}]}},{"toponym":"Haliwell'","citations":[{"label":"1222 Cl","year":1222}],"when":{"timespans":[{"start":{"in":"1222"},"end":{"in":"1222"}}]}},{"toponym":"Halywell","citations":[{"label":"1278-9 RH","year":1278}],"when":{"timespans":[{"start":{"earliest":"1278","latest":"1279"},"end":{"earliest":"1278","latest":"1279"}}]}},{"toponym":"Haliwell","citations":[{"label":"1278-9 RH","year":1278},{"label":"1354 Eynsh","year":1354}],"when":{"timespans":[{"start":{"earliest":"1278","latest":"1279"},"end":{"earliest":"1278","latest":"1279"}},{"start":{"in":"1354"},"end":{"in":"1354"}}]}},{"toponym":"Halewille","citations":[{"label":"1285 Ass","year":1285}],"when":{"timespans":[{"start":{"in":"1285"},"end":{"in":"1285"}}]}},{"toponym":"Halewell","citations":[{"label":"1316 Ipm","year":1316},{"label":"1316 FA","year":1316},{"label":"1340 Cl","year":1340},{"label":"1354 Ipm","year":1354}],"when":{"timespans":[{"start":{"in":"1316"},"end":{"in":"1316"}},{"start":{"in":"1316"},"end":{"in":"1316"}},{"start":{"in":"1340"},"end":{"in":"1340"}},{"start":{"in":"1354"},"end":{"in":"1354"}}]}},{"toponym":"Holwell","citations":[{"label":"1675 Ogilby","year":1675}],"when":{"timespans":[{"start":{"in":"1675"},"end":{"in":"1675"}}]}}],"types":[{"identifier":"http://vocab.getty.edu/aat/300232418","label":"administrative division","sourceLabels":[{"label":"township","lang":"en"}]}],"geometry":{"type":"GeometryCollection","geometries":[{"type":"Point","coordinates":[-1.66494,51.78005],"citations":[{"label":"GeoNames, gazetteer record geonames:2646691"}]},{"type":"Point","coordinates":[-1.659296439121448,51.78321823982194],"citations":[{"label":"Unlock (EDINA) gazetteer, gazetteer record unlock:11177963"}]},{"type":"Point","coordinates":[-1.66072,51.7837],"citations":[{"label":"Key to English Place-Names (KEPN), gazetteer record 3688"}]}]},"when":{"timespans":[{"start":{"in":"1189"},"end":{"in":"1675"}}]},"links":[{"type":"closeMatch","identifier":"https://sws.geonames.org/2646691/"}],"relations":[{"relationType":"gvp:broaderPartitive","relationTo":"http://placenames.org.uk/id/placename/24/004760","label":"within Holwell"}]}]}