{"@context":"https://raw.githubusercontent.com/LinkedPasts/linked-places-format/main/linkedplaces-context-v1.1.jsonld","type":"FeatureCollection","license":"Digitisation of English Placenames MADS data is licensed to Jisc by the English Place Names Society and released under a Creative Commons Attribution-NonCommercial 4.0 International License.","note":"LPF v1.3, lossy; derived from the PLATO record; plato_commit=fa0d247ccc0263f8f19c8d7cdcd163df96935d1e","features":[{"@id":"https://w3id.org/whg-epns/24/005082","type":"Feature","properties":{"title":"Upton","ccodes":["GB"],"fclasses":["A","P"]},"names":[{"toponym":"Upton","lang":"en","citations":[{"label":"English Place-Name Society survey, volume 24: Oxfordshire"}]},{"toponym":"Upeton'","citations":[{"label":"1200 Cur","year":1200}],"when":{"timespans":[{"start":{"in":"1200"},"end":{"in":"1200"}}]}},{"toponym":"Hupton'","citations":[{"label":"1200 Fine","year":1200}],"when":{"timespans":[{"start":{"in":"1200"},"end":{"in":"1200"}}]}},{"toponym":"Huptone","citations":[{"label":"1214 FF","year":1214}],"when":{"timespans":[{"start":{"in":"1214"},"end":{"in":"1214"}}]}},{"toponym":"Upton'","citations":[{"label":"NRS","year":1203},{"label":"1203 NRS","year":1203}],"when":{"timespans":[{"start":{"in":"1203"},"end":{"in":"1203"}},{"start":{"in":"1203"},"end":{"in":"1203"}}]}},{"toponym":"Upton(e)","citations":[{"label":"1203-1600 unspecified sources","year":1203}],"when":{"timespans":[{"start":{"in":"1203"},"end":{"in":"1600"}}]}},{"toponym":"Opton","citations":[{"label":"1295 Ipm","year":1295}],"when":{"timespans":[{"start":{"in":"1295"},"end":{"in":"1295"}}]}}],"types":[{"identifier":"http://vocab.getty.edu/aat/300232418","label":"administrative division","sourceLabels":[{"label":"township","lang":"en"}]}],"geometry":{"type":"GeometryCollection","geometries":[{"type":"Point","coordinates":[-1.64458669747253,51.81015097941504],"citations":[{"label":"Unlock (EDINA) gazetteer, gazetteer record unlock:11310736"}]},{"type":"Point","coordinates":[-1.64602,51.8106],"citations":[{"label":"Key to English Place-Names (KEPN), gazetteer record 3696"}]}]},"when":{"timespans":[{"start":{"in":"1200"},"end":{"in":"1600"}}]},"relations":[{"relationType":"gvp:broaderPartitive","relationTo":"https://w3id.org/whg-epns/24/005081","label":"within Upton and Signet"}]}]}