{"@context":"https://raw.githubusercontent.com/LinkedPasts/linked-places-format/main/linkedplaces-context-v1.1.jsonld","type":"FeatureCollection","license":"Digitisation of English Placenames MADS data is licensed to Jisc by the English Place Names Society and released under a Creative Commons Attribution-NonCommercial 4.0 International License.","note":"LPF v1.3, lossy; derived from the PLATO record; plato_commit=ca0afadabec1e23a145c0b03df77e8f151f79832","features":[{"@id":"http://placenames.org.uk/id/placename/24/008981","type":"Feature","properties":{"title":"North Newington","ccodes":["GB"],"fclasses":["A","P"]},"names":[{"toponym":"North Newington","lang":"en","citations":[{"label":"English Place-Name Society survey, volume 24: Oxfordshire"}]},{"toponym":"Neweton'","citations":[{"label":"1200 Cur","year":1200}],"when":{"timespans":[{"start":{"in":"1200"},"end":{"in":"1200"}},{"start":{"in":"1201"},"end":{"in":"1201"}}]}},{"toponym":"Northneweton'","citations":[{"label":"1268 Ass","year":1268}],"when":{"timespans":[{"start":{"in":"1268"},"end":{"in":"1268"}}]}},{"toponym":"Newinton'","citations":[{"label":"1200 Cur","year":1200},{"label":"1235-6 Fees","year":1235}],"when":{"timespans":[{"start":{"in":"1200"},"end":{"in":"1200"}},{"start":{"earliest":"1235","latest":"1236"},"end":{"earliest":"1235","latest":"1236"}}]}},{"toponym":"Neuinton'","citations":[{"label":"1203 Cur","year":1203}],"when":{"timespans":[{"start":{"in":"1203"},"end":{"in":"1203"}}]}},{"toponym":"Northnewynton","citations":[{"label":"1324 AD","year":1324}],"when":{"timespans":[{"start":{"in":"1324"},"end":{"in":"1324"}}]}},{"toponym":"Newenton'","citations":[{"label":"1204–1428, recurring Fine","year":1204},{"label":"1204–1428, recurring FA"},{"label":"1204 Fine","year":1204},{"label":"1428 FA","year":1428}],"when":{"timespans":[{"start":{"in":"1204"},"end":{"in":"1428"}},{"start":{"in":"1204"},"end":{"in":"1204"}},{"start":{"in":"1428"},"end":{"in":"1428"}}]}},{"toponym":"Newentun', Newentone","citations":[{"label":"1204-1428 unspecified sources","year":1204}],"when":{"timespans":[{"start":{"in":"1204"},"end":{"in":"1428"}}]}},{"toponym":"North Newenton'","citations":[{"label":"1299 Ch","year":1299},{"label":"1381 Cl","year":1381}],"when":{"timespans":[{"start":{"in":"1299"},"end":{"in":"1299"}},{"start":{"in":"1381"},"end":{"in":"1381"}}]}},{"toponym":"Northnewenton'","citations":[{"label":"1340 AD","year":1340},{"label":"1377 Cl","year":1377},{"label":"1402 Ch","year":1402}],"when":{"timespans":[{"start":{"in":"1340"},"end":{"in":"1340"}},{"start":{"in":"1377"},"end":{"in":"1377"}},{"start":{"in":"1385"},"end":{"in":"1385"}},{"start":{"in":"1402"},"end":{"in":"1402"}}]}},{"toponym":"Newnton'","citations":[{"label":"1428 FA","year":1428}],"when":{"timespans":[{"start":{"in":"1428"},"end":{"in":"1428"}}]}},{"toponym":"Niewenton'","citations":[{"label":"1204 P","year":1204}],"when":{"timespans":[{"start":{"in":"1204"},"end":{"in":"1204"}}]}},{"toponym":"Neuton'","citations":[{"label":"1204 Cur","year":1204},{"label":"1240-1 Ass","year":1240}],"when":{"timespans":[{"start":{"in":"1204"},"end":{"in":"1204"}},{"start":{"in":"1205"},"end":{"in":"1205"}},{"start":{"earliest":"1240","latest":"1241"},"end":{"earliest":"1240","latest":"1241"}}]}},{"toponym":"Neutone","citations":[{"label":"1220 FF","year":1220}],"when":{"timespans":[{"start":{"in":"1220"},"end":{"in":"1220"}}]}},{"toponym":"Neuton","citations":[{"label":"1401-2 FA","year":1401}],"when":{"timespans":[{"start":{"earliest":"1401","latest":"1402"},"end":{"earliest":"1401","latest":"1402"}}]}},{"toponym":"North Newton","citations":[{"label":"1675 Ogilby","year":1675}],"when":{"timespans":[{"start":{"in":"1675"},"end":{"in":"1675"}}]}}],"types":[{"identifier":"http://vocab.getty.edu/aat/300232418","label":"administrative division","sourceLabels":[{"label":"township","lang":"en"}]}],"geometry":{"type":"GeometryCollection","geometries":[{"type":"Point","coordinates":[-1.39422,52.05846],"citations":[{"label":"GeoNames, gazetteer record geonames:7296986"}]},{"type":"Point","coordinates":[-1.380143781314694,52.05183779351459],"citations":[{"label":"Unlock (EDINA) gazetteer, gazetteer record unlock:11232902"}]},{"type":"Point","coordinates":[-1.38161,52.0523],"citations":[{"label":"Key to English Place-Names (KEPN), gazetteer record 3743"}]}]},"when":{"timespans":[{"start":{"in":"1200"},"end":{"in":"1675"}}]},"links":[{"type":"closeMatch","identifier":"https://sws.geonames.org/7296986/"}],"relations":[{"relationType":"gvp:broaderPartitive","relationTo":"http://placenames.org.uk/id/placename/24/008980","label":"within North Newington"}]}]}