{"@context":"https://raw.githubusercontent.com/LinkedPasts/linked-places-format/main/linkedplaces-context-v1.1.jsonld","type":"FeatureCollection","license":"Digitisation of English Placenames MADS data is licensed to Jisc by the English Place Names Society and released under a Creative Commons Attribution-NonCommercial 4.0 International License.","note":"LPF v1.3, lossy; derived from the PLATO record; plato_commit=fa0d247ccc0263f8f19c8d7cdcd163df96935d1e","features":[{"@id":"https://w3id.org/whg-epns/24/009787","type":"Feature","properties":{"title":"Great Bourton","ccodes":["GB"],"fclasses":["A","P"]},"names":[{"toponym":"Great Bourton","lang":"en","citations":[{"label":"English Place-Name Society survey, volume 24: Oxfordshire"}]},{"toponym":"Burton'","citations":[{"label":"1209-12 Fees","year":1209}],"when":{"timespans":[{"start":{"earliest":"1209","latest":"1212"},"end":{"earliest":"1209","latest":"1212"}},{"start":{"earliest":"1208","latest":"1213"},"end":{"earliest":"1208","latest":"1213"}}]}},{"toponym":"Magna Burton'","citations":[{"label":"c. 1265 RegAntiquiss","year":1255}],"when":{"timespans":[{"start":{"earliest":"1255","latest":"1275"},"end":{"earliest":"1255","latest":"1275"}}]}},{"toponym":"Burtona major","citations":[{"label":"1278-9 RH","year":1278}],"when":{"timespans":[{"start":{"earliest":"1278","latest":"1279"},"end":{"earliest":"1278","latest":"1279"}}]}},{"toponym":"Mucheleburton","citations":[{"label":"1323 Ipm","year":1323}],"when":{"timespans":[{"start":{"in":"1323"},"end":{"in":"1323"}}]}},{"toponym":"Magna Burton","citations":[{"label":"1328 FA","year":1328}],"when":{"timespans":[{"start":{"in":"1328"},"end":{"in":"1328"}},{"start":{"in":"1346"},"end":{"in":"1346"}}]}},{"toponym":"Bortone, Bordene","citations":[{"label":"1285 Ass","year":1285}],"when":{"timespans":[{"start":{"in":"1285"},"end":{"in":"1285"}}]}},{"toponym":"Bourton Magna","citations":[{"label":"1316 FA","year":1316}],"when":{"timespans":[{"start":{"in":"1316"},"end":{"in":"1316"}}]}}],"types":[{"identifier":"http://vocab.getty.edu/aat/300232418","label":"administrative division","sourceLabels":[{"label":"township","lang":"en"}]}],"geometry":{"type":"GeometryCollection","geometries":[{"type":"Point","coordinates":[-1.335591818982802,52.10554565975698],"citations":[{"label":"Unlock (EDINA) gazetteer, gazetteer record unlock:11158504"}]},{"type":"Point","coordinates":[-1.35167,52.1061],"citations":[{"label":"Key to English Place-Names (KEPN), gazetteer record 3751"}]}]},"when":{"timespans":[{"start":{"in":"1208"},"end":{"in":"1346"}}]},"relations":[{"relationType":"gvp:broaderPartitive","relationTo":"https://w3id.org/whg-epns/24/009786","label":"within Bourton"}]}]}