{"@context":"https://raw.githubusercontent.com/LinkedPasts/linked-places-format/main/linkedplaces-context-v1.1.jsonld","type":"FeatureCollection","license":"Digitisation of English Placenames MADS data is licensed to Jisc by the English Place Names Society and released under a Creative Commons Attribution-NonCommercial 4.0 International License.","note":"LPF v1.3, lossy; derived from the PLATO record; plato_commit=fa0d247ccc0263f8f19c8d7cdcd163df96935d1e","features":[{"@id":"https://w3id.org/whg-epns/24/010064","type":"Feature","properties":{"title":"Cropredy","ccodes":["GB"],"fclasses":["A","P"]},"names":[{"toponym":"Cropredy","lang":"en","citations":[{"label":"English Place-Name Society survey, volume 24: Oxfordshire"}]},{"toponym":"Cropelie","citations":[{"label":"1086 DB","year":1086}],"when":{"timespans":[{"start":{"in":"1086"},"end":{"in":"1086"}}]}},{"toponym":"Cropperi(a)","citations":[{"label":"Eynsh","year":1109},{"label":"Cl"},{"label":"1109 Eynsh","year":1109},{"label":"1367 Cl","year":1367}],"when":{"timespans":[{"start":{"in":"1109"},"end":{"in":"1367"}},{"start":{"in":"1109"},"end":{"in":"1109"}},{"start":{"in":"1367"},"end":{"in":"1367"}}]}},{"toponym":"Cropper', Croppery, Cropperie, Cropperey(e), Cropperri","citations":[{"label":"1109-1367 unspecified sources","year":1109}],"when":{"timespans":[{"start":{"in":"1109"},"end":{"in":"1367"}}]}},{"toponym":"Croperia","citations":[{"label":"Eynsh","year":1159},{"label":"Eynsh"},{"label":"1159-62 Eynsh","year":1159},{"label":"1390 Eynsh","year":1390}],"when":{"timespans":[{"start":{"in":"1159"},"end":{"in":"1390"}},{"start":{"earliest":"1159","latest":"1162"},"end":{"earliest":"1159","latest":"1162"}},{"start":{"in":"1390"},"end":{"in":"1390"}}]}},{"toponym":"Croperi(e), Croper(y)e, Croper'","citations":[{"label":"1159-1390 unspecified sources","year":1159}],"when":{"timespans":[{"start":{"in":"1159"},"end":{"in":"1390"}}]}},{"toponym":"Cropri","citations":[{"label":"c. 1180 Madox","year":1170},{"label":"1285 Ass","year":1285}],"when":{"timespans":[{"start":{"earliest":"1170","latest":"1190"},"end":{"earliest":"1170","latest":"1190"}},{"start":{"in":"1285"},"end":{"in":"1285"}}]}},{"toponym":"Cropry","citations":[{"label":"1285 Ass","year":1285}],"when":{"timespans":[{"start":{"in":"1285"},"end":{"in":"1285"}}]}},{"toponym":"Cropprye","citations":[{"label":"1297 Cl","year":1297}],"when":{"timespans":[{"start":{"in":"1297"},"end":{"in":"1297"}}]}},{"toponym":"Coppri","citations":[{"label":"early 13th AD","year":1200}],"when":{"timespans":[{"start":{"earliest":"1200","latest":"1225"},"end":{"earliest":"1200","latest":"1225"}}]}},{"toponym":"Croprithi","citations":[{"label":"c. 1275 Godstow","year":1265}],"when":{"timespans":[{"start":{"earliest":"1265","latest":"1285"},"end":{"earliest":"1265","latest":"1285"}}]}},{"toponym":"Crorpery","citations":[{"label":"1285 Ass","year":1285}],"when":{"timespans":[{"start":{"in":"1285"},"end":{"in":"1285"}}]}},{"toponym":"Cropurthe","citations":[{"label":"1316 FA","year":1316}],"when":{"timespans":[{"start":{"in":"1316"},"end":{"in":"1316"}}]}},{"toponym":"Cropredy","citations":[{"label":"1390 Eynsh","year":1390}],"when":{"timespans":[{"start":{"in":"1390"},"end":{"in":"1390"}}]}},{"toponym":"Croppridy","citations":[{"label":"1428 FA","year":1428}],"when":{"timespans":[{"start":{"in":"1428"},"end":{"in":"1428"}}]}},{"toponym":"Cropridy","citations":[{"label":"1449 Eynsh","year":1449}],"when":{"timespans":[{"start":{"in":"1449"},"end":{"in":"1449"}}]}},{"toponym":"Croprydy al. Cropprydy","citations":[{"label":"1472 BM","year":1472}],"when":{"timespans":[{"start":{"in":"1472"},"end":{"in":"1472"}}]}},{"toponym":"Croperedy","citations":[{"label":"1526 LS","year":1526}],"when":{"timespans":[{"start":{"in":"1526"},"end":{"in":"1526"}}]}},{"toponym":"Cropredy otherwise Croperdy","citations":[{"label":"1777 Loveday","year":1777}],"when":{"timespans":[{"start":{"in":"1777"},"end":{"in":"1777"}}]}},{"toponym":"Cropedy","citations":[{"label":"1783 Loveday","year":1783}],"when":{"timespans":[{"start":{"in":"1783"},"end":{"in":"1783"}}]}}],"types":[{"identifier":"http://vocab.getty.edu/aat/300232418","label":"administrative division","sourceLabels":[{"label":"township","lang":"en"}]}],"geometry":{"type":"GeometryCollection","geometries":[{"type":"Point","coordinates":[-1.31764,52.11745],"citations":[{"label":"GeoNames, gazetteer record geonames:2651898"}]},{"type":"Point","coordinates":[-1.320853945034633,52.11445341825902],"citations":[{"label":"Unlock (EDINA) gazetteer, gazetteer record unlock:11122771"}]},{"type":"Point","coordinates":[-1.32233,52.1149],"citations":[{"label":"Key to English Place-Names (KEPN), gazetteer record 3754"}]}]},"when":{"timespans":[{"start":{"in":"1086"},"end":{"in":"1783"}}]},"links":[{"type":"closeMatch","identifier":"https://sws.geonames.org/2651898/"}],"relations":[{"relationType":"gvp:broaderPartitive","relationTo":"https://w3id.org/whg-epns/24/010063","label":"within Cropredy"}]}]}