{"@context":"https://raw.githubusercontent.com/LinkedPasts/linked-places-format/main/linkedplaces-context-v1.1.jsonld","type":"FeatureCollection","license":"Digitisation of English Placenames MADS data is licensed to Jisc by the English Place Names Society and released under a Creative Commons Attribution-NonCommercial 4.0 International License.","note":"LPF v1.3, lossy; derived from the PLATO record; plato_commit=ca0afadabec1e23a145c0b03df77e8f151f79832","features":[{"@id":"https://w3id.org/whg-epns/24/010173","type":"Feature","properties":{"title":"Fawler","ccodes":["GB"],"fclasses":["A","P"]},"names":[{"toponym":"Fawler","lang":"en","citations":[{"label":"English Place-Name Society survey, volume 24: Oxfordshire"}]},{"toponym":"Fauflor","citations":[{"label":"1205–1251, recurring OblR","year":1205},{"label":"1205–1251, recurring Eynsh"},{"label":"1205 OblR","year":1205},{"label":"1251 Eynsh","year":1251}],"when":{"timespans":[{"start":{"in":"1205"},"end":{"in":"1251"}},{"start":{"in":"1205"},"end":{"in":"1205"}},{"start":{"in":"1251"},"end":{"in":"1251"}}]}},{"toponym":"Fauflore, Fauflur","citations":[{"label":"1205-1251 unspecified sources","year":1205}],"when":{"timespans":[{"start":{"in":"1205"},"end":{"in":"1251"}}]}},{"toponym":"Fauylor","citations":[{"label":"1213-28 Eynsh","year":1213}],"when":{"timespans":[{"start":{"earliest":"1213","latest":"1228"},"end":{"earliest":"1213","latest":"1228"}}]}},{"toponym":"Fauilore","citations":[{"label":"c. 1230 Frid","year":1220}],"when":{"timespans":[{"start":{"earliest":"1220","latest":"1240"},"end":{"earliest":"1220","latest":"1240"}}]}},{"toponym":"Faulore","citations":[{"label":"c. 1230 AD","year":1220},{"label":"1349 Cl","year":1349},{"label":"1385 Eynsh","year":1385},{"label":"1428 FA","year":1428}],"when":{"timespans":[{"start":{"earliest":"1220","latest":"1240"},"end":{"earliest":"1220","latest":"1240"}},{"start":{"in":"1349"},"end":{"in":"1349"}},{"start":{"in":"1385"},"end":{"in":"1385"}},{"start":{"in":"1390"},"end":{"in":"1390"}},{"start":{"in":"1428"},"end":{"in":"1428"}}]}},{"toponym":"Fauelore","citations":[{"label":"1220–1428, recurring Frid","year":1220},{"label":"1220–1428, recurring FA"},{"label":"c. 1230 Frid","year":1220},{"label":"1428 FA","year":1428}],"when":{"timespans":[{"start":{"in":"1220"},"end":{"in":"1428"}},{"start":{"earliest":"1220","latest":"1240"},"end":{"earliest":"1220","latest":"1240"}},{"start":{"in":"1428"},"end":{"in":"1428"}}]}},{"toponym":"Fauelor","citations":[{"label":"c. 1230-1428 unspecified sources","year":1220}],"when":{"timespans":[{"start":{"in":"1220"},"end":{"in":"1428"}}]}},{"toponym":"Fauelaure","citations":[{"label":"1428 FA","year":1428}],"when":{"timespans":[{"start":{"in":"1428"},"end":{"in":"1428"}}]}},{"toponym":"Fan(n)eflur","citations":[{"label":"1268 Ass","year":1268}],"when":{"timespans":[{"start":{"in":"1268"},"end":{"in":"1268"}}]}},{"toponym":"Faneflore","citations":[{"label":"1278-9 RH","year":1278}],"when":{"timespans":[{"start":{"earliest":"1278","latest":"1279"},"end":{"earliest":"1278","latest":"1279"}}]}},{"toponym":"Favelore","citations":[{"label":"1275 Cl","year":1275}],"when":{"timespans":[{"start":{"in":"1275"},"end":{"in":"1275"}}]}}],"types":[{"identifier":"http://vocab.getty.edu/aat/300232418","label":"administrative division","sourceLabels":[{"label":"township","lang":"en"}]}],"geometry":{"type":"GeometryCollection","geometries":[{"type":"Point","coordinates":[-1.45473,51.85521],"citations":[{"label":"GeoNames, gazetteer record geonames:7292160"}]},{"type":"Point","coordinates":[-1.455465679291473,51.85438783919971],"citations":[{"label":"Unlock (EDINA) gazetteer, gazetteer record unlock:11142517"}]},{"type":"Point","coordinates":[-1.45692,51.8548],"citations":[{"label":"Key to English Place-Names (KEPN), gazetteer record 3756"}]}]},"when":{"timespans":[{"start":{"in":"1205"},"end":{"in":"1428"}}]},"links":[{"type":"closeMatch","identifier":"https://sws.geonames.org/7292160/"}],"relations":[{"relationType":"gvp:broaderPartitive","relationTo":"https://w3id.org/whg-epns/24/010172","label":"within Fawler"}]}]}