{"@context":"https://raw.githubusercontent.com/LinkedPasts/linked-places-format/main/linkedplaces-context-v1.1.jsonld","type":"FeatureCollection","license":"Digitisation of English Placenames MADS data is licensed to Jisc by the English Place Names Society and released under a Creative Commons Attribution-NonCommercial 4.0 International License.","note":"LPF v1.3, lossy; derived from the PLATO record; plato_commit=ca0afadabec1e23a145c0b03df77e8f151f79832","features":[{"@id":"https://w3id.org/whg-epns/78/000264","type":"Feature","properties":{"title":"Harston","ccodes":["GB"],"fclasses":["A","P"]},"names":[{"toponym":"Harston","lang":"en","citations":[{"label":"English Place-Name Society survey, volume 78: Leicestershire"}]},{"toponym":"Herstan","citations":[{"label":"1086 DB","year":1086}],"when":{"timespans":[{"start":{"in":"1086"},"end":{"in":"1086"}}]}},{"toponym":"Herston","citations":[{"label":"1428 FA","year":1428},{"label":"1498 Cl","year":1498}],"when":{"timespans":[{"start":{"in":"1428"},"end":{"in":"1428"}},{"start":{"in":"1498"},"end":{"in":"1498"}}]}},{"toponym":"Harestan","citations":[{"label":"c.1130 LeicSurv","year":1120},{"label":"1156 Ch","year":1156},{"label":"1180 ChancR","year":1180},{"label":"1191–1225, recurring P","year":1191},{"label":"1191–1225, recurring Rut"},{"label":"1191 P","year":1191},{"label":"e.13 Rut","year":1200},{"label":"1223–1276, recurring RHug","year":1223},{"label":"1223–1276, recurring RH"},{"label":"1223 RHug","year":1223},{"label":"1276 RH","year":1276},{"label":"Edw 1 CroxR","year":1272}],"when":{"timespans":[{"start":{"earliest":"1120","latest":"1140"},"end":{"earliest":"1120","latest":"1140"}},{"start":{"in":"1156"},"end":{"in":"1156"}},{"start":{"in":"1180"},"end":{"in":"1180"}},{"start":{"in":"1191"},"end":{"in":"1225"}},{"start":{"in":"1191"},"end":{"in":"1191"}},{"start":{"earliest":"1200","latest":"1225"},"end":{"earliest":"1200","latest":"1225"}},{"start":{"in":"1223"},"end":{"in":"1276"}},{"start":{"in":"1223"},"end":{"in":"1223"}},{"start":{"in":"1276"},"end":{"in":"1276"}},{"start":{"earliest":"1272","latest":"1307"},"end":{"earliest":"1272","latest":"1307"}}]}},{"toponym":"Harestane","citations":[{"label":"1212 RBE","year":1212}],"when":{"timespans":[{"start":{"in":"1212"},"end":{"in":"1212"}}]}},{"toponym":"Harastan","citations":[{"label":"c.1270 WoCart","year":1260},{"label":"1290 Ch","year":1290}],"when":{"timespans":[{"start":{"earliest":"1260","latest":"1280"},"end":{"earliest":"1260","latest":"1280"}},{"start":{"in":"1290"},"end":{"in":"1290"}}]}},{"toponym":"Harestun","citations":[{"label":"c.1155 Rut","year":1145}],"when":{"timespans":[{"start":{"earliest":"1145","latest":"1165"},"end":{"earliest":"1145","latest":"1165"}}]}},{"toponym":"Harestuna","citations":[{"label":"12 BelCartB","year":1100}],"when":{"timespans":[{"start":{"earliest":"1100","latest":"1200"},"end":{"earliest":"1100","latest":"1200"}}]}},{"toponym":"Hareston'","citations":[{"label":"1180 P","year":1180},{"label":"1197–1369, recurring P","year":1197},{"label":"1197–1369, recurring Rut"},{"label":"1197 P","year":1197},{"label":"1369 Rut","year":1369},{"label":"1396 BelCartB","year":1396},{"label":"1535 VE","year":1535}],"when":{"timespans":[{"start":{"in":"1180"},"end":{"in":"1180"}},{"start":{"in":"1197"},"end":{"in":"1369"}},{"start":{"in":"1197"},"end":{"in":"1197"}},{"start":{"in":"1369"},"end":{"in":"1369"}},{"start":{"in":"1396"},"end":{"in":"1396"}},{"start":{"in":"1407"},"end":{"in":"1407"}},{"start":{"in":"1535"},"end":{"in":"1535"}}]}},{"toponym":"Harstan","citations":[{"label":"1195 P","year":1195},{"label":"1205 Fine","year":1205},{"label":"1200–1321, recurring Rut","year":1200},{"label":"1200–1321, recurring Rut"},{"label":"e.13 Rut","year":1200},{"label":"1321 Rut","year":1321},{"label":"1322 Rut","year":1322},{"label":"1347 Rut","year":1347}],"when":{"timespans":[{"start":{"in":"1195"},"end":{"in":"1195"}},{"start":{"in":"1205"},"end":{"in":"1205"}},{"start":{"in":"1200"},"end":{"in":"1321"}},{"start":{"earliest":"1200","latest":"1225"},"end":{"earliest":"1200","latest":"1225"}},{"start":{"in":"1321"},"end":{"in":"1321"}},{"start":{"in":"1322"},"end":{"in":"1322"}},{"start":{"in":"1347"},"end":{"in":"1347"}}]}},{"toponym":"Harstane","citations":[{"label":"e.14 BelCartA","year":1300}],"when":{"timespans":[{"start":{"earliest":"1300","latest":"1325"},"end":{"earliest":"1300","latest":"1325"}}]}},{"toponym":"Harstuna","citations":[{"label":"Hy 1 Ch","year":1100},{"label":"Hy 2 BelCartB","year":1154}],"when":{"timespans":[{"start":{"earliest":"1100","latest":"1135"},"end":{"earliest":"1100","latest":"1135"}},{"start":{"earliest":"1154","latest":"1189"},"end":{"earliest":"1154","latest":"1189"}}]}},{"toponym":"Harstona","citations":[{"label":"Hy 3 Rut","year":1216},{"label":"1472 Derby","year":1472},{"label":"1577 LEpis","year":1577}],"when":{"timespans":[{"start":{"earliest":"1216","latest":"1272"},"end":{"earliest":"1216","latest":"1272"}},{"start":{"in":"1472"},"end":{"in":"1472"}},{"start":{"in":"1577"},"end":{"in":"1577"}}]}},{"toponym":"Harston","citations":[{"label":"1253 × 58 RHug","year":1253},{"label":"Edw 1 Rut","year":1272},{"label":"1316–1360, recurring FA","year":1316},{"label":"1316–1360, recurring WoCart"},{"label":"1316 FA","year":1316},{"label":"1360 WoCart","year":1360},{"label":"1369–1369, recurring Rut","year":1369},{"label":"1369 Rut","year":1369}],"when":{"timespans":[{"start":{"earliest":"1253","latest":"1258"},"end":{"earliest":"1253","latest":"1258"}},{"start":{"earliest":"1272","latest":"1307"},"end":{"earliest":"1272","latest":"1307"}},{"start":{"in":"1316"},"end":{"in":"1360"}},{"start":{"in":"1316"},"end":{"in":"1316"}},{"start":{"in":"1360"},"end":{"in":"1360"}},{"start":{"in":"1369"},"end":{"in":"1369"}},{"start":{"in":"1369"},"end":{"in":"1369"}}]}}],"types":[{"identifier":"http://vocab.getty.edu/aat/300232418","label":"administrative division","sourceLabels":[{"label":"township","lang":"en"}]}],"geometry":{"type":"GeometryCollection","geometries":[{"type":"Point","coordinates":[-0.7592390158332706,52.8741614171741],"citations":[{"label":"Unlock (EDINA) gazetteer, gazetteer record unlock:11166602"}]},{"type":"Point","coordinates":[-0.745961,52.8743],"citations":[{"label":"Key to English Place-Names (KEPN), gazetteer record 8959"}]}]},"when":{"timespans":[{"start":{"in":"1086"},"end":{"in":"1577"}}]},"relations":[{"relationType":"gvp:broaderPartitive","relationTo":"https://w3id.org/whg-epns/78/000022","label":"within Belvoir"}]}]}