{"@context":"https://raw.githubusercontent.com/LinkedPasts/linked-places-format/main/linkedplaces-context-v1.1.jsonld","type":"FeatureCollection","license":"Digitisation of English Placenames MADS data is licensed to Jisc by the English Place Names Society and released under a Creative Commons Attribution-NonCommercial 4.0 International License.","note":"LPF v1.3, lossy; derived from the PLATO record; plato_commit=ca0afadabec1e23a145c0b03df77e8f151f79832","features":[{"@id":"http://placenames.org.uk/id/placename/78/005574","type":"Feature","properties":{"title":"Croxton Kerrial","ccodes":["GB"],"fclasses":["A","P"]},"names":[{"toponym":"Croxton Kerrial","lang":"en","citations":[{"label":"English Place-Name Society survey, volume 78: Leicestershire"}]}],"types":[{"identifier":"http://vocab.getty.edu/aat/300232418","label":"administrative division","sourceLabels":[{"label":"parish","lang":"en"}]}],"geometry":{"type":"GeometryCollection","geometries":[{"type":"Point","coordinates":[-0.76115,52.85524],"citations":[{"label":"GeoNames, gazetteer record geonames:2651820"}]},{"type":"Point","coordinates":[-0.7597518196179882,52.85618478627404],"citations":[{"label":"Unlock (EDINA) gazetteer, gazetteer record unlock:11123727"}]},{"type":"Point","coordinates":[-0.761327,52.8565],"citations":[{"label":"Key to English Place-Names (KEPN), gazetteer record 8735"}]}]},"links":[{"type":"closeMatch","identifier":"https://sws.geonames.org/2651820/"}],"relations":[{"relationType":"gvp:broaderPartitive","relationTo":"http://placenames.org.uk/id/placename/78/000002","label":"within Framland Hundred"}]}]}