{"@context":"https://raw.githubusercontent.com/LinkedPasts/linked-places-format/main/linkedplaces-context-v1.1.jsonld","type":"FeatureCollection","license":"Digitisation of English Placenames MADS data is licensed to Jisc by the English Place Names Society and released under a Creative Commons Attribution-NonCommercial 4.0 International License.","note":"LPF v1.3, lossy; derived from the PLATO record; plato_commit=fa0d247ccc0263f8f19c8d7cdcd163df96935d1e","features":[{"@id":"https://w3id.org/whg-epns/78/014201","type":"Feature","properties":{"title":"Stathern","ccodes":["GB"],"fclasses":["A","P"]},"names":[{"toponym":"Stathern","lang":"en","citations":[{"label":"English Place-Name Society survey, volume 78: Leicestershire"}]}],"types":[{"identifier":"http://vocab.getty.edu/aat/300232418","label":"administrative division","sourceLabels":[{"label":"parish","lang":"en"}]}],"geometry":{"type":"GeometryCollection","geometries":[{"type":"Point","coordinates":[-0.85522,52.87203],"citations":[{"label":"GeoNames, gazetteer record geonames:2637002"}]},{"type":"Point","coordinates":[-0.8483750843807822,52.8750592774806],"citations":[{"label":"Unlock (EDINA) gazetteer, gazetteer record unlock:11291513"}]},{"type":"Point","coordinates":[-0.849941,52.8754],"citations":[{"label":"Key to English Place-Names (KEPN), gazetteer record 8746"}]}]},"links":[{"type":"closeMatch","identifier":"https://sws.geonames.org/2637002/"}],"relations":[{"relationType":"gvp:broaderPartitive","relationTo":"https://w3id.org/whg-epns/78/000002","label":"within Framland Hundred"}]}]}